<?xml version="1.0" encoding="UTF-8"?>
<gpx version="1.1" creator="catrun" xmlns="http://www.topografix.com/GPX/1/1">
<metadata><name>北屯區 手繪蹲坐貓（原稿描圖） 圖形路跑路線</name></metadata>
<wpt lat="24.167308" lon="120.678885"><name>賴明公園</name><desc>地標</desc></wpt>
<wpt lat="24.170910" lon="120.676066"><name>山西公園</name><desc>地標</desc></wpt>
<wpt lat="24.170207" lon="120.678975"><name>梅川公園</name><desc>地標</desc></wpt>
<trk><name>北屯區 手繪蹲坐貓（原稿描圖） 圖形路跑路線</name><trkseg>
<trkpt lat="24.160390" lon="120.677472"/>
<trkpt lat="24.160407" lon="120.676600"/>
<trkpt lat="24.160411" lon="120.676341"/>
<trkpt lat="24.160414" lon="120.675985"/>
<trkpt lat="24.161085" lon="120.675947"/>
<trkpt lat="24.161257" lon="120.675919"/>
<trkpt lat="24.161385" lon="120.675878"/>
<trkpt lat="24.161511" lon="120.676017"/>
<trkpt lat="24.161698" lon="120.676162"/>
<trkpt lat="24.161898" lon="120.676296"/>
<trkpt lat="24.162096" lon="120.676463"/>
<trkpt lat="24.163023" lon="120.676533"/>
<trkpt lat="24.163151" lon="120.676542"/>
<trkpt lat="24.163155" lon="120.676399"/>
<trkpt lat="24.163247" lon="120.676401"/>
<trkpt lat="24.163240" lon="120.676554"/>
<trkpt lat="24.163315" lon="120.676565"/>
<trkpt lat="24.163384" lon="120.676566"/>
<trkpt lat="24.163559" lon="120.676590"/>
<trkpt lat="24.163652" lon="120.676598"/>
<trkpt lat="24.163815" lon="120.676616"/>
<trkpt lat="24.164331" lon="120.676659"/>
<trkpt lat="24.164536" lon="120.676680"/>
<trkpt lat="24.164806" lon="120.676764"/>
<trkpt lat="24.165112" lon="120.676889"/>
<trkpt lat="24.165173" lon="120.676914"/>
<trkpt lat="24.165440" lon="120.677008"/>
<trkpt lat="24.165442" lon="120.676915"/>
<trkpt lat="24.165520" lon="120.676961"/>
<trkpt lat="24.165531" lon="120.677043"/>
<trkpt lat="24.165822" lon="120.677155"/>
<trkpt lat="24.166010" lon="120.677233"/>
<trkpt lat="24.166239" lon="120.677349"/>
<trkpt lat="24.166384" lon="120.677463"/>
<trkpt lat="24.166419" lon="120.677489"/>
<trkpt lat="24.166599" lon="120.677205"/>
<trkpt lat="24.166580" lon="120.676419"/>
<trkpt lat="24.167005" lon="120.676553"/>
<trkpt lat="24.167007" lon="120.676613"/>
<trkpt lat="24.167251" lon="120.676635"/>
<trkpt lat="24.167540" lon="120.676664"/>
<trkpt lat="24.167831" lon="120.676699"/>
<trkpt lat="24.167852" lon="120.676490"/>
<trkpt lat="24.168146" lon="120.675596"/>
<trkpt lat="24.168279" lon="120.675644"/>
<trkpt lat="24.168683" lon="120.675690"/>
<trkpt lat="24.168664" lon="120.674853"/>
<trkpt lat="24.168854" lon="120.674293"/>
<trkpt lat="24.169171" lon="120.674305"/>
<trkpt lat="24.169330" lon="120.674311"/>
<trkpt lat="24.169491" lon="120.674318"/>
<trkpt lat="24.170043" lon="120.674371"/>
<trkpt lat="24.170472" lon="120.674364"/>
<trkpt lat="24.170772" lon="120.674382"/>
<trkpt lat="24.171085" lon="120.674394"/>
<trkpt lat="24.171553" lon="120.674414"/>
<trkpt lat="24.171493" lon="120.675174"/>
<trkpt lat="24.171457" lon="120.675818"/>
<trkpt lat="24.171534" lon="120.675826"/>
<trkpt lat="24.171527" lon="120.675910"/>
<trkpt lat="24.172277" lon="120.675989"/>
<trkpt lat="24.172448" lon="120.676007"/>
<trkpt lat="24.172375" lon="120.675130"/>
<trkpt lat="24.173058" lon="120.675094"/>
<trkpt lat="24.173545" lon="120.675074"/>
<trkpt lat="24.173534" lon="120.675122"/>
<trkpt lat="24.173378" lon="120.675971"/>
<trkpt lat="24.173339" lon="120.676030"/>
<trkpt lat="24.173315" lon="120.676044"/>
<trkpt lat="24.173305" lon="120.676117"/>
<trkpt lat="24.172898" lon="120.676070"/>
<trkpt lat="24.172729" lon="120.677191"/>
<trkpt lat="24.172380" lon="120.677135"/>
<trkpt lat="24.172373" lon="120.677195"/>
<trkpt lat="24.172314" lon="120.677186"/>
<trkpt lat="24.172249" lon="120.677812"/>
<trkpt lat="24.172182" lon="120.678502"/>
<trkpt lat="24.172100" lon="120.679218"/>
<trkpt lat="24.172051" lon="120.679210"/>
<trkpt lat="24.172040" lon="120.679293"/>
<trkpt lat="24.171665" lon="120.679218"/>
<trkpt lat="24.171332" lon="120.679132"/>
<trkpt lat="24.171344" lon="120.679026"/>
<trkpt lat="24.171254" lon="120.679018"/>
<trkpt lat="24.171248" lon="120.679110"/>
<trkpt lat="24.171243" lon="120.679201"/>
<trkpt lat="24.171237" lon="120.679299"/>
<trkpt lat="24.171235" lon="120.679360"/>
<trkpt lat="24.171177" lon="120.679355"/>
<trkpt lat="24.170928" lon="120.679333"/>
<trkpt lat="24.170804" lon="120.679337"/>
<trkpt lat="24.170506" lon="120.679401"/>
<trkpt lat="24.170485" lon="120.680456"/>
<trkpt lat="24.170117" lon="120.680432"/>
<trkpt lat="24.169829" lon="120.680431"/>
<trkpt lat="24.169823" lon="120.680511"/>
<trkpt lat="24.169736" lon="120.680503"/>
<trkpt lat="24.169728" lon="120.680679"/>
<trkpt lat="24.169708" lon="120.681188"/>
<trkpt lat="24.169704" lon="120.681279"/>
<trkpt lat="24.169696" lon="120.681405"/>
<trkpt lat="24.169669" lon="120.681910"/>
<trkpt lat="24.169660" lon="120.682195"/>
<trkpt lat="24.169581" lon="120.682188"/>
<trkpt lat="24.169570" lon="120.682257"/>
<trkpt lat="24.169050" lon="120.682205"/>
<trkpt lat="24.169023" lon="120.682256"/>
<trkpt lat="24.168989" lon="120.682586"/>
<trkpt lat="24.168979" lon="120.682707"/>
<trkpt lat="24.169211" lon="120.682736"/>
<trkpt lat="24.169194" lon="120.682879"/>
<trkpt lat="24.169176" lon="120.683058"/>
<trkpt lat="24.168543" lon="120.682959"/>
<trkpt lat="24.168543" lon="120.683007"/>
<trkpt lat="24.168467" lon="120.683006"/>
<trkpt lat="24.168446" lon="120.683539"/>
<trkpt lat="24.168443" lon="120.683605"/>
<trkpt lat="24.168442" lon="120.683697"/>
<trkpt lat="24.168414" lon="120.685058"/>
<trkpt lat="24.168340" lon="120.685054"/>
<trkpt lat="24.168324" lon="120.685072"/>
<trkpt lat="24.168024" lon="120.685051"/>
<trkpt lat="24.167726" lon="120.685031"/>
<trkpt lat="24.167092" lon="120.684987"/>
<trkpt lat="24.167082" lon="120.684963"/>
<trkpt lat="24.166996" lon="120.684950"/>
<trkpt lat="24.166894" lon="120.684961"/>
<trkpt lat="24.166858" lon="120.684987"/>
<trkpt lat="24.166854" lon="120.685070"/>
<trkpt lat="24.166855" lon="120.685169"/>
<trkpt lat="24.166854" lon="120.685248"/>
<trkpt lat="24.166062" lon="120.685250"/>
<trkpt lat="24.165994" lon="120.685249"/>
<trkpt lat="24.165942" lon="120.685249"/>
<trkpt lat="24.165385" lon="120.685220"/>
<trkpt lat="24.165356" lon="120.685233"/>
<trkpt lat="24.165306" lon="120.685238"/>
<trkpt lat="24.165248" lon="120.685221"/>
<trkpt lat="24.165108" lon="120.685213"/>
<trkpt lat="24.165032" lon="120.685207"/>
<trkpt lat="24.164977" lon="120.685205"/>
<trkpt lat="24.164956" lon="120.685204"/>
<trkpt lat="24.164472" lon="120.685196"/>
<trkpt lat="24.164448" lon="120.685196"/>
<trkpt lat="24.164422" lon="120.685196"/>
<trkpt lat="24.163975" lon="120.685189"/>
<trkpt lat="24.163950" lon="120.685191"/>
<trkpt lat="24.163898" lon="120.685191"/>
<trkpt lat="24.163895" lon="120.685551"/>
<trkpt lat="24.163888" lon="120.685767"/>
<trkpt lat="24.163575" lon="120.685750"/>
<trkpt lat="24.163579" lon="120.685188"/>
<trkpt lat="24.163504" lon="120.685194"/>
<trkpt lat="24.163473" lon="120.685220"/>
<trkpt lat="24.163418" lon="120.685253"/>
<trkpt lat="24.163361" lon="120.685297"/>
<trkpt lat="24.163320" lon="120.685327"/>
<trkpt lat="24.163306" lon="120.685345"/>
<trkpt lat="24.163294" lon="120.685335"/>
<trkpt lat="24.163255" lon="120.685295"/>
<trkpt lat="24.163235" lon="120.685268"/>
<trkpt lat="24.163225" lon="120.685253"/>
<trkpt lat="24.163162" lon="120.685244"/>
<trkpt lat="24.163093" lon="120.685240"/>
<trkpt lat="24.162993" lon="120.685243"/>
<trkpt lat="24.162934" lon="120.685245"/>
<trkpt lat="24.162884" lon="120.685249"/>
<trkpt lat="24.162890" lon="120.685327"/>
<trkpt lat="24.162858" lon="120.685357"/>
<trkpt lat="24.162830" lon="120.685392"/>
<trkpt lat="24.162788" lon="120.685349"/>
<trkpt lat="24.162764" lon="120.685348"/>
<trkpt lat="24.162726" lon="120.685344"/>
<trkpt lat="24.162719" lon="120.685466"/>
<trkpt lat="24.162714" lon="120.685727"/>
<trkpt lat="24.162709" lon="120.686385"/>
<trkpt lat="24.162720" lon="120.686692"/>
<trkpt lat="24.162151" lon="120.686690"/>
<trkpt lat="24.162142" lon="120.686944"/>
<trkpt lat="24.162142" lon="120.686980"/>
<trkpt lat="24.162141" lon="120.687166"/>
<trkpt lat="24.162135" lon="120.687428"/>
<trkpt lat="24.162130" lon="120.687669"/>
<trkpt lat="24.162136" lon="120.688096"/>
<trkpt lat="24.162138" lon="120.688327"/>
<trkpt lat="24.162351" lon="120.688341"/>
<trkpt lat="24.162400" lon="120.688378"/>
<trkpt lat="24.162548" lon="120.688357"/>
<trkpt lat="24.162481" lon="120.688383"/>
<trkpt lat="24.162416" lon="120.688418"/>
<trkpt lat="24.162350" lon="120.688493"/>
<trkpt lat="24.162300" lon="120.688559"/>
<trkpt lat="24.162258" lon="120.688687"/>
<trkpt lat="24.162236" lon="120.688785"/>
<trkpt lat="24.162242" lon="120.689095"/>
<trkpt lat="24.162203" lon="120.689760"/>
<trkpt lat="24.162199" lon="120.689823"/>
<trkpt lat="24.162591" lon="120.689836"/>
<trkpt lat="24.162845" lon="120.689845"/>
<trkpt lat="24.162946" lon="120.689844"/>
<trkpt lat="24.162942" lon="120.690412"/>
<trkpt lat="24.162933" lon="120.690719"/>
<trkpt lat="24.162932" lon="120.690773"/>
<trkpt lat="24.162921" lon="120.690980"/>
<trkpt lat="24.162913" lon="120.691057"/>
<trkpt lat="24.162901" lon="120.691182"/>
<trkpt lat="24.162881" lon="120.691307"/>
<trkpt lat="24.162855" lon="120.691430"/>
<trkpt lat="24.162818" lon="120.691569"/>
<trkpt lat="24.162772" lon="120.691705"/>
<trkpt lat="24.162718" lon="120.691838"/>
<trkpt lat="24.162656" lon="120.691966"/>
<trkpt lat="24.162487" lon="120.692282"/>
<trkpt lat="24.162363" lon="120.692524"/>
<trkpt lat="24.162443" lon="120.692573"/>
<trkpt lat="24.162510" lon="120.692612"/>
<trkpt lat="24.162576" lon="120.692628"/>
<trkpt lat="24.162538" lon="120.692676"/>
<trkpt lat="24.162505" lon="120.692742"/>
<trkpt lat="24.162455" lon="120.692842"/>
<trkpt lat="24.162427" lon="120.692898"/>
<trkpt lat="24.162388" lon="120.692938"/>
<trkpt lat="24.162456" lon="120.692995"/>
<trkpt lat="24.162467" lon="120.693024"/>
<trkpt lat="24.162407" lon="120.693059"/>
<trkpt lat="24.162296" lon="120.693133"/>
<trkpt lat="24.162220" lon="120.693013"/>
<trkpt lat="24.162291" lon="120.692875"/>
<trkpt lat="24.162211" lon="120.692831"/>
<trkpt lat="24.162118" lon="120.693020"/>
<trkpt lat="24.162019" lon="120.693239"/>
<trkpt lat="24.161884" lon="120.693284"/>
<trkpt lat="24.161696" lon="120.693345"/>
<trkpt lat="24.161489" lon="120.693408"/>
<trkpt lat="24.161506" lon="120.693315"/>
<trkpt lat="24.161548" lon="120.693070"/>
<trkpt lat="24.161317" lon="120.692973"/>
<trkpt lat="24.161154" lon="120.692898"/>
<trkpt lat="24.161350" lon="120.692474"/>
<trkpt lat="24.161290" lon="120.692450"/>
<trkpt lat="24.161250" lon="120.692387"/>
<trkpt lat="24.161278" lon="120.692313"/>
<trkpt lat="24.161313" lon="120.692222"/>
<trkpt lat="24.161142" lon="120.692150"/>
<trkpt lat="24.161220" lon="120.691952"/>
<trkpt lat="24.161290" lon="120.691684"/>
<trkpt lat="24.161350" lon="120.691277"/>
<trkpt lat="24.161400" lon="120.691106"/>
<trkpt lat="24.161469" lon="120.691053"/>
<trkpt lat="24.161471" lon="120.690975"/>
<trkpt lat="24.161473" lon="120.690886"/>
<trkpt lat="24.161476" lon="120.690791"/>
<trkpt lat="24.161476" lon="120.690220"/>
<trkpt lat="24.161476" lon="120.689812"/>
<trkpt lat="24.161488" lon="120.689252"/>
<trkpt lat="24.161505" lon="120.688529"/>
<trkpt lat="24.161505" lon="120.688515"/>
<trkpt lat="24.161505" lon="120.688409"/>
<trkpt lat="24.161506" lon="120.688357"/>
<trkpt lat="24.161507" lon="120.688277"/>
<trkpt lat="24.161509" lon="120.687749"/>
<trkpt lat="24.161515" lon="120.687602"/>
<trkpt lat="24.161432" lon="120.687568"/>
<trkpt lat="24.161406" lon="120.687502"/>
<trkpt lat="24.161352" lon="120.687309"/>
<trkpt lat="24.161287" lon="120.686959"/>
<trkpt lat="24.161202" lon="120.686721"/>
<trkpt lat="24.161207" lon="120.686686"/>
<trkpt lat="24.161208" lon="120.686611"/>
<trkpt lat="24.161198" lon="120.686532"/>
<trkpt lat="24.161147" lon="120.686417"/>
<trkpt lat="24.161071" lon="120.686353"/>
<trkpt lat="24.161070" lon="120.686120"/>
<trkpt lat="24.161090" lon="120.685185"/>
<trkpt lat="24.161126" lon="120.685186"/>
<trkpt lat="24.161458" lon="120.685188"/>
<trkpt lat="24.161460" lon="120.685106"/>
<trkpt lat="24.161462" lon="120.685012"/>
<trkpt lat="24.161463" lon="120.684920"/>
<trkpt lat="24.161148" lon="120.684917"/>
<trkpt lat="24.161099" lon="120.684916"/>
<trkpt lat="24.161098" lon="120.683989"/>
<trkpt lat="24.161101" lon="120.683683"/>
<trkpt lat="24.160761" lon="120.683680"/>
<trkpt lat="24.160761" lon="120.683323"/>
<trkpt lat="24.160760" lon="120.682352"/>
<trkpt lat="24.160768" lon="120.681087"/>
<trkpt lat="24.160766" lon="120.680971"/>
<trkpt lat="24.160337" lon="120.680970"/>
<trkpt lat="24.160358" lon="120.679973"/>
<trkpt lat="24.160361" lon="120.679220"/>
<trkpt lat="24.160801" lon="120.679225"/>
<trkpt lat="24.160934" lon="120.679224"/>
<trkpt lat="24.160939" lon="120.678537"/>
<trkpt lat="24.160986" lon="120.677851"/>
<trkpt lat="24.161000" lon="120.677400"/>
<trkpt lat="24.160685" lon="120.677434"/>
<trkpt lat="24.160390" lon="120.677472"/>
</trkseg></trk>
</gpx>