<?xml version="1.0" encoding="UTF-8"?>
<gpx version="1.1" creator="catrun" xmlns="http://www.topografix.com/GPX/1/1">
<metadata><name>中區 手繪蹲坐貓（原稿描圖） 圖形路跑路線</name></metadata>
<wpt lat="24.135280" lon="120.670836"><name>東昇公園(細兒215公園)</name><desc>地標</desc></wpt>
<wpt lat="24.138168" lon="120.670483"><name>Painted Animation Lane</name><desc>地標</desc></wpt>
<wpt lat="24.138694" lon="120.671211"><name>圖根點</name><desc>地標</desc></wpt>
<trk><name>中區 手繪蹲坐貓（原稿描圖） 圖形路跑路線</name><trkseg>
<trkpt lat="24.135122" lon="120.671994"/>
<trkpt lat="24.135549" lon="120.671505"/>
<trkpt lat="24.135951" lon="120.671043"/>
<trkpt lat="24.136308" lon="120.671416"/>
<trkpt lat="24.136591" lon="120.671710"/>
<trkpt lat="24.136643" lon="120.671651"/>
<trkpt lat="24.136731" lon="120.671746"/>
<trkpt lat="24.137150" lon="120.671273"/>
<trkpt lat="24.137469" lon="120.670911"/>
<trkpt lat="24.137582" lon="120.671022"/>
<trkpt lat="24.137623" lon="120.670976"/>
<trkpt lat="24.137905" lon="120.671268"/>
<trkpt lat="24.138261" lon="120.671631"/>
<trkpt lat="24.138496" lon="120.671878"/>
<trkpt lat="24.138564" lon="120.671799"/>
<trkpt lat="24.138859" lon="120.671457"/>
<trkpt lat="24.139021" lon="120.671626"/>
<trkpt lat="24.139107" lon="120.671716"/>
<trkpt lat="24.139335" lon="120.671954"/>
<trkpt lat="24.139620" lon="120.671625"/>
<trkpt lat="24.139837" lon="120.671374"/>
<trkpt lat="24.139906" lon="120.671295"/>
<trkpt lat="24.139959" lon="120.671357"/>
<trkpt lat="24.139993" lon="120.671315"/>
<trkpt lat="24.140167" lon="120.671110"/>
<trkpt lat="24.140190" lon="120.671084"/>
<trkpt lat="24.140204" lon="120.671086"/>
<trkpt lat="24.140232" lon="120.671130"/>
<trkpt lat="24.140244" lon="120.671161"/>
<trkpt lat="24.140270" lon="120.671216"/>
<trkpt lat="24.140279" lon="120.671229"/>
<trkpt lat="24.140268" lon="120.671237"/>
<trkpt lat="24.140205" lon="120.671273"/>
<trkpt lat="24.140198" lon="120.671300"/>
<trkpt lat="24.140212" lon="120.671361"/>
<trkpt lat="24.140274" lon="120.671412"/>
<trkpt lat="24.140295" lon="120.671454"/>
<trkpt lat="24.140301" lon="120.671526"/>
<trkpt lat="24.140365" lon="120.671613"/>
<trkpt lat="24.140400" lon="120.671676"/>
<trkpt lat="24.140420" lon="120.671776"/>
<trkpt lat="24.140428" lon="120.671826"/>
<trkpt lat="24.140446" lon="120.671894"/>
<trkpt lat="24.140533" lon="120.671950"/>
<trkpt lat="24.140530" lon="120.671964"/>
<trkpt lat="24.140535" lon="120.672039"/>
<trkpt lat="24.140523" lon="120.672061"/>
<trkpt lat="24.140351" lon="120.672247"/>
<trkpt lat="24.140326" lon="120.672267"/>
<trkpt lat="24.140307" lon="120.672274"/>
<trkpt lat="24.140303" lon="120.672325"/>
<trkpt lat="24.140318" lon="120.672395"/>
<trkpt lat="24.140379" lon="120.672329"/>
<trkpt lat="24.140546" lon="120.672137"/>
<trkpt lat="24.140680" lon="120.671984"/>
<trkpt lat="24.141127" lon="120.671480"/>
<trkpt lat="24.141461" lon="120.671087"/>
<trkpt lat="24.141802" lon="120.671439"/>
<trkpt lat="24.142005" lon="120.671201"/>
<trkpt lat="24.142234" lon="120.670942"/>
<trkpt lat="24.142298" lon="120.671002"/>
<trkpt lat="24.142738" lon="120.670502"/>
<trkpt lat="24.142483" lon="120.670231"/>
<trkpt lat="24.142328" lon="120.670073"/>
<trkpt lat="24.142208" lon="120.669950"/>
<trkpt lat="24.142071" lon="120.669809"/>
<trkpt lat="24.142508" lon="120.669319"/>
<trkpt lat="24.142408" lon="120.669206"/>
<trkpt lat="24.142051" lon="120.668844"/>
<trkpt lat="24.142277" lon="120.668585"/>
<trkpt lat="24.142458" lon="120.668366"/>
<trkpt lat="24.142547" lon="120.668454"/>
<trkpt lat="24.142612" lon="120.668384"/>
<trkpt lat="24.142675" lon="120.668315"/>
<trkpt lat="24.142757" lon="120.668227"/>
<trkpt lat="24.142739" lon="120.668208"/>
<trkpt lat="24.142662" lon="120.668126"/>
<trkpt lat="24.142669" lon="120.668118"/>
<trkpt lat="24.142760" lon="120.668016"/>
<trkpt lat="24.142827" lon="120.667947"/>
<trkpt lat="24.143458" lon="120.668604"/>
<trkpt lat="24.143487" lon="120.668624"/>
<trkpt lat="24.143516" lon="120.668636"/>
<trkpt lat="24.143550" lon="120.668644"/>
<trkpt lat="24.143617" lon="120.668648"/>
<trkpt lat="24.144084" lon="120.668639"/>
<trkpt lat="24.144288" lon="120.668635"/>
<trkpt lat="24.144334" lon="120.668635"/>
<trkpt lat="24.144405" lon="120.668635"/>
<trkpt lat="24.144516" lon="120.668640"/>
<trkpt lat="24.144728" lon="120.668650"/>
<trkpt lat="24.144793" lon="120.668675"/>
<trkpt lat="24.144868" lon="120.668750"/>
<trkpt lat="24.144645" lon="120.668995"/>
<trkpt lat="24.144516" lon="120.669142"/>
<trkpt lat="24.144485" lon="120.669178"/>
<trkpt lat="24.144362" lon="120.669321"/>
<trkpt lat="24.144852" lon="120.669824"/>
<trkpt lat="24.144935" lon="120.669724"/>
<trkpt lat="24.144950" lon="120.669713"/>
<trkpt lat="24.144967" lon="120.669707"/>
<trkpt lat="24.145133" lon="120.669800"/>
<trkpt lat="24.145393" lon="120.669972"/>
<trkpt lat="24.145815" lon="120.670253"/>
<trkpt lat="24.145855" lon="120.670282"/>
<trkpt lat="24.145872" lon="120.670288"/>
<trkpt lat="24.145895" lon="120.670287"/>
<trkpt lat="24.145935" lon="120.670263"/>
<trkpt lat="24.146046" lon="120.670380"/>
<trkpt lat="24.146089" lon="120.670331"/>
<trkpt lat="24.146191" lon="120.670213"/>
<trkpt lat="24.146233" lon="120.670165"/>
<trkpt lat="24.145939" lon="120.669862"/>
<trkpt lat="24.146019" lon="120.669791"/>
<trkpt lat="24.146101" lon="120.669712"/>
<trkpt lat="24.146236" lon="120.669762"/>
<trkpt lat="24.146332" lon="120.669813"/>
<trkpt lat="24.146453" lon="120.669901"/>
<trkpt lat="24.146549" lon="120.669995"/>
<trkpt lat="24.146387" lon="120.670166"/>
<trkpt lat="24.146489" lon="120.670269"/>
<trkpt lat="24.146415" lon="120.670353"/>
<trkpt lat="24.146505" lon="120.670445"/>
<trkpt lat="24.146854" lon="120.670814"/>
<trkpt lat="24.146966" lon="120.670925"/>
<trkpt lat="24.147006" lon="120.670948"/>
<trkpt lat="24.146882" lon="120.671245"/>
<trkpt lat="24.146573" lon="120.671586"/>
<trkpt lat="24.146227" lon="120.671970"/>
<trkpt lat="24.146172" lon="120.672047"/>
<trkpt lat="24.145698" lon="120.672602"/>
<trkpt lat="24.145258" lon="120.673095"/>
<trkpt lat="24.144994" lon="120.673405"/>
<trkpt lat="24.144629" lon="120.673825"/>
<trkpt lat="24.144962" lon="120.674147"/>
<trkpt lat="24.144747" lon="120.674433"/>
<trkpt lat="24.144421" lon="120.674869"/>
<trkpt lat="24.144395" lon="120.674907"/>
<trkpt lat="24.144174" lon="120.675158"/>
<trkpt lat="24.144001" lon="120.675364"/>
<trkpt lat="24.143925" lon="120.675454"/>
<trkpt lat="24.144249" lon="120.675789"/>
<trkpt lat="24.143785" lon="120.676313"/>
<trkpt lat="24.143575" lon="120.676565"/>
<trkpt lat="24.143230" lon="120.676980"/>
<trkpt lat="24.143270" lon="120.677016"/>
<trkpt lat="24.143212" lon="120.677093"/>
<trkpt lat="24.143156" lon="120.677179"/>
<trkpt lat="24.143124" lon="120.677217"/>
<trkpt lat="24.142931" lon="120.677441"/>
<trkpt lat="24.142918" lon="120.677505"/>
<trkpt lat="24.142849" lon="120.677570"/>
<trkpt lat="24.142805" lon="120.677606"/>
<trkpt lat="24.142747" lon="120.677611"/>
<trkpt lat="24.142704" lon="120.677587"/>
<trkpt lat="24.142496" lon="120.677832"/>
<trkpt lat="24.142851" lon="120.678168"/>
<trkpt lat="24.142635" lon="120.678397"/>
<trkpt lat="24.142631" lon="120.678422"/>
<trkpt lat="24.142538" lon="120.678541"/>
<trkpt lat="24.142557" lon="120.678560"/>
<trkpt lat="24.142388" lon="120.678755"/>
<trkpt lat="24.142366" lon="120.678781"/>
<trkpt lat="24.142345" lon="120.678806"/>
<trkpt lat="24.142198" lon="120.678993"/>
<trkpt lat="24.142109" lon="120.679083"/>
<trkpt lat="24.142050" lon="120.679175"/>
<trkpt lat="24.141581" lon="120.679721"/>
<trkpt lat="24.141202" lon="120.679322"/>
<trkpt lat="24.141022" lon="120.679533"/>
<trkpt lat="24.140743" lon="120.679866"/>
<trkpt lat="24.140420" lon="120.680247"/>
<trkpt lat="24.139959" lon="120.679782"/>
<trkpt lat="24.139694" lon="120.679486"/>
<trkpt lat="24.139349" lon="120.679888"/>
<trkpt lat="24.139112" lon="120.680166"/>
<trkpt lat="24.139027" lon="120.680266"/>
<trkpt lat="24.138646" lon="120.680717"/>
<trkpt lat="24.138282" lon="120.680333"/>
<trkpt lat="24.138134" lon="120.680182"/>
<trkpt lat="24.137997" lon="120.680040"/>
<trkpt lat="24.137939" lon="120.680110"/>
<trkpt lat="24.137903" lon="120.680110"/>
<trkpt lat="24.137829" lon="120.680035"/>
<trkpt lat="24.137525" lon="120.680360"/>
<trkpt lat="24.137231" lon="120.680696"/>
<trkpt lat="24.137307" lon="120.680773"/>
<trkpt lat="24.137262" lon="120.680827"/>
<trkpt lat="24.137277" lon="120.680842"/>
<trkpt lat="24.137500" lon="120.681077"/>
<trkpt lat="24.137571" lon="120.681152"/>
<trkpt lat="24.137229" lon="120.681546"/>
<trkpt lat="24.137586" lon="120.681908"/>
<trkpt lat="24.137936" lon="120.682279"/>
<trkpt lat="24.138293" lon="120.682642"/>
<trkpt lat="24.138094" lon="120.682872"/>
<trkpt lat="24.138061" lon="120.682910"/>
<trkpt lat="24.137966" lon="120.683020"/>
<trkpt lat="24.137943" lon="120.683047"/>
<trkpt lat="24.137836" lon="120.683189"/>
<trkpt lat="24.137792" lon="120.683248"/>
<trkpt lat="24.138182" lon="120.683646"/>
<trkpt lat="24.138442" lon="120.683946"/>
<trkpt lat="24.138528" lon="120.684036"/>
<trkpt lat="24.138617" lon="120.684127"/>
<trkpt lat="24.138888" lon="120.684407"/>
<trkpt lat="24.138489" lon="120.684860"/>
<trkpt lat="24.138818" lon="120.685205"/>
<trkpt lat="24.138425" lon="120.685635"/>
<trkpt lat="24.138373" lon="120.685699"/>
<trkpt lat="24.138244" lon="120.685867"/>
<trkpt lat="24.138091" lon="120.686064"/>
<trkpt lat="24.138052" lon="120.686114"/>
<trkpt lat="24.138070" lon="120.686371"/>
<trkpt lat="24.138059" lon="120.686491"/>
<trkpt lat="24.138046" lon="120.686532"/>
<trkpt lat="24.138022" lon="120.686577"/>
<trkpt lat="24.137961" lon="120.686599"/>
<trkpt lat="24.137984" lon="120.686667"/>
<trkpt lat="24.138037" lon="120.686726"/>
<trkpt lat="24.138098" lon="120.686768"/>
<trkpt lat="24.138103" lon="120.687014"/>
<trkpt lat="24.138101" lon="120.687125"/>
<trkpt lat="24.138102" lon="120.687509"/>
<trkpt lat="24.138105" lon="120.687744"/>
<trkpt lat="24.137840" lon="120.687765"/>
<trkpt lat="24.137766" lon="120.687762"/>
<trkpt lat="24.137728" lon="120.687760"/>
<trkpt lat="24.137762" lon="120.687848"/>
<trkpt lat="24.137753" lon="120.687848"/>
<trkpt lat="24.137654" lon="120.687847"/>
<trkpt lat="24.137233" lon="120.687846"/>
<trkpt lat="24.137220" lon="120.687814"/>
<trkpt lat="24.137185" lon="120.687724"/>
<trkpt lat="24.137140" lon="120.687627"/>
<trkpt lat="24.137158" lon="120.687625"/>
<trkpt lat="24.137256" lon="120.687637"/>
<trkpt lat="24.137251" lon="120.687623"/>
<trkpt lat="24.137165" lon="120.687616"/>
<trkpt lat="24.137135" lon="120.687614"/>
<trkpt lat="24.137096" lon="120.687624"/>
<trkpt lat="24.137028" lon="120.687602"/>
<trkpt lat="24.136806" lon="120.687063"/>
<trkpt lat="24.136900" lon="120.687023"/>
<trkpt lat="24.137404" lon="120.686767"/>
<trkpt lat="24.137421" lon="120.686758"/>
<trkpt lat="24.137374" lon="120.686600"/>
<trkpt lat="24.137333" lon="120.686407"/>
<trkpt lat="24.137312" lon="120.686183"/>
<trkpt lat="24.137310" lon="120.686046"/>
<trkpt lat="24.137364" lon="120.685873"/>
<trkpt lat="24.137286" lon="120.685545"/>
<trkpt lat="24.137072" lon="120.684991"/>
<trkpt lat="24.136900" lon="120.684640"/>
<trkpt lat="24.136741" lon="120.684433"/>
<trkpt lat="24.136704" lon="120.684391"/>
<trkpt lat="24.136647" lon="120.684323"/>
<trkpt lat="24.136591" lon="120.684223"/>
<trkpt lat="24.136511" lon="120.684059"/>
<trkpt lat="24.136369" lon="120.683722"/>
<trkpt lat="24.136268" lon="120.683435"/>
<trkpt lat="24.136323" lon="120.683395"/>
<trkpt lat="24.136396" lon="120.683346"/>
<trkpt lat="24.136374" lon="120.683296"/>
<trkpt lat="24.136417" lon="120.683258"/>
<trkpt lat="24.136734" lon="120.682936"/>
<trkpt lat="24.136403" lon="120.682560"/>
<trkpt lat="24.136732" lon="120.682193"/>
<trkpt lat="24.136416" lon="120.681873"/>
<trkpt lat="24.136388" lon="120.681836"/>
<trkpt lat="24.136420" lon="120.681796"/>
<trkpt lat="24.136420" lon="120.681776"/>
<trkpt lat="24.136432" lon="120.681762"/>
<trkpt lat="24.136525" lon="120.681658"/>
<trkpt lat="24.136537" lon="120.681644"/>
<trkpt lat="24.136469" lon="120.681573"/>
<trkpt lat="24.136423" lon="120.681522"/>
<trkpt lat="24.136393" lon="120.681460"/>
<trkpt lat="24.136417" lon="120.681433"/>
<trkpt lat="24.136393" lon="120.681402"/>
<trkpt lat="24.136306" lon="120.681314"/>
<trkpt lat="24.136238" lon="120.681243"/>
<trkpt lat="24.136219" lon="120.681223"/>
<trkpt lat="24.136122" lon="120.681119"/>
<trkpt lat="24.136458" lon="120.680736"/>
<trkpt lat="24.136793" lon="120.680350"/>
<trkpt lat="24.136436" lon="120.679984"/>
<trkpt lat="24.136112" lon="120.679645"/>
<trkpt lat="24.135722" lon="120.679239"/>
<trkpt lat="24.136431" lon="120.678421"/>
<trkpt lat="24.136371" lon="120.678352"/>
<trkpt lat="24.135973" lon="120.677938"/>
<trkpt lat="24.135754" lon="120.677711"/>
<trkpt lat="24.135549" lon="120.677499"/>
<trkpt lat="24.135004" lon="120.676937"/>
<trkpt lat="24.135719" lon="120.676115"/>
<trkpt lat="24.135905" lon="120.675903"/>
<trkpt lat="24.135955" lon="120.675840"/>
<trkpt lat="24.136058" lon="120.675721"/>
<trkpt lat="24.136197" lon="120.675558"/>
<trkpt lat="24.136376" lon="120.675349"/>
<trkpt lat="24.135474" lon="120.674407"/>
<trkpt lat="24.135736" lon="120.674103"/>
<trkpt lat="24.136120" lon="120.673651"/>
<trkpt lat="24.136402" lon="120.673321"/>
<trkpt lat="24.135974" lon="120.672877"/>
<trkpt lat="24.135846" lon="120.672743"/>
<trkpt lat="24.135766" lon="120.672838"/>
<trkpt lat="24.135676" lon="120.672748"/>
<trkpt lat="24.135760" lon="120.672652"/>
<trkpt lat="24.135122" lon="120.671994"/>
</trkseg></trk>
</gpx>