<?xml version="1.0" encoding="UTF-8"?>
<gpx version="1.1" creator="catrun" xmlns="http://www.topografix.com/GPX/1/1">
<metadata><name>大安區 手繪蹲坐貓（原稿描圖） 圖形路跑路線</name></metadata>
<wpt lat="24.355158" lon="120.621803"><name>文武公園</name><desc>地標</desc></wpt>
<wpt lat="24.347521" lon="120.628000"><name>國有非公用土地委託管理綠美化設施(110.06.20-116.06.19)</name><desc>地標</desc></wpt>
<wpt lat="24.344090" lon="120.626612"><name>大甲車站站前公園(藺草道)</name><desc>地標</desc></wpt>
<trk><name>大安區 手繪蹲坐貓（原稿描圖） 圖形路跑路線</name><trkseg>
<trkpt lat="24.344000" lon="120.619326"/>
<trkpt lat="24.344058" lon="120.619386"/>
<trkpt lat="24.344110" lon="120.619440"/>
<trkpt lat="24.344332" lon="120.619621"/>
<trkpt lat="24.344443" lon="120.619725"/>
<trkpt lat="24.345021" lon="120.618739"/>
<trkpt lat="24.345176" lon="120.618553"/>
<trkpt lat="24.345412" lon="120.618251"/>
<trkpt lat="24.345964" lon="120.618565"/>
<trkpt lat="24.346186" lon="120.618217"/>
<trkpt lat="24.346674" lon="120.618419"/>
<trkpt lat="24.346509" lon="120.618979"/>
<trkpt lat="24.346428" lon="120.619276"/>
<trkpt lat="24.346413" lon="120.619410"/>
<trkpt lat="24.346373" lon="120.619701"/>
<trkpt lat="24.346468" lon="120.619742"/>
<trkpt lat="24.346989" lon="120.619962"/>
<trkpt lat="24.347104" lon="120.620011"/>
<trkpt lat="24.347159" lon="120.619879"/>
<trkpt lat="24.347337" lon="120.619784"/>
<trkpt lat="24.347368" lon="120.619775"/>
<trkpt lat="24.347412" lon="120.619764"/>
<trkpt lat="24.347508" lon="120.619793"/>
<trkpt lat="24.347673" lon="120.619859"/>
<trkpt lat="24.347748" lon="120.619874"/>
<trkpt lat="24.347916" lon="120.619980"/>
<trkpt lat="24.348277" lon="120.620034"/>
<trkpt lat="24.348498" lon="120.620194"/>
<trkpt lat="24.348718" lon="120.620327"/>
<trkpt lat="24.349010" lon="120.620459"/>
<trkpt lat="24.349416" lon="120.620646"/>
<trkpt lat="24.349550" lon="120.620259"/>
<trkpt lat="24.349748" lon="120.619688"/>
<trkpt lat="24.349821" lon="120.619719"/>
<trkpt lat="24.350760" lon="120.620106"/>
<trkpt lat="24.350900" lon="120.619720"/>
<trkpt lat="24.351111" lon="120.619139"/>
<trkpt lat="24.351200" lon="120.618887"/>
<trkpt lat="24.351277" lon="120.618651"/>
<trkpt lat="24.351291" lon="120.618615"/>
<trkpt lat="24.351430" lon="120.618179"/>
<trkpt lat="24.351617" lon="120.617698"/>
<trkpt lat="24.351653" lon="120.617592"/>
<trkpt lat="24.353395" lon="120.618334"/>
<trkpt lat="24.353926" lon="120.618559"/>
<trkpt lat="24.354380" lon="120.618732"/>
<trkpt lat="24.354335" lon="120.618846"/>
<trkpt lat="24.354181" lon="120.619309"/>
<trkpt lat="24.354065" lon="120.619658"/>
<trkpt lat="24.353994" lon="120.619874"/>
<trkpt lat="24.353855" lon="120.620289"/>
<trkpt lat="24.354466" lon="120.620495"/>
<trkpt lat="24.354494" lon="120.620506"/>
<trkpt lat="24.354719" lon="120.620595"/>
<trkpt lat="24.354807" lon="120.620638"/>
<trkpt lat="24.354862" lon="120.620693"/>
<trkpt lat="24.354893" lon="120.620543"/>
<trkpt lat="24.354926" lon="120.620296"/>
<trkpt lat="24.355103" lon="120.620331"/>
<trkpt lat="24.355117" lon="120.620354"/>
<trkpt lat="24.355123" lon="120.620380"/>
<trkpt lat="24.355118" lon="120.620445"/>
<trkpt lat="24.355163" lon="120.620916"/>
<trkpt lat="24.355214" lon="120.621228"/>
<trkpt lat="24.355233" lon="120.621558"/>
<trkpt lat="24.354919" lon="120.621559"/>
<trkpt lat="24.354920" lon="120.621589"/>
<trkpt lat="24.354917" lon="120.622084"/>
<trkpt lat="24.354104" lon="120.621940"/>
<trkpt lat="24.353351" lon="120.621807"/>
<trkpt lat="24.353134" lon="120.622408"/>
<trkpt lat="24.353099" lon="120.622505"/>
<trkpt lat="24.352872" lon="120.623132"/>
<trkpt lat="24.352711" lon="120.623578"/>
<trkpt lat="24.352309" lon="120.623414"/>
<trkpt lat="24.351840" lon="120.623223"/>
<trkpt lat="24.351521" lon="120.624146"/>
<trkpt lat="24.351367" lon="120.624591"/>
<trkpt lat="24.351037" lon="120.624446"/>
<trkpt lat="24.351024" lon="120.624486"/>
<trkpt lat="24.350777" lon="120.624386"/>
<trkpt lat="24.350762" lon="120.624379"/>
<trkpt lat="24.350666" lon="120.624659"/>
<trkpt lat="24.350166" lon="120.626065"/>
<trkpt lat="24.349828" lon="120.625840"/>
<trkpt lat="24.349483" lon="120.626450"/>
<trkpt lat="24.349185" lon="120.626975"/>
<trkpt lat="24.348867" lon="120.627570"/>
<trkpt lat="24.348667" lon="120.627600"/>
<trkpt lat="24.347991" lon="120.627647"/>
<trkpt lat="24.347589" lon="120.627679"/>
<trkpt lat="24.347174" lon="120.627728"/>
<trkpt lat="24.346813" lon="120.627768"/>
<trkpt lat="24.346661" lon="120.627785"/>
<trkpt lat="24.346603" lon="120.627788"/>
<trkpt lat="24.346353" lon="120.627744"/>
<trkpt lat="24.346198" lon="120.627681"/>
<trkpt lat="24.346071" lon="120.627589"/>
<trkpt lat="24.345880" lon="120.627453"/>
<trkpt lat="24.345361" lon="120.627105"/>
<trkpt lat="24.344969" lon="120.626837"/>
<trkpt lat="24.344765" lon="120.626697"/>
<trkpt lat="24.344746" lon="120.626731"/>
<trkpt lat="24.344698" lon="120.626786"/>
<trkpt lat="24.344658" lon="120.626802"/>
<trkpt lat="24.344619" lon="120.626807"/>
<trkpt lat="24.344573" lon="120.626785"/>
<trkpt lat="24.344535" lon="120.626755"/>
<trkpt lat="24.344520" lon="120.626716"/>
<trkpt lat="24.344361" lon="120.626846"/>
<trkpt lat="24.344259" lon="120.626778"/>
<trkpt lat="24.344163" lon="120.626941"/>
<trkpt lat="24.343821" lon="120.627484"/>
<trkpt lat="24.343750" lon="120.627602"/>
<trkpt lat="24.344229" lon="120.627930"/>
<trkpt lat="24.344947" lon="120.628397"/>
<trkpt lat="24.344886" lon="120.628586"/>
<trkpt lat="24.344875" lon="120.628764"/>
<trkpt lat="24.344885" lon="120.628939"/>
<trkpt lat="24.344890" lon="120.629072"/>
<trkpt lat="24.344921" lon="120.629300"/>
<trkpt lat="24.344963" lon="120.629458"/>
<trkpt lat="24.344503" lon="120.629249"/>
<trkpt lat="24.344403" lon="120.629397"/>
<trkpt lat="24.344308" lon="120.629512"/>
<trkpt lat="24.344258" lon="120.629571"/>
<trkpt lat="24.344171" lon="120.629661"/>
<trkpt lat="24.344094" lon="120.629714"/>
<trkpt lat="24.344032" lon="120.629748"/>
<trkpt lat="24.343965" lon="120.629785"/>
<trkpt lat="24.343878" lon="120.629810"/>
<trkpt lat="24.343473" lon="120.629922"/>
<trkpt lat="24.343144" lon="120.630007"/>
<trkpt lat="24.342912" lon="120.630067"/>
<trkpt lat="24.342909" lon="120.630124"/>
<trkpt lat="24.343575" lon="120.630522"/>
<trkpt lat="24.343520" lon="120.630674"/>
<trkpt lat="24.343383" lon="120.630981"/>
<trkpt lat="24.343848" lon="120.631260"/>
<trkpt lat="24.343973" lon="120.631340"/>
<trkpt lat="24.343822" lon="120.631670"/>
<trkpt lat="24.343650" lon="120.632045"/>
<trkpt lat="24.343389" lon="120.631891"/>
<trkpt lat="24.343147" lon="120.631764"/>
<trkpt lat="24.342949" lon="120.631642"/>
<trkpt lat="24.342463" lon="120.631366"/>
<trkpt lat="24.342271" lon="120.631764"/>
<trkpt lat="24.342119" lon="120.632071"/>
<trkpt lat="24.342486" lon="120.632287"/>
<trkpt lat="24.342913" lon="120.632526"/>
<trkpt lat="24.343279" lon="120.632753"/>
<trkpt lat="24.342990" lon="120.633372"/>
<trkpt lat="24.342540" lon="120.633094"/>
<trkpt lat="24.342450" lon="120.633045"/>
<trkpt lat="24.342119" lon="120.632856"/>
<trkpt lat="24.341800" lon="120.632669"/>
<trkpt lat="24.342105" lon="120.632112"/>
<trkpt lat="24.342119" lon="120.632071"/>
<trkpt lat="24.342271" lon="120.631764"/>
<trkpt lat="24.342463" lon="120.631366"/>
<trkpt lat="24.342566" lon="120.631152"/>
<trkpt lat="24.342816" lon="120.630636"/>
<trkpt lat="24.342897" lon="120.630380"/>
<trkpt lat="24.342899" lon="120.630324"/>
<trkpt lat="24.342909" lon="120.630124"/>
<trkpt lat="24.342912" lon="120.630067"/>
<trkpt lat="24.342926" lon="120.629699"/>
<trkpt lat="24.343473" lon="120.629922"/>
<trkpt lat="24.343878" lon="120.629810"/>
<trkpt lat="24.343965" lon="120.629785"/>
<trkpt lat="24.344032" lon="120.629748"/>
<trkpt lat="24.344094" lon="120.629714"/>
<trkpt lat="24.344171" lon="120.629661"/>
<trkpt lat="24.344258" lon="120.629571"/>
<trkpt lat="24.344308" lon="120.629512"/>
<trkpt lat="24.344403" lon="120.629397"/>
<trkpt lat="24.344503" lon="120.629249"/>
<trkpt lat="24.343371" lon="120.628690"/>
<trkpt lat="24.343416" lon="120.628504"/>
<trkpt lat="24.343370" lon="120.628292"/>
<trkpt lat="24.343314" lon="120.628210"/>
<trkpt lat="24.343224" lon="120.627966"/>
<trkpt lat="24.343217" lon="120.627926"/>
<trkpt lat="24.343169" lon="120.627662"/>
<trkpt lat="24.343165" lon="120.627463"/>
<trkpt lat="24.343309" lon="120.627300"/>
<trkpt lat="24.343750" lon="120.627602"/>
<trkpt lat="24.343821" lon="120.627484"/>
<trkpt lat="24.344163" lon="120.626941"/>
<trkpt lat="24.344259" lon="120.626778"/>
<trkpt lat="24.343609" lon="120.626349"/>
<trkpt lat="24.343780" lon="120.626039"/>
<trkpt lat="24.343728" lon="120.626005"/>
<trkpt lat="24.343538" lon="120.625878"/>
<trkpt lat="24.343698" lon="120.625300"/>
<trkpt lat="24.343809" lon="120.624959"/>
<trkpt lat="24.343890" lon="120.624636"/>
<trkpt lat="24.344112" lon="120.623789"/>
<trkpt lat="24.344112" lon="120.623604"/>
<trkpt lat="24.344126" lon="120.623481"/>
<trkpt lat="24.344003" lon="120.623486"/>
<trkpt lat="24.343646" lon="120.623573"/>
<trkpt lat="24.343394" lon="120.623635"/>
<trkpt lat="24.342985" lon="120.623735"/>
<trkpt lat="24.342975" lon="120.623655"/>
<trkpt lat="24.343038" lon="120.623571"/>
<trkpt lat="24.343160" lon="120.623479"/>
<trkpt lat="24.343295" lon="120.623227"/>
<trkpt lat="24.343352" lon="120.623098"/>
<trkpt lat="24.343428" lon="120.622807"/>
<trkpt lat="24.343486" lon="120.622738"/>
<trkpt lat="24.343567" lon="120.622715"/>
<trkpt lat="24.343726" lon="120.622211"/>
<trkpt lat="24.343957" lon="120.622100"/>
<trkpt lat="24.344131" lon="120.622028"/>
<trkpt lat="24.344227" lon="120.621946"/>
<trkpt lat="24.344088" lon="120.621911"/>
<trkpt lat="24.343934" lon="120.621834"/>
<trkpt lat="24.343510" lon="120.621537"/>
<trkpt lat="24.343706" lon="120.621166"/>
<trkpt lat="24.343310" lon="120.620879"/>
<trkpt lat="24.343439" lon="120.620698"/>
<trkpt lat="24.343612" lon="120.620446"/>
<trkpt lat="24.343944" lon="120.620753"/>
<trkpt lat="24.344223" lon="120.620953"/>
<trkpt lat="24.344352" lon="120.621096"/>
<trkpt lat="24.344367" lon="120.621060"/>
<trkpt lat="24.344452" lon="120.620917"/>
<trkpt lat="24.344494" lon="120.620851"/>
<trkpt lat="24.344840" lon="120.620307"/>
<trkpt lat="24.344959" lon="120.620130"/>
<trkpt lat="24.344634" lon="120.619887"/>
<trkpt lat="24.344443" lon="120.619725"/>
<trkpt lat="24.344332" lon="120.619621"/>
<trkpt lat="24.344110" lon="120.619440"/>
<trkpt lat="24.344058" lon="120.619386"/>
<trkpt lat="24.344000" lon="120.619326"/>
</trkseg></trk>
</gpx>