<?xml version="1.0" encoding="UTF-8"?>
<gpx version="1.1" creator="catrun" xmlns="http://www.topografix.com/GPX/1/1">
<metadata><name>大肚區 手繪蹲坐貓（原稿描圖） 圖形路跑路線</name></metadata>
<wpt lat="24.157910" lon="120.553052"><name>大肚區環保運動公園</name><desc>地標</desc></wpt>
<wpt lat="24.155806" lon="120.559428"><name>大肚藍色公路</name><desc>地標</desc></wpt>
<trk><name>大肚區 手繪蹲坐貓（原稿描圖） 圖形路跑路線</name><trkseg>
<trkpt lat="24.151091" lon="120.551928"/>
<trkpt lat="24.151446" lon="120.551804"/>
<trkpt lat="24.151482" lon="120.551766"/>
<trkpt lat="24.151711" lon="120.551702"/>
<trkpt lat="24.151914" lon="120.551644"/>
<trkpt lat="24.151981" lon="120.551964"/>
<trkpt lat="24.152001" lon="120.552136"/>
<trkpt lat="24.151979" lon="120.552614"/>
<trkpt lat="24.151996" lon="120.552788"/>
<trkpt lat="24.152029" lon="120.553018"/>
<trkpt lat="24.152176" lon="120.552828"/>
<trkpt lat="24.152284" lon="120.552678"/>
<trkpt lat="24.152382" lon="120.552517"/>
<trkpt lat="24.152504" lon="120.552225"/>
<trkpt lat="24.152535" lon="120.552101"/>
<trkpt lat="24.152554" lon="120.551914"/>
<trkpt lat="24.152556" lon="120.551699"/>
<trkpt lat="24.152513" lon="120.551342"/>
<trkpt lat="24.152094" lon="120.548869"/>
<trkpt lat="24.153057" lon="120.548594"/>
<trkpt lat="24.154034" lon="120.548335"/>
<trkpt lat="24.154016" lon="120.548267"/>
<trkpt lat="24.154273" lon="120.548189"/>
<trkpt lat="24.154612" lon="120.548085"/>
<trkpt lat="24.154984" lon="120.547971"/>
<trkpt lat="24.155231" lon="120.547865"/>
<trkpt lat="24.155668" lon="120.547656"/>
<trkpt lat="24.157342" lon="120.546869"/>
<trkpt lat="24.158006" lon="120.546600"/>
<trkpt lat="24.158047" lon="120.546681"/>
<trkpt lat="24.155702" lon="120.547715"/>
<trkpt lat="24.156008" lon="120.548178"/>
<trkpt lat="24.156081" lon="120.548241"/>
<trkpt lat="24.156188" lon="120.548280"/>
<trkpt lat="24.156590" lon="120.548264"/>
<trkpt lat="24.156716" lon="120.548280"/>
<trkpt lat="24.157413" lon="120.548691"/>
<trkpt lat="24.157829" lon="120.548976"/>
<trkpt lat="24.157892" lon="120.549058"/>
<trkpt lat="24.157949" lon="120.549196"/>
<trkpt lat="24.157964" lon="120.549342"/>
<trkpt lat="24.157965" lon="120.549646"/>
<trkpt lat="24.157953" lon="120.549686"/>
<trkpt lat="24.157923" lon="120.549745"/>
<trkpt lat="24.157875" lon="120.549808"/>
<trkpt lat="24.157803" lon="120.549850"/>
<trkpt lat="24.157740" lon="120.549865"/>
<trkpt lat="24.157633" lon="120.549856"/>
<trkpt lat="24.157516" lon="120.549784"/>
<trkpt lat="24.157285" lon="120.549387"/>
<trkpt lat="24.157237" lon="120.549341"/>
<trkpt lat="24.157172" lon="120.549308"/>
<trkpt lat="24.157114" lon="120.549285"/>
<trkpt lat="24.156999" lon="120.549275"/>
<trkpt lat="24.156908" lon="120.549294"/>
<trkpt lat="24.156822" lon="120.549356"/>
<trkpt lat="24.156606" lon="120.549625"/>
<trkpt lat="24.156536" lon="120.549757"/>
<trkpt lat="24.156503" lon="120.549947"/>
<trkpt lat="24.156542" lon="120.550123"/>
<trkpt lat="24.156585" lon="120.550203"/>
<trkpt lat="24.156660" lon="120.550256"/>
<trkpt lat="24.157024" lon="120.550445"/>
<trkpt lat="24.157150" lon="120.550551"/>
<trkpt lat="24.157272" lon="120.550731"/>
<trkpt lat="24.157382" lon="120.550944"/>
<trkpt lat="24.157533" lon="120.551121"/>
<trkpt lat="24.157727" lon="120.551285"/>
<trkpt lat="24.157819" lon="120.551342"/>
<trkpt lat="24.158156" lon="120.551876"/>
<trkpt lat="24.158063" lon="120.551922"/>
<trkpt lat="24.158048" lon="120.551936"/>
<trkpt lat="24.157886" lon="120.552077"/>
<trkpt lat="24.157815" lon="120.552122"/>
<trkpt lat="24.157771" lon="120.552125"/>
<trkpt lat="24.157724" lon="120.552102"/>
<trkpt lat="24.157688" lon="120.552100"/>
<trkpt lat="24.157633" lon="120.552143"/>
<trkpt lat="24.157566" lon="120.552206"/>
<trkpt lat="24.157468" lon="120.552091"/>
<trkpt lat="24.157372" lon="120.551991"/>
<trkpt lat="24.157307" lon="120.551983"/>
<trkpt lat="24.157216" lon="120.552061"/>
<trkpt lat="24.157115" lon="120.552176"/>
<trkpt lat="24.157007" lon="120.552304"/>
<trkpt lat="24.156952" lon="120.552392"/>
<trkpt lat="24.156909" lon="120.552515"/>
<trkpt lat="24.156914" lon="120.552616"/>
<trkpt lat="24.156941" lon="120.552693"/>
<trkpt lat="24.156822" lon="120.552841"/>
<trkpt lat="24.156742" lon="120.552884"/>
<trkpt lat="24.157014" lon="120.553145"/>
<trkpt lat="24.157338" lon="120.553337"/>
<trkpt lat="24.157634" lon="120.553514"/>
<trkpt lat="24.157837" lon="120.553869"/>
<trkpt lat="24.157702" lon="120.554049"/>
<trkpt lat="24.157633" lon="120.554125"/>
<trkpt lat="24.157546" lon="120.554188"/>
<trkpt lat="24.157432" lon="120.554296"/>
<trkpt lat="24.157392" lon="120.554427"/>
<trkpt lat="24.157363" lon="120.554463"/>
<trkpt lat="24.157317" lon="120.554444"/>
<trkpt lat="24.157280" lon="120.554378"/>
<trkpt lat="24.157274" lon="120.554176"/>
<trkpt lat="24.157216" lon="120.554201"/>
<trkpt lat="24.157188" lon="120.554279"/>
<trkpt lat="24.157155" lon="120.554374"/>
<trkpt lat="24.157155" lon="120.554486"/>
<trkpt lat="24.157167" lon="120.554615"/>
<trkpt lat="24.157158" lon="120.554700"/>
<trkpt lat="24.156857" lon="120.554903"/>
<trkpt lat="24.156583" lon="120.555156"/>
<trkpt lat="24.156533" lon="120.555127"/>
<trkpt lat="24.156472" lon="120.555087"/>
<trkpt lat="24.156321" lon="120.555206"/>
<trkpt lat="24.156246" lon="120.555358"/>
<trkpt lat="24.156204" lon="120.555792"/>
<trkpt lat="24.156254" lon="120.555919"/>
<trkpt lat="24.156298" lon="120.556103"/>
<trkpt lat="24.156349" lon="120.556274"/>
<trkpt lat="24.156415" lon="120.556529"/>
<trkpt lat="24.156447" lon="120.556729"/>
<trkpt lat="24.156458" lon="120.556880"/>
<trkpt lat="24.156428" lon="120.556941"/>
<trkpt lat="24.156412" lon="120.556978"/>
<trkpt lat="24.156467" lon="120.557108"/>
<trkpt lat="24.156526" lon="120.557384"/>
<trkpt lat="24.156545" lon="120.557510"/>
<trkpt lat="24.156554" lon="120.557637"/>
<trkpt lat="24.156534" lon="120.557769"/>
<trkpt lat="24.156549" lon="120.557903"/>
<trkpt lat="24.156632" lon="120.557961"/>
<trkpt lat="24.156717" lon="120.558000"/>
<trkpt lat="24.156805" lon="120.557996"/>
<trkpt lat="24.156843" lon="120.558009"/>
<trkpt lat="24.156907" lon="120.558054"/>
<trkpt lat="24.156917" lon="120.558134"/>
<trkpt lat="24.156899" lon="120.558153"/>
<trkpt lat="24.156821" lon="120.558175"/>
<trkpt lat="24.156747" lon="120.558167"/>
<trkpt lat="24.156638" lon="120.558132"/>
<trkpt lat="24.156518" lon="120.558133"/>
<trkpt lat="24.156453" lon="120.558197"/>
<trkpt lat="24.156381" lon="120.558228"/>
<trkpt lat="24.156352" lon="120.558198"/>
<trkpt lat="24.156340" lon="120.558148"/>
<trkpt lat="24.156328" lon="120.558059"/>
<trkpt lat="24.156336" lon="120.557998"/>
<trkpt lat="24.156304" lon="120.557875"/>
<trkpt lat="24.156238" lon="120.557743"/>
<trkpt lat="24.156169" lon="120.557666"/>
<trkpt lat="24.156114" lon="120.557556"/>
<trkpt lat="24.156102" lon="120.557453"/>
<trkpt lat="24.156027" lon="120.557213"/>
<trkpt lat="24.155958" lon="120.557059"/>
<trkpt lat="24.155862" lon="120.556958"/>
<trkpt lat="24.155754" lon="120.556960"/>
<trkpt lat="24.155645" lon="120.556931"/>
<trkpt lat="24.155513" lon="120.556860"/>
<trkpt lat="24.155395" lon="120.556876"/>
<trkpt lat="24.155322" lon="120.556951"/>
<trkpt lat="24.155335" lon="120.557054"/>
<trkpt lat="24.155346" lon="120.557193"/>
<trkpt lat="24.155337" lon="120.557340"/>
<trkpt lat="24.155334" lon="120.557445"/>
<trkpt lat="24.155314" lon="120.557536"/>
<trkpt lat="24.155305" lon="120.557608"/>
<trkpt lat="24.155244" lon="120.557743"/>
<trkpt lat="24.155130" lon="120.557820"/>
<trkpt lat="24.155012" lon="120.557883"/>
<trkpt lat="24.154884" lon="120.557915"/>
<trkpt lat="24.154757" lon="120.557996"/>
<trkpt lat="24.154761" lon="120.558104"/>
<trkpt lat="24.154775" lon="120.558268"/>
<trkpt lat="24.154809" lon="120.558453"/>
<trkpt lat="24.154854" lon="120.558593"/>
<trkpt lat="24.154933" lon="120.558639"/>
<trkpt lat="24.155033" lon="120.558656"/>
<trkpt lat="24.155171" lon="120.558736"/>
<trkpt lat="24.155336" lon="120.558855"/>
<trkpt lat="24.155423" lon="120.558872"/>
<trkpt lat="24.155601" lon="120.558876"/>
<trkpt lat="24.155764" lon="120.558924"/>
<trkpt lat="24.156012" lon="120.559014"/>
<trkpt lat="24.156116" lon="120.559063"/>
<trkpt lat="24.156176" lon="120.559168"/>
<trkpt lat="24.156201" lon="120.559393"/>
<trkpt lat="24.156277" lon="120.559573"/>
<trkpt lat="24.156310" lon="120.559632"/>
<trkpt lat="24.156361" lon="120.559756"/>
<trkpt lat="24.156395" lon="120.559848"/>
<trkpt lat="24.156412" lon="120.559919"/>
<trkpt lat="24.156453" lon="120.559987"/>
<trkpt lat="24.156391" lon="120.559947"/>
<trkpt lat="24.156368" lon="120.559890"/>
<trkpt lat="24.156359" lon="120.559832"/>
<trkpt lat="24.156335" lon="120.559793"/>
<trkpt lat="24.156254" lon="120.559721"/>
<trkpt lat="24.156161" lon="120.559646"/>
<trkpt lat="24.156082" lon="120.559612"/>
<trkpt lat="24.156072" lon="120.559663"/>
<trkpt lat="24.156121" lon="120.559742"/>
<trkpt lat="24.156184" lon="120.559872"/>
<trkpt lat="24.156202" lon="120.559971"/>
<trkpt lat="24.156194" lon="120.560020"/>
<trkpt lat="24.156207" lon="120.560128"/>
<trkpt lat="24.156280" lon="120.560199"/>
<trkpt lat="24.156336" lon="120.560235"/>
<trkpt lat="24.156362" lon="120.560277"/>
<trkpt lat="24.156374" lon="120.560390"/>
<trkpt lat="24.156401" lon="120.560462"/>
<trkpt lat="24.156439" lon="120.560530"/>
<trkpt lat="24.156451" lon="120.560576"/>
<trkpt lat="24.156476" lon="120.560636"/>
<trkpt lat="24.156480" lon="120.560731"/>
<trkpt lat="24.156437" lon="120.560724"/>
<trkpt lat="24.156398" lon="120.560641"/>
<trkpt lat="24.156361" lon="120.560618"/>
<trkpt lat="24.156329" lon="120.560574"/>
<trkpt lat="24.156286" lon="120.560553"/>
<trkpt lat="24.156243" lon="120.560576"/>
<trkpt lat="24.156245" lon="120.560631"/>
<trkpt lat="24.156267" lon="120.560689"/>
<trkpt lat="24.156258" lon="120.560756"/>
<trkpt lat="24.156259" lon="120.560871"/>
<trkpt lat="24.156210" lon="120.560874"/>
<trkpt lat="24.156190" lon="120.560786"/>
<trkpt lat="24.156125" lon="120.560671"/>
<trkpt lat="24.156084" lon="120.560612"/>
<trkpt lat="24.156023" lon="120.560522"/>
<trkpt lat="24.155951" lon="120.560383"/>
<trkpt lat="24.155799" lon="120.560211"/>
<trkpt lat="24.155727" lon="120.560174"/>
<trkpt lat="24.155657" lon="120.560096"/>
<trkpt lat="24.155601" lon="120.559999"/>
<trkpt lat="24.155525" lon="120.559915"/>
<trkpt lat="24.155440" lon="120.559744"/>
<trkpt lat="24.155335" lon="120.559653"/>
<trkpt lat="24.155255" lon="120.559566"/>
<trkpt lat="24.155152" lon="120.559452"/>
<trkpt lat="24.155069" lon="120.559395"/>
<trkpt lat="24.154901" lon="120.559287"/>
<trkpt lat="24.154735" lon="120.559162"/>
<trkpt lat="24.154669" lon="120.559105"/>
<trkpt lat="24.154547" lon="120.558952"/>
<trkpt lat="24.154473" lon="120.558838"/>
<trkpt lat="24.154434" lon="120.558588"/>
<trkpt lat="24.154409" lon="120.558432"/>
<trkpt lat="24.154402" lon="120.558290"/>
<trkpt lat="24.154416" lon="120.558119"/>
<trkpt lat="24.154429" lon="120.558039"/>
<trkpt lat="24.154414" lon="120.557925"/>
<trkpt lat="24.154419" lon="120.557853"/>
<trkpt lat="24.154424" lon="120.557784"/>
<trkpt lat="24.154459" lon="120.557648"/>
<trkpt lat="24.154511" lon="120.557549"/>
<trkpt lat="24.154589" lon="120.557513"/>
<trkpt lat="24.154704" lon="120.557471"/>
<trkpt lat="24.154793" lon="120.557442"/>
<trkpt lat="24.154894" lon="120.557489"/>
<trkpt lat="24.154960" lon="120.557513"/>
<trkpt lat="24.155075" lon="120.557565"/>
<trkpt lat="24.155314" lon="120.557536"/>
<trkpt lat="24.155243" lon="120.557311"/>
<trkpt lat="24.155166" lon="120.557066"/>
<trkpt lat="24.155084" lon="120.556871"/>
<trkpt lat="24.154969" lon="120.556806"/>
<trkpt lat="24.154828" lon="120.556704"/>
<trkpt lat="24.154643" lon="120.556661"/>
<trkpt lat="24.154528" lon="120.556638"/>
<trkpt lat="24.154400" lon="120.556581"/>
<trkpt lat="24.154297" lon="120.556521"/>
<trkpt lat="24.154204" lon="120.556383"/>
<trkpt lat="24.154152" lon="120.556252"/>
<trkpt lat="24.154065" lon="120.556092"/>
<trkpt lat="24.154008" lon="120.555814"/>
<trkpt lat="24.153981" lon="120.555623"/>
<trkpt lat="24.153945" lon="120.555537"/>
<trkpt lat="24.153871" lon="120.555477"/>
<trkpt lat="24.153684" lon="120.555336"/>
<trkpt lat="24.153622" lon="120.555185"/>
<trkpt lat="24.153467" lon="120.554746"/>
<trkpt lat="24.153361" lon="120.554513"/>
<trkpt lat="24.153285" lon="120.554301"/>
<trkpt lat="24.153206" lon="120.554149"/>
<trkpt lat="24.153055" lon="120.554140"/>
<trkpt lat="24.152995" lon="120.554082"/>
<trkpt lat="24.152907" lon="120.553936"/>
<trkpt lat="24.152835" lon="120.553709"/>
<trkpt lat="24.152749" lon="120.553571"/>
<trkpt lat="24.152673" lon="120.553364"/>
<trkpt lat="24.152591" lon="120.553315"/>
<trkpt lat="24.152426" lon="120.553330"/>
<trkpt lat="24.152265" lon="120.553359"/>
<trkpt lat="24.152207" lon="120.553357"/>
<trkpt lat="24.152123" lon="120.553359"/>
<trkpt lat="24.152061" lon="120.553172"/>
<trkpt lat="24.152029" lon="120.553018"/>
<trkpt lat="24.151996" lon="120.552788"/>
<trkpt lat="24.151979" lon="120.552614"/>
<trkpt lat="24.152001" lon="120.552136"/>
<trkpt lat="24.151981" lon="120.551964"/>
<trkpt lat="24.151914" lon="120.551644"/>
<trkpt lat="24.151711" lon="120.551702"/>
<trkpt lat="24.151482" lon="120.551766"/>
<trkpt lat="24.151446" lon="120.551804"/>
<trkpt lat="24.151091" lon="120.551928"/>
</trkseg></trk>
</gpx>