<?xml version="1.0" encoding="UTF-8"?>
<gpx version="1.1" creator="catrun" xmlns="http://www.topografix.com/GPX/1/1">
<metadata><name>大甲區 手繪蹲坐貓（原稿描圖） 圖形路跑路線</name></metadata>
<wpt lat="24.397782" lon="120.676828"><name>李家花園</name><desc>地標</desc></wpt>
<wpt lat="24.398360" lon="120.677678"><name>土地公廟園區</name><desc>地標</desc></wpt>
<trk><name>大甲區 手繪蹲坐貓（原稿描圖） 圖形路跑路線</name><trkseg>
<trkpt lat="24.394670" lon="120.678989"/>
<trkpt lat="24.394619" lon="120.678796"/>
<trkpt lat="24.394848" lon="120.678602"/>
<trkpt lat="24.394967" lon="120.678776"/>
<trkpt lat="24.395526" lon="120.678286"/>
<trkpt lat="24.396133" lon="120.677786"/>
<trkpt lat="24.396346" lon="120.678072"/>
<trkpt lat="24.396418" lon="120.678168"/>
<trkpt lat="24.396951" lon="120.678855"/>
<trkpt lat="24.396490" lon="120.679404"/>
<trkpt lat="24.396624" lon="120.679506"/>
<trkpt lat="24.396748" lon="120.679662"/>
<trkpt lat="24.396951" lon="120.679489"/>
<trkpt lat="24.397171" lon="120.679050"/>
<trkpt lat="24.397601" lon="120.678580"/>
<trkpt lat="24.398011" lon="120.678842"/>
<trkpt lat="24.398856" lon="120.679347"/>
<trkpt lat="24.400202" lon="120.680789"/>
<trkpt lat="24.400893" lon="120.681534"/>
<trkpt lat="24.402238" lon="120.680004"/>
<trkpt lat="24.403096" lon="120.679028"/>
<trkpt lat="24.403681" lon="120.679654"/>
<trkpt lat="24.403868" lon="120.679854"/>
<trkpt lat="24.404465" lon="120.680493"/>
<trkpt lat="24.405154" lon="120.681228"/>
<trkpt lat="24.405615" lon="120.681066"/>
<trkpt lat="24.405916" lon="120.680861"/>
<trkpt lat="24.406095" lon="120.680724"/>
<trkpt lat="24.406634" lon="120.680312"/>
<trkpt lat="24.407297" lon="120.681018"/>
<trkpt lat="24.407207" lon="120.681081"/>
<trkpt lat="24.406902" lon="120.681295"/>
<trkpt lat="24.406784" lon="120.681376"/>
<trkpt lat="24.406736" lon="120.681394"/>
<trkpt lat="24.406620" lon="120.681378"/>
<trkpt lat="24.405991" lon="120.681838"/>
<trkpt lat="24.405768" lon="120.682002"/>
<trkpt lat="24.405222" lon="120.682604"/>
<trkpt lat="24.405203" lon="120.682625"/>
<trkpt lat="24.404765" lon="120.683074"/>
<trkpt lat="24.404844" lon="120.683216"/>
<trkpt lat="24.404368" lon="120.683783"/>
<trkpt lat="24.404246" lon="120.683930"/>
<trkpt lat="24.404186" lon="120.683975"/>
<trkpt lat="24.404125" lon="120.684000"/>
<trkpt lat="24.403961" lon="120.684015"/>
<trkpt lat="24.403901" lon="120.684073"/>
<trkpt lat="24.403886" lon="120.684088"/>
<trkpt lat="24.403717" lon="120.684321"/>
<trkpt lat="24.403453" lon="120.684575"/>
<trkpt lat="24.403405" lon="120.684607"/>
<trkpt lat="24.403287" lon="120.684679"/>
<trkpt lat="24.403243" lon="120.684739"/>
<trkpt lat="24.403181" lon="120.684864"/>
<trkpt lat="24.403156" lon="120.684914"/>
<trkpt lat="24.402990" lon="120.685108"/>
<trkpt lat="24.402822" lon="120.685303"/>
<trkpt lat="24.402763" lon="120.685349"/>
<trkpt lat="24.402719" lon="120.685374"/>
<trkpt lat="24.402403" lon="120.685496"/>
<trkpt lat="24.402357" lon="120.685592"/>
<trkpt lat="24.402323" lon="120.685701"/>
<trkpt lat="24.402153" lon="120.685866"/>
<trkpt lat="24.402075" lon="120.685934"/>
<trkpt lat="24.401978" lon="120.686246"/>
<trkpt lat="24.401560" lon="120.686732"/>
<trkpt lat="24.401168" lon="120.687188"/>
<trkpt lat="24.400791" lon="120.687785"/>
<trkpt lat="24.400481" lon="120.687935"/>
<trkpt lat="24.399759" lon="120.688747"/>
<trkpt lat="24.398310" lon="120.688415"/>
<trkpt lat="24.397589" lon="120.688234"/>
<trkpt lat="24.395987" lon="120.687847"/>
<trkpt lat="24.395259" lon="120.687680"/>
<trkpt lat="24.395070" lon="120.687639"/>
<trkpt lat="24.394652" lon="120.687537"/>
<trkpt lat="24.394505" lon="120.687688"/>
<trkpt lat="24.394589" lon="120.687897"/>
<trkpt lat="24.394637" lon="120.688028"/>
<trkpt lat="24.394401" lon="120.688092"/>
<trkpt lat="24.393804" lon="120.688141"/>
<trkpt lat="24.393671" lon="120.688206"/>
<trkpt lat="24.393319" lon="120.688553"/>
<trkpt lat="24.393677" lon="120.688985"/>
<trkpt lat="24.393112" lon="120.689629"/>
<trkpt lat="24.393476" lon="120.690156"/>
<trkpt lat="24.392937" lon="120.690665"/>
<trkpt lat="24.392470" lon="120.691313"/>
<trkpt lat="24.393561" lon="120.692329"/>
<trkpt lat="24.393268" lon="120.692756"/>
<trkpt lat="24.393057" lon="120.692995"/>
<trkpt lat="24.392733" lon="120.693498"/>
<trkpt lat="24.391163" lon="120.695442"/>
<trkpt lat="24.390545" lon="120.694855"/>
<trkpt lat="24.390261" lon="120.694587"/>
<trkpt lat="24.389959" lon="120.694300"/>
<trkpt lat="24.390533" lon="120.693558"/>
<trkpt lat="24.390740" lon="120.693237"/>
<trkpt lat="24.391507" lon="120.692456"/>
<trkpt lat="24.391531" lon="120.692427"/>
<trkpt lat="24.391692" lon="120.692237"/>
<trkpt lat="24.392470" lon="120.691313"/>
<trkpt lat="24.391860" lon="120.690752"/>
<trkpt lat="24.391485" lon="120.690407"/>
<trkpt lat="24.391464" lon="120.690386"/>
<trkpt lat="24.392076" lon="120.689798"/>
<trkpt lat="24.392017" lon="120.689712"/>
<trkpt lat="24.393347" lon="120.688383"/>
<trkpt lat="24.393668" lon="120.688084"/>
<trkpt lat="24.393797" lon="120.688031"/>
<trkpt lat="24.394412" lon="120.687978"/>
<trkpt lat="24.394589" lon="120.687897"/>
<trkpt lat="24.394505" lon="120.687688"/>
<trkpt lat="24.394431" lon="120.687479"/>
<trkpt lat="24.392107" lon="120.686924"/>
<trkpt lat="24.392127" lon="120.686893"/>
<trkpt lat="24.392148" lon="120.686863"/>
<trkpt lat="24.391660" lon="120.686734"/>
<trkpt lat="24.392758" lon="120.685589"/>
<trkpt lat="24.393041" lon="120.685246"/>
<trkpt lat="24.393407" lon="120.685008"/>
<trkpt lat="24.393142" lon="120.684434"/>
<trkpt lat="24.393094" lon="120.684262"/>
<trkpt lat="24.393416" lon="120.683918"/>
<trkpt lat="24.393980" lon="120.683265"/>
<trkpt lat="24.394350" lon="120.682848"/>
<trkpt lat="24.393968" lon="120.682528"/>
<trkpt lat="24.393712" lon="120.682243"/>
<trkpt lat="24.393645" lon="120.682063"/>
<trkpt lat="24.393843" lon="120.681964"/>
<trkpt lat="24.394116" lon="120.681670"/>
<trkpt lat="24.394535" lon="120.681275"/>
<trkpt lat="24.393949" lon="120.680531"/>
<trkpt lat="24.393463" lon="120.679914"/>
<trkpt lat="24.393721" lon="120.679735"/>
<trkpt lat="24.394670" lon="120.678989"/>
</trkseg></trk>
</gpx>