<?xml version="1.0" encoding="UTF-8"?>
<gpx version="1.1" creator="catrun" xmlns="http://www.topografix.com/GPX/1/1">
<metadata><name>大里區 手繪蹲坐貓（原稿描圖） 圖形路跑路線</name></metadata>
<wpt lat="24.099553" lon="120.679365"><name>鹹菜桶</name><desc>地標</desc></wpt>
<wpt lat="24.100800" lon="120.678739"><name>光武公園</name><desc>地標</desc></wpt>
<wpt lat="24.104789" lon="120.679023"><name>環保公園</name><desc>地標</desc></wpt>
<trk><name>大里區 手繪蹲坐貓（原稿描圖） 圖形路跑路線</name><trkseg>
<trkpt lat="24.100732" lon="120.678998"/>
<trkpt lat="24.100292" lon="120.679136"/>
<trkpt lat="24.100282" lon="120.679079"/>
<trkpt lat="24.100320" lon="120.679068"/>
<trkpt lat="24.100301" lon="120.678965"/>
<trkpt lat="24.100291" lon="120.678914"/>
<trkpt lat="24.100284" lon="120.678895"/>
<trkpt lat="24.100272" lon="120.678861"/>
<trkpt lat="24.100397" lon="120.678838"/>
<trkpt lat="24.100468" lon="120.678862"/>
<trkpt lat="24.100730" lon="120.678869"/>
<trkpt lat="24.100821" lon="120.678892"/>
<trkpt lat="24.100898" lon="120.678892"/>
<trkpt lat="24.101178" lon="120.678809"/>
<trkpt lat="24.101147" lon="120.678657"/>
<trkpt lat="24.101174" lon="120.678637"/>
<trkpt lat="24.101650" lon="120.678489"/>
<trkpt lat="24.101624" lon="120.678395"/>
<trkpt lat="24.101674" lon="120.678373"/>
<trkpt lat="24.101791" lon="120.678661"/>
<trkpt lat="24.101848" lon="120.678824"/>
<trkpt lat="24.101905" lon="120.678794"/>
<trkpt lat="24.102710" lon="120.678581"/>
<trkpt lat="24.102818" lon="120.678963"/>
<trkpt lat="24.102837" lon="120.679027"/>
<trkpt lat="24.102867" lon="120.679158"/>
<trkpt lat="24.102870" lon="120.679205"/>
<trkpt lat="24.102868" lon="120.679261"/>
<trkpt lat="24.102820" lon="120.679434"/>
<trkpt lat="24.102740" lon="120.679522"/>
<trkpt lat="24.102610" lon="120.679624"/>
<trkpt lat="24.102581" lon="120.679640"/>
<trkpt lat="24.102476" lon="120.679697"/>
<trkpt lat="24.102258" lon="120.679752"/>
<trkpt lat="24.102408" lon="120.679877"/>
<trkpt lat="24.102847" lon="120.680179"/>
<trkpt lat="24.102899" lon="120.680206"/>
<trkpt lat="24.102981" lon="120.680248"/>
<trkpt lat="24.103205" lon="120.680349"/>
<trkpt lat="24.103519" lon="120.680487"/>
<trkpt lat="24.103854" lon="120.680622"/>
<trkpt lat="24.103812" lon="120.680436"/>
<trkpt lat="24.103731" lon="120.680119"/>
<trkpt lat="24.104101" lon="120.679997"/>
<trkpt lat="24.104354" lon="120.679912"/>
<trkpt lat="24.104428" lon="120.679885"/>
<trkpt lat="24.104498" lon="120.680101"/>
<trkpt lat="24.104640" lon="120.680041"/>
<trkpt lat="24.104704" lon="120.679935"/>
<trkpt lat="24.104711" lon="120.679927"/>
<trkpt lat="24.104699" lon="120.679895"/>
<trkpt lat="24.104368" lon="120.678860"/>
<trkpt lat="24.104378" lon="120.678869"/>
<trkpt lat="24.104401" lon="120.678887"/>
<trkpt lat="24.104433" lon="120.678898"/>
<trkpt lat="24.104464" lon="120.678908"/>
<trkpt lat="24.104500" lon="120.678912"/>
<trkpt lat="24.104533" lon="120.678915"/>
<trkpt lat="24.104602" lon="120.678909"/>
<trkpt lat="24.104832" lon="120.678872"/>
<trkpt lat="24.105131" lon="120.679703"/>
<trkpt lat="24.105158" lon="120.679779"/>
<trkpt lat="24.105382" lon="120.679706"/>
<trkpt lat="24.105436" lon="120.679731"/>
<trkpt lat="24.105486" lon="120.679769"/>
<trkpt lat="24.105767" lon="120.679688"/>
<trkpt lat="24.105906" lon="120.679645"/>
<trkpt lat="24.106088" lon="120.679588"/>
<trkpt lat="24.106231" lon="120.679543"/>
<trkpt lat="24.106398" lon="120.679501"/>
<trkpt lat="24.106661" lon="120.679423"/>
<trkpt lat="24.107043" lon="120.679307"/>
<trkpt lat="24.107315" lon="120.679232"/>
<trkpt lat="24.107653" lon="120.679118"/>
<trkpt lat="24.107866" lon="120.679046"/>
<trkpt lat="24.107869" lon="120.678486"/>
<trkpt lat="24.107870" lon="120.678164"/>
<trkpt lat="24.107872" lon="120.677846"/>
<trkpt lat="24.107873" lon="120.677504"/>
<trkpt lat="24.108614" lon="120.677464"/>
<trkpt lat="24.108783" lon="120.677455"/>
<trkpt lat="24.109247" lon="120.677427"/>
<trkpt lat="24.109338" lon="120.677396"/>
<trkpt lat="24.109340" lon="120.676583"/>
<trkpt lat="24.109758" lon="120.676550"/>
<trkpt lat="24.110100" lon="120.676525"/>
<trkpt lat="24.110387" lon="120.676506"/>
<trkpt lat="24.110608" lon="120.676489"/>
<trkpt lat="24.110721" lon="120.676482"/>
<trkpt lat="24.110839" lon="120.676475"/>
<trkpt lat="24.110835" lon="120.677299"/>
<trkpt lat="24.110833" lon="120.678477"/>
<trkpt lat="24.111527" lon="120.678240"/>
<trkpt lat="24.112054" lon="120.678059"/>
<trkpt lat="24.112140" lon="120.678422"/>
<trkpt lat="24.112238" lon="120.678752"/>
<trkpt lat="24.112281" lon="120.678876"/>
<trkpt lat="24.112398" lon="120.678857"/>
<trkpt lat="24.112463" lon="120.678903"/>
<trkpt lat="24.112464" lon="120.678947"/>
<trkpt lat="24.112468" lon="120.679079"/>
<trkpt lat="24.112472" lon="120.679146"/>
<trkpt lat="24.112424" lon="120.679147"/>
<trkpt lat="24.112411" lon="120.679186"/>
<trkpt lat="24.112359" lon="120.679189"/>
<trkpt lat="24.112481" lon="120.679648"/>
<trkpt lat="24.111868" lon="120.679828"/>
<trkpt lat="24.111975" lon="120.680215"/>
<trkpt lat="24.112077" lon="120.680550"/>
<trkpt lat="24.112138" lon="120.680781"/>
<trkpt lat="24.112158" lon="120.680894"/>
<trkpt lat="24.112309" lon="120.681428"/>
<trkpt lat="24.111989" lon="120.681482"/>
<trkpt lat="24.111618" lon="120.681543"/>
<trkpt lat="24.111116" lon="120.681651"/>
<trkpt lat="24.110561" lon="120.681738"/>
<trkpt lat="24.110429" lon="120.681766"/>
<trkpt lat="24.110489" lon="120.682214"/>
<trkpt lat="24.110369" lon="120.682373"/>
<trkpt lat="24.110390" lon="120.682435"/>
<trkpt lat="24.110289" lon="120.682594"/>
<trkpt lat="24.110141" lon="120.682487"/>
<trkpt lat="24.110011" lon="120.682496"/>
<trkpt lat="24.109906" lon="120.681991"/>
<trkpt lat="24.109835" lon="120.682005"/>
<trkpt lat="24.109846" lon="120.682058"/>
<trkpt lat="24.109900" lon="120.682308"/>
<trkpt lat="24.110013" lon="120.682912"/>
<trkpt lat="24.109904" lon="120.682911"/>
<trkpt lat="24.109908" lon="120.682997"/>
<trkpt lat="24.109843" lon="120.683002"/>
<trkpt lat="24.109845" lon="120.683119"/>
<trkpt lat="24.109830" lon="120.683149"/>
<trkpt lat="24.109795" lon="120.683181"/>
<trkpt lat="24.109783" lon="120.683216"/>
<trkpt lat="24.109619" lon="120.683224"/>
<trkpt lat="24.109602" lon="120.683230"/>
<trkpt lat="24.109576" lon="120.683230"/>
<trkpt lat="24.109574" lon="120.683205"/>
<trkpt lat="24.109646" lon="120.683182"/>
<trkpt lat="24.109674" lon="120.683145"/>
<trkpt lat="24.109660" lon="120.683102"/>
<trkpt lat="24.109661" lon="120.683058"/>
<trkpt lat="24.109660" lon="120.682920"/>
<trkpt lat="24.109904" lon="120.682911"/>
<trkpt lat="24.110013" lon="120.682912"/>
<trkpt lat="24.110031" lon="120.683007"/>
<trkpt lat="24.110159" lon="120.683686"/>
<trkpt lat="24.110143" lon="120.683741"/>
<trkpt lat="24.110109" lon="120.683762"/>
<trkpt lat="24.109759" lon="120.683759"/>
<trkpt lat="24.109264" lon="120.683787"/>
<trkpt lat="24.108911" lon="120.683805"/>
<trkpt lat="24.108715" lon="120.683821"/>
<trkpt lat="24.108581" lon="120.683862"/>
<trkpt lat="24.108511" lon="120.683886"/>
<trkpt lat="24.108512" lon="120.683976"/>
<trkpt lat="24.108781" lon="120.683921"/>
<trkpt lat="24.109064" lon="120.683881"/>
<trkpt lat="24.109354" lon="120.683861"/>
<trkpt lat="24.109477" lon="120.683860"/>
<trkpt lat="24.109646" lon="120.683858"/>
<trkpt lat="24.109665" lon="120.684469"/>
<trkpt lat="24.109377" lon="120.684475"/>
<trkpt lat="24.109157" lon="120.684493"/>
<trkpt lat="24.108983" lon="120.684556"/>
<trkpt lat="24.108760" lon="120.684653"/>
<trkpt lat="24.108523" lon="120.684842"/>
<trkpt lat="24.108434" lon="120.684922"/>
<trkpt lat="24.108236" lon="120.685115"/>
<trkpt lat="24.108191" lon="120.685210"/>
<trkpt lat="24.107914" lon="120.685713"/>
<trkpt lat="24.107719" lon="120.686246"/>
<trkpt lat="24.107601" lon="120.686658"/>
<trkpt lat="24.107227" lon="120.686528"/>
<trkpt lat="24.106838" lon="120.686392"/>
<trkpt lat="24.106828" lon="120.686438"/>
<trkpt lat="24.106856" lon="120.686480"/>
<trkpt lat="24.106814" lon="120.686512"/>
<trkpt lat="24.106812" lon="120.686527"/>
<trkpt lat="24.106800" lon="120.686581"/>
<trkpt lat="24.106725" lon="120.686575"/>
<trkpt lat="24.106706" lon="120.686785"/>
<trkpt lat="24.106632" lon="120.687418"/>
<trkpt lat="24.106628" lon="120.687508"/>
<trkpt lat="24.106534" lon="120.688161"/>
<trkpt lat="24.106497" lon="120.688458"/>
<trkpt lat="24.105814" lon="120.687885"/>
<trkpt lat="24.105063" lon="120.687224"/>
<trkpt lat="24.104837" lon="120.688202"/>
<trkpt lat="24.104284" lon="120.688056"/>
<trkpt lat="24.104083" lon="120.688003"/>
<trkpt lat="24.104063" lon="120.687996"/>
<trkpt lat="24.103653" lon="120.687862"/>
<trkpt lat="24.103333" lon="120.687757"/>
<trkpt lat="24.103308" lon="120.687750"/>
<trkpt lat="24.102366" lon="120.687471"/>
<trkpt lat="24.102236" lon="120.687430"/>
<trkpt lat="24.102030" lon="120.687883"/>
<trkpt lat="24.101851" lon="120.688201"/>
<trkpt lat="24.101978" lon="120.688243"/>
<trkpt lat="24.101756" lon="120.688644"/>
<trkpt lat="24.101591" lon="120.688918"/>
<trkpt lat="24.101914" lon="120.689157"/>
<trkpt lat="24.102109" lon="120.689301"/>
<trkpt lat="24.101951" lon="120.689529"/>
<trkpt lat="24.101943" lon="120.689579"/>
<trkpt lat="24.102273" lon="120.689833"/>
<trkpt lat="24.102289" lon="120.689845"/>
<trkpt lat="24.102280" lon="120.689860"/>
<trkpt lat="24.102276" lon="120.689905"/>
<trkpt lat="24.102122" lon="120.690151"/>
<trkpt lat="24.101907" lon="120.690495"/>
<trkpt lat="24.101540" lon="120.691088"/>
<trkpt lat="24.101070" lon="120.691886"/>
<trkpt lat="24.100785" lon="120.691767"/>
<trkpt lat="24.100689" lon="120.691724"/>
<trkpt lat="24.100635" lon="120.691702"/>
<trkpt lat="24.100546" lon="120.691660"/>
<trkpt lat="24.100609" lon="120.691524"/>
<trkpt lat="24.100660" lon="120.691387"/>
<trkpt lat="24.100714" lon="120.691041"/>
<trkpt lat="24.100731" lon="120.690856"/>
<trkpt lat="24.100756" lon="120.690535"/>
<trkpt lat="24.100832" lon="120.690173"/>
<trkpt lat="24.100865" lon="120.690066"/>
<trkpt lat="24.100961" lon="120.689798"/>
<trkpt lat="24.100314" lon="120.689322"/>
<trkpt lat="24.100509" lon="120.688961"/>
<trkpt lat="24.100695" lon="120.688657"/>
<trkpt lat="24.100207" lon="120.688321"/>
<trkpt lat="24.100324" lon="120.687772"/>
<trkpt lat="24.100429" lon="120.687237"/>
<trkpt lat="24.100479" lon="120.686872"/>
<trkpt lat="24.100532" lon="120.685840"/>
<trkpt lat="24.100570" lon="120.685325"/>
<trkpt lat="24.100626" lon="120.684400"/>
<trkpt lat="24.100660" lon="120.683788"/>
<trkpt lat="24.100667" lon="120.683657"/>
<trkpt lat="24.100671" lon="120.683603"/>
<trkpt lat="24.100687" lon="120.683327"/>
<trkpt lat="24.100511" lon="120.682665"/>
<trkpt lat="24.100573" lon="120.682639"/>
<trkpt lat="24.100628" lon="120.682593"/>
<trkpt lat="24.100610" lon="120.682512"/>
<trkpt lat="24.100581" lon="120.682375"/>
<trkpt lat="24.100565" lon="120.682298"/>
<trkpt lat="24.100525" lon="120.682265"/>
<trkpt lat="24.100421" lon="120.682291"/>
<trkpt lat="24.100292" lon="120.681787"/>
<trkpt lat="24.100276" lon="120.681725"/>
<trkpt lat="24.100832" lon="120.681569"/>
<trkpt lat="24.100667" lon="120.680912"/>
<trkpt lat="24.100879" lon="120.680854"/>
<trkpt lat="24.101732" lon="120.680618"/>
<trkpt lat="24.101668" lon="120.680339"/>
<trkpt lat="24.101562" lon="120.679941"/>
<trkpt lat="24.101056" lon="120.680081"/>
<trkpt lat="24.100789" lon="120.678973"/>
<trkpt lat="24.100732" lon="120.678998"/>
</trkseg></trk>
</gpx>