<?xml version="1.0" encoding="UTF-8"?>
<gpx version="1.1" creator="catrun" xmlns="http://www.topografix.com/GPX/1/1">
<metadata><name>大雅區 手繪蹲坐貓（原稿描圖） 圖形路跑路線</name></metadata>
<wpt lat="24.222733" lon="120.644627"><name>文雅兒童公園</name><desc>地標</desc></wpt>
<wpt lat="24.223685" lon="120.646652"><name>大雅公園</name><desc>地標</desc></wpt>
<wpt lat="24.225756" lon="120.650042"><name>大榮公園</name><desc>地標</desc></wpt>
<trk><name>大雅區 手繪蹲坐貓（原稿描圖） 圖形路跑路線</name><trkseg>
<trkpt lat="24.220158" lon="120.646716"/>
<trkpt lat="24.219556" lon="120.646997"/>
<trkpt lat="24.219396" lon="120.646580"/>
<trkpt lat="24.219458" lon="120.646551"/>
<trkpt lat="24.220269" lon="120.646175"/>
<trkpt lat="24.220856" lon="120.645901"/>
<trkpt lat="24.221348" lon="120.645671"/>
<trkpt lat="24.221504" lon="120.645595"/>
<trkpt lat="24.221531" lon="120.645583"/>
<trkpt lat="24.221833" lon="120.645445"/>
<trkpt lat="24.221908" lon="120.645410"/>
<trkpt lat="24.221912" lon="120.645408"/>
<trkpt lat="24.222144" lon="120.645683"/>
<trkpt lat="24.222371" lon="120.645951"/>
<trkpt lat="24.222617" lon="120.646244"/>
<trkpt lat="24.222668" lon="120.646370"/>
<trkpt lat="24.222681" lon="120.646597"/>
<trkpt lat="24.222618" lon="120.646747"/>
<trkpt lat="24.223019" lon="120.646557"/>
<trkpt lat="24.223330" lon="120.647236"/>
<trkpt lat="24.223654" lon="120.647077"/>
<trkpt lat="24.223876" lon="120.647774"/>
<trkpt lat="24.224031" lon="120.647633"/>
<trkpt lat="24.224391" lon="120.647253"/>
<trkpt lat="24.225198" lon="120.648030"/>
<trkpt lat="24.225637" lon="120.648455"/>
<trkpt lat="24.225723" lon="120.648407"/>
<trkpt lat="24.226045" lon="120.648553"/>
<trkpt lat="24.226087" lon="120.648533"/>
<trkpt lat="24.226289" lon="120.648435"/>
<trkpt lat="24.226581" lon="120.648293"/>
<trkpt lat="24.227210" lon="120.648019"/>
<trkpt lat="24.226816" lon="120.646856"/>
<trkpt lat="24.226689" lon="120.646482"/>
<trkpt lat="24.226958" lon="120.646384"/>
<trkpt lat="24.227276" lon="120.646202"/>
<trkpt lat="24.227314" lon="120.646180"/>
<trkpt lat="24.227475" lon="120.646061"/>
<trkpt lat="24.227675" lon="120.645892"/>
<trkpt lat="24.228044" lon="120.646042"/>
<trkpt lat="24.228591" lon="120.646296"/>
<trkpt lat="24.228720" lon="120.646381"/>
<trkpt lat="24.228924" lon="120.646494"/>
<trkpt lat="24.229071" lon="120.646687"/>
<trkpt lat="24.229163" lon="120.646840"/>
<trkpt lat="24.229252" lon="120.646988"/>
<trkpt lat="24.229251" lon="120.647183"/>
<trkpt lat="24.229253" lon="120.647417"/>
<trkpt lat="24.229255" lon="120.647794"/>
<trkpt lat="24.229258" lon="120.648153"/>
<trkpt lat="24.229262" lon="120.648674"/>
<trkpt lat="24.229675" lon="120.648675"/>
<trkpt lat="24.229809" lon="120.648692"/>
<trkpt lat="24.229848" lon="120.648703"/>
<trkpt lat="24.229910" lon="120.648704"/>
<trkpt lat="24.229917" lon="120.649317"/>
<trkpt lat="24.230017" lon="120.649344"/>
<trkpt lat="24.230103" lon="120.649346"/>
<trkpt lat="24.230183" lon="120.649373"/>
<trkpt lat="24.230251" lon="120.649383"/>
<trkpt lat="24.230318" lon="120.649394"/>
<trkpt lat="24.230407" lon="120.649344"/>
<trkpt lat="24.230515" lon="120.649290"/>
<trkpt lat="24.230736" lon="120.649168"/>
<trkpt lat="24.230695" lon="120.649401"/>
<trkpt lat="24.230529" lon="120.650181"/>
<trkpt lat="24.230528" lon="120.650301"/>
<trkpt lat="24.230528" lon="120.650320"/>
<trkpt lat="24.229986" lon="120.650323"/>
<trkpt lat="24.229269" lon="120.650327"/>
<trkpt lat="24.229266" lon="120.650369"/>
<trkpt lat="24.229230" lon="120.650521"/>
<trkpt lat="24.229157" lon="120.650825"/>
<trkpt lat="24.229065" lon="120.650976"/>
<trkpt lat="24.228939" lon="120.651130"/>
<trkpt lat="24.228780" lon="120.651256"/>
<trkpt lat="24.228582" lon="120.651386"/>
<trkpt lat="24.227966" lon="120.651777"/>
<trkpt lat="24.227396" lon="120.652143"/>
<trkpt lat="24.226871" lon="120.652494"/>
<trkpt lat="24.226467" lon="120.652744"/>
<trkpt lat="24.226261" lon="120.652881"/>
<trkpt lat="24.226144" lon="120.652960"/>
<trkpt lat="24.225655" lon="120.653279"/>
<trkpt lat="24.225381" lon="120.653449"/>
<trkpt lat="24.225399" lon="120.653756"/>
<trkpt lat="24.225355" lon="120.653831"/>
<trkpt lat="24.225059" lon="120.654268"/>
<trkpt lat="24.224958" lon="120.654367"/>
<trkpt lat="24.224827" lon="120.653599"/>
<trkpt lat="24.224121" lon="120.653595"/>
<trkpt lat="24.224009" lon="120.653595"/>
<trkpt lat="24.223845" lon="120.653596"/>
<trkpt lat="24.222993" lon="120.653597"/>
<trkpt lat="24.222996" lon="120.653896"/>
<trkpt lat="24.223541" lon="120.653947"/>
<trkpt lat="24.223585" lon="120.654022"/>
<trkpt lat="24.223607" lon="120.654312"/>
<trkpt lat="24.223624" lon="120.654381"/>
<trkpt lat="24.223619" lon="120.654670"/>
<trkpt lat="24.223620" lon="120.654856"/>
<trkpt lat="24.223602" lon="120.654848"/>
<trkpt lat="24.223420" lon="120.654843"/>
<trkpt lat="24.223251" lon="120.655464"/>
<trkpt lat="24.222770" lon="120.655682"/>
<trkpt lat="24.222674" lon="120.655712"/>
<trkpt lat="24.222543" lon="120.655396"/>
<trkpt lat="24.222022" lon="120.655205"/>
<trkpt lat="24.221986" lon="120.655189"/>
<trkpt lat="24.221703" lon="120.655086"/>
<trkpt lat="24.221353" lon="120.655055"/>
<trkpt lat="24.221012" lon="120.655025"/>
<trkpt lat="24.220935" lon="120.655527"/>
<trkpt lat="24.220836" lon="120.655514"/>
<trkpt lat="24.220906" lon="120.655064"/>
<trkpt lat="24.220834" lon="120.655042"/>
<trkpt lat="24.219043" lon="120.654550"/>
<trkpt lat="24.219055" lon="120.653985"/>
<trkpt lat="24.218811" lon="120.653976"/>
<trkpt lat="24.218729" lon="120.653972"/>
<trkpt lat="24.218058" lon="120.653946"/>
<trkpt lat="24.217534" lon="120.653926"/>
<trkpt lat="24.217486" lon="120.654602"/>
<trkpt lat="24.217479" lon="120.655059"/>
<trkpt lat="24.217468" lon="120.655223"/>
<trkpt lat="24.217463" lon="120.655548"/>
<trkpt lat="24.217471" lon="120.655783"/>
<trkpt lat="24.217476" lon="120.655951"/>
<trkpt lat="24.218410" lon="120.656207"/>
<trkpt lat="24.218384" lon="120.656743"/>
<trkpt lat="24.218240" lon="120.659812"/>
<trkpt lat="24.218262" lon="120.660217"/>
<trkpt lat="24.218004" lon="120.660172"/>
<trkpt lat="24.217699" lon="120.660088"/>
<trkpt lat="24.217747" lon="120.659825"/>
<trkpt lat="24.217585" lon="120.659649"/>
<trkpt lat="24.217222" lon="120.659620"/>
<trkpt lat="24.217182" lon="120.660048"/>
<trkpt lat="24.216956" lon="120.660029"/>
<trkpt lat="24.216993" lon="120.659509"/>
<trkpt lat="24.217023" lon="120.659076"/>
<trkpt lat="24.217266" lon="120.659093"/>
<trkpt lat="24.217271" lon="120.658944"/>
<trkpt lat="24.217285" lon="120.658809"/>
<trkpt lat="24.217327" lon="120.658660"/>
<trkpt lat="24.217363" lon="120.658002"/>
<trkpt lat="24.217388" lon="120.657549"/>
<trkpt lat="24.217476" lon="120.655951"/>
<trkpt lat="24.217471" lon="120.655783"/>
<trkpt lat="24.217463" lon="120.655548"/>
<trkpt lat="24.217468" lon="120.655223"/>
<trkpt lat="24.217479" lon="120.655059"/>
<trkpt lat="24.217486" lon="120.654602"/>
<trkpt lat="24.218021" lon="120.654632"/>
<trkpt lat="24.218034" lon="120.654396"/>
<trkpt lat="24.218058" lon="120.653946"/>
<trkpt lat="24.218094" lon="120.653266"/>
<trkpt lat="24.218511" lon="120.653288"/>
<trkpt lat="24.219082" lon="120.653306"/>
<trkpt lat="24.219094" lon="120.652635"/>
<trkpt lat="24.219113" lon="120.651568"/>
<trkpt lat="24.219095" lon="120.651058"/>
<trkpt lat="24.219014" lon="120.650515"/>
<trkpt lat="24.219317" lon="120.650452"/>
<trkpt lat="24.219632" lon="120.650386"/>
<trkpt lat="24.219532" lon="120.649771"/>
<trkpt lat="24.220315" lon="120.649838"/>
<trkpt lat="24.220197" lon="120.649210"/>
<trkpt lat="24.220556" lon="120.649138"/>
<trkpt lat="24.220582" lon="120.648900"/>
<trkpt lat="24.219871" lon="120.648596"/>
<trkpt lat="24.219810" lon="120.648610"/>
<trkpt lat="24.218745" lon="120.648833"/>
<trkpt lat="24.218501" lon="120.648873"/>
<trkpt lat="24.218420" lon="120.648707"/>
<trkpt lat="24.218679" lon="120.648575"/>
<trkpt lat="24.219432" lon="120.648262"/>
<trkpt lat="24.219792" lon="120.648082"/>
<trkpt lat="24.219824" lon="120.648068"/>
<trkpt lat="24.220507" lon="120.647748"/>
<trkpt lat="24.220464" lon="120.647630"/>
<trkpt lat="24.220295" lon="120.647174"/>
<trkpt lat="24.220210" lon="120.646947"/>
<trkpt lat="24.219725" lon="120.647174"/>
<trkpt lat="24.219658" lon="120.647201"/>
<trkpt lat="24.219620" lon="120.647166"/>
<trkpt lat="24.219556" lon="120.646997"/>
<trkpt lat="24.220158" lon="120.646716"/>
</trkseg></trk>
</gpx>