<?xml version="1.0" encoding="UTF-8"?>
<gpx version="1.1" creator="catrun" xmlns="http://www.topografix.com/GPX/1/1">
<metadata><name>東勢區 手繪蹲坐貓（原稿描圖） 圖形路跑路線</name></metadata>
<wpt lat="24.221973" lon="120.793430"><name>馬力埔彩繪小徑</name><desc>地標</desc></wpt>
<trk><name>東勢區 手繪蹲坐貓（原稿描圖） 圖形路跑路線</name><trkseg>
<trkpt lat="24.208333" lon="120.798470"/>
<trkpt lat="24.209464" lon="120.797156"/>
<trkpt lat="24.210606" lon="120.795836"/>
<trkpt lat="24.210734" lon="120.795858"/>
<trkpt lat="24.211206" lon="120.795858"/>
<trkpt lat="24.212082" lon="120.795874"/>
<trkpt lat="24.212235" lon="120.795872"/>
<trkpt lat="24.213245" lon="120.795884"/>
<trkpt lat="24.214275" lon="120.795901"/>
<trkpt lat="24.215307" lon="120.795906"/>
<trkpt lat="24.215318" lon="120.794064"/>
<trkpt lat="24.215326" lon="120.792213"/>
<trkpt lat="24.216381" lon="120.792240"/>
<trkpt lat="24.217394" lon="120.792242"/>
<trkpt lat="24.218432" lon="120.792231"/>
<trkpt lat="24.218535" lon="120.792389"/>
<trkpt lat="24.218626" lon="120.792327"/>
<trkpt lat="24.218724" lon="120.792309"/>
<trkpt lat="24.219079" lon="120.792382"/>
<trkpt lat="24.219981" lon="120.792747"/>
<trkpt lat="24.220056" lon="120.792778"/>
<trkpt lat="24.220236" lon="120.792855"/>
<trkpt lat="24.221039" lon="120.793197"/>
<trkpt lat="24.220978" lon="120.793450"/>
<trkpt lat="24.220961" lon="120.793655"/>
<trkpt lat="24.220931" lon="120.793842"/>
<trkpt lat="24.220850" lon="120.794015"/>
<trkpt lat="24.220731" lon="120.794169"/>
<trkpt lat="24.220624" lon="120.794379"/>
<trkpt lat="24.220501" lon="120.794664"/>
<trkpt lat="24.220318" lon="120.794589"/>
<trkpt lat="24.220177" lon="120.794571"/>
<trkpt lat="24.220049" lon="120.794603"/>
<trkpt lat="24.219939" lon="120.794669"/>
<trkpt lat="24.219819" lon="120.794631"/>
<trkpt lat="24.219660" lon="120.794654"/>
<trkpt lat="24.219312" lon="120.794636"/>
<trkpt lat="24.219310" lon="120.794789"/>
<trkpt lat="24.219309" lon="120.794858"/>
<trkpt lat="24.219306" lon="120.795087"/>
<trkpt lat="24.219303" lon="120.795296"/>
<trkpt lat="24.219300" lon="120.795517"/>
<trkpt lat="24.219299" lon="120.795577"/>
<trkpt lat="24.219297" lon="120.795722"/>
<trkpt lat="24.219295" lon="120.795939"/>
<trkpt lat="24.219296" lon="120.796502"/>
<trkpt lat="24.219382" lon="120.796588"/>
<trkpt lat="24.219416" lon="120.796730"/>
<trkpt lat="24.219416" lon="120.797167"/>
<trkpt lat="24.219420" lon="120.797789"/>
<trkpt lat="24.219399" lon="120.799600"/>
<trkpt lat="24.218339" lon="120.799585"/>
<trkpt lat="24.218324" lon="120.801440"/>
<trkpt lat="24.217318" lon="120.801425"/>
<trkpt lat="24.217296" lon="120.803264"/>
<trkpt lat="24.217275" lon="120.805138"/>
<trkpt lat="24.216248" lon="120.805125"/>
<trkpt lat="24.215208" lon="120.805122"/>
<trkpt lat="24.214194" lon="120.805108"/>
<trkpt lat="24.213155" lon="120.805094"/>
<trkpt lat="24.213142" lon="120.806127"/>
<trkpt lat="24.213144" lon="120.806913"/>
<trkpt lat="24.213129" lon="120.808770"/>
<trkpt lat="24.214158" lon="120.808784"/>
<trkpt lat="24.214130" lon="120.810620"/>
<trkpt lat="24.214130" lon="120.811043"/>
<trkpt lat="24.214122" lon="120.812450"/>
<trkpt lat="24.215158" lon="120.812448"/>
<trkpt lat="24.215147" lon="120.812717"/>
<trkpt lat="24.215101" lon="120.812840"/>
<trkpt lat="24.215028" lon="120.812981"/>
<trkpt lat="24.214983" lon="120.813214"/>
<trkpt lat="24.214954" lon="120.813320"/>
<trkpt lat="24.214897" lon="120.813391"/>
<trkpt lat="24.214760" lon="120.813516"/>
<trkpt lat="24.214550" lon="120.813695"/>
<trkpt lat="24.214362" lon="120.813856"/>
<trkpt lat="24.214194" lon="120.813952"/>
<trkpt lat="24.214110" lon="120.813963"/>
<trkpt lat="24.214122" lon="120.812450"/>
<trkpt lat="24.213079" lon="120.812434"/>
<trkpt lat="24.213096" lon="120.810608"/>
<trkpt lat="24.212083" lon="120.810586"/>
<trkpt lat="24.212106" lon="120.809619"/>
<trkpt lat="24.212109" lon="120.808769"/>
<trkpt lat="24.211080" lon="120.808751"/>
<trkpt lat="24.211076" lon="120.807205"/>
<trkpt lat="24.211079" lon="120.806925"/>
<trkpt lat="24.211105" lon="120.805062"/>
<trkpt lat="24.210029" lon="120.805038"/>
<trkpt lat="24.210009" lon="120.803185"/>
<trkpt lat="24.209650" lon="120.803176"/>
<trkpt lat="24.209008" lon="120.803180"/>
<trkpt lat="24.208156" lon="120.803218"/>
<trkpt lat="24.207988" lon="120.803218"/>
<trkpt lat="24.207902" lon="120.803137"/>
<trkpt lat="24.207337" lon="120.802525"/>
<trkpt lat="24.206768" lon="120.801973"/>
<trkpt lat="24.207944" lon="120.800572"/>
<trkpt lat="24.208678" lon="120.801339"/>
<trkpt lat="24.209802" lon="120.800041"/>
<trkpt lat="24.209058" lon="120.799280"/>
<trkpt lat="24.208333" lon="120.798470"/>
</trkseg></trk>
</gpx>