<?xml version="1.0" encoding="UTF-8"?>
<gpx version="1.1" creator="catrun" xmlns="http://www.topografix.com/GPX/1/1">
<metadata><name>東區 蜷睡貓咪 圖形路跑路線</name></metadata>
<wpt lat="24.134381" lon="120.679681"><name>臺中綠空鐵道</name><desc>地標</desc></wpt>
<wpt lat="24.137970" lon="120.682261"><name>台中電子街</name><desc>地標</desc></wpt>
<wpt lat="24.138386" lon="120.681936"><name>台中舊城生活博物館</name><desc>地標</desc></wpt>
<trk><name>東區 蜷睡貓咪 圖形路跑路線</name><trkseg>
<trkpt lat="24.134032" lon="120.679281"/>
<trkpt lat="24.134331" lon="120.680022"/>
<trkpt lat="24.134476" lon="120.680347"/>
<trkpt lat="24.134859" lon="120.680158"/>
<trkpt lat="24.134943" lon="120.680087"/>
<trkpt lat="24.135150" lon="120.679880"/>
<trkpt lat="24.135404" lon="120.679595"/>
<trkpt lat="24.135722" lon="120.679239"/>
<trkpt lat="24.136112" lon="120.679645"/>
<trkpt lat="24.136436" lon="120.679984"/>
<trkpt lat="24.136793" lon="120.680350"/>
<trkpt lat="24.137106" lon="120.680669"/>
<trkpt lat="24.137151" lon="120.680614"/>
<trkpt lat="24.137231" lon="120.680696"/>
<trkpt lat="24.137307" lon="120.680773"/>
<trkpt lat="24.137262" lon="120.680827"/>
<trkpt lat="24.137277" lon="120.680842"/>
<trkpt lat="24.137500" lon="120.681077"/>
<trkpt lat="24.137571" lon="120.681152"/>
<trkpt lat="24.137936" lon="120.681515"/>
<trkpt lat="24.137586" lon="120.681908"/>
<trkpt lat="24.137936" lon="120.682279"/>
<trkpt lat="24.138293" lon="120.682642"/>
<trkpt lat="24.138094" lon="120.682872"/>
<trkpt lat="24.138061" lon="120.682910"/>
<trkpt lat="24.137966" lon="120.683020"/>
<trkpt lat="24.137943" lon="120.683047"/>
<trkpt lat="24.137836" lon="120.683189"/>
<trkpt lat="24.137792" lon="120.683248"/>
<trkpt lat="24.138182" lon="120.683646"/>
<trkpt lat="24.138442" lon="120.683946"/>
<trkpt lat="24.138528" lon="120.684036"/>
<trkpt lat="24.138617" lon="120.684127"/>
<trkpt lat="24.138888" lon="120.684407"/>
<trkpt lat="24.138489" lon="120.684860"/>
<trkpt lat="24.138408" lon="120.684952"/>
<trkpt lat="24.138062" lon="120.685350"/>
<trkpt lat="24.138260" lon="120.685504"/>
<trkpt lat="24.138425" lon="120.685635"/>
<trkpt lat="24.138373" lon="120.685699"/>
<trkpt lat="24.138244" lon="120.685867"/>
<trkpt lat="24.138091" lon="120.686064"/>
<trkpt lat="24.138052" lon="120.686114"/>
<trkpt lat="24.138070" lon="120.686371"/>
<trkpt lat="24.137876" lon="120.686483"/>
<trkpt lat="24.137839" lon="120.686504"/>
<trkpt lat="24.137789" lon="120.686571"/>
<trkpt lat="24.137646" lon="120.686643"/>
<trkpt lat="24.137444" lon="120.686746"/>
<trkpt lat="24.137421" lon="120.686758"/>
<trkpt lat="24.137404" lon="120.686767"/>
<trkpt lat="24.136900" lon="120.687023"/>
<trkpt lat="24.136806" lon="120.687063"/>
<trkpt lat="24.137028" lon="120.687602"/>
<trkpt lat="24.136980" lon="120.687601"/>
<trkpt lat="24.136968" lon="120.687602"/>
<trkpt lat="24.136935" lon="120.687603"/>
<trkpt lat="24.136598" lon="120.687772"/>
<trkpt lat="24.136537" lon="120.687747"/>
<trkpt lat="24.136489" lon="120.687758"/>
<trkpt lat="24.136428" lon="120.687792"/>
<trkpt lat="24.136347" lon="120.687839"/>
<trkpt lat="24.136392" lon="120.687936"/>
<trkpt lat="24.135864" lon="120.688204"/>
<trkpt lat="24.135625" lon="120.688307"/>
<trkpt lat="24.135581" lon="120.688328"/>
<trkpt lat="24.135553" lon="120.688342"/>
<trkpt lat="24.135274" lon="120.688477"/>
<trkpt lat="24.134991" lon="120.688629"/>
<trkpt lat="24.134669" lon="120.688792"/>
<trkpt lat="24.134070" lon="120.689088"/>
<trkpt lat="24.133469" lon="120.689376"/>
<trkpt lat="24.133263" lon="120.688873"/>
<trkpt lat="24.132626" lon="120.689188"/>
<trkpt lat="24.132427" lon="120.688713"/>
<trkpt lat="24.131870" lon="120.688990"/>
<trkpt lat="24.131437" lon="120.689209"/>
<trkpt lat="24.131304" lon="120.689238"/>
<trkpt lat="24.131202" lon="120.689228"/>
<trkpt lat="24.131029" lon="120.688814"/>
<trkpt lat="24.130841" lon="120.688366"/>
<trkpt lat="24.130710" lon="120.688382"/>
<trkpt lat="24.130223" lon="120.688643"/>
<trkpt lat="24.129635" lon="120.688648"/>
<trkpt lat="24.129624" lon="120.687965"/>
<trkpt lat="24.129627" lon="120.687326"/>
<trkpt lat="24.129263" lon="120.687334"/>
<trkpt lat="24.128926" lon="120.687334"/>
<trkpt lat="24.128919" lon="120.686587"/>
<trkpt lat="24.128918" lon="120.685837"/>
<trkpt lat="24.128924" lon="120.685433"/>
<trkpt lat="24.128923" lon="120.685009"/>
<trkpt lat="24.128860" lon="120.684995"/>
<trkpt lat="24.128829" lon="120.684966"/>
<trkpt lat="24.128853" lon="120.684851"/>
<trkpt lat="24.128480" lon="120.684752"/>
<trkpt lat="24.128006" lon="120.684625"/>
<trkpt lat="24.127770" lon="120.684562"/>
<trkpt lat="24.127707" lon="120.684545"/>
<trkpt lat="24.127782" lon="120.684186"/>
<trkpt lat="24.127890" lon="120.683616"/>
<trkpt lat="24.127894" lon="120.683595"/>
<trkpt lat="24.127726" lon="120.683166"/>
<trkpt lat="24.127698" lon="120.683094"/>
<trkpt lat="24.127449" lon="120.682569"/>
<trkpt lat="24.128236" lon="120.682184"/>
<trkpt lat="24.128341" lon="120.682130"/>
<trkpt lat="24.128714" lon="120.681949"/>
<trkpt lat="24.128538" lon="120.681502"/>
<trkpt lat="24.128267" lon="120.680891"/>
<trkpt lat="24.128166" lon="120.680673"/>
<trkpt lat="24.128096" lon="120.680471"/>
<trkpt lat="24.128093" lon="120.680150"/>
<trkpt lat="24.128210" lon="120.680190"/>
<trkpt lat="24.128252" lon="120.680271"/>
<trkpt lat="24.128347" lon="120.680372"/>
<trkpt lat="24.128403" lon="120.680399"/>
<trkpt lat="24.128660" lon="120.680426"/>
<trkpt lat="24.128811" lon="120.680438"/>
<trkpt lat="24.128868" lon="120.680436"/>
<trkpt lat="24.128973" lon="120.680477"/>
<trkpt lat="24.128852" lon="120.680198"/>
<trkpt lat="24.129161" lon="120.680031"/>
<trkpt lat="24.129113" lon="120.679886"/>
<trkpt lat="24.129151" lon="120.679866"/>
<trkpt lat="24.129003" lon="120.679475"/>
<trkpt lat="24.128578" lon="120.679460"/>
<trkpt lat="24.128885" lon="120.679295"/>
<trkpt lat="24.129064" lon="120.679202"/>
<trkpt lat="24.129532" lon="120.678981"/>
<trkpt lat="24.129581" lon="120.678960"/>
<trkpt lat="24.129591" lon="120.678956"/>
<trkpt lat="24.129702" lon="120.678900"/>
<trkpt lat="24.129724" lon="120.678889"/>
<trkpt lat="24.129786" lon="120.678859"/>
<trkpt lat="24.130175" lon="120.678663"/>
<trkpt lat="24.130471" lon="120.678515"/>
<trkpt lat="24.130969" lon="120.678263"/>
<trkpt lat="24.131390" lon="120.678062"/>
<trkpt lat="24.131570" lon="120.677973"/>
<trkpt lat="24.131798" lon="120.678511"/>
<trkpt lat="24.132027" lon="120.679022"/>
<trkpt lat="24.131431" lon="120.679320"/>
<trkpt lat="24.131320" lon="120.679402"/>
<trkpt lat="24.130619" lon="120.679737"/>
<trkpt lat="24.130225" lon="120.679916"/>
<trkpt lat="24.130449" lon="120.680470"/>
<trkpt lat="24.130652" lon="120.680973"/>
<trkpt lat="24.130862" lon="120.681455"/>
<trkpt lat="24.130526" lon="120.681631"/>
<trkpt lat="24.130281" lon="120.681757"/>
<trkpt lat="24.130500" lon="120.682316"/>
<trkpt lat="24.130611" lon="120.682570"/>
<trkpt lat="24.130651" lon="120.682662"/>
<trkpt lat="24.130727" lon="120.682858"/>
<trkpt lat="24.130959" lon="120.683386"/>
<trkpt lat="24.130324" lon="120.683711"/>
<trkpt lat="24.130453" lon="120.684005"/>
<trkpt lat="24.130542" lon="120.684229"/>
<trkpt lat="24.131176" lon="120.683896"/>
<trkpt lat="24.131334" lon="120.684276"/>
<trkpt lat="24.131412" lon="120.684460"/>
<trkpt lat="24.131925" lon="120.684205"/>
<trkpt lat="24.132008" lon="120.684164"/>
<trkpt lat="24.132073" lon="120.684312"/>
<trkpt lat="24.132098" lon="120.684371"/>
<trkpt lat="24.132149" lon="120.684497"/>
<trkpt lat="24.132230" lon="120.684695"/>
<trkpt lat="24.132824" lon="120.684392"/>
<trkpt lat="24.133426" lon="120.684108"/>
<trkpt lat="24.134011" lon="120.683808"/>
<trkpt lat="24.134490" lon="120.683566"/>
<trkpt lat="24.134626" lon="120.683500"/>
<trkpt lat="24.134468" lon="120.683114"/>
<trkpt lat="24.134404" lon="120.683146"/>
<trkpt lat="24.134351" lon="120.683138"/>
<trkpt lat="24.134300" lon="120.683018"/>
<trkpt lat="24.134244" lon="120.682886"/>
<trkpt lat="24.134258" lon="120.682851"/>
<trkpt lat="24.134342" lon="120.682810"/>
<trkpt lat="24.134273" lon="120.682649"/>
<trkpt lat="24.134092" lon="120.682252"/>
<trkpt lat="24.133942" lon="120.681888"/>
<trkpt lat="24.134009" lon="120.681861"/>
<trkpt lat="24.134106" lon="120.681856"/>
<trkpt lat="24.134358" lon="120.681739"/>
<trkpt lat="24.134441" lon="120.681693"/>
<trkpt lat="24.134230" lon="120.681176"/>
<trkpt lat="24.134219" lon="120.681151"/>
<trkpt lat="24.133977" lon="120.680600"/>
<trkpt lat="24.133537" lon="120.679520"/>
<trkpt lat="24.133834" lon="120.679377"/>
<trkpt lat="24.133862" lon="120.679363"/>
<trkpt lat="24.133979" lon="120.679303"/>
<trkpt lat="24.134032" lon="120.679281"/>
</trkseg></trk>
</gpx>