<?xml version="1.0" encoding="UTF-8"?>
<gpx version="1.1" creator="catrun" xmlns="http://www.topografix.com/GPX/1/1">
<metadata><name>東區 貓臉（正面） 圖形路跑路線</name></metadata>
<wpt lat="24.161313" lon="120.695196"><name>臺中市眷村文物館</name><desc>地標</desc></wpt>
<wpt lat="24.161584" lon="120.695800"><name>北京里風車公園</name><desc>地標</desc></wpt>
<wpt lat="24.164514" lon="120.696827"><name>三十張犁公園</name><desc>地標</desc></wpt>
<trk><name>東區 貓臉（正面） 圖形路跑路線</name><trkseg>
<trkpt lat="24.162576" lon="120.693997"/>
<trkpt lat="24.162438" lon="120.695281"/>
<trkpt lat="24.162667" lon="120.695318"/>
<trkpt lat="24.162614" lon="120.695658"/>
<trkpt lat="24.162542" lon="120.696249"/>
<trkpt lat="24.162948" lon="120.696306"/>
<trkpt lat="24.163434" lon="120.696368"/>
<trkpt lat="24.163432" lon="120.696417"/>
<trkpt lat="24.163399" lon="120.696992"/>
<trkpt lat="24.163395" lon="120.697044"/>
<trkpt lat="24.163381" lon="120.697225"/>
<trkpt lat="24.163344" lon="120.697826"/>
<trkpt lat="24.163854" lon="120.697862"/>
<trkpt lat="24.164123" lon="120.697879"/>
<trkpt lat="24.164475" lon="120.697904"/>
<trkpt lat="24.164800" lon="120.697926"/>
<trkpt lat="24.164799" lon="120.698010"/>
<trkpt lat="24.164799" lon="120.698054"/>
<trkpt lat="24.164812" lon="120.698055"/>
<trkpt lat="24.164870" lon="120.698055"/>
<trkpt lat="24.164865" lon="120.698672"/>
<trkpt lat="24.164858" lon="120.698816"/>
<trkpt lat="24.164862" lon="120.698876"/>
<trkpt lat="24.164848" lon="120.699435"/>
<trkpt lat="24.164777" lon="120.699425"/>
<trkpt lat="24.164777" lon="120.699490"/>
<trkpt lat="24.164741" lon="120.699513"/>
<trkpt lat="24.164727" lon="120.699573"/>
<trkpt lat="24.164566" lon="120.699548"/>
<trkpt lat="24.164306" lon="120.699513"/>
<trkpt lat="24.163996" lon="120.699463"/>
<trkpt lat="24.163633" lon="120.699422"/>
<trkpt lat="24.163298" lon="120.699382"/>
<trkpt lat="24.163306" lon="120.699300"/>
<trkpt lat="24.163247" lon="120.699293"/>
<trkpt lat="24.163183" lon="120.699285"/>
<trkpt lat="24.163174" lon="120.699366"/>
<trkpt lat="24.162696" lon="120.699297"/>
<trkpt lat="24.162340" lon="120.699243"/>
<trkpt lat="24.161985" lon="120.699198"/>
<trkpt lat="24.161224" lon="120.699095"/>
<trkpt lat="24.160899" lon="120.699049"/>
<trkpt lat="24.160704" lon="120.699025"/>
<trkpt lat="24.160588" lon="120.699011"/>
<trkpt lat="24.160515" lon="120.699089"/>
<trkpt lat="24.160496" lon="120.699178"/>
<trkpt lat="24.160449" lon="120.699397"/>
<trkpt lat="24.160440" lon="120.699438"/>
<trkpt lat="24.160287" lon="120.699418"/>
<trkpt lat="24.160277" lon="120.699569"/>
<trkpt lat="24.160267" lon="120.699664"/>
<trkpt lat="24.160211" lon="120.699662"/>
<trkpt lat="24.159654" lon="120.699601"/>
<trkpt lat="24.159586" lon="120.700202"/>
<trkpt lat="24.159523" lon="120.700591"/>
<trkpt lat="24.159480" lon="120.700676"/>
<trkpt lat="24.159396" lon="120.700769"/>
<trkpt lat="24.159306" lon="120.700822"/>
<trkpt lat="24.158831" lon="120.700745"/>
<trkpt lat="24.157998" lon="120.700617"/>
<trkpt lat="24.157926" lon="120.701272"/>
<trkpt lat="24.157902" lon="120.701481"/>
<trkpt lat="24.157152" lon="120.701284"/>
<trkpt lat="24.155974" lon="120.700944"/>
<trkpt lat="24.155937" lon="120.701114"/>
<trkpt lat="24.155921" lon="120.701206"/>
<trkpt lat="24.155662" lon="120.701130"/>
<trkpt lat="24.155088" lon="120.700965"/>
<trkpt lat="24.154563" lon="120.700802"/>
<trkpt lat="24.154531" lon="120.700750"/>
<trkpt lat="24.154498" lon="120.700639"/>
<trkpt lat="24.154495" lon="120.700577"/>
<trkpt lat="24.154217" lon="120.700633"/>
<trkpt lat="24.154087" lon="120.700638"/>
<trkpt lat="24.153956" lon="120.700614"/>
<trkpt lat="24.153545" lon="120.700435"/>
<trkpt lat="24.153047" lon="120.700221"/>
<trkpt lat="24.153109" lon="120.699536"/>
<trkpt lat="24.152710" lon="120.699504"/>
<trkpt lat="24.152537" lon="120.699485"/>
<trkpt lat="24.152209" lon="120.699439"/>
<trkpt lat="24.152312" lon="120.698605"/>
<trkpt lat="24.151246" lon="120.698453"/>
<trkpt lat="24.150621" lon="120.698361"/>
<trkpt lat="24.150635" lon="120.698258"/>
<trkpt lat="24.150699" lon="120.697861"/>
<trkpt lat="24.150717" lon="120.697744"/>
<trkpt lat="24.150746" lon="120.697682"/>
<trkpt lat="24.150816" lon="120.697216"/>
<trkpt lat="24.150767" lon="120.697208"/>
<trkpt lat="24.150562" lon="120.697187"/>
<trkpt lat="24.150540" lon="120.697164"/>
<trkpt lat="24.150611" lon="120.696621"/>
<trkpt lat="24.150568" lon="120.696612"/>
<trkpt lat="24.150377" lon="120.696580"/>
<trkpt lat="24.150279" lon="120.696561"/>
<trkpt lat="24.150137" lon="120.696540"/>
<trkpt lat="24.149996" lon="120.696517"/>
<trkpt lat="24.149756" lon="120.696478"/>
<trkpt lat="24.149774" lon="120.696298"/>
<trkpt lat="24.149770" lon="120.695459"/>
<trkpt lat="24.149753" lon="120.695402"/>
<trkpt lat="24.149755" lon="120.695048"/>
<trkpt lat="24.149759" lon="120.694451"/>
<trkpt lat="24.149935" lon="120.694362"/>
<trkpt lat="24.149929" lon="120.693452"/>
<trkpt lat="24.149935" lon="120.692471"/>
<trkpt lat="24.149545" lon="120.692472"/>
<trkpt lat="24.149569" lon="120.692268"/>
<trkpt lat="24.149594" lon="120.692186"/>
<trkpt lat="24.149636" lon="120.692050"/>
<trkpt lat="24.149725" lon="120.691889"/>
<trkpt lat="24.149803" lon="120.691616"/>
<trkpt lat="24.149805" lon="120.691533"/>
<trkpt lat="24.149805" lon="120.691511"/>
<trkpt lat="24.149811" lon="120.691215"/>
<trkpt lat="24.149866" lon="120.691220"/>
<trkpt lat="24.149923" lon="120.691221"/>
<trkpt lat="24.149982" lon="120.691169"/>
<trkpt lat="24.150040" lon="120.691098"/>
<trkpt lat="24.150118" lon="120.690922"/>
<trkpt lat="24.150326" lon="120.690285"/>
<trkpt lat="24.150464" lon="120.689865"/>
<trkpt lat="24.151017" lon="120.688181"/>
<trkpt lat="24.151044" lon="120.688085"/>
<trkpt lat="24.151403" lon="120.688227"/>
<trkpt lat="24.151755" lon="120.688377"/>
<trkpt lat="24.152473" lon="120.688673"/>
<trkpt lat="24.152880" lon="120.687492"/>
<trkpt lat="24.152638" lon="120.687374"/>
<trkpt lat="24.152577" lon="120.687314"/>
<trkpt lat="24.152557" lon="120.687266"/>
<trkpt lat="24.152561" lon="120.687195"/>
<trkpt lat="24.152822" lon="120.686514"/>
<trkpt lat="24.153162" lon="120.686656"/>
<trkpt lat="24.153350" lon="120.686130"/>
<trkpt lat="24.153730" lon="120.686294"/>
<trkpt lat="24.154063" lon="120.686436"/>
<trkpt lat="24.154222" lon="120.686518"/>
<trkpt lat="24.154175" lon="120.686678"/>
<trkpt lat="24.154431" lon="120.686773"/>
<trkpt lat="24.154550" lon="120.686413"/>
<trkpt lat="24.154472" lon="120.686375"/>
<trkpt lat="24.154510" lon="120.686230"/>
<trkpt lat="24.154511" lon="120.686158"/>
<trkpt lat="24.154512" lon="120.686082"/>
<trkpt lat="24.154503" lon="120.686040"/>
<trkpt lat="24.154482" lon="120.685941"/>
<trkpt lat="24.154522" lon="120.685922"/>
<trkpt lat="24.154603" lon="120.685883"/>
<trkpt lat="24.154708" lon="120.686161"/>
<trkpt lat="24.154870" lon="120.686086"/>
<trkpt lat="24.154834" lon="120.686008"/>
<trkpt lat="24.155280" lon="120.685817"/>
<trkpt lat="24.155305" lon="120.685807"/>
<trkpt lat="24.155346" lon="120.685787"/>
<trkpt lat="24.155730" lon="120.685604"/>
<trkpt lat="24.155843" lon="120.685544"/>
<trkpt lat="24.155906" lon="120.685511"/>
<trkpt lat="24.155957" lon="120.685488"/>
<trkpt lat="24.156085" lon="120.685453"/>
<trkpt lat="24.156108" lon="120.685533"/>
<trkpt lat="24.156148" lon="120.685648"/>
<trkpt lat="24.156170" lon="120.685711"/>
<trkpt lat="24.156503" lon="120.685569"/>
<trkpt lat="24.156600" lon="120.685527"/>
<trkpt lat="24.156612" lon="120.685441"/>
<trkpt lat="24.156958" lon="120.685261"/>
<trkpt lat="24.157148" lon="120.685174"/>
<trkpt lat="24.157300" lon="120.685123"/>
<trkpt lat="24.157363" lon="120.685109"/>
<trkpt lat="24.157480" lon="120.685102"/>
<trkpt lat="24.157481" lon="120.685168"/>
<trkpt lat="24.157575" lon="120.685183"/>
<trkpt lat="24.157727" lon="120.685182"/>
<trkpt lat="24.158579" lon="120.685186"/>
<trkpt lat="24.158602" lon="120.685187"/>
<trkpt lat="24.158629" lon="120.685186"/>
<trkpt lat="24.158811" lon="120.685186"/>
<trkpt lat="24.158911" lon="120.685186"/>
<trkpt lat="24.158936" lon="120.685226"/>
<trkpt lat="24.159044" lon="120.685226"/>
<trkpt lat="24.159041" lon="120.685452"/>
<trkpt lat="24.159039" lon="120.685540"/>
<trkpt lat="24.159039" lon="120.685573"/>
<trkpt lat="24.159036" lon="120.685686"/>
<trkpt lat="24.159036" lon="120.685709"/>
<trkpt lat="24.159172" lon="120.685704"/>
<trkpt lat="24.159264" lon="120.685755"/>
<trkpt lat="24.159324" lon="120.685832"/>
<trkpt lat="24.159419" lon="120.685949"/>
<trkpt lat="24.159526" lon="120.686065"/>
<trkpt lat="24.159625" lon="120.686120"/>
<trkpt lat="24.159701" lon="120.686157"/>
<trkpt lat="24.159804" lon="120.686195"/>
<trkpt lat="24.159941" lon="120.686242"/>
<trkpt lat="24.160103" lon="120.686294"/>
<trkpt lat="24.160250" lon="120.686317"/>
<trkpt lat="24.160254" lon="120.686621"/>
<trkpt lat="24.160331" lon="120.686621"/>
<trkpt lat="24.160331" lon="120.686682"/>
<trkpt lat="24.160681" lon="120.686687"/>
<trkpt lat="24.161065" lon="120.686685"/>
<trkpt lat="24.161079" lon="120.686685"/>
<trkpt lat="24.161185" lon="120.686685"/>
<trkpt lat="24.161207" lon="120.686686"/>
<trkpt lat="24.161202" lon="120.686721"/>
<trkpt lat="24.161287" lon="120.686959"/>
<trkpt lat="24.161352" lon="120.687309"/>
<trkpt lat="24.161406" lon="120.687502"/>
<trkpt lat="24.161432" lon="120.687568"/>
<trkpt lat="24.161515" lon="120.687602"/>
<trkpt lat="24.161509" lon="120.687749"/>
<trkpt lat="24.161507" lon="120.688277"/>
<trkpt lat="24.161506" lon="120.688357"/>
<trkpt lat="24.161505" lon="120.688409"/>
<trkpt lat="24.161505" lon="120.688515"/>
<trkpt lat="24.161505" lon="120.688529"/>
<trkpt lat="24.161728" lon="120.688532"/>
<trkpt lat="24.161825" lon="120.688587"/>
<trkpt lat="24.161842" lon="120.688614"/>
<trkpt lat="24.161829" lon="120.689239"/>
<trkpt lat="24.161984" lon="120.689240"/>
<trkpt lat="24.162051" lon="120.689200"/>
<trkpt lat="24.162159" lon="120.689140"/>
<trkpt lat="24.162242" lon="120.689095"/>
<trkpt lat="24.162236" lon="120.688785"/>
<trkpt lat="24.162258" lon="120.688687"/>
<trkpt lat="24.162300" lon="120.688559"/>
<trkpt lat="24.162350" lon="120.688493"/>
<trkpt lat="24.162416" lon="120.688418"/>
<trkpt lat="24.162481" lon="120.688383"/>
<trkpt lat="24.162548" lon="120.688357"/>
<trkpt lat="24.162601" lon="120.688335"/>
<trkpt lat="24.162781" lon="120.688337"/>
<trkpt lat="24.162847" lon="120.688359"/>
<trkpt lat="24.162912" lon="120.688358"/>
<trkpt lat="24.162958" lon="120.688457"/>
<trkpt lat="24.163027" lon="120.688529"/>
<trkpt lat="24.163030" lon="120.688645"/>
<trkpt lat="24.163027" lon="120.689167"/>
<trkpt lat="24.163501" lon="120.689174"/>
<trkpt lat="24.163842" lon="120.689177"/>
<trkpt lat="24.163823" lon="120.690127"/>
<trkpt lat="24.164124" lon="120.690134"/>
<trkpt lat="24.164406" lon="120.690142"/>
<trkpt lat="24.164714" lon="120.690143"/>
<trkpt lat="24.164980" lon="120.690144"/>
<trkpt lat="24.164981" lon="120.690349"/>
<trkpt lat="24.164982" lon="120.690715"/>
<trkpt lat="24.164900" lon="120.690715"/>
<trkpt lat="24.164899" lon="120.690780"/>
<trkpt lat="24.164651" lon="120.690784"/>
<trkpt lat="24.164393" lon="120.690787"/>
<trkpt lat="24.164376" lon="120.691602"/>
<trkpt lat="24.164359" lon="120.692398"/>
<trkpt lat="24.164359" lon="120.692838"/>
<trkpt lat="24.164451" lon="120.692843"/>
<trkpt lat="24.164550" lon="120.692748"/>
<trkpt lat="24.164767" lon="120.692973"/>
<trkpt lat="24.164649" lon="120.693109"/>
<trkpt lat="24.164426" lon="120.693363"/>
<trkpt lat="24.164403" lon="120.693389"/>
<trkpt lat="24.164381" lon="120.693523"/>
<trkpt lat="24.164323" lon="120.693502"/>
<trkpt lat="24.164215" lon="120.693392"/>
<trkpt lat="24.164096" lon="120.693244"/>
<trkpt lat="24.163959" lon="120.693188"/>
<trkpt lat="24.163860" lon="120.693120"/>
<trkpt lat="24.163052" lon="120.692531"/>
<trkpt lat="24.162663" lon="120.692436"/>
<trkpt lat="24.162596" lon="120.692470"/>
<trkpt lat="24.162625" lon="120.692592"/>
<trkpt lat="24.162631" lon="120.692611"/>
<trkpt lat="24.162590" lon="120.692623"/>
<trkpt lat="24.162576" lon="120.692628"/>
<trkpt lat="24.162538" lon="120.692676"/>
<trkpt lat="24.162505" lon="120.692742"/>
<trkpt lat="24.162455" lon="120.692842"/>
<trkpt lat="24.162733" lon="120.692994"/>
<trkpt lat="24.163028" lon="120.693164"/>
<trkpt lat="24.162910" lon="120.693440"/>
<trkpt lat="24.162782" lon="120.693662"/>
<trkpt lat="24.162690" lon="120.693810"/>
<trkpt lat="24.162571" lon="120.693840"/>
<trkpt lat="24.162576" lon="120.693997"/>
</trkseg></trk>
</gpx>