<?xml version="1.0" encoding="UTF-8"?>
<gpx version="1.1" creator="catrun" xmlns="http://www.topografix.com/GPX/1/1">
<metadata><name>東區 蹲坐貓咪（側面） 圖形路跑路線</name></metadata>
<wpt lat="24.151188" lon="120.678976"><name>光大公園</name><desc>地標</desc></wpt>
<wpt lat="24.152684" lon="120.681274"><name>圖根點BH95216</name><desc>地標</desc></wpt>
<wpt lat="24.157349" lon="120.684743"><name>青春自由式</name><desc>地標</desc></wpt>
<trk><name>東區 蹲坐貓咪（側面） 圖形路跑路線</name><trkseg>
<trkpt lat="24.146548" lon="120.677866"/>
<trkpt lat="24.146452" lon="120.678060"/>
<trkpt lat="24.146715" lon="120.678338"/>
<trkpt lat="24.147066" lon="120.678110"/>
<trkpt lat="24.147410" lon="120.677921"/>
<trkpt lat="24.147547" lon="120.677878"/>
<trkpt lat="24.147669" lon="120.677876"/>
<trkpt lat="24.147792" lon="120.677865"/>
<trkpt lat="24.147910" lon="120.677880"/>
<trkpt lat="24.148031" lon="120.677913"/>
<trkpt lat="24.148159" lon="120.677986"/>
<trkpt lat="24.148390" lon="120.678149"/>
<trkpt lat="24.148491" lon="120.678313"/>
<trkpt lat="24.148859" lon="120.678171"/>
<trkpt lat="24.149012" lon="120.678263"/>
<trkpt lat="24.149445" lon="120.678597"/>
<trkpt lat="24.149454" lon="120.678605"/>
<trkpt lat="24.149988" lon="120.678989"/>
<trkpt lat="24.150315" lon="120.679267"/>
<trkpt lat="24.150782" lon="120.679588"/>
<trkpt lat="24.151031" lon="120.679639"/>
<trkpt lat="24.151236" lon="120.679641"/>
<trkpt lat="24.151383" lon="120.679640"/>
<trkpt lat="24.151405" lon="120.679699"/>
<trkpt lat="24.151476" lon="120.679890"/>
<trkpt lat="24.151510" lon="120.679973"/>
<trkpt lat="24.151847" lon="120.680841"/>
<trkpt lat="24.151934" lon="120.681067"/>
<trkpt lat="24.152006" lon="120.681257"/>
<trkpt lat="24.152147" lon="120.681604"/>
<trkpt lat="24.152117" lon="120.681696"/>
<trkpt lat="24.151994" lon="120.682063"/>
<trkpt lat="24.152416" lon="120.682243"/>
<trkpt lat="24.153130" lon="120.682537"/>
<trkpt lat="24.153228" lon="120.682552"/>
<trkpt lat="24.153339" lon="120.682543"/>
<trkpt lat="24.153477" lon="120.682524"/>
<trkpt lat="24.153482" lon="120.682521"/>
<trkpt lat="24.153528" lon="120.682645"/>
<trkpt lat="24.153489" lon="120.682691"/>
<trkpt lat="24.153401" lon="120.682707"/>
<trkpt lat="24.153296" lon="120.682727"/>
<trkpt lat="24.153230" lon="120.682740"/>
<trkpt lat="24.153474" lon="120.683384"/>
<trkpt lat="24.153524" lon="120.683510"/>
<trkpt lat="24.153577" lon="120.683644"/>
<trkpt lat="24.153618" lon="120.683743"/>
<trkpt lat="24.153853" lon="120.684314"/>
<trkpt lat="24.153898" lon="120.684467"/>
<trkpt lat="24.153941" lon="120.684578"/>
<trkpt lat="24.154018" lon="120.684773"/>
<trkpt lat="24.154073" lon="120.684748"/>
<trkpt lat="24.154158" lon="120.684707"/>
<trkpt lat="24.154283" lon="120.685036"/>
<trkpt lat="24.154903" lon="120.684750"/>
<trkpt lat="24.155305" lon="120.685807"/>
<trkpt lat="24.155346" lon="120.685787"/>
<trkpt lat="24.155730" lon="120.685604"/>
<trkpt lat="24.155843" lon="120.685544"/>
<trkpt lat="24.155906" lon="120.685511"/>
<trkpt lat="24.155957" lon="120.685488"/>
<trkpt lat="24.156085" lon="120.685453"/>
<trkpt lat="24.156108" lon="120.685533"/>
<trkpt lat="24.156148" lon="120.685648"/>
<trkpt lat="24.156170" lon="120.685711"/>
<trkpt lat="24.156503" lon="120.685569"/>
<trkpt lat="24.156600" lon="120.685527"/>
<trkpt lat="24.157068" lon="120.685310"/>
<trkpt lat="24.157204" lon="120.685247"/>
<trkpt lat="24.157317" lon="120.685206"/>
<trkpt lat="24.157391" lon="120.685181"/>
<trkpt lat="24.157423" lon="120.685176"/>
<trkpt lat="24.157481" lon="120.685168"/>
<trkpt lat="24.157575" lon="120.685183"/>
<trkpt lat="24.157727" lon="120.685182"/>
<trkpt lat="24.158579" lon="120.685186"/>
<trkpt lat="24.158602" lon="120.685187"/>
<trkpt lat="24.158629" lon="120.685186"/>
<trkpt lat="24.158811" lon="120.685186"/>
<trkpt lat="24.158911" lon="120.685186"/>
<trkpt lat="24.158936" lon="120.685226"/>
<trkpt lat="24.159044" lon="120.685226"/>
<trkpt lat="24.159041" lon="120.685452"/>
<trkpt lat="24.159039" lon="120.685540"/>
<trkpt lat="24.159039" lon="120.685573"/>
<trkpt lat="24.159036" lon="120.685686"/>
<trkpt lat="24.159036" lon="120.685709"/>
<trkpt lat="24.159013" lon="120.686591"/>
<trkpt lat="24.158928" lon="120.686588"/>
<trkpt lat="24.158926" lon="120.686740"/>
<trkpt lat="24.158917" lon="120.687317"/>
<trkpt lat="24.158918" lon="120.687415"/>
<trkpt lat="24.158923" lon="120.687854"/>
<trkpt lat="24.158922" lon="120.687925"/>
<trkpt lat="24.158676" lon="120.687826"/>
<trkpt lat="24.157788" lon="120.687467"/>
<trkpt lat="24.157399" lon="120.687293"/>
<trkpt lat="24.156928" lon="120.687089"/>
<trkpt lat="24.156478" lon="120.686921"/>
<trkpt lat="24.156337" lon="120.686858"/>
<trkpt lat="24.156295" lon="120.686891"/>
<trkpt lat="24.156138" lon="120.686893"/>
<trkpt lat="24.155890" lon="120.686850"/>
<trkpt lat="24.155815" lon="120.686821"/>
<trkpt lat="24.155578" lon="120.686809"/>
<trkpt lat="24.155422" lon="120.686795"/>
<trkpt lat="24.155301" lon="120.686829"/>
<trkpt lat="24.155084" lon="120.686554"/>
<trkpt lat="24.154913" lon="120.686376"/>
<trkpt lat="24.154840" lon="120.686449"/>
<trkpt lat="24.154811" lon="120.686478"/>
<trkpt lat="24.154738" lon="120.686519"/>
<trkpt lat="24.154625" lon="120.686451"/>
<trkpt lat="24.154550" lon="120.686413"/>
<trkpt lat="24.154431" lon="120.686773"/>
<trkpt lat="24.154320" lon="120.687097"/>
<trkpt lat="24.153978" lon="120.686955"/>
<trkpt lat="24.153712" lon="120.686850"/>
<trkpt lat="24.153447" lon="120.686747"/>
<trkpt lat="24.153150" lon="120.687596"/>
<trkpt lat="24.153133" lon="120.687644"/>
<trkpt lat="24.153397" lon="120.687753"/>
<trkpt lat="24.153418" lon="120.687764"/>
<trkpt lat="24.153387" lon="120.687838"/>
<trkpt lat="24.153320" lon="120.688050"/>
<trkpt lat="24.153039" lon="120.688911"/>
<trkpt lat="24.153100" lon="120.688935"/>
<trkpt lat="24.153071" lon="120.689021"/>
<trkpt lat="24.153053" lon="120.689073"/>
<trkpt lat="24.153472" lon="120.689220"/>
<trkpt lat="24.153483" lon="120.689187"/>
<trkpt lat="24.153573" lon="120.689223"/>
<trkpt lat="24.153653" lon="120.689257"/>
<trkpt lat="24.154242" lon="120.689467"/>
<trkpt lat="24.154867" lon="120.689729"/>
<trkpt lat="24.155460" lon="120.689950"/>
<trkpt lat="24.155682" lon="120.690043"/>
<trkpt lat="24.155900" lon="120.690131"/>
<trkpt lat="24.155772" lon="120.690536"/>
<trkpt lat="24.156103" lon="120.690669"/>
<trkpt lat="24.156237" lon="120.690264"/>
<trkpt lat="24.156590" lon="120.690408"/>
<trkpt lat="24.157253" lon="120.690689"/>
<trkpt lat="24.157135" lon="120.691031"/>
<trkpt lat="24.157359" lon="120.691130"/>
<trkpt lat="24.157318" lon="120.691266"/>
<trkpt lat="24.157314" lon="120.691285"/>
<trkpt lat="24.157080" lon="120.691189"/>
<trkpt lat="24.156906" lon="120.691693"/>
<trkpt lat="24.156574" lon="120.692710"/>
<trkpt lat="24.156040" lon="120.692498"/>
<trkpt lat="24.155892" lon="120.692433"/>
<trkpt lat="24.155556" lon="120.692297"/>
<trkpt lat="24.155429" lon="120.692648"/>
<trkpt lat="24.155339" lon="120.692961"/>
<trkpt lat="24.155328" lon="120.693029"/>
<trkpt lat="24.154939" lon="120.692972"/>
<trkpt lat="24.154764" lon="120.692947"/>
<trkpt lat="24.154732" lon="120.692943"/>
<trkpt lat="24.154457" lon="120.692905"/>
<trkpt lat="24.153858" lon="120.692799"/>
<trkpt lat="24.153507" lon="120.692752"/>
<trkpt lat="24.152756" lon="120.692643"/>
<trkpt lat="24.151687" lon="120.692483"/>
<trkpt lat="24.149935" lon="120.692471"/>
<trkpt lat="24.149545" lon="120.692472"/>
<trkpt lat="24.149479" lon="120.692473"/>
<trkpt lat="24.149365" lon="120.692475"/>
<trkpt lat="24.149296" lon="120.692474"/>
<trkpt lat="24.149237" lon="120.692474"/>
<trkpt lat="24.148806" lon="120.692472"/>
<trkpt lat="24.147983" lon="120.692476"/>
<trkpt lat="24.147991" lon="120.692732"/>
<trkpt lat="24.147981" lon="120.693451"/>
<trkpt lat="24.147909" lon="120.693451"/>
<trkpt lat="24.147902" lon="120.693602"/>
<trkpt lat="24.147902" lon="120.693880"/>
<trkpt lat="24.147905" lon="120.694355"/>
<trkpt lat="24.147906" lon="120.694458"/>
<trkpt lat="24.147906" lon="120.694800"/>
<trkpt lat="24.147910" lon="120.694999"/>
<trkpt lat="24.147127" lon="120.695003"/>
<trkpt lat="24.147087" lon="120.695015"/>
<trkpt lat="24.146328" lon="120.695014"/>
<trkpt lat="24.146331" lon="120.695534"/>
<trkpt lat="24.145949" lon="120.695534"/>
<trkpt lat="24.145494" lon="120.695532"/>
<trkpt lat="24.145490" lon="120.695784"/>
<trkpt lat="24.145387" lon="120.695781"/>
<trkpt lat="24.145377" lon="120.696694"/>
<trkpt lat="24.145351" lon="120.696955"/>
<trkpt lat="24.145207" lon="120.696933"/>
<trkpt lat="24.145059" lon="120.696917"/>
<trkpt lat="24.144905" lon="120.696897"/>
<trkpt lat="24.144693" lon="120.696858"/>
<trkpt lat="24.144689" lon="120.696990"/>
<trkpt lat="24.144689" lon="120.697067"/>
<trkpt lat="24.144693" lon="120.697092"/>
<trkpt lat="24.144681" lon="120.697455"/>
<trkpt lat="24.144686" lon="120.697556"/>
<trkpt lat="24.144687" lon="120.698057"/>
<trkpt lat="24.144685" lon="120.698536"/>
<trkpt lat="24.144685" lon="120.698567"/>
<trkpt lat="24.144574" lon="120.698605"/>
<trkpt lat="24.144337" lon="120.698696"/>
<trkpt lat="24.144065" lon="120.698791"/>
<trkpt lat="24.144025" lon="120.698750"/>
<trkpt lat="24.143924" lon="120.698645"/>
<trkpt lat="24.143510" lon="120.698653"/>
<trkpt lat="24.142776" lon="120.698652"/>
<trkpt lat="24.142779" lon="120.698947"/>
<trkpt lat="24.142779" lon="120.699085"/>
<trkpt lat="24.142781" lon="120.699200"/>
<trkpt lat="24.142780" lon="120.699434"/>
<trkpt lat="24.142784" lon="120.699907"/>
<trkpt lat="24.142772" lon="120.700007"/>
<trkpt lat="24.142679" lon="120.700001"/>
<trkpt lat="24.141407" lon="120.700187"/>
<trkpt lat="24.140215" lon="120.700224"/>
<trkpt lat="24.139348" lon="120.700242"/>
<trkpt lat="24.138883" lon="120.700212"/>
<trkpt lat="24.138883" lon="120.700243"/>
<trkpt lat="24.138883" lon="120.701267"/>
<trkpt lat="24.138881" lon="120.701351"/>
<trkpt lat="24.138881" lon="120.701463"/>
<trkpt lat="24.137955" lon="120.701384"/>
<trkpt lat="24.137948" lon="120.702196"/>
<trkpt lat="24.137581" lon="120.702206"/>
<trkpt lat="24.137476" lon="120.702208"/>
<trkpt lat="24.136370" lon="120.702229"/>
<trkpt lat="24.136363" lon="120.703118"/>
<trkpt lat="24.135700" lon="120.703121"/>
<trkpt lat="24.135683" lon="120.704031"/>
<trkpt lat="24.135669" lon="120.704944"/>
<trkpt lat="24.135646" lon="120.705919"/>
<trkpt lat="24.135676" lon="120.706035"/>
<trkpt lat="24.135661" lon="120.706645"/>
<trkpt lat="24.135378" lon="120.706640"/>
<trkpt lat="24.135097" lon="120.706641"/>
<trkpt lat="24.135111" lon="120.705855"/>
<trkpt lat="24.135127" lon="120.704826"/>
<trkpt lat="24.135134" lon="120.703994"/>
<trkpt lat="24.135146" lon="120.703136"/>
<trkpt lat="24.135154" lon="120.702241"/>
<trkpt lat="24.135163" lon="120.700826"/>
<trkpt lat="24.134141" lon="120.700520"/>
<trkpt lat="24.133214" lon="120.700253"/>
<trkpt lat="24.132961" lon="120.700190"/>
<trkpt lat="24.132812" lon="120.700154"/>
<trkpt lat="24.132456" lon="120.700066"/>
<trkpt lat="24.132487" lon="120.699987"/>
<trkpt lat="24.132527" lon="120.699885"/>
<trkpt lat="24.132962" lon="120.698854"/>
<trkpt lat="24.132991" lon="120.698801"/>
<trkpt lat="24.132564" lon="120.698737"/>
<trkpt lat="24.132109" lon="120.698691"/>
<trkpt lat="24.131674" lon="120.698706"/>
<trkpt lat="24.131611" lon="120.698708"/>
<trkpt lat="24.131168" lon="120.698763"/>
<trkpt lat="24.130617" lon="120.698876"/>
<trkpt lat="24.130572" lon="120.698886"/>
<trkpt lat="24.130059" lon="120.698581"/>
<trkpt lat="24.129943" lon="120.698479"/>
<trkpt lat="24.129746" lon="120.698048"/>
<trkpt lat="24.129632" lon="120.697886"/>
<trkpt lat="24.129628" lon="120.698212"/>
<trkpt lat="24.128893" lon="120.698219"/>
<trkpt lat="24.128585" lon="120.697509"/>
<trkpt lat="24.128399" lon="120.697039"/>
<trkpt lat="24.127829" lon="120.696838"/>
<trkpt lat="24.127812" lon="120.696784"/>
<trkpt lat="24.127872" lon="120.696517"/>
<trkpt lat="24.127256" lon="120.696502"/>
<trkpt lat="24.126246" lon="120.696481"/>
<trkpt lat="24.126251" lon="120.696273"/>
<trkpt lat="24.125869" lon="120.695758"/>
<trkpt lat="24.126020" lon="120.695651"/>
<trkpt lat="24.126127" lon="120.695512"/>
<trkpt lat="24.126225" lon="120.695389"/>
<trkpt lat="24.126255" lon="120.695350"/>
<trkpt lat="24.126320" lon="120.695178"/>
<trkpt lat="24.126357" lon="120.694925"/>
<trkpt lat="24.126379" lon="120.694738"/>
<trkpt lat="24.126383" lon="120.694692"/>
<trkpt lat="24.126481" lon="120.694196"/>
<trkpt lat="24.126538" lon="120.693912"/>
<trkpt lat="24.126560" lon="120.693802"/>
<trkpt lat="24.126605" lon="120.693571"/>
<trkpt lat="24.126636" lon="120.693456"/>
<trkpt lat="24.126642" lon="120.693427"/>
<trkpt lat="24.126665" lon="120.693353"/>
<trkpt lat="24.126705" lon="120.693216"/>
<trkpt lat="24.126717" lon="120.693196"/>
<trkpt lat="24.126762" lon="120.693147"/>
<trkpt lat="24.126870" lon="120.693149"/>
<trkpt lat="24.126978" lon="120.693145"/>
<trkpt lat="24.127023" lon="120.693145"/>
<trkpt lat="24.127021" lon="120.692943"/>
<trkpt lat="24.127021" lon="120.691672"/>
<trkpt lat="24.127021" lon="120.691063"/>
<trkpt lat="24.127009" lon="120.690320"/>
<trkpt lat="24.127008" lon="120.690215"/>
<trkpt lat="24.127009" lon="120.690123"/>
<trkpt lat="24.127010" lon="120.689809"/>
<trkpt lat="24.127018" lon="120.689341"/>
<trkpt lat="24.127026" lon="120.688830"/>
<trkpt lat="24.127654" lon="120.688830"/>
<trkpt lat="24.127655" lon="120.688639"/>
<trkpt lat="24.128300" lon="120.688645"/>
<trkpt lat="24.128922" lon="120.688639"/>
<trkpt lat="24.128928" lon="120.688566"/>
<trkpt lat="24.128929" lon="120.687957"/>
<trkpt lat="24.128926" lon="120.687334"/>
<trkpt lat="24.128919" lon="120.686587"/>
<trkpt lat="24.128918" lon="120.685837"/>
<trkpt lat="24.128924" lon="120.685433"/>
<trkpt lat="24.128923" lon="120.685009"/>
<trkpt lat="24.128860" lon="120.684995"/>
<trkpt lat="24.128829" lon="120.684966"/>
<trkpt lat="24.128853" lon="120.684851"/>
<trkpt lat="24.128480" lon="120.684752"/>
<trkpt lat="24.128006" lon="120.684625"/>
<trkpt lat="24.127770" lon="120.684562"/>
<trkpt lat="24.127707" lon="120.684545"/>
<trkpt lat="24.127782" lon="120.684186"/>
<trkpt lat="24.127890" lon="120.683616"/>
<trkpt lat="24.127894" lon="120.683595"/>
<trkpt lat="24.128273" lon="120.683440"/>
<trkpt lat="24.128673" lon="120.683238"/>
<trkpt lat="24.128796" lon="120.683185"/>
<trkpt lat="24.128561" lon="120.682606"/>
<trkpt lat="24.129089" lon="120.682338"/>
<trkpt lat="24.129642" lon="120.682056"/>
<trkpt lat="24.129437" lon="120.681583"/>
<trkpt lat="24.129369" lon="120.681413"/>
<trkpt lat="24.129248" lon="120.681155"/>
<trkpt lat="24.128999" lon="120.680538"/>
<trkpt lat="24.128973" lon="120.680477"/>
<trkpt lat="24.128852" lon="120.680198"/>
<trkpt lat="24.129161" lon="120.680031"/>
<trkpt lat="24.129113" lon="120.679886"/>
<trkpt lat="24.129151" lon="120.679866"/>
<trkpt lat="24.129003" lon="120.679475"/>
<trkpt lat="24.128578" lon="120.679460"/>
<trkpt lat="24.128885" lon="120.679295"/>
<trkpt lat="24.129064" lon="120.679202"/>
<trkpt lat="24.129532" lon="120.678981"/>
<trkpt lat="24.129581" lon="120.678960"/>
<trkpt lat="24.129293" lon="120.678250"/>
<trkpt lat="24.129229" lon="120.678134"/>
<trkpt lat="24.129199" lon="120.678090"/>
<trkpt lat="24.129226" lon="120.678077"/>
<trkpt lat="24.129349" lon="120.678018"/>
<trkpt lat="24.129364" lon="120.678010"/>
<trkpt lat="24.129417" lon="120.677984"/>
<trkpt lat="24.129495" lon="120.677944"/>
<trkpt lat="24.129459" lon="120.677857"/>
<trkpt lat="24.129427" lon="120.677775"/>
<trkpt lat="24.129749" lon="120.677617"/>
<trkpt lat="24.130133" lon="120.677426"/>
<trkpt lat="24.130486" lon="120.677253"/>
<trkpt lat="24.130524" lon="120.677343"/>
<trkpt lat="24.130561" lon="120.677433"/>
<trkpt lat="24.130620" lon="120.677402"/>
<trkpt lat="24.130969" lon="120.678263"/>
<trkpt lat="24.131390" lon="120.678062"/>
<trkpt lat="24.131570" lon="120.677973"/>
<trkpt lat="24.132182" lon="120.677670"/>
<trkpt lat="24.132245" lon="120.677637"/>
<trkpt lat="24.132680" lon="120.677427"/>
<trkpt lat="24.132894" lon="120.677944"/>
<trkpt lat="24.133284" lon="120.677743"/>
<trkpt lat="24.133487" lon="120.678285"/>
<trkpt lat="24.133585" lon="120.678239"/>
<trkpt lat="24.133850" lon="120.678106"/>
<trkpt lat="24.133955" lon="120.678054"/>
<trkpt lat="24.134047" lon="120.678004"/>
<trkpt lat="24.134152" lon="120.677916"/>
<trkpt lat="24.134315" lon="120.677729"/>
<trkpt lat="24.134637" lon="120.677360"/>
<trkpt lat="24.135004" lon="120.676937"/>
<trkpt lat="24.135549" lon="120.677499"/>
<trkpt lat="24.135754" lon="120.677711"/>
<trkpt lat="24.135973" lon="120.677938"/>
<trkpt lat="24.136371" lon="120.678352"/>
<trkpt lat="24.136431" lon="120.678421"/>
<trkpt lat="24.136551" lon="120.678289"/>
<trkpt lat="24.137168" lon="120.677617"/>
<trkpt lat="24.137650" lon="120.678134"/>
<trkpt lat="24.138514" lon="120.679038"/>
<trkpt lat="24.138579" lon="120.678961"/>
<trkpt lat="24.138671" lon="120.679056"/>
<trkpt lat="24.139000" lon="120.678671"/>
<trkpt lat="24.139138" lon="120.678513"/>
<trkpt lat="24.139243" lon="120.678393"/>
<trkpt lat="24.139252" lon="120.678384"/>
<trkpt lat="24.139279" lon="120.678344"/>
<trkpt lat="24.139312" lon="120.678298"/>
<trkpt lat="24.139320" lon="120.678289"/>
<trkpt lat="24.139407" lon="120.678379"/>
<trkpt lat="24.139362" lon="120.678431"/>
<trkpt lat="24.139664" lon="120.678746"/>
<trkpt lat="24.140022" lon="120.679132"/>
<trkpt lat="24.140463" lon="120.678607"/>
<trkpt lat="24.140593" lon="120.678458"/>
<trkpt lat="24.140949" lon="120.678042"/>
<trkpt lat="24.141220" lon="120.677735"/>
<trkpt lat="24.141883" lon="120.676987"/>
<trkpt lat="24.141928" lon="120.677026"/>
<trkpt lat="24.141976" lon="120.677050"/>
<trkpt lat="24.142008" lon="120.677007"/>
<trkpt lat="24.142067" lon="120.676931"/>
<trkpt lat="24.142363" lon="120.677185"/>
<trkpt lat="24.142407" lon="120.677222"/>
<trkpt lat="24.142734" lon="120.677421"/>
<trkpt lat="24.142813" lon="120.677465"/>
<trkpt lat="24.142918" lon="120.677505"/>
<trkpt lat="24.142949" lon="120.677509"/>
<trkpt lat="24.143285" lon="120.677638"/>
<trkpt lat="24.143574" lon="120.677751"/>
<trkpt lat="24.143719" lon="120.677811"/>
<trkpt lat="24.143758" lon="120.677848"/>
<trkpt lat="24.143785" lon="120.677822"/>
<trkpt lat="24.143960" lon="120.677624"/>
<trkpt lat="24.143976" lon="120.677577"/>
<trkpt lat="24.143975" lon="120.677636"/>
<trkpt lat="24.144025" lon="120.677708"/>
<trkpt lat="24.144112" lon="120.677832"/>
<trkpt lat="24.144179" lon="120.677756"/>
<trkpt lat="24.144440" lon="120.678026"/>
<trkpt lat="24.144889" lon="120.677511"/>
<trkpt lat="24.145221" lon="120.677845"/>
<trkpt lat="24.145576" lon="120.678207"/>
<trkpt lat="24.145850" lon="120.678493"/>
<trkpt lat="24.146371" lon="120.678088"/>
<trkpt lat="24.146452" lon="120.678060"/>
<trkpt lat="24.146548" lon="120.677866"/>
</trkseg></trk>
</gpx>