<?xml version="1.0" encoding="UTF-8"?>
<gpx version="1.1" creator="catrun" xmlns="http://www.topografix.com/GPX/1/1">
<metadata><name>東區 蹲坐貓咪（側面） 圖形路跑路線</name></metadata>
<wpt lat="24.145461" lon="120.683571"><name>吉羊康泰</name><desc>地標</desc></wpt>
<wpt lat="24.145048" lon="120.683335"><name>台灣地籍測量三角原點中心碑</name><desc>地標</desc></wpt>
<wpt lat="24.144973" lon="120.684426"><name>望月亭</name><desc>地標</desc></wpt>
<trk><name>東區 蹲坐貓咪（側面） 圖形路跑路線</name><trkseg>
<trkpt lat="24.144427" lon="120.677121"/>
<trkpt lat="24.144483" lon="120.677177"/>
<trkpt lat="24.144556" lon="120.677250"/>
<trkpt lat="24.144581" lon="120.677255"/>
<trkpt lat="24.144614" lon="120.677216"/>
<trkpt lat="24.144889" lon="120.677511"/>
<trkpt lat="24.145221" lon="120.677845"/>
<trkpt lat="24.145696" lon="120.677296"/>
<trkpt lat="24.146053" lon="120.677669"/>
<trkpt lat="24.146452" lon="120.678060"/>
<trkpt lat="24.146715" lon="120.678338"/>
<trkpt lat="24.147112" lon="120.678749"/>
<trkpt lat="24.147164" lon="120.678803"/>
<trkpt lat="24.147551" lon="120.679204"/>
<trkpt lat="24.147874" lon="120.679538"/>
<trkpt lat="24.148153" lon="120.679827"/>
<trkpt lat="24.147971" lon="120.680029"/>
<trkpt lat="24.147799" lon="120.680222"/>
<trkpt lat="24.147302" lon="120.680793"/>
<trkpt lat="24.147217" lon="120.680898"/>
<trkpt lat="24.147308" lon="120.680980"/>
<trkpt lat="24.147480" lon="120.681056"/>
<trkpt lat="24.147550" lon="120.680943"/>
<trkpt lat="24.147651" lon="120.680854"/>
<trkpt lat="24.148300" lon="120.680519"/>
<trkpt lat="24.148364" lon="120.680955"/>
<trkpt lat="24.148411" lon="120.680946"/>
<trkpt lat="24.148488" lon="120.681489"/>
<trkpt lat="24.147807" lon="120.681195"/>
<trkpt lat="24.147480" lon="120.681056"/>
<trkpt lat="24.147422" lon="120.681153"/>
<trkpt lat="24.147200" lon="120.681349"/>
<trkpt lat="24.147167" lon="120.681360"/>
<trkpt lat="24.147145" lon="120.681437"/>
<trkpt lat="24.147144" lon="120.681774"/>
<trkpt lat="24.147156" lon="120.681778"/>
<trkpt lat="24.147370" lon="120.681781"/>
<trkpt lat="24.147427" lon="120.681800"/>
<trkpt lat="24.147593" lon="120.681885"/>
<trkpt lat="24.147360" lon="120.682553"/>
<trkpt lat="24.147215" lon="120.682970"/>
<trkpt lat="24.148310" lon="120.683439"/>
<trkpt lat="24.148273" lon="120.683541"/>
<trkpt lat="24.148158" lon="120.683858"/>
<trkpt lat="24.148055" lon="120.684145"/>
<trkpt lat="24.147809" lon="120.684038"/>
<trkpt lat="24.147280" lon="120.683810"/>
<trkpt lat="24.146786" lon="120.683595"/>
<trkpt lat="24.146668" lon="120.683939"/>
<trkpt lat="24.146420" lon="120.683835"/>
<trkpt lat="24.146325" lon="120.683835"/>
<trkpt lat="24.146222" lon="120.683866"/>
<trkpt lat="24.146129" lon="120.683598"/>
<trkpt lat="24.145993" lon="120.683706"/>
<trkpt lat="24.145177" lon="120.684105"/>
<trkpt lat="24.145063" lon="120.684100"/>
<trkpt lat="24.145072" lon="120.684128"/>
<trkpt lat="24.144987" lon="120.684334"/>
<trkpt lat="24.144973" lon="120.684397"/>
<trkpt lat="24.145001" lon="120.684400"/>
<trkpt lat="24.144997" lon="120.684437"/>
<trkpt lat="24.144995" lon="120.684458"/>
<trkpt lat="24.144979" lon="120.684456"/>
<trkpt lat="24.144974" lon="120.684506"/>
<trkpt lat="24.144937" lon="120.684612"/>
<trkpt lat="24.144909" lon="120.684743"/>
<trkpt lat="24.144852" lon="120.684807"/>
<trkpt lat="24.144813" lon="120.684869"/>
<trkpt lat="24.144722" lon="120.684811"/>
<trkpt lat="24.144622" lon="120.684924"/>
<trkpt lat="24.144312" lon="120.684991"/>
<trkpt lat="24.144047" lon="120.685035"/>
<trkpt lat="24.143897" lon="120.685045"/>
<trkpt lat="24.143581" lon="120.684980"/>
<trkpt lat="24.143474" lon="120.685121"/>
<trkpt lat="24.143305" lon="120.685295"/>
<trkpt lat="24.143337" lon="120.685323"/>
<trkpt lat="24.143416" lon="120.685421"/>
<trkpt lat="24.143346" lon="120.685980"/>
<trkpt lat="24.143461" lon="120.685987"/>
<trkpt lat="24.143466" lon="120.685921"/>
<trkpt lat="24.143172" lon="120.685896"/>
<trkpt lat="24.143105" lon="120.686106"/>
<trkpt lat="24.143061" lon="120.686864"/>
<trkpt lat="24.142383" lon="120.686861"/>
<trkpt lat="24.142332" lon="120.686887"/>
<trkpt lat="24.142308" lon="120.686930"/>
<trkpt lat="24.142279" lon="120.687599"/>
<trkpt lat="24.141518" lon="120.687570"/>
<trkpt lat="24.141529" lon="120.687337"/>
<trkpt lat="24.141056" lon="120.687316"/>
<trkpt lat="24.140612" lon="120.687292"/>
<trkpt lat="24.140133" lon="120.687288"/>
<trkpt lat="24.140124" lon="120.687799"/>
<trkpt lat="24.139284" lon="120.687771"/>
<trkpt lat="24.138829" lon="120.687760"/>
<trkpt lat="24.138816" lon="120.689528"/>
<trkpt lat="24.138529" lon="120.689670"/>
<trkpt lat="24.138307" lon="120.689783"/>
<trkpt lat="24.138347" lon="120.689862"/>
<trkpt lat="24.138853" lon="120.689593"/>
<trkpt lat="24.138816" lon="120.689528"/>
<trkpt lat="24.138557" lon="120.688913"/>
<trkpt lat="24.138105" lon="120.687744"/>
<trkpt lat="24.137840" lon="120.687765"/>
<trkpt lat="24.137766" lon="120.687762"/>
<trkpt lat="24.137728" lon="120.687760"/>
<trkpt lat="24.137762" lon="120.687848"/>
<trkpt lat="24.137753" lon="120.687848"/>
<trkpt lat="24.137654" lon="120.687847"/>
<trkpt lat="24.137233" lon="120.687846"/>
<trkpt lat="24.137220" lon="120.687814"/>
<trkpt lat="24.137185" lon="120.687724"/>
<trkpt lat="24.137140" lon="120.687627"/>
<trkpt lat="24.137158" lon="120.687625"/>
<trkpt lat="24.137256" lon="120.687637"/>
<trkpt lat="24.137251" lon="120.687623"/>
<trkpt lat="24.137165" lon="120.687616"/>
<trkpt lat="24.137135" lon="120.687614"/>
<trkpt lat="24.137096" lon="120.687624"/>
<trkpt lat="24.137045" lon="120.687495"/>
<trkpt lat="24.137044" lon="120.687440"/>
<trkpt lat="24.136733" lon="120.686679"/>
<trkpt lat="24.136686" lon="120.686635"/>
<trkpt lat="24.136652" lon="120.686537"/>
<trkpt lat="24.136593" lon="120.686569"/>
<trkpt lat="24.136527" lon="120.686416"/>
<trkpt lat="24.136495" lon="120.686357"/>
<trkpt lat="24.136454" lon="120.686327"/>
<trkpt lat="24.136404" lon="120.686335"/>
<trkpt lat="24.136325" lon="120.686373"/>
<trkpt lat="24.136148" lon="120.686464"/>
<trkpt lat="24.135983" lon="120.686552"/>
<trkpt lat="24.135899" lon="120.686347"/>
<trkpt lat="24.135836" lon="120.686199"/>
<trkpt lat="24.135721" lon="120.685915"/>
<trkpt lat="24.135649" lon="120.685950"/>
<trkpt lat="24.135043" lon="120.686243"/>
<trkpt lat="24.134924" lon="120.686306"/>
<trkpt lat="24.134759" lon="120.685942"/>
<trkpt lat="24.134653" lon="120.685664"/>
<trkpt lat="24.134504" lon="120.685336"/>
<trkpt lat="24.134314" lon="120.684870"/>
<trkpt lat="24.134304" lon="120.684844"/>
<trkpt lat="24.134092" lon="120.684357"/>
<trkpt lat="24.134227" lon="120.684290"/>
<trkpt lat="24.134076" lon="120.683969"/>
<trkpt lat="24.134011" lon="120.683808"/>
<trkpt lat="24.134490" lon="120.683566"/>
<trkpt lat="24.134626" lon="120.683500"/>
<trkpt lat="24.134468" lon="120.683114"/>
<trkpt lat="24.134535" lon="120.683081"/>
<trkpt lat="24.134602" lon="120.683048"/>
<trkpt lat="24.134617" lon="120.683003"/>
<trkpt lat="24.134568" lon="120.682885"/>
<trkpt lat="24.134780" lon="120.682778"/>
<trkpt lat="24.134705" lon="120.682586"/>
<trkpt lat="24.134618" lon="120.682379"/>
<trkpt lat="24.135187" lon="120.682101"/>
<trkpt lat="24.135357" lon="120.682503"/>
<trkpt lat="24.135670" lon="120.682341"/>
<trkpt lat="24.135595" lon="120.682203"/>
<trkpt lat="24.135697" lon="120.682151"/>
<trkpt lat="24.135784" lon="120.682103"/>
<trkpt lat="24.135759" lon="120.682068"/>
<trkpt lat="24.135722" lon="120.681993"/>
<trkpt lat="24.135574" lon="120.681639"/>
<trkpt lat="24.135569" lon="120.681627"/>
<trkpt lat="24.135397" lon="120.681176"/>
<trkpt lat="24.135771" lon="120.680740"/>
<trkpt lat="24.135122" lon="120.680076"/>
<trkpt lat="24.134943" lon="120.680087"/>
<trkpt lat="24.135150" lon="120.679880"/>
<trkpt lat="24.135404" lon="120.679595"/>
<trkpt lat="24.135722" lon="120.679239"/>
<trkpt lat="24.136431" lon="120.678421"/>
<trkpt lat="24.136371" lon="120.678352"/>
<trkpt lat="24.135973" lon="120.677938"/>
<trkpt lat="24.135754" lon="120.677711"/>
<trkpt lat="24.135549" lon="120.677499"/>
<trkpt lat="24.135004" lon="120.676937"/>
<trkpt lat="24.135719" lon="120.676115"/>
<trkpt lat="24.135905" lon="120.675903"/>
<trkpt lat="24.136210" lon="120.676192"/>
<trkpt lat="24.136353" lon="120.676024"/>
<trkpt lat="24.136489" lon="120.675865"/>
<trkpt lat="24.136677" lon="120.675648"/>
<trkpt lat="24.136754" lon="120.675727"/>
<trkpt lat="24.137110" lon="120.676090"/>
<trkpt lat="24.137423" lon="120.676427"/>
<trkpt lat="24.137545" lon="120.676561"/>
<trkpt lat="24.137805" lon="120.676846"/>
<trkpt lat="24.138311" lon="120.676270"/>
<trkpt lat="24.138376" lon="120.676197"/>
<trkpt lat="24.138936" lon="120.676786"/>
<trkpt lat="24.139327" lon="120.676344"/>
<trkpt lat="24.139657" lon="120.676682"/>
<trkpt lat="24.139894" lon="120.676930"/>
<trkpt lat="24.140085" lon="120.677129"/>
<trkpt lat="24.140123" lon="120.677168"/>
<trkpt lat="24.140202" lon="120.677074"/>
<trkpt lat="24.140225" lon="120.677074"/>
<trkpt lat="24.140312" lon="120.677158"/>
<trkpt lat="24.140352" lon="120.677116"/>
<trkpt lat="24.140671" lon="120.676747"/>
<trkpt lat="24.140771" lon="120.676631"/>
<trkpt lat="24.140904" lon="120.676478"/>
<trkpt lat="24.141049" lon="120.676310"/>
<trkpt lat="24.141206" lon="120.676127"/>
<trkpt lat="24.141215" lon="120.676117"/>
<trkpt lat="24.141280" lon="120.676204"/>
<trkpt lat="24.141369" lon="120.676141"/>
<trkpt lat="24.141479" lon="120.676346"/>
<trkpt lat="24.141506" lon="120.676394"/>
<trkpt lat="24.141602" lon="120.676548"/>
<trkpt lat="24.141873" lon="120.676864"/>
<trkpt lat="24.141916" lon="120.676816"/>
<trkpt lat="24.141931" lon="120.676817"/>
<trkpt lat="24.141952" lon="120.676799"/>
<trkpt lat="24.141971" lon="120.676776"/>
<trkpt lat="24.142154" lon="120.676564"/>
<trkpt lat="24.142175" lon="120.676532"/>
<trkpt lat="24.142223" lon="120.676599"/>
<trkpt lat="24.142265" lon="120.676635"/>
<trkpt lat="24.142294" lon="120.676642"/>
<trkpt lat="24.142306" lon="120.676652"/>
<trkpt lat="24.142674" lon="120.676948"/>
<trkpt lat="24.142990" lon="120.677092"/>
<trkpt lat="24.143092" lon="120.677148"/>
<trkpt lat="24.143156" lon="120.677179"/>
<trkpt lat="24.143212" lon="120.677093"/>
<trkpt lat="24.143565" lon="120.677219"/>
<trkpt lat="24.143800" lon="120.677305"/>
<trkpt lat="24.143880" lon="120.677346"/>
<trkpt lat="24.143988" lon="120.677469"/>
<trkpt lat="24.144004" lon="120.677496"/>
<trkpt lat="24.144116" lon="120.677398"/>
<trkpt lat="24.144157" lon="120.677373"/>
<trkpt lat="24.144196" lon="120.677415"/>
<trkpt lat="24.144280" lon="120.677419"/>
<trkpt lat="24.144483" lon="120.677177"/>
<trkpt lat="24.144427" lon="120.677121"/>
</trkseg></trk>
</gpx>