<?xml version="1.0" encoding="UTF-8"?>
<gpx version="1.1" creator="catrun" xmlns="http://www.topografix.com/GPX/1/1">
<metadata><name>東區 手繪蹲坐貓（原稿描圖） 圖形路跑路線</name></metadata>
<wpt lat="24.135716" lon="120.676111"><name>圖根點JL916</name><desc>地標</desc></wpt>
<wpt lat="24.138052" lon="120.677052"><name>門柱</name><desc>地標</desc></wpt>
<wpt lat="24.138023" lon="120.677089"><name>門柱</name><desc>地標</desc></wpt>
<trk><name>東區 手繪蹲坐貓（原稿描圖） 圖形路跑路線</name><trkseg>
<trkpt lat="24.133585" lon="120.678239"/>
<trkpt lat="24.133850" lon="120.678106"/>
<trkpt lat="24.133955" lon="120.678054"/>
<trkpt lat="24.134047" lon="120.678004"/>
<trkpt lat="24.133819" lon="120.677442"/>
<trkpt lat="24.133950" lon="120.677376"/>
<trkpt lat="24.134276" lon="120.676989"/>
<trkpt lat="24.134637" lon="120.677360"/>
<trkpt lat="24.135004" lon="120.676937"/>
<trkpt lat="24.135549" lon="120.677499"/>
<trkpt lat="24.135754" lon="120.677711"/>
<trkpt lat="24.135973" lon="120.677938"/>
<trkpt lat="24.136371" lon="120.678352"/>
<trkpt lat="24.136431" lon="120.678421"/>
<trkpt lat="24.136551" lon="120.678289"/>
<trkpt lat="24.137168" lon="120.677617"/>
<trkpt lat="24.137650" lon="120.678134"/>
<trkpt lat="24.138514" lon="120.679038"/>
<trkpt lat="24.138579" lon="120.678961"/>
<trkpt lat="24.138671" lon="120.679056"/>
<trkpt lat="24.139000" lon="120.678671"/>
<trkpt lat="24.139138" lon="120.678513"/>
<trkpt lat="24.139243" lon="120.678393"/>
<trkpt lat="24.139323" lon="120.678476"/>
<trkpt lat="24.139362" lon="120.678431"/>
<trkpt lat="24.139664" lon="120.678746"/>
<trkpt lat="24.140022" lon="120.679132"/>
<trkpt lat="24.140463" lon="120.678607"/>
<trkpt lat="24.140593" lon="120.678458"/>
<trkpt lat="24.140949" lon="120.678042"/>
<trkpt lat="24.141220" lon="120.677735"/>
<trkpt lat="24.141883" lon="120.676987"/>
<trkpt lat="24.141823" lon="120.676919"/>
<trkpt lat="24.141873" lon="120.676864"/>
<trkpt lat="24.141916" lon="120.676816"/>
<trkpt lat="24.141931" lon="120.676817"/>
<trkpt lat="24.141952" lon="120.676799"/>
<trkpt lat="24.141971" lon="120.676776"/>
<trkpt lat="24.142154" lon="120.676564"/>
<trkpt lat="24.142175" lon="120.676532"/>
<trkpt lat="24.142196" lon="120.676485"/>
<trkpt lat="24.142231" lon="120.676446"/>
<trkpt lat="24.142119" lon="120.676316"/>
<trkpt lat="24.141955" lon="120.676090"/>
<trkpt lat="24.142507" lon="120.675461"/>
<trkpt lat="24.142878" lon="120.675839"/>
<trkpt lat="24.143217" lon="120.676203"/>
<trkpt lat="24.143332" lon="120.676332"/>
<trkpt lat="24.143575" lon="120.676565"/>
<trkpt lat="24.143230" lon="120.676980"/>
<trkpt lat="24.143270" lon="120.677016"/>
<trkpt lat="24.143212" lon="120.677093"/>
<trkpt lat="24.143565" lon="120.677219"/>
<trkpt lat="24.143800" lon="120.677305"/>
<trkpt lat="24.143880" lon="120.677346"/>
<trkpt lat="24.143988" lon="120.677469"/>
<trkpt lat="24.144004" lon="120.677496"/>
<trkpt lat="24.144116" lon="120.677398"/>
<trkpt lat="24.144157" lon="120.677373"/>
<trkpt lat="24.144196" lon="120.677415"/>
<trkpt lat="24.144240" lon="120.677464"/>
<trkpt lat="24.144292" lon="120.677520"/>
<trkpt lat="24.144223" lon="120.677605"/>
<trkpt lat="24.144224" lon="120.677685"/>
<trkpt lat="24.144235" lon="120.677697"/>
<trkpt lat="24.144179" lon="120.677756"/>
<trkpt lat="24.144440" lon="120.678026"/>
<trkpt lat="24.144708" lon="120.678312"/>
<trkpt lat="24.144610" lon="120.678429"/>
<trkpt lat="24.144657" lon="120.678476"/>
<trkpt lat="24.144746" lon="120.678564"/>
<trkpt lat="24.144843" lon="120.678454"/>
<trkpt lat="24.145110" lon="120.678734"/>
<trkpt lat="24.145264" lon="120.678881"/>
<trkpt lat="24.145850" lon="120.678493"/>
<trkpt lat="24.145889" lon="120.678540"/>
<trkpt lat="24.146050" lon="120.678712"/>
<trkpt lat="24.146127" lon="120.678782"/>
<trkpt lat="24.145540" lon="120.679173"/>
<trkpt lat="24.146146" lon="120.679814"/>
<trkpt lat="24.146094" lon="120.679876"/>
<trkpt lat="24.146177" lon="120.679965"/>
<trkpt lat="24.145808" lon="120.680367"/>
<trkpt lat="24.145409" lon="120.680820"/>
<trkpt lat="24.145014" lon="120.680415"/>
<trkpt lat="24.144626" lon="120.680859"/>
<trkpt lat="24.144268" lon="120.681312"/>
<trkpt lat="24.143967" lon="120.681009"/>
<trkpt lat="24.143841" lon="120.681158"/>
<trkpt lat="24.143768" lon="120.681076"/>
<trkpt lat="24.143536" lon="120.681347"/>
<trkpt lat="24.143179" lon="120.681756"/>
<trkpt lat="24.142895" lon="120.682082"/>
<trkpt lat="24.142531" lon="120.682499"/>
<trkpt lat="24.142220" lon="120.682856"/>
<trkpt lat="24.141518" lon="120.683661"/>
<trkpt lat="24.140794" lon="120.684488"/>
<trkpt lat="24.140984" lon="120.684673"/>
<trkpt lat="24.141144" lon="120.684842"/>
<trkpt lat="24.140781" lon="120.685264"/>
<trkpt lat="24.140798" lon="120.685709"/>
<trkpt lat="24.140245" lon="120.685727"/>
<trkpt lat="24.140220" lon="120.685728"/>
<trkpt lat="24.140139" lon="120.685733"/>
<trkpt lat="24.139837" lon="120.685744"/>
<trkpt lat="24.139823" lon="120.685752"/>
<trkpt lat="24.139885" lon="120.685885"/>
<trkpt lat="24.139778" lon="120.685934"/>
<trkpt lat="24.139681" lon="120.686057"/>
<trkpt lat="24.139437" lon="120.686064"/>
<trkpt lat="24.139269" lon="120.686064"/>
<trkpt lat="24.139085" lon="120.686060"/>
<trkpt lat="24.138896" lon="120.686094"/>
<trkpt lat="24.138882" lon="120.686090"/>
<trkpt lat="24.138836" lon="120.686072"/>
<trkpt lat="24.138749" lon="120.686016"/>
<trkpt lat="24.138373" lon="120.685699"/>
<trkpt lat="24.138244" lon="120.685867"/>
<trkpt lat="24.138091" lon="120.686064"/>
<trkpt lat="24.138052" lon="120.686114"/>
<trkpt lat="24.138070" lon="120.686371"/>
<trkpt lat="24.138098" lon="120.686768"/>
<trkpt lat="24.138103" lon="120.687014"/>
<trkpt lat="24.138101" lon="120.687125"/>
<trkpt lat="24.137999" lon="120.686955"/>
<trkpt lat="24.137922" lon="120.686826"/>
<trkpt lat="24.137852" lon="120.686752"/>
<trkpt lat="24.137789" lon="120.686571"/>
<trkpt lat="24.137646" lon="120.686643"/>
<trkpt lat="24.137444" lon="120.686746"/>
<trkpt lat="24.137421" lon="120.686758"/>
<trkpt lat="24.137404" lon="120.686767"/>
<trkpt lat="24.136900" lon="120.687023"/>
<trkpt lat="24.136806" lon="120.687063"/>
<trkpt lat="24.136593" lon="120.686569"/>
<trkpt lat="24.136527" lon="120.686416"/>
<trkpt lat="24.136495" lon="120.686357"/>
<trkpt lat="24.136454" lon="120.686327"/>
<trkpt lat="24.136404" lon="120.686335"/>
<trkpt lat="24.136325" lon="120.686373"/>
<trkpt lat="24.136148" lon="120.686464"/>
<trkpt lat="24.135983" lon="120.686552"/>
<trkpt lat="24.136114" lon="120.686861"/>
<trkpt lat="24.136048" lon="120.686891"/>
<trkpt lat="24.135834" lon="120.686386"/>
<trkpt lat="24.135399" lon="120.686647"/>
<trkpt lat="24.135324" lon="120.686462"/>
<trkpt lat="24.135169" lon="120.686536"/>
<trkpt lat="24.135043" lon="120.686243"/>
<trkpt lat="24.134924" lon="120.686306"/>
<trkpt lat="24.134458" lon="120.686536"/>
<trkpt lat="24.133860" lon="120.686836"/>
<trkpt lat="24.133778" lon="120.686878"/>
<trkpt lat="24.133946" lon="120.687273"/>
<trkpt lat="24.134180" lon="120.687843"/>
<trkpt lat="24.133667" lon="120.688099"/>
<trkpt lat="24.133777" lon="120.688381"/>
<trkpt lat="24.134070" lon="120.689088"/>
<trkpt lat="24.134276" lon="120.689569"/>
<trkpt lat="24.134419" lon="120.689906"/>
<trkpt lat="24.133829" lon="120.690196"/>
<trkpt lat="24.133496" lon="120.690360"/>
<trkpt lat="24.133567" lon="120.690482"/>
<trkpt lat="24.133660" lon="120.690592"/>
<trkpt lat="24.133852" lon="120.690790"/>
<trkpt lat="24.133991" lon="120.691084"/>
<trkpt lat="24.133779" lon="120.691183"/>
<trkpt lat="24.133700" lon="120.691227"/>
<trkpt lat="24.133527" lon="120.691311"/>
<trkpt lat="24.133561" lon="120.691386"/>
<trkpt lat="24.133593" lon="120.691451"/>
<trkpt lat="24.133618" lon="120.691545"/>
<trkpt lat="24.133641" lon="120.691650"/>
<trkpt lat="24.133644" lon="120.691676"/>
<trkpt lat="24.133655" lon="120.691785"/>
<trkpt lat="24.133660" lon="120.691833"/>
<trkpt lat="24.133660" lon="120.691869"/>
<trkpt lat="24.133658" lon="120.692011"/>
<trkpt lat="24.133651" lon="120.692130"/>
<trkpt lat="24.133630" lon="120.692291"/>
<trkpt lat="24.133613" lon="120.692374"/>
<trkpt lat="24.133594" lon="120.692453"/>
<trkpt lat="24.133572" lon="120.692528"/>
<trkpt lat="24.133526" lon="120.692667"/>
<trkpt lat="24.133475" lon="120.692798"/>
<trkpt lat="24.133422" lon="120.692923"/>
<trkpt lat="24.133353" lon="120.693072"/>
<trkpt lat="24.133311" lon="120.693155"/>
<trkpt lat="24.133289" lon="120.693197"/>
<trkpt lat="24.133269" lon="120.693236"/>
<trkpt lat="24.133234" lon="120.693299"/>
<trkpt lat="24.133191" lon="120.693364"/>
<trkpt lat="24.133071" lon="120.693484"/>
<trkpt lat="24.133100" lon="120.693542"/>
<trkpt lat="24.133163" lon="120.693686"/>
<trkpt lat="24.133087" lon="120.693731"/>
<trkpt lat="24.133014" lon="120.693770"/>
<trkpt lat="24.132909" lon="120.693786"/>
<trkpt lat="24.132869" lon="120.693790"/>
<trkpt lat="24.132851" lon="120.693511"/>
<trkpt lat="24.132841" lon="120.693353"/>
<trkpt lat="24.132833" lon="120.693241"/>
<trkpt lat="24.132706" lon="120.693204"/>
<trkpt lat="24.132702" lon="120.693138"/>
<trkpt lat="24.132701" lon="120.693051"/>
<trkpt lat="24.132682" lon="120.693020"/>
<trkpt lat="24.132657" lon="120.692949"/>
<trkpt lat="24.132542" lon="120.692950"/>
<trkpt lat="24.132008" lon="120.692947"/>
<trkpt lat="24.131838" lon="120.692538"/>
<trkpt lat="24.132463" lon="120.692236"/>
<trkpt lat="24.132327" lon="120.691917"/>
<trkpt lat="24.132407" lon="120.691861"/>
<trkpt lat="24.132771" lon="120.691667"/>
<trkpt lat="24.132746" lon="120.691358"/>
<trkpt lat="24.132715" lon="120.690950"/>
<trkpt lat="24.132679" lon="120.690488"/>
<trkpt lat="24.132660" lon="120.690206"/>
<trkpt lat="24.132562" lon="120.689830"/>
<trkpt lat="24.132387" lon="120.689305"/>
<trkpt lat="24.132626" lon="120.689188"/>
<trkpt lat="24.132427" lon="120.688713"/>
<trkpt lat="24.132354" lon="120.688542"/>
<trkpt lat="24.132224" lon="120.688240"/>
<trkpt lat="24.132015" lon="120.687750"/>
<trkpt lat="24.132650" lon="120.687438"/>
<trkpt lat="24.132453" lon="120.686943"/>
<trkpt lat="24.133050" lon="120.686637"/>
<trkpt lat="24.132856" lon="120.686160"/>
<trkpt lat="24.132230" lon="120.684695"/>
<trkpt lat="24.132824" lon="120.684392"/>
<trkpt lat="24.133426" lon="120.684108"/>
<trkpt lat="24.133263" lon="120.683712"/>
<trkpt lat="24.133218" lon="120.683736"/>
<trkpt lat="24.133149" lon="120.683591"/>
<trkpt lat="24.133082" lon="120.683452"/>
<trkpt lat="24.133144" lon="120.683423"/>
<trkpt lat="24.132910" lon="120.682848"/>
<trkpt lat="24.133489" lon="120.682559"/>
<trkpt lat="24.133335" lon="120.682201"/>
<trkpt lat="24.133942" lon="120.681888"/>
<trkpt lat="24.133710" lon="120.681324"/>
<trkpt lat="24.133515" lon="120.680846"/>
<trkpt lat="24.133564" lon="120.680813"/>
<trkpt lat="24.133977" lon="120.680600"/>
<trkpt lat="24.133537" lon="120.679520"/>
<trkpt lat="24.133834" lon="120.679377"/>
<trkpt lat="24.133862" lon="120.679363"/>
<trkpt lat="24.133979" lon="120.679303"/>
<trkpt lat="24.134032" lon="120.679281"/>
<trkpt lat="24.133994" lon="120.679189"/>
<trkpt lat="24.133788" lon="120.678810"/>
<trkpt lat="24.133487" lon="120.678285"/>
<trkpt lat="24.133585" lon="120.678239"/>
</trkseg></trk>
</gpx>