<?xml version="1.0" encoding="UTF-8"?>
<gpx version="1.1" creator="catrun" xmlns="http://www.topografix.com/GPX/1/1">
<metadata><name>東區 貓咪肉球 圖形路跑路線</name></metadata>
<wpt lat="24.139739" lon="120.682450"><name>台灣太陽餅博物館</name><desc>地標</desc></wpt>
<wpt lat="24.136915" lon="120.685266"><name>臺中驛</name><desc>地標</desc></wpt>
<wpt lat="24.136749" lon="120.685242"><name>臺中驛鐵道文化園區</name><desc>地標</desc></wpt>
<trk><name>東區 貓咪肉球 圖形路跑路線</name><trkseg>
<trkpt lat="24.140823" lon="120.683809"/>
<trkpt lat="24.140420" lon="120.683358"/>
<trkpt lat="24.140079" lon="120.683761"/>
<trkpt lat="24.140421" lon="120.684115"/>
<trkpt lat="24.140090" lon="120.684492"/>
<trkpt lat="24.139759" lon="120.684887"/>
<trkpt lat="24.139407" lon="120.684530"/>
<trkpt lat="24.139307" lon="120.684641"/>
<trkpt lat="24.139455" lon="120.684959"/>
<trkpt lat="24.139614" lon="120.685301"/>
<trkpt lat="24.139610" lon="120.685304"/>
<trkpt lat="24.139508" lon="120.685370"/>
<trkpt lat="24.139504" lon="120.685372"/>
<trkpt lat="24.139183" lon="120.685563"/>
<trkpt lat="24.139135" lon="120.685591"/>
<trkpt lat="24.139043" lon="120.685693"/>
<trkpt lat="24.139022" lon="120.686056"/>
<trkpt lat="24.138897" lon="120.686005"/>
<trkpt lat="24.138835" lon="120.685963"/>
<trkpt lat="24.138425" lon="120.685635"/>
<trkpt lat="24.138373" lon="120.685699"/>
<trkpt lat="24.138244" lon="120.685867"/>
<trkpt lat="24.138091" lon="120.686064"/>
<trkpt lat="24.138052" lon="120.686114"/>
<trkpt lat="24.138070" lon="120.686371"/>
<trkpt lat="24.137876" lon="120.686483"/>
<trkpt lat="24.137839" lon="120.686504"/>
<trkpt lat="24.137789" lon="120.686571"/>
<trkpt lat="24.137852" lon="120.686752"/>
<trkpt lat="24.137922" lon="120.686826"/>
<trkpt lat="24.137999" lon="120.686955"/>
<trkpt lat="24.138101" lon="120.687125"/>
<trkpt lat="24.138102" lon="120.687509"/>
<trkpt lat="24.138105" lon="120.687744"/>
<trkpt lat="24.137840" lon="120.687765"/>
<trkpt lat="24.137766" lon="120.687762"/>
<trkpt lat="24.137728" lon="120.687760"/>
<trkpt lat="24.137762" lon="120.687848"/>
<trkpt lat="24.137753" lon="120.687848"/>
<trkpt lat="24.137654" lon="120.687847"/>
<trkpt lat="24.137233" lon="120.687846"/>
<trkpt lat="24.137220" lon="120.687814"/>
<trkpt lat="24.137185" lon="120.687724"/>
<trkpt lat="24.137140" lon="120.687627"/>
<trkpt lat="24.137096" lon="120.687624"/>
<trkpt lat="24.137028" lon="120.687602"/>
<trkpt lat="24.136980" lon="120.687601"/>
<trkpt lat="24.136968" lon="120.687602"/>
<trkpt lat="24.136935" lon="120.687603"/>
<trkpt lat="24.136598" lon="120.687772"/>
<trkpt lat="24.136537" lon="120.687747"/>
<trkpt lat="24.136489" lon="120.687758"/>
<trkpt lat="24.136428" lon="120.687792"/>
<trkpt lat="24.136347" lon="120.687839"/>
<trkpt lat="24.136392" lon="120.687936"/>
<trkpt lat="24.136427" lon="120.688029"/>
<trkpt lat="24.136480" lon="120.688056"/>
<trkpt lat="24.136502" lon="120.688100"/>
<trkpt lat="24.136713" lon="120.688596"/>
<trkpt lat="24.136753" lon="120.688686"/>
<trkpt lat="24.136888" lon="120.689011"/>
<trkpt lat="24.136905" lon="120.689125"/>
<trkpt lat="24.136922" lon="120.689170"/>
<trkpt lat="24.136961" lon="120.689131"/>
<trkpt lat="24.136988" lon="120.689104"/>
<trkpt lat="24.137092" lon="120.689245"/>
<trkpt lat="24.137069" lon="120.689283"/>
<trkpt lat="24.137047" lon="120.689348"/>
<trkpt lat="24.137525" lon="120.689753"/>
<trkpt lat="24.137524" lon="120.689797"/>
<trkpt lat="24.137538" lon="120.689883"/>
<trkpt lat="24.137549" lon="120.689952"/>
<trkpt lat="24.137561" lon="120.690031"/>
<trkpt lat="24.137592" lon="120.690237"/>
<trkpt lat="24.137216" lon="120.690264"/>
<trkpt lat="24.137048" lon="120.690276"/>
<trkpt lat="24.136801" lon="120.690383"/>
<trkpt lat="24.136607" lon="120.690471"/>
<trkpt lat="24.136598" lon="120.690499"/>
<trkpt lat="24.136545" lon="120.690544"/>
<trkpt lat="24.136504" lon="120.690598"/>
<trkpt lat="24.136473" lon="120.690690"/>
<trkpt lat="24.136482" lon="120.690764"/>
<trkpt lat="24.136495" lon="120.690842"/>
<trkpt lat="24.136482" lon="120.690900"/>
<trkpt lat="24.136425" lon="120.690958"/>
<trkpt lat="24.136392" lon="120.691069"/>
<trkpt lat="24.136444" lon="120.691135"/>
<trkpt lat="24.136507" lon="120.691214"/>
<trkpt lat="24.136530" lon="120.691316"/>
<trkpt lat="24.136532" lon="120.691432"/>
<trkpt lat="24.136538" lon="120.691564"/>
<trkpt lat="24.136578" lon="120.691704"/>
<trkpt lat="24.136657" lon="120.691807"/>
<trkpt lat="24.136820" lon="120.691926"/>
<trkpt lat="24.136864" lon="120.692016"/>
<trkpt lat="24.136855" lon="120.692108"/>
<trkpt lat="24.136830" lon="120.692290"/>
<trkpt lat="24.136829" lon="120.692383"/>
<trkpt lat="24.136848" lon="120.692427"/>
<trkpt lat="24.136888" lon="120.692480"/>
<trkpt lat="24.136873" lon="120.692514"/>
<trkpt lat="24.136868" lon="120.692572"/>
<trkpt lat="24.136943" lon="120.692599"/>
<trkpt lat="24.136933" lon="120.692664"/>
<trkpt lat="24.136931" lon="120.692682"/>
<trkpt lat="24.136922" lon="120.692740"/>
<trkpt lat="24.136907" lon="120.692821"/>
<trkpt lat="24.136910" lon="120.692925"/>
<trkpt lat="24.136858" lon="120.692926"/>
<trkpt lat="24.136837" lon="120.692931"/>
<trkpt lat="24.136830" lon="120.693578"/>
<trkpt lat="24.136854" lon="120.694264"/>
<trkpt lat="24.136857" lon="120.694341"/>
<trkpt lat="24.136946" lon="120.694332"/>
<trkpt lat="24.136964" lon="120.695072"/>
<trkpt lat="24.136992" lon="120.696526"/>
<trkpt lat="24.136999" lon="120.696617"/>
<trkpt lat="24.136999" lon="120.696719"/>
<trkpt lat="24.137019" lon="120.697074"/>
<trkpt lat="24.137020" lon="120.697162"/>
<trkpt lat="24.137214" lon="120.697165"/>
<trkpt lat="24.137265" lon="120.697340"/>
<trkpt lat="24.137280" lon="120.697434"/>
<trkpt lat="24.137311" lon="120.698067"/>
<trkpt lat="24.138291" lon="120.698067"/>
<trkpt lat="24.138273" lon="120.698964"/>
<trkpt lat="24.138278" lon="120.699106"/>
<trkpt lat="24.138454" lon="120.699056"/>
<trkpt lat="24.138485" lon="120.699050"/>
<trkpt lat="24.138543" lon="120.699038"/>
<trkpt lat="24.138606" lon="120.699064"/>
<trkpt lat="24.138740" lon="120.699158"/>
<trkpt lat="24.138876" lon="120.699233"/>
<trkpt lat="24.138882" lon="120.700135"/>
<trkpt lat="24.138883" lon="120.700212"/>
<trkpt lat="24.138883" lon="120.700243"/>
<trkpt lat="24.138883" lon="120.701267"/>
<trkpt lat="24.138881" lon="120.701351"/>
<trkpt lat="24.138994" lon="120.701352"/>
<trkpt lat="24.139335" lon="120.701377"/>
<trkpt lat="24.139386" lon="120.701358"/>
<trkpt lat="24.139910" lon="120.701369"/>
<trkpt lat="24.140116" lon="120.701380"/>
<trkpt lat="24.140191" lon="120.701389"/>
<trkpt lat="24.140200" lon="120.701481"/>
<trkpt lat="24.140666" lon="120.701466"/>
<trkpt lat="24.141555" lon="120.701406"/>
<trkpt lat="24.141553" lon="120.701985"/>
<trkpt lat="24.141557" lon="120.702217"/>
<trkpt lat="24.142111" lon="120.702140"/>
<trkpt lat="24.142138" lon="120.703099"/>
<trkpt lat="24.142149" lon="120.703377"/>
<trkpt lat="24.142719" lon="120.703264"/>
<trkpt lat="24.142902" lon="120.703212"/>
<trkpt lat="24.143134" lon="120.703159"/>
<trkpt lat="24.143395" lon="120.703128"/>
<trkpt lat="24.143801" lon="120.703070"/>
<trkpt lat="24.144007" lon="120.703042"/>
<trkpt lat="24.144539" lon="120.702968"/>
<trkpt lat="24.144521" lon="120.703492"/>
<trkpt lat="24.144513" lon="120.704108"/>
<trkpt lat="24.144507" lon="120.704352"/>
<trkpt lat="24.144724" lon="120.704310"/>
<trkpt lat="24.144831" lon="120.704291"/>
<trkpt lat="24.145561" lon="120.704116"/>
<trkpt lat="24.146185" lon="120.703932"/>
<trkpt lat="24.146436" lon="120.703933"/>
<trkpt lat="24.146822" lon="120.703964"/>
<trkpt lat="24.147126" lon="120.703994"/>
<trkpt lat="24.147387" lon="120.704315"/>
<trkpt lat="24.147579" lon="120.704533"/>
<trkpt lat="24.147836" lon="120.704822"/>
<trkpt lat="24.147990" lon="120.704927"/>
<trkpt lat="24.148282" lon="120.705083"/>
<trkpt lat="24.148189" lon="120.703906"/>
<trkpt lat="24.148179" lon="120.703665"/>
<trkpt lat="24.148178" lon="120.703630"/>
<trkpt lat="24.148164" lon="120.703363"/>
<trkpt lat="24.148151" lon="120.703179"/>
<trkpt lat="24.148663" lon="120.703193"/>
<trkpt lat="24.149116" lon="120.703212"/>
<trkpt lat="24.149351" lon="120.703222"/>
<trkpt lat="24.150014" lon="120.703257"/>
<trkpt lat="24.150836" lon="120.703303"/>
<trkpt lat="24.151537" lon="120.703323"/>
<trkpt lat="24.151738" lon="120.703335"/>
<trkpt lat="24.152453" lon="120.703381"/>
<trkpt lat="24.152690" lon="120.703431"/>
<trkpt lat="24.152911" lon="120.703507"/>
<trkpt lat="24.153266" lon="120.703683"/>
<trkpt lat="24.153441" lon="120.703086"/>
<trkpt lat="24.153464" lon="120.703017"/>
<trkpt lat="24.153470" lon="120.702999"/>
<trkpt lat="24.153670" lon="120.702009"/>
<trkpt lat="24.153676" lon="120.701957"/>
<trkpt lat="24.153691" lon="120.701873"/>
<trkpt lat="24.153844" lon="120.701990"/>
<trkpt lat="24.154360" lon="120.702371"/>
<trkpt lat="24.154602" lon="120.702546"/>
<trkpt lat="24.154776" lon="120.702673"/>
<trkpt lat="24.155239" lon="120.702948"/>
<trkpt lat="24.155467" lon="120.703081"/>
<trkpt lat="24.155547" lon="120.703121"/>
<trkpt lat="24.155948" lon="120.703305"/>
<trkpt lat="24.156393" lon="120.703485"/>
<trkpt lat="24.156702" lon="120.703587"/>
<trkpt lat="24.156839" lon="120.703632"/>
<trkpt lat="24.157132" lon="120.703706"/>
<trkpt lat="24.157501" lon="120.703800"/>
<trkpt lat="24.158029" lon="120.703865"/>
<trkpt lat="24.158431" lon="120.703914"/>
<trkpt lat="24.158653" lon="120.703928"/>
<trkpt lat="24.158871" lon="120.703931"/>
<trkpt lat="24.159051" lon="120.703916"/>
<trkpt lat="24.159568" lon="120.703885"/>
<trkpt lat="24.159633" lon="120.703427"/>
<trkpt lat="24.159387" lon="120.703422"/>
<trkpt lat="24.158465" lon="120.703405"/>
<trkpt lat="24.157984" lon="120.703395"/>
<trkpt lat="24.157999" lon="120.702678"/>
<trkpt lat="24.158353" lon="120.702777"/>
<trkpt lat="24.158707" lon="120.702883"/>
<trkpt lat="24.158808" lon="120.702898"/>
<trkpt lat="24.158887" lon="120.702878"/>
<trkpt lat="24.158969" lon="120.702838"/>
<trkpt lat="24.159015" lon="120.702771"/>
<trkpt lat="24.159049" lon="120.702696"/>
<trkpt lat="24.159169" lon="120.702150"/>
<trkpt lat="24.159391" lon="120.702206"/>
<trkpt lat="24.159425" lon="120.702100"/>
<trkpt lat="24.159448" lon="120.702015"/>
<trkpt lat="24.159466" lon="120.701943"/>
<trkpt lat="24.159875" lon="120.702058"/>
<trkpt lat="24.160065" lon="120.701177"/>
<trkpt lat="24.160217" lon="120.700471"/>
<trkpt lat="24.160362" lon="120.699795"/>
<trkpt lat="24.160370" lon="120.699758"/>
<trkpt lat="24.160254" lon="120.699776"/>
<trkpt lat="24.160267" lon="120.699664"/>
<trkpt lat="24.160277" lon="120.699569"/>
<trkpt lat="24.160287" lon="120.699418"/>
<trkpt lat="24.160440" lon="120.699438"/>
<trkpt lat="24.160449" lon="120.699397"/>
<trkpt lat="24.160496" lon="120.699178"/>
<trkpt lat="24.160515" lon="120.699089"/>
<trkpt lat="24.160588" lon="120.699011"/>
<trkpt lat="24.160304" lon="120.698971"/>
<trkpt lat="24.160147" lon="120.698953"/>
<trkpt lat="24.160313" lon="120.697488"/>
<trkpt lat="24.160087" lon="120.697456"/>
<trkpt lat="24.159881" lon="120.697431"/>
<trkpt lat="24.159886" lon="120.697341"/>
<trkpt lat="24.159772" lon="120.697338"/>
<trkpt lat="24.159567" lon="120.697339"/>
<trkpt lat="24.159246" lon="120.697335"/>
<trkpt lat="24.159245" lon="120.696967"/>
<trkpt lat="24.158989" lon="120.696937"/>
<trkpt lat="24.158847" lon="120.696872"/>
<trkpt lat="24.158743" lon="120.696768"/>
<trkpt lat="24.158751" lon="120.696581"/>
<trkpt lat="24.158757" lon="120.696394"/>
<trkpt lat="24.158666" lon="120.696338"/>
<trkpt lat="24.158533" lon="120.696260"/>
<trkpt lat="24.158400" lon="120.696216"/>
<trkpt lat="24.158124" lon="120.696115"/>
<trkpt lat="24.157987" lon="120.696110"/>
<trkpt lat="24.157985" lon="120.695966"/>
<trkpt lat="24.157755" lon="120.695975"/>
<trkpt lat="24.157579" lon="120.695982"/>
<trkpt lat="24.157145" lon="120.695965"/>
<trkpt lat="24.156719" lon="120.695965"/>
<trkpt lat="24.156172" lon="120.695965"/>
<trkpt lat="24.155641" lon="120.695956"/>
<trkpt lat="24.155651" lon="120.695231"/>
<trkpt lat="24.155955" lon="120.695244"/>
<trkpt lat="24.156175" lon="120.695438"/>
<trkpt lat="24.156457" lon="120.695718"/>
<trkpt lat="24.156720" lon="120.695772"/>
<trkpt lat="24.156719" lon="120.695965"/>
<trkpt lat="24.157145" lon="120.695965"/>
<trkpt lat="24.157579" lon="120.695982"/>
<trkpt lat="24.157755" lon="120.695975"/>
<trkpt lat="24.157985" lon="120.695966"/>
<trkpt lat="24.158397" lon="120.695966"/>
<trkpt lat="24.158810" lon="120.695954"/>
<trkpt lat="24.158864" lon="120.695955"/>
<trkpt lat="24.159054" lon="120.695953"/>
<trkpt lat="24.159247" lon="120.695952"/>
<trkpt lat="24.159521" lon="120.695951"/>
<trkpt lat="24.159881" lon="120.695954"/>
<trkpt lat="24.160347" lon="120.695961"/>
<trkpt lat="24.160567" lon="120.695987"/>
<trkpt lat="24.161040" lon="120.696053"/>
<trkpt lat="24.161230" lon="120.694980"/>
<trkpt lat="24.161297" lon="120.694599"/>
<trkpt lat="24.161299" lon="120.694588"/>
<trkpt lat="24.161318" lon="120.694419"/>
<trkpt lat="24.161322" lon="120.694347"/>
<trkpt lat="24.161305" lon="120.694293"/>
<trkpt lat="24.161375" lon="120.694263"/>
<trkpt lat="24.161386" lon="120.694216"/>
<trkpt lat="24.161362" lon="120.694167"/>
<trkpt lat="24.161397" lon="120.694140"/>
<trkpt lat="24.161507" lon="120.694061"/>
<trkpt lat="24.161698" lon="120.693883"/>
<trkpt lat="24.161847" lon="120.693680"/>
<trkpt lat="24.161900" lon="120.693607"/>
<trkpt lat="24.161948" lon="120.693541"/>
<trkpt lat="24.162081" lon="120.693291"/>
<trkpt lat="24.162140" lon="120.693180"/>
<trkpt lat="24.162220" lon="120.693013"/>
<trkpt lat="24.162291" lon="120.692875"/>
<trkpt lat="24.162211" lon="120.692831"/>
<trkpt lat="24.162150" lon="120.692797"/>
<trkpt lat="24.162112" lon="120.692787"/>
<trkpt lat="24.162120" lon="120.692750"/>
<trkpt lat="24.162146" lon="120.692681"/>
<trkpt lat="24.162183" lon="120.692581"/>
<trkpt lat="24.162210" lon="120.692509"/>
<trkpt lat="24.162249" lon="120.692445"/>
<trkpt lat="24.162234" lon="120.692405"/>
<trkpt lat="24.162121" lon="120.692435"/>
<trkpt lat="24.161922" lon="120.692427"/>
<trkpt lat="24.161728" lon="120.692398"/>
<trkpt lat="24.161888" lon="120.691524"/>
<trkpt lat="24.162005" lon="120.690986"/>
<trkpt lat="24.162111" lon="120.690406"/>
<trkpt lat="24.162199" lon="120.689823"/>
<trkpt lat="24.161575" lon="120.689818"/>
<trkpt lat="24.161476" lon="120.689812"/>
<trkpt lat="24.161488" lon="120.689252"/>
<trkpt lat="24.161405" lon="120.689250"/>
<trkpt lat="24.161313" lon="120.689253"/>
<trkpt lat="24.161180" lon="120.689293"/>
<trkpt lat="24.161106" lon="120.689309"/>
<trkpt lat="24.161027" lon="120.689311"/>
<trkpt lat="24.161035" lon="120.689128"/>
<trkpt lat="24.161069" lon="120.688952"/>
<trkpt lat="24.161098" lon="120.688816"/>
<trkpt lat="24.160854" lon="120.688811"/>
<trkpt lat="24.160854" lon="120.688788"/>
<trkpt lat="24.160627" lon="120.688785"/>
<trkpt lat="24.160629" lon="120.689156"/>
<trkpt lat="24.160480" lon="120.689077"/>
<trkpt lat="24.160493" lon="120.688176"/>
<trkpt lat="24.160430" lon="120.688175"/>
<trkpt lat="24.160222" lon="120.688174"/>
<trkpt lat="24.160207" lon="120.688933"/>
<trkpt lat="24.160119" lon="120.688881"/>
<trkpt lat="24.160012" lon="120.688863"/>
<trkpt lat="24.159819" lon="120.688842"/>
<trkpt lat="24.159578" lon="120.688802"/>
<trkpt lat="24.158977" lon="120.688620"/>
<trkpt lat="24.159001" lon="120.688044"/>
<trkpt lat="24.158922" lon="120.688043"/>
<trkpt lat="24.158922" lon="120.687925"/>
<trkpt lat="24.158676" lon="120.687826"/>
<trkpt lat="24.157788" lon="120.687467"/>
<trkpt lat="24.157399" lon="120.687293"/>
<trkpt lat="24.157266" lon="120.687912"/>
<trkpt lat="24.157103" lon="120.688602"/>
<trkpt lat="24.157052" lon="120.688866"/>
<trkpt lat="24.156832" lon="120.688617"/>
<trkpt lat="24.156592" lon="120.688342"/>
<trkpt lat="24.156508" lon="120.688245"/>
<trkpt lat="24.156451" lon="120.688304"/>
<trkpt lat="24.156408" lon="120.688348"/>
<trkpt lat="24.156570" lon="120.688515"/>
<trkpt lat="24.156704" lon="120.688739"/>
<trkpt lat="24.156740" lon="120.688780"/>
<trkpt lat="24.156810" lon="120.688862"/>
<trkpt lat="24.156976" lon="120.689067"/>
<trkpt lat="24.157018" lon="120.689114"/>
<trkpt lat="24.157054" lon="120.689005"/>
<trkpt lat="24.157521" lon="120.689575"/>
<trkpt lat="24.157546" lon="120.689605"/>
<trkpt lat="24.157648" lon="120.689729"/>
<trkpt lat="24.157779" lon="120.689714"/>
<trkpt lat="24.157872" lon="120.689619"/>
<trkpt lat="24.157892" lon="120.689598"/>
<trkpt lat="24.158473" lon="120.689000"/>
<trkpt lat="24.158515" lon="120.688967"/>
<trkpt lat="24.158520" lon="120.688578"/>
<trkpt lat="24.158551" lon="120.688520"/>
<trkpt lat="24.158638" lon="120.688057"/>
<trkpt lat="24.158676" lon="120.687826"/>
<trkpt lat="24.158922" lon="120.687925"/>
<trkpt lat="24.158923" lon="120.687854"/>
<trkpt lat="24.158918" lon="120.687415"/>
<trkpt lat="24.158917" lon="120.687317"/>
<trkpt lat="24.158926" lon="120.686740"/>
<trkpt lat="24.159011" lon="120.686742"/>
<trkpt lat="24.159146" lon="120.686746"/>
<trkpt lat="24.159147" lon="120.686677"/>
<trkpt lat="24.159148" lon="120.686595"/>
<trkpt lat="24.159013" lon="120.686591"/>
<trkpt lat="24.159036" lon="120.685709"/>
<trkpt lat="24.159036" lon="120.685686"/>
<trkpt lat="24.159039" lon="120.685573"/>
<trkpt lat="24.159039" lon="120.685540"/>
<trkpt lat="24.159041" lon="120.685452"/>
<trkpt lat="24.159044" lon="120.685226"/>
<trkpt lat="24.159156" lon="120.685227"/>
<trkpt lat="24.159203" lon="120.685189"/>
<trkpt lat="24.159281" lon="120.685188"/>
<trkpt lat="24.159656" lon="120.685186"/>
<trkpt lat="24.159674" lon="120.685186"/>
<trkpt lat="24.159700" lon="120.685185"/>
<trkpt lat="24.160170" lon="120.685179"/>
<trkpt lat="24.160169" lon="120.685102"/>
<trkpt lat="24.160168" lon="120.685007"/>
<trkpt lat="24.160175" lon="120.684939"/>
<trkpt lat="24.160221" lon="120.684889"/>
<trkpt lat="24.160276" lon="120.684890"/>
<trkpt lat="24.160288" lon="120.683931"/>
<trkpt lat="24.160292" lon="120.683683"/>
<trkpt lat="24.159720" lon="120.683675"/>
<trkpt lat="24.159716" lon="120.683362"/>
<trkpt lat="24.159745" lon="120.683306"/>
<trkpt lat="24.159218" lon="120.683132"/>
<trkpt lat="24.159215" lon="120.683076"/>
<trkpt lat="24.159076" lon="120.683051"/>
<trkpt lat="24.159084" lon="120.682350"/>
<trkpt lat="24.159089" lon="120.681884"/>
<trkpt lat="24.159091" lon="120.681704"/>
<trkpt lat="24.159093" lon="120.681492"/>
<trkpt lat="24.158160" lon="120.681492"/>
<trkpt lat="24.158160" lon="120.681442"/>
<trkpt lat="24.158160" lon="120.681113"/>
<trkpt lat="24.158103" lon="120.681116"/>
<trkpt lat="24.157689" lon="120.681207"/>
<trkpt lat="24.157668" lon="120.681084"/>
<trkpt lat="24.157640" lon="120.680947"/>
<trkpt lat="24.157548" lon="120.680965"/>
<trkpt lat="24.157343" lon="120.681006"/>
<trkpt lat="24.157355" lon="120.681164"/>
<trkpt lat="24.157394" lon="120.681151"/>
<trkpt lat="24.157406" lon="120.681277"/>
<trkpt lat="24.157341" lon="120.681288"/>
<trkpt lat="24.157323" lon="120.681343"/>
<trkpt lat="24.157305" lon="120.681398"/>
<trkpt lat="24.156840" lon="120.681497"/>
<trkpt lat="24.156726" lon="120.681440"/>
<trkpt lat="24.156667" lon="120.681427"/>
<trkpt lat="24.156525" lon="120.681460"/>
<trkpt lat="24.155999" lon="120.681670"/>
<trkpt lat="24.155982" lon="120.681598"/>
<trkpt lat="24.155962" lon="120.681495"/>
<trkpt lat="24.155939" lon="120.681379"/>
<trkpt lat="24.155824" lon="120.681313"/>
<trkpt lat="24.155719" lon="120.681314"/>
<trkpt lat="24.155715" lon="120.680444"/>
<trkpt lat="24.155626" lon="120.680443"/>
<trkpt lat="24.155627" lon="120.680374"/>
<trkpt lat="24.155427" lon="120.680399"/>
<trkpt lat="24.155096" lon="120.680435"/>
<trkpt lat="24.155026" lon="120.680429"/>
<trkpt lat="24.154962" lon="120.680434"/>
<trkpt lat="24.154931" lon="120.680436"/>
<trkpt lat="24.154738" lon="120.680445"/>
<trkpt lat="24.154646" lon="120.680465"/>
<trkpt lat="24.154364" lon="120.680595"/>
<trkpt lat="24.154062" lon="120.680721"/>
<trkpt lat="24.153749" lon="120.680869"/>
<trkpt lat="24.153688" lon="120.680899"/>
<trkpt lat="24.153480" lon="120.680996"/>
<trkpt lat="24.152859" lon="120.681269"/>
<trkpt lat="24.152751" lon="120.681318"/>
<trkpt lat="24.152147" lon="120.681604"/>
<trkpt lat="24.152117" lon="120.681696"/>
<trkpt lat="24.151994" lon="120.682063"/>
<trkpt lat="24.152416" lon="120.682243"/>
<trkpt lat="24.152149" lon="120.683012"/>
<trkpt lat="24.151886" lon="120.683817"/>
<trkpt lat="24.151867" lon="120.683875"/>
<trkpt lat="24.151846" lon="120.683933"/>
<trkpt lat="24.151912" lon="120.683963"/>
<trkpt lat="24.151934" lon="120.683904"/>
<trkpt lat="24.151955" lon="120.683849"/>
<trkpt lat="24.151886" lon="120.683817"/>
<trkpt lat="24.152149" lon="120.683012"/>
<trkpt lat="24.152620" lon="120.683215"/>
<trkpt lat="24.153002" lon="120.683375"/>
<trkpt lat="24.153365" lon="120.683526"/>
<trkpt lat="24.153389" lon="120.683461"/>
<trkpt lat="24.153436" lon="120.683448"/>
<trkpt lat="24.153474" lon="120.683384"/>
<trkpt lat="24.153230" lon="120.682740"/>
<trkpt lat="24.153178" lon="120.682667"/>
<trkpt lat="24.153130" lon="120.682537"/>
<trkpt lat="24.153088" lon="120.682391"/>
<trkpt lat="24.153169" lon="120.682398"/>
<trkpt lat="24.153288" lon="120.682408"/>
<trkpt lat="24.153100" lon="120.681939"/>
<trkpt lat="24.153723" lon="120.681648"/>
<trkpt lat="24.153480" lon="120.680996"/>
<trkpt lat="24.153188" lon="120.680240"/>
<trkpt lat="24.152982" lon="120.679701"/>
<trkpt lat="24.152938" lon="120.679586"/>
<trkpt lat="24.152913" lon="120.679520"/>
<trkpt lat="24.152841" lon="120.679337"/>
<trkpt lat="24.152814" lon="120.679281"/>
<trkpt lat="24.152498" lon="120.678455"/>
<trkpt lat="24.152451" lon="120.678336"/>
<trkpt lat="24.152248" lon="120.677813"/>
<trkpt lat="24.151636" lon="120.678117"/>
<trkpt lat="24.151605" lon="120.678036"/>
<trkpt lat="24.151396" lon="120.677503"/>
<trkpt lat="24.151259" lon="120.677509"/>
<trkpt lat="24.151183" lon="120.677318"/>
<trkpt lat="24.151085" lon="120.677352"/>
<trkpt lat="24.150681" lon="120.677489"/>
<trkpt lat="24.150557" lon="120.677531"/>
<trkpt lat="24.150538" lon="120.677369"/>
<trkpt lat="24.150543" lon="120.677250"/>
<trkpt lat="24.150422" lon="120.677231"/>
<trkpt lat="24.150320" lon="120.677234"/>
<trkpt lat="24.150201" lon="120.677262"/>
<trkpt lat="24.149751" lon="120.676784"/>
<trkpt lat="24.149298" lon="120.677301"/>
<trkpt lat="24.149054" lon="120.677579"/>
<trkpt lat="24.148729" lon="120.677253"/>
<trkpt lat="24.148673" lon="120.677202"/>
<trkpt lat="24.148629" lon="120.677183"/>
<trkpt lat="24.148289" lon="120.677565"/>
<trkpt lat="24.148173" lon="120.677496"/>
<trkpt lat="24.147933" lon="120.677418"/>
<trkpt lat="24.147703" lon="120.677403"/>
<trkpt lat="24.147525" lon="120.677422"/>
<trkpt lat="24.147258" lon="120.677494"/>
<trkpt lat="24.147133" lon="120.677568"/>
<trkpt lat="24.146801" lon="120.677844"/>
<trkpt lat="24.146452" lon="120.678060"/>
<trkpt lat="24.146715" lon="120.678338"/>
<trkpt lat="24.146507" lon="120.678504"/>
<trkpt lat="24.146127" lon="120.678782"/>
<trkpt lat="24.145540" lon="120.679173"/>
<trkpt lat="24.145399" lon="120.679252"/>
<trkpt lat="24.145302" lon="120.679311"/>
<trkpt lat="24.145257" lon="120.679339"/>
<trkpt lat="24.144959" lon="120.679701"/>
<trkpt lat="24.144665" lon="120.680036"/>
<trkpt lat="24.144274" lon="120.680499"/>
<trkpt lat="24.143892" lon="120.680934"/>
<trkpt lat="24.143815" lon="120.681022"/>
<trkpt lat="24.143768" lon="120.681076"/>
<trkpt lat="24.143536" lon="120.681347"/>
<trkpt lat="24.143179" lon="120.681756"/>
<trkpt lat="24.142895" lon="120.682082"/>
<trkpt lat="24.142531" lon="120.682499"/>
<trkpt lat="24.142220" lon="120.682856"/>
<trkpt lat="24.141518" lon="120.683661"/>
<trkpt lat="24.141221" lon="120.683357"/>
<trkpt lat="24.140823" lon="120.683809"/>
</trkseg></trk>
</gpx>