<?xml version="1.0" encoding="UTF-8"?>
<gpx version="1.1" creator="catrun" xmlns="http://www.topografix.com/GPX/1/1">
<metadata><name>東區 貓臉（正面） 圖形路跑路線</name></metadata>
<wpt lat="24.155314" lon="120.699980"><name>豬事圓滿公園</name><desc>地標</desc></wpt>
<wpt lat="24.146777" lon="120.708199"><name>三賢公園</name><desc>地標</desc></wpt>
<wpt lat="24.146380" lon="120.709261"><name>進業公園</name><desc>地標</desc></wpt>
<trk><name>東區 貓臉（正面） 圖形路跑路線</name><trkseg>
<trkpt lat="24.151628" lon="120.693696"/>
<trkpt lat="24.151595" lon="120.694373"/>
<trkpt lat="24.151091" lon="120.694365"/>
<trkpt lat="24.151088" lon="120.694430"/>
<trkpt lat="24.151077" lon="120.694646"/>
<trkpt lat="24.151047" lon="120.695187"/>
<trkpt lat="24.151039" lon="120.695410"/>
<trkpt lat="24.151026" lon="120.695720"/>
<trkpt lat="24.150983" lon="120.696071"/>
<trkpt lat="24.150980" lon="120.696094"/>
<trkpt lat="24.150903" lon="120.696620"/>
<trkpt lat="24.150907" lon="120.696621"/>
<trkpt lat="24.150923" lon="120.696634"/>
<trkpt lat="24.150935" lon="120.696653"/>
<trkpt lat="24.150938" lon="120.696676"/>
<trkpt lat="24.150986" lon="120.696685"/>
<trkpt lat="24.151182" lon="120.696714"/>
<trkpt lat="24.151428" lon="120.696759"/>
<trkpt lat="24.151477" lon="120.696766"/>
<trkpt lat="24.151662" lon="120.696798"/>
<trkpt lat="24.151732" lon="120.696810"/>
<trkpt lat="24.152013" lon="120.696859"/>
<trkpt lat="24.152306" lon="120.696943"/>
<trkpt lat="24.152602" lon="120.697041"/>
<trkpt lat="24.152746" lon="120.697089"/>
<trkpt lat="24.152962" lon="120.697163"/>
<trkpt lat="24.153035" lon="120.697181"/>
<trkpt lat="24.153252" lon="120.697235"/>
<trkpt lat="24.153318" lon="120.697251"/>
<trkpt lat="24.153650" lon="120.697331"/>
<trkpt lat="24.153985" lon="120.697408"/>
<trkpt lat="24.154312" lon="120.697491"/>
<trkpt lat="24.154664" lon="120.697572"/>
<trkpt lat="24.154845" lon="120.697620"/>
<trkpt lat="24.155020" lon="120.697627"/>
<trkpt lat="24.155297" lon="120.697620"/>
<trkpt lat="24.155301" lon="120.698291"/>
<trkpt lat="24.155310" lon="120.698379"/>
<trkpt lat="24.155308" lon="120.698453"/>
<trkpt lat="24.155314" lon="120.698917"/>
<trkpt lat="24.155311" lon="120.699021"/>
<trkpt lat="24.154789" lon="120.698952"/>
<trkpt lat="24.154662" lon="120.699663"/>
<trkpt lat="24.154495" lon="120.700577"/>
<trkpt lat="24.154609" lon="120.700474"/>
<trkpt lat="24.154942" lon="120.700353"/>
<trkpt lat="24.155036" lon="120.700522"/>
<trkpt lat="24.155104" lon="120.700569"/>
<trkpt lat="24.155166" lon="120.700585"/>
<trkpt lat="24.155220" lon="120.700585"/>
<trkpt lat="24.155577" lon="120.700572"/>
<trkpt lat="24.155794" lon="120.700566"/>
<trkpt lat="24.155821" lon="120.700577"/>
<trkpt lat="24.155835" lon="120.700603"/>
<trkpt lat="24.155835" lon="120.700903"/>
<trkpt lat="24.155974" lon="120.700944"/>
<trkpt lat="24.157152" lon="120.701284"/>
<trkpt lat="24.157091" lon="120.701553"/>
<trkpt lat="24.155950" lon="120.701216"/>
<trkpt lat="24.155835" lon="120.701803"/>
<trkpt lat="24.155805" lon="120.701866"/>
<trkpt lat="24.155758" lon="120.701867"/>
<trkpt lat="24.155631" lon="120.702172"/>
<trkpt lat="24.155239" lon="120.702948"/>
<trkpt lat="24.154776" lon="120.702673"/>
<trkpt lat="24.154602" lon="120.702546"/>
<trkpt lat="24.154360" lon="120.702371"/>
<trkpt lat="24.153844" lon="120.701990"/>
<trkpt lat="24.153691" lon="120.701873"/>
<trkpt lat="24.153676" lon="120.701957"/>
<trkpt lat="24.153670" lon="120.702009"/>
<trkpt lat="24.153470" lon="120.702999"/>
<trkpt lat="24.153464" lon="120.703017"/>
<trkpt lat="24.153441" lon="120.703086"/>
<trkpt lat="24.153266" lon="120.703683"/>
<trkpt lat="24.152911" lon="120.703507"/>
<trkpt lat="24.152690" lon="120.703431"/>
<trkpt lat="24.152453" lon="120.703381"/>
<trkpt lat="24.151738" lon="120.703335"/>
<trkpt lat="24.151537" lon="120.703323"/>
<trkpt lat="24.150836" lon="120.703303"/>
<trkpt lat="24.150816" lon="120.703823"/>
<trkpt lat="24.150782" lon="120.704699"/>
<trkpt lat="24.150541" lon="120.704691"/>
<trkpt lat="24.150493" lon="120.704755"/>
<trkpt lat="24.150470" lon="120.704825"/>
<trkpt lat="24.150460" lon="120.705036"/>
<trkpt lat="24.150476" lon="120.705204"/>
<trkpt lat="24.150524" lon="120.705421"/>
<trkpt lat="24.150431" lon="120.705443"/>
<trkpt lat="24.150046" lon="120.705453"/>
<trkpt lat="24.149607" lon="120.705465"/>
<trkpt lat="24.149565" lon="120.705463"/>
<trkpt lat="24.149189" lon="120.705463"/>
<trkpt lat="24.149042" lon="120.705660"/>
<trkpt lat="24.148448" lon="120.705209"/>
<trkpt lat="24.148282" lon="120.705083"/>
<trkpt lat="24.148420" lon="120.705672"/>
<trkpt lat="24.148589" lon="120.706335"/>
<trkpt lat="24.147981" lon="120.706319"/>
<trkpt lat="24.148024" lon="120.707637"/>
<trkpt lat="24.148037" lon="120.707904"/>
<trkpt lat="24.147393" lon="120.707910"/>
<trkpt lat="24.147395" lon="120.708214"/>
<trkpt lat="24.147382" lon="120.708462"/>
<trkpt lat="24.146771" lon="120.708467"/>
<trkpt lat="24.146149" lon="120.708472"/>
<trkpt lat="24.146149" lon="120.709594"/>
<trkpt lat="24.145562" lon="120.709454"/>
<trkpt lat="24.145063" lon="120.709322"/>
<trkpt lat="24.144454" lon="120.709159"/>
<trkpt lat="24.143864" lon="120.708994"/>
<trkpt lat="24.143859" lon="120.710039"/>
<trkpt lat="24.143317" lon="120.710029"/>
<trkpt lat="24.142730" lon="120.710020"/>
<trkpt lat="24.142233" lon="120.710007"/>
<trkpt lat="24.141771" lon="120.710002"/>
<trkpt lat="24.141778" lon="120.710601"/>
<trkpt lat="24.141383" lon="120.710499"/>
<trkpt lat="24.140943" lon="120.710449"/>
<trkpt lat="24.140847" lon="120.710434"/>
<trkpt lat="24.140611" lon="120.710392"/>
<trkpt lat="24.140418" lon="120.710328"/>
<trkpt lat="24.140178" lon="120.710304"/>
<trkpt lat="24.139774" lon="120.710263"/>
<trkpt lat="24.138262" lon="120.710147"/>
<trkpt lat="24.138585" lon="120.708924"/>
<trkpt lat="24.137968" lon="120.708570"/>
<trkpt lat="24.137743" lon="120.708441"/>
<trkpt lat="24.137422" lon="120.708257"/>
<trkpt lat="24.137209" lon="120.708701"/>
<trkpt lat="24.137143" lon="120.708831"/>
<trkpt lat="24.137094" lon="120.708886"/>
<trkpt lat="24.136444" lon="120.708575"/>
<trkpt lat="24.136151" lon="120.708435"/>
<trkpt lat="24.135811" lon="120.708197"/>
<trkpt lat="24.135693" lon="120.708168"/>
<trkpt lat="24.135158" lon="120.707983"/>
<trkpt lat="24.135065" lon="120.707939"/>
<trkpt lat="24.134050" lon="120.707589"/>
<trkpt lat="24.133937" lon="120.707511"/>
<trkpt lat="24.133510" lon="120.707212"/>
<trkpt lat="24.133135" lon="120.706950"/>
<trkpt lat="24.133075" lon="120.706908"/>
<trkpt lat="24.132726" lon="120.706639"/>
<trkpt lat="24.132730" lon="120.706596"/>
<trkpt lat="24.132245" lon="120.706355"/>
<trkpt lat="24.132206" lon="120.706334"/>
<trkpt lat="24.132326" lon="120.706076"/>
<trkpt lat="24.132360" lon="120.706001"/>
<trkpt lat="24.132044" lon="120.705994"/>
<trkpt lat="24.132216" lon="120.705502"/>
<trkpt lat="24.132006" lon="120.705474"/>
<trkpt lat="24.131806" lon="120.705409"/>
<trkpt lat="24.131379" lon="120.705220"/>
<trkpt lat="24.131399" lon="120.705072"/>
<trkpt lat="24.131446" lon="120.704888"/>
<trkpt lat="24.131583" lon="120.704406"/>
<trkpt lat="24.130927" lon="120.704121"/>
<trkpt lat="24.130819" lon="120.704371"/>
<trkpt lat="24.130703" lon="120.704206"/>
<trkpt lat="24.130577" lon="120.704028"/>
<trkpt lat="24.130591" lon="120.703866"/>
<trkpt lat="24.130616" lon="120.703749"/>
<trkpt lat="24.130703" lon="120.703580"/>
<trkpt lat="24.130819" lon="120.703385"/>
<trkpt lat="24.130955" lon="120.703164"/>
<trkpt lat="24.131114" lon="120.702916"/>
<trkpt lat="24.130659" lon="120.702650"/>
<trkpt lat="24.130607" lon="120.702523"/>
<trkpt lat="24.130559" lon="120.702345"/>
<trkpt lat="24.130416" lon="120.702391"/>
<trkpt lat="24.130244" lon="120.702446"/>
<trkpt lat="24.130205" lon="120.702360"/>
<trkpt lat="24.130015" lon="120.702407"/>
<trkpt lat="24.130022" lon="120.702325"/>
<trkpt lat="24.129969" lon="120.702095"/>
<trkpt lat="24.129988" lon="120.701720"/>
<trkpt lat="24.130056" lon="120.701443"/>
<trkpt lat="24.129732" lon="120.701433"/>
<trkpt lat="24.129219" lon="120.701371"/>
<trkpt lat="24.128914" lon="120.701328"/>
<trkpt lat="24.128843" lon="120.701318"/>
<trkpt lat="24.128387" lon="120.701583"/>
<trkpt lat="24.127513" lon="120.702092"/>
<trkpt lat="24.127472" lon="120.702018"/>
<trkpt lat="24.127449" lon="120.701943"/>
<trkpt lat="24.127265" lon="120.700811"/>
<trkpt lat="24.127249" lon="120.700701"/>
<trkpt lat="24.128010" lon="120.700273"/>
<trkpt lat="24.127961" lon="120.700189"/>
<trkpt lat="24.127957" lon="120.699992"/>
<trkpt lat="24.127959" lon="120.698895"/>
<trkpt lat="24.127961" lon="120.698229"/>
<trkpt lat="24.127740" lon="120.698219"/>
<trkpt lat="24.127747" lon="120.697754"/>
<trkpt lat="24.127759" lon="120.697009"/>
<trkpt lat="24.127776" lon="120.696959"/>
<trkpt lat="24.127799" lon="120.696919"/>
<trkpt lat="24.127812" lon="120.696904"/>
<trkpt lat="24.127820" lon="120.696882"/>
<trkpt lat="24.127829" lon="120.696838"/>
<trkpt lat="24.127812" lon="120.696784"/>
<trkpt lat="24.127872" lon="120.696517"/>
<trkpt lat="24.127256" lon="120.696502"/>
<trkpt lat="24.127257" lon="120.696266"/>
<trkpt lat="24.127245" lon="120.695238"/>
<trkpt lat="24.127245" lon="120.695087"/>
<trkpt lat="24.127288" lon="120.694894"/>
<trkpt lat="24.127479" lon="120.694663"/>
<trkpt lat="24.127538" lon="120.694611"/>
<trkpt lat="24.127608" lon="120.694566"/>
<trkpt lat="24.127631" lon="120.694551"/>
<trkpt lat="24.127720" lon="120.694498"/>
<trkpt lat="24.127636" lon="120.694399"/>
<trkpt lat="24.127605" lon="120.694371"/>
<trkpt lat="24.127544" lon="120.694343"/>
<trkpt lat="24.127512" lon="120.694336"/>
<trkpt lat="24.127486" lon="120.694355"/>
<trkpt lat="24.126819" lon="120.693485"/>
<trkpt lat="24.126822" lon="120.693442"/>
<trkpt lat="24.126822" lon="120.693402"/>
<trkpt lat="24.126794" lon="120.693335"/>
<trkpt lat="24.126705" lon="120.693216"/>
<trkpt lat="24.126717" lon="120.693196"/>
<trkpt lat="24.126762" lon="120.693147"/>
<trkpt lat="24.126870" lon="120.693149"/>
<trkpt lat="24.126978" lon="120.693145"/>
<trkpt lat="24.127023" lon="120.693145"/>
<trkpt lat="24.127021" lon="120.692943"/>
<trkpt lat="24.127656" lon="120.692947"/>
<trkpt lat="24.127659" lon="120.692433"/>
<trkpt lat="24.127655" lon="120.691675"/>
<trkpt lat="24.127648" lon="120.690639"/>
<trkpt lat="24.127645" lon="120.690479"/>
<trkpt lat="24.127715" lon="120.690479"/>
<trkpt lat="24.127716" lon="120.690323"/>
<trkpt lat="24.127717" lon="120.690217"/>
<trkpt lat="24.127718" lon="120.690103"/>
<trkpt lat="24.127646" lon="120.690102"/>
<trkpt lat="24.127655" lon="120.689636"/>
<trkpt lat="24.127660" lon="120.689430"/>
<trkpt lat="24.127654" lon="120.688830"/>
<trkpt lat="24.128301" lon="120.688828"/>
<trkpt lat="24.128300" lon="120.688645"/>
<trkpt lat="24.128922" lon="120.688639"/>
<trkpt lat="24.129635" lon="120.688648"/>
<trkpt lat="24.129624" lon="120.687965"/>
<trkpt lat="24.129627" lon="120.687326"/>
<trkpt lat="24.130282" lon="120.687326"/>
<trkpt lat="24.130403" lon="120.687330"/>
<trkpt lat="24.130497" lon="120.687313"/>
<trkpt lat="24.131615" lon="120.686759"/>
<trkpt lat="24.131206" lon="120.685782"/>
<trkpt lat="24.131020" lon="120.685370"/>
<trkpt lat="24.130833" lon="120.684922"/>
<trkpt lat="24.130773" lon="120.684778"/>
<trkpt lat="24.130708" lon="120.684624"/>
<trkpt lat="24.130580" lon="120.684340"/>
<trkpt lat="24.130542" lon="120.684229"/>
<trkpt lat="24.131176" lon="120.683896"/>
<trkpt lat="24.131775" lon="120.683612"/>
<trkpt lat="24.131546" lon="120.683090"/>
<trkpt lat="24.132768" lon="120.682494"/>
<trkpt lat="24.132910" lon="120.682848"/>
<trkpt lat="24.133489" lon="120.682559"/>
<trkpt lat="24.134092" lon="120.682252"/>
<trkpt lat="24.133942" lon="120.681888"/>
<trkpt lat="24.134009" lon="120.681861"/>
<trkpt lat="24.134106" lon="120.681856"/>
<trkpt lat="24.134358" lon="120.681739"/>
<trkpt lat="24.134441" lon="120.681693"/>
<trkpt lat="24.134230" lon="120.681176"/>
<trkpt lat="24.134219" lon="120.681151"/>
<trkpt lat="24.133977" lon="120.680600"/>
<trkpt lat="24.134280" lon="120.680446"/>
<trkpt lat="24.134303" lon="120.680435"/>
<trkpt lat="24.134433" lon="120.680371"/>
<trkpt lat="24.134476" lon="120.680347"/>
<trkpt lat="24.134859" lon="120.680158"/>
<trkpt lat="24.134943" lon="120.680087"/>
<trkpt lat="24.135122" lon="120.680076"/>
<trkpt lat="24.135771" lon="120.680740"/>
<trkpt lat="24.136122" lon="120.681119"/>
<trkpt lat="24.136458" lon="120.680736"/>
<trkpt lat="24.136793" lon="120.680350"/>
<trkpt lat="24.137137" lon="120.679956"/>
<trkpt lat="24.137525" lon="120.680360"/>
<trkpt lat="24.137829" lon="120.680035"/>
<trkpt lat="24.137909" lon="120.679949"/>
<trkpt lat="24.137999" lon="120.679844"/>
<trkpt lat="24.138273" lon="120.679522"/>
<trkpt lat="24.138374" lon="120.679397"/>
<trkpt lat="24.138448" lon="120.679311"/>
<trkpt lat="24.138499" lon="120.679252"/>
<trkpt lat="24.138540" lon="120.679207"/>
<trkpt lat="24.138625" lon="120.679293"/>
<trkpt lat="24.138640" lon="120.679293"/>
<trkpt lat="24.138700" lon="120.679223"/>
<trkpt lat="24.138935" lon="120.679464"/>
<trkpt lat="24.139349" lon="120.679888"/>
<trkpt lat="24.139807" lon="120.680365"/>
<trkpt lat="24.140066" lon="120.680641"/>
<trkpt lat="24.140420" lon="120.680247"/>
<trkpt lat="24.140743" lon="120.679866"/>
<trkpt lat="24.141134" lon="120.680265"/>
<trkpt lat="24.141410" lon="120.680539"/>
<trkpt lat="24.141443" lon="120.680501"/>
<trkpt lat="24.141472" lon="120.680503"/>
<trkpt lat="24.141539" lon="120.680572"/>
<trkpt lat="24.141711" lon="120.680372"/>
<trkpt lat="24.141770" lon="120.680306"/>
<trkpt lat="24.141905" lon="120.680149"/>
<trkpt lat="24.141958" lon="120.680090"/>
<trkpt lat="24.142118" lon="120.679907"/>
<trkpt lat="24.142443" lon="120.680253"/>
<trkpt lat="24.142804" lon="120.680629"/>
<trkpt lat="24.143115" lon="120.680283"/>
<trkpt lat="24.143486" lon="120.680678"/>
<trkpt lat="24.143909" lon="120.680157"/>
<trkpt lat="24.144274" lon="120.680499"/>
<trkpt lat="24.144665" lon="120.680036"/>
<trkpt lat="24.145014" lon="120.680415"/>
<trkpt lat="24.145409" lon="120.680820"/>
<trkpt lat="24.145821" lon="120.681237"/>
<trkpt lat="24.145500" lon="120.681600"/>
<trkpt lat="24.145279" lon="120.682075"/>
<trkpt lat="24.145573" lon="120.682231"/>
<trkpt lat="24.145771" lon="120.682343"/>
<trkpt lat="24.145859" lon="120.682384"/>
<trkpt lat="24.146102" lon="120.682506"/>
<trkpt lat="24.147215" lon="120.682970"/>
<trkpt lat="24.148310" lon="120.683439"/>
<trkpt lat="24.148273" lon="120.683541"/>
<trkpt lat="24.148158" lon="120.683858"/>
<trkpt lat="24.148535" lon="120.684020"/>
<trkpt lat="24.148332" lon="120.684629"/>
<trkpt lat="24.148620" lon="120.684756"/>
<trkpt lat="24.148719" lon="120.684797"/>
<trkpt lat="24.148922" lon="120.684184"/>
<trkpt lat="24.149349" lon="120.684364"/>
<trkpt lat="24.149729" lon="120.684516"/>
<trkpt lat="24.149802" lon="120.684350"/>
<trkpt lat="24.149886" lon="120.684369"/>
<trkpt lat="24.149979" lon="120.684339"/>
<trkpt lat="24.150001" lon="120.684270"/>
<trkpt lat="24.150174" lon="120.684337"/>
<trkpt lat="24.150421" lon="120.684442"/>
<trkpt lat="24.150723" lon="120.684568"/>
<trkpt lat="24.151550" lon="120.684920"/>
<trkpt lat="24.151986" lon="120.685099"/>
<trkpt lat="24.152457" lon="120.685296"/>
<trkpt lat="24.152699" lon="120.685398"/>
<trkpt lat="24.152739" lon="120.685288"/>
<trkpt lat="24.152759" lon="120.685237"/>
<trkpt lat="24.152810" lon="120.685218"/>
<trkpt lat="24.152916" lon="120.684909"/>
<trkpt lat="24.152960" lon="120.684927"/>
<trkpt lat="24.153061" lon="120.684644"/>
<trkpt lat="24.153418" lon="120.684792"/>
<trkpt lat="24.153795" lon="120.684921"/>
<trkpt lat="24.153880" lon="120.684680"/>
<trkpt lat="24.153941" lon="120.684578"/>
<trkpt lat="24.154018" lon="120.684773"/>
<trkpt lat="24.154073" lon="120.684748"/>
<trkpt lat="24.154158" lon="120.684707"/>
<trkpt lat="24.154283" lon="120.685036"/>
<trkpt lat="24.154903" lon="120.684750"/>
<trkpt lat="24.155305" lon="120.685807"/>
<trkpt lat="24.155280" lon="120.685817"/>
<trkpt lat="24.154834" lon="120.686008"/>
<trkpt lat="24.154870" lon="120.686086"/>
<trkpt lat="24.154920" lon="120.686187"/>
<trkpt lat="24.154967" lon="120.686266"/>
<trkpt lat="24.154981" lon="120.686310"/>
<trkpt lat="24.154913" lon="120.686376"/>
<trkpt lat="24.154840" lon="120.686449"/>
<trkpt lat="24.154811" lon="120.686478"/>
<trkpt lat="24.154738" lon="120.686519"/>
<trkpt lat="24.154625" lon="120.686451"/>
<trkpt lat="24.154550" lon="120.686413"/>
<trkpt lat="24.154431" lon="120.686773"/>
<trkpt lat="24.154320" lon="120.687097"/>
<trkpt lat="24.153978" lon="120.686955"/>
<trkpt lat="24.153712" lon="120.686850"/>
<trkpt lat="24.153397" lon="120.687753"/>
<trkpt lat="24.153418" lon="120.687764"/>
<trkpt lat="24.153387" lon="120.687838"/>
<trkpt lat="24.153320" lon="120.688050"/>
<trkpt lat="24.153039" lon="120.688911"/>
<trkpt lat="24.152939" lon="120.688873"/>
<trkpt lat="24.152833" lon="120.688828"/>
<trkpt lat="24.152805" lon="120.688913"/>
<trkpt lat="24.152787" lon="120.688966"/>
<trkpt lat="24.152893" lon="120.689008"/>
<trkpt lat="24.152799" lon="120.689315"/>
<trkpt lat="24.152460" lon="120.690261"/>
<trkpt lat="24.152231" lon="120.690933"/>
<trkpt lat="24.152124" lon="120.691245"/>
<trkpt lat="24.152169" lon="120.691501"/>
<trkpt lat="24.151907" lon="120.692244"/>
<trkpt lat="24.151735" lon="120.692352"/>
<trkpt lat="24.151687" lon="120.692483"/>
<trkpt lat="24.151652" lon="120.693178"/>
<trkpt lat="24.151628" lon="120.693696"/>
</trkseg></trk>
</gpx>