<?xml version="1.0" encoding="UTF-8"?>
<gpx version="1.1" creator="catrun" xmlns="http://www.topografix.com/GPX/1/1">
<metadata><name>東區 蜷睡貓咪 圖形路跑路線</name></metadata>
<wpt lat="24.151633" lon="120.675984"><name>英士公園</name><desc>地標</desc></wpt>
<wpt lat="24.157367" lon="120.676076"><name>育德園道</name><desc>地標</desc></wpt>
<wpt lat="24.157365" lon="120.674700"><name>育德園道</name><desc>地標</desc></wpt>
<trk><name>東區 蜷睡貓咪 圖形路跑路線</name><trkseg>
<trkpt lat="24.151046" lon="120.677238"/>
<trkpt lat="24.151088" lon="120.677218"/>
<trkpt lat="24.151229" lon="120.677150"/>
<trkpt lat="24.151289" lon="120.677211"/>
<trkpt lat="24.151437" lon="120.677213"/>
<trkpt lat="24.152178" lon="120.677223"/>
<trkpt lat="24.152190" lon="120.676787"/>
<trkpt lat="24.152194" lon="120.676549"/>
<trkpt lat="24.152493" lon="120.676551"/>
<trkpt lat="24.152667" lon="120.676553"/>
<trkpt lat="24.152663" lon="120.675421"/>
<trkpt lat="24.153933" lon="120.675435"/>
<trkpt lat="24.154865" lon="120.675430"/>
<trkpt lat="24.155434" lon="120.675413"/>
<trkpt lat="24.155625" lon="120.675385"/>
<trkpt lat="24.155623" lon="120.675517"/>
<trkpt lat="24.155725" lon="120.675518"/>
<trkpt lat="24.155837" lon="120.675519"/>
<trkpt lat="24.155837" lon="120.675405"/>
<trkpt lat="24.156119" lon="120.675490"/>
<trkpt lat="24.156576" lon="120.675608"/>
<trkpt lat="24.157116" lon="120.675776"/>
<trkpt lat="24.157233" lon="120.675780"/>
<trkpt lat="24.157418" lon="120.675787"/>
<trkpt lat="24.157505" lon="120.675790"/>
<trkpt lat="24.158013" lon="120.675971"/>
<trkpt lat="24.157958" lon="120.676050"/>
<trkpt lat="24.158043" lon="120.676125"/>
<trkpt lat="24.158094" lon="120.676170"/>
<trkpt lat="24.158121" lon="120.676212"/>
<trkpt lat="24.158186" lon="120.676315"/>
<trkpt lat="24.158216" lon="120.676367"/>
<trkpt lat="24.158240" lon="120.676370"/>
<trkpt lat="24.158233" lon="120.676630"/>
<trkpt lat="24.158230" lon="120.676896"/>
<trkpt lat="24.158227" lon="120.676982"/>
<trkpt lat="24.158209" lon="120.677700"/>
<trkpt lat="24.158592" lon="120.677659"/>
<trkpt lat="24.158792" lon="120.677640"/>
<trkpt lat="24.159170" lon="120.677594"/>
<trkpt lat="24.159692" lon="120.677541"/>
<trkpt lat="24.159807" lon="120.677532"/>
<trkpt lat="24.159799" lon="120.677917"/>
<trkpt lat="24.159794" lon="120.678649"/>
<trkpt lat="24.160377" lon="120.678591"/>
<trkpt lat="24.160361" lon="120.679220"/>
<trkpt lat="24.160358" lon="120.679973"/>
<trkpt lat="24.160337" lon="120.680970"/>
<trkpt lat="24.160766" lon="120.680971"/>
<trkpt lat="24.160962" lon="120.680972"/>
<trkpt lat="24.161159" lon="120.680971"/>
<trkpt lat="24.161154" lon="120.681727"/>
<trkpt lat="24.161610" lon="120.681731"/>
<trkpt lat="24.162080" lon="120.681736"/>
<trkpt lat="24.162292" lon="120.681738"/>
<trkpt lat="24.162346" lon="120.682352"/>
<trkpt lat="24.162381" lon="120.682902"/>
<trkpt lat="24.162517" lon="120.682906"/>
<trkpt lat="24.162958" lon="120.683043"/>
<trkpt lat="24.162959" lon="120.683003"/>
<trkpt lat="24.162972" lon="120.682460"/>
<trkpt lat="24.163039" lon="120.682459"/>
<trkpt lat="24.163128" lon="120.682459"/>
<trkpt lat="24.163205" lon="120.682453"/>
<trkpt lat="24.163201" lon="120.683049"/>
<trkpt lat="24.163201" lon="120.683083"/>
<trkpt lat="24.163561" lon="120.683179"/>
<trkpt lat="24.163629" lon="120.683206"/>
<trkpt lat="24.163935" lon="120.683293"/>
<trkpt lat="24.164151" lon="120.683365"/>
<trkpt lat="24.164475" lon="120.683493"/>
<trkpt lat="24.164484" lon="120.683704"/>
<trkpt lat="24.164470" lon="120.684329"/>
<trkpt lat="24.164457" lon="120.684927"/>
<trkpt lat="24.164438" lon="120.684927"/>
<trkpt lat="24.163979" lon="120.684918"/>
<trkpt lat="24.163950" lon="120.684920"/>
<trkpt lat="24.163905" lon="120.684920"/>
<trkpt lat="24.163828" lon="120.684921"/>
<trkpt lat="24.163760" lon="120.684922"/>
<trkpt lat="24.163539" lon="120.684926"/>
<trkpt lat="24.163467" lon="120.684908"/>
<trkpt lat="24.163303" lon="120.684792"/>
<trkpt lat="24.163269" lon="120.684825"/>
<trkpt lat="24.163212" lon="120.684856"/>
<trkpt lat="24.163157" lon="120.684869"/>
<trkpt lat="24.163101" lon="120.684867"/>
<trkpt lat="24.162998" lon="120.684865"/>
<trkpt lat="24.162924" lon="120.684862"/>
<trkpt lat="24.162874" lon="120.684854"/>
<trkpt lat="24.162872" lon="120.684930"/>
<trkpt lat="24.162871" lon="120.685006"/>
<trkpt lat="24.162871" lon="120.685108"/>
<trkpt lat="24.162870" lon="120.685186"/>
<trkpt lat="24.162884" lon="120.685249"/>
<trkpt lat="24.162890" lon="120.685327"/>
<trkpt lat="24.162858" lon="120.685357"/>
<trkpt lat="24.162830" lon="120.685392"/>
<trkpt lat="24.162788" lon="120.685349"/>
<trkpt lat="24.162764" lon="120.685348"/>
<trkpt lat="24.162726" lon="120.685344"/>
<trkpt lat="24.162719" lon="120.685466"/>
<trkpt lat="24.162714" lon="120.685727"/>
<trkpt lat="24.162709" lon="120.686385"/>
<trkpt lat="24.162720" lon="120.686692"/>
<trkpt lat="24.162873" lon="120.686693"/>
<trkpt lat="24.162978" lon="120.686693"/>
<trkpt lat="24.163063" lon="120.686694"/>
<trkpt lat="24.163191" lon="120.686694"/>
<trkpt lat="24.163400" lon="120.686695"/>
<trkpt lat="24.163383" lon="120.687466"/>
<trkpt lat="24.163538" lon="120.687501"/>
<trkpt lat="24.163656" lon="120.687526"/>
<trkpt lat="24.163861" lon="120.687625"/>
<trkpt lat="24.163853" lon="120.688472"/>
<trkpt lat="24.163904" lon="120.688511"/>
<trkpt lat="24.163901" lon="120.688605"/>
<trkpt lat="24.163858" lon="120.688577"/>
<trkpt lat="24.163792" lon="120.688539"/>
<trkpt lat="24.163727" lon="120.688510"/>
<trkpt lat="24.163625" lon="120.688458"/>
<trkpt lat="24.163456" lon="120.688428"/>
<trkpt lat="24.163412" lon="120.688422"/>
<trkpt lat="24.163287" lon="120.688414"/>
<trkpt lat="24.163139" lon="120.688401"/>
<trkpt lat="24.163033" lon="120.688427"/>
<trkpt lat="24.162958" lon="120.688457"/>
<trkpt lat="24.162912" lon="120.688358"/>
<trkpt lat="24.162847" lon="120.688359"/>
<trkpt lat="24.162781" lon="120.688337"/>
<trkpt lat="24.162601" lon="120.688335"/>
<trkpt lat="24.162548" lon="120.688357"/>
<trkpt lat="24.162481" lon="120.688383"/>
<trkpt lat="24.162416" lon="120.688418"/>
<trkpt lat="24.162350" lon="120.688493"/>
<trkpt lat="24.162300" lon="120.688559"/>
<trkpt lat="24.162258" lon="120.688687"/>
<trkpt lat="24.162236" lon="120.688785"/>
<trkpt lat="24.162242" lon="120.689095"/>
<trkpt lat="24.162159" lon="120.689140"/>
<trkpt lat="24.162051" lon="120.689200"/>
<trkpt lat="24.161984" lon="120.689240"/>
<trkpt lat="24.161829" lon="120.689239"/>
<trkpt lat="24.161623" lon="120.689221"/>
<trkpt lat="24.161488" lon="120.689252"/>
<trkpt lat="24.161476" lon="120.689812"/>
<trkpt lat="24.161476" lon="120.690220"/>
<trkpt lat="24.161476" lon="120.690791"/>
<trkpt lat="24.161473" lon="120.690886"/>
<trkpt lat="24.161471" lon="120.690975"/>
<trkpt lat="24.161678" lon="120.690985"/>
<trkpt lat="24.161605" lon="120.691393"/>
<trkpt lat="24.161638" lon="120.691400"/>
<trkpt lat="24.161565" lon="120.691761"/>
<trkpt lat="24.161543" lon="120.692112"/>
<trkpt lat="24.161431" lon="120.692147"/>
<trkpt lat="24.161420" lon="120.692267"/>
<trkpt lat="24.161384" lon="120.692359"/>
<trkpt lat="24.161350" lon="120.692474"/>
<trkpt lat="24.161154" lon="120.692898"/>
<trkpt lat="24.160950" lon="120.693327"/>
<trkpt lat="24.160673" lon="120.693920"/>
<trkpt lat="24.160467" lon="120.694337"/>
<trkpt lat="24.160156" lon="120.694344"/>
<trkpt lat="24.159872" lon="120.694343"/>
<trkpt lat="24.159872" lon="120.694425"/>
<trkpt lat="24.159875" lon="120.695219"/>
<trkpt lat="24.159872" lon="120.695474"/>
<trkpt lat="24.159881" lon="120.695954"/>
<trkpt lat="24.159521" lon="120.695951"/>
<trkpt lat="24.159247" lon="120.695952"/>
<trkpt lat="24.159054" lon="120.695953"/>
<trkpt lat="24.158864" lon="120.695955"/>
<trkpt lat="24.158810" lon="120.695954"/>
<trkpt lat="24.158397" lon="120.695966"/>
<trkpt lat="24.157985" lon="120.695966"/>
<trkpt lat="24.157755" lon="120.695975"/>
<trkpt lat="24.157579" lon="120.695982"/>
<trkpt lat="24.157585" lon="120.696390"/>
<trkpt lat="24.157581" lon="120.696667"/>
<trkpt lat="24.157571" lon="120.697344"/>
<trkpt lat="24.157149" lon="120.697344"/>
<trkpt lat="24.156934" lon="120.697341"/>
<trkpt lat="24.156724" lon="120.697343"/>
<trkpt lat="24.156424" lon="120.697345"/>
<trkpt lat="24.155992" lon="120.697344"/>
<trkpt lat="24.155630" lon="120.697353"/>
<trkpt lat="24.155524" lon="120.697446"/>
<trkpt lat="24.155297" lon="120.697620"/>
<trkpt lat="24.155301" lon="120.698291"/>
<trkpt lat="24.155310" lon="120.698379"/>
<trkpt lat="24.155308" lon="120.698453"/>
<trkpt lat="24.155314" lon="120.698917"/>
<trkpt lat="24.155311" lon="120.699021"/>
<trkpt lat="24.154789" lon="120.698952"/>
<trkpt lat="24.154160" lon="120.698863"/>
<trkpt lat="24.153159" lon="120.698714"/>
<trkpt lat="24.153109" lon="120.699536"/>
<trkpt lat="24.152710" lon="120.699504"/>
<trkpt lat="24.152537" lon="120.699485"/>
<trkpt lat="24.152209" lon="120.699439"/>
<trkpt lat="24.152159" lon="120.699889"/>
<trkpt lat="24.152080" lon="120.700570"/>
<trkpt lat="24.151549" lon="120.700267"/>
<trkpt lat="24.150663" lon="120.699907"/>
<trkpt lat="24.150202" lon="120.699742"/>
<trkpt lat="24.149690" lon="120.699586"/>
<trkpt lat="24.149406" lon="120.699527"/>
<trkpt lat="24.149272" lon="120.699497"/>
<trkpt lat="24.149186" lon="120.699376"/>
<trkpt lat="24.148948" lon="120.699255"/>
<trkpt lat="24.148677" lon="120.699226"/>
<trkpt lat="24.148443" lon="120.699232"/>
<trkpt lat="24.148140" lon="120.699261"/>
<trkpt lat="24.147987" lon="120.699356"/>
<trkpt lat="24.147903" lon="120.699352"/>
<trkpt lat="24.147596" lon="120.699350"/>
<trkpt lat="24.146857" lon="120.699355"/>
<trkpt lat="24.146578" lon="120.699395"/>
<trkpt lat="24.145962" lon="120.699488"/>
<trkpt lat="24.145311" lon="120.699579"/>
<trkpt lat="24.145156" lon="120.699595"/>
<trkpt lat="24.144690" lon="120.699660"/>
<trkpt lat="24.144685" lon="120.698567"/>
<trkpt lat="24.144685" lon="120.698536"/>
<trkpt lat="24.144687" lon="120.698057"/>
<trkpt lat="24.144686" lon="120.697556"/>
<trkpt lat="24.144681" lon="120.697455"/>
<trkpt lat="24.144693" lon="120.697092"/>
<trkpt lat="24.144689" lon="120.697067"/>
<trkpt lat="24.144689" lon="120.696990"/>
<trkpt lat="24.144693" lon="120.696858"/>
<trkpt lat="24.143990" lon="120.696729"/>
<trkpt lat="24.143535" lon="120.696588"/>
<trkpt lat="24.142913" lon="120.696306"/>
<trkpt lat="24.142855" lon="120.696271"/>
<trkpt lat="24.142812" lon="120.696240"/>
<trkpt lat="24.142775" lon="120.696185"/>
<trkpt lat="24.142778" lon="120.696452"/>
<trkpt lat="24.142681" lon="120.696364"/>
<trkpt lat="24.142615" lon="120.696344"/>
<trkpt lat="24.142566" lon="120.696330"/>
<trkpt lat="24.142484" lon="120.696312"/>
<trkpt lat="24.142358" lon="120.696271"/>
<trkpt lat="24.142263" lon="120.696209"/>
<trkpt lat="24.142166" lon="120.696132"/>
<trkpt lat="24.142068" lon="120.696044"/>
<trkpt lat="24.141987" lon="120.695966"/>
<trkpt lat="24.141931" lon="120.695894"/>
<trkpt lat="24.141872" lon="120.695773"/>
<trkpt lat="24.141803" lon="120.695577"/>
<trkpt lat="24.141759" lon="120.695490"/>
<trkpt lat="24.141717" lon="120.695429"/>
<trkpt lat="24.141644" lon="120.695365"/>
<trkpt lat="24.141612" lon="120.695352"/>
<trkpt lat="24.141517" lon="120.695287"/>
<trkpt lat="24.141614" lon="120.695211"/>
<trkpt lat="24.141891" lon="120.695004"/>
<trkpt lat="24.141771" lon="120.694803"/>
<trkpt lat="24.141658" lon="120.694781"/>
<trkpt lat="24.141636" lon="120.694752"/>
<trkpt lat="24.141633" lon="120.694306"/>
<trkpt lat="24.141170" lon="120.694324"/>
<trkpt lat="24.141152" lon="120.693479"/>
<trkpt lat="24.140738" lon="120.693482"/>
<trkpt lat="24.140536" lon="120.693599"/>
<trkpt lat="24.140270" lon="120.692936"/>
<trkpt lat="24.140083" lon="120.692442"/>
<trkpt lat="24.140041" lon="120.692339"/>
<trkpt lat="24.140047" lon="120.690979"/>
<trkpt lat="24.140073" lon="120.690464"/>
<trkpt lat="24.140077" lon="120.690246"/>
<trkpt lat="24.140082" lon="120.689944"/>
<trkpt lat="24.140093" lon="120.689273"/>
<trkpt lat="24.140095" lon="120.689166"/>
<trkpt lat="24.140118" lon="120.688383"/>
<trkpt lat="24.139876" lon="120.688368"/>
<trkpt lat="24.139884" lon="120.688180"/>
<trkpt lat="24.139667" lon="120.688173"/>
<trkpt lat="24.139667" lon="120.688039"/>
<trkpt lat="24.139483" lon="120.688042"/>
<trkpt lat="24.139478" lon="120.688383"/>
<trkpt lat="24.139407" lon="120.688384"/>
<trkpt lat="24.139303" lon="120.688374"/>
<trkpt lat="24.139297" lon="120.688045"/>
<trkpt lat="24.139284" lon="120.687771"/>
<trkpt lat="24.138829" lon="120.687760"/>
<trkpt lat="24.138105" lon="120.687744"/>
<trkpt lat="24.138102" lon="120.687509"/>
<trkpt lat="24.138101" lon="120.687125"/>
<trkpt lat="24.138103" lon="120.687014"/>
<trkpt lat="24.138098" lon="120.686768"/>
<trkpt lat="24.138070" lon="120.686371"/>
<trkpt lat="24.138052" lon="120.686114"/>
<trkpt lat="24.138091" lon="120.686064"/>
<trkpt lat="24.138244" lon="120.685867"/>
<trkpt lat="24.138373" lon="120.685699"/>
<trkpt lat="24.138425" lon="120.685635"/>
<trkpt lat="24.138818" lon="120.685205"/>
<trkpt lat="24.139205" lon="120.684761"/>
<trkpt lat="24.139275" lon="120.684677"/>
<trkpt lat="24.139307" lon="120.684641"/>
<trkpt lat="24.139407" lon="120.684530"/>
<trkpt lat="24.139745" lon="120.684139"/>
<trkpt lat="24.140079" lon="120.683761"/>
<trkpt lat="24.139473" lon="120.683121"/>
<trkpt lat="24.139519" lon="120.683070"/>
<trkpt lat="24.139436" lon="120.682987"/>
<trkpt lat="24.139353" lon="120.682904"/>
<trkpt lat="24.139314" lon="120.682949"/>
<trkpt lat="24.138637" lon="120.682272"/>
<trkpt lat="24.139003" lon="120.681853"/>
<trkpt lat="24.139351" lon="120.681460"/>
<trkpt lat="24.139738" lon="120.681019"/>
<trkpt lat="24.140066" lon="120.680641"/>
<trkpt lat="24.140420" lon="120.680247"/>
<trkpt lat="24.140743" lon="120.679866"/>
<trkpt lat="24.141022" lon="120.679533"/>
<trkpt lat="24.141202" lon="120.679322"/>
<trkpt lat="24.141514" lon="120.678960"/>
<trkpt lat="24.141672" lon="120.678787"/>
<trkpt lat="24.142303" lon="120.678055"/>
<trkpt lat="24.142496" lon="120.677832"/>
<trkpt lat="24.142704" lon="120.677587"/>
<trkpt lat="24.142631" lon="120.677552"/>
<trkpt lat="24.142678" lon="120.677490"/>
<trkpt lat="24.142734" lon="120.677421"/>
<trkpt lat="24.142796" lon="120.677380"/>
<trkpt lat="24.142990" lon="120.677162"/>
<trkpt lat="24.142990" lon="120.677118"/>
<trkpt lat="24.142990" lon="120.677092"/>
<trkpt lat="24.143023" lon="120.677025"/>
<trkpt lat="24.143062" lon="120.677041"/>
<trkpt lat="24.143087" lon="120.676989"/>
<trkpt lat="24.143189" lon="120.676659"/>
<trkpt lat="24.143266" lon="120.676451"/>
<trkpt lat="24.143332" lon="120.676332"/>
<trkpt lat="24.143217" lon="120.676203"/>
<trkpt lat="24.143925" lon="120.675454"/>
<trkpt lat="24.144001" lon="120.675364"/>
<trkpt lat="24.144323" lon="120.675316"/>
<trkpt lat="24.144461" lon="120.675295"/>
<trkpt lat="24.144704" lon="120.675224"/>
<trkpt lat="24.144734" lon="120.675254"/>
<trkpt lat="24.144827" lon="120.675162"/>
<trkpt lat="24.144914" lon="120.675216"/>
<trkpt lat="24.145136" lon="120.675203"/>
<trkpt lat="24.145291" lon="120.675166"/>
<trkpt lat="24.145578" lon="120.675098"/>
<trkpt lat="24.145849" lon="120.675032"/>
<trkpt lat="24.146141" lon="120.675019"/>
<trkpt lat="24.146277" lon="120.675122"/>
<trkpt lat="24.146439" lon="120.674935"/>
<trkpt lat="24.146477" lon="120.674891"/>
<trkpt lat="24.146670" lon="120.674668"/>
<trkpt lat="24.146721" lon="120.674609"/>
<trkpt lat="24.146791" lon="120.674683"/>
<trkpt lat="24.147133" lon="120.675039"/>
<trkpt lat="24.147571" lon="120.674552"/>
<trkpt lat="24.147836" lon="120.674836"/>
<trkpt lat="24.147422" lon="120.675340"/>
<trkpt lat="24.147190" lon="120.675563"/>
<trkpt lat="24.146981" lon="120.675822"/>
<trkpt lat="24.146172" lon="120.676708"/>
<trkpt lat="24.145696" lon="120.677296"/>
<trkpt lat="24.145221" lon="120.677845"/>
<trkpt lat="24.144849" lon="120.678268"/>
<trkpt lat="24.144835" lon="120.678281"/>
<trkpt lat="24.144755" lon="120.678361"/>
<trkpt lat="24.144657" lon="120.678476"/>
<trkpt lat="24.144204" lon="120.679013"/>
<trkpt lat="24.144168" lon="120.679055"/>
<trkpt lat="24.144060" lon="120.679182"/>
<trkpt lat="24.143950" lon="120.679293"/>
<trkpt lat="24.144299" lon="120.679675"/>
<trkpt lat="24.143909" lon="120.680157"/>
<trkpt lat="24.144274" lon="120.680499"/>
<trkpt lat="24.143892" lon="120.680934"/>
<trkpt lat="24.143815" lon="120.681022"/>
<trkpt lat="24.143768" lon="120.681076"/>
<trkpt lat="24.143536" lon="120.681347"/>
<trkpt lat="24.143179" lon="120.681756"/>
<trkpt lat="24.142895" lon="120.682082"/>
<trkpt lat="24.143636" lon="120.682870"/>
<trkpt lat="24.143738" lon="120.683012"/>
<trkpt lat="24.143922" lon="120.683266"/>
<trkpt lat="24.144386" lon="120.683474"/>
<trkpt lat="24.144627" lon="120.683608"/>
<trkpt lat="24.144662" lon="120.683629"/>
<trkpt lat="24.144728" lon="120.683765"/>
<trkpt lat="24.144782" lon="120.683877"/>
<trkpt lat="24.144794" lon="120.684195"/>
<trkpt lat="24.144721" lon="120.684668"/>
<trkpt lat="24.144722" lon="120.684811"/>
<trkpt lat="24.144622" lon="120.684924"/>
<trkpt lat="24.144608" lon="120.685215"/>
<trkpt lat="24.144443" lon="120.685835"/>
<trkpt lat="24.144423" lon="120.686006"/>
<trkpt lat="24.144578" lon="120.686057"/>
<trkpt lat="24.144605" lon="120.686066"/>
<trkpt lat="24.144670" lon="120.686086"/>
<trkpt lat="24.144649" lon="120.686214"/>
<trkpt lat="24.144631" lon="120.686293"/>
<trkpt lat="24.144937" lon="120.686381"/>
<trkpt lat="24.145362" lon="120.686602"/>
<trkpt lat="24.145784" lon="120.686835"/>
<trkpt lat="24.145714" lon="120.687798"/>
<trkpt lat="24.145644" lon="120.688657"/>
<trkpt lat="24.145590" lon="120.689427"/>
<trkpt lat="24.146116" lon="120.689466"/>
<trkpt lat="24.146334" lon="120.689497"/>
<trkpt lat="24.146520" lon="120.689503"/>
<trkpt lat="24.146754" lon="120.689510"/>
<trkpt lat="24.146909" lon="120.689528"/>
<trkpt lat="24.147009" lon="120.689486"/>
<trkpt lat="24.146876" lon="120.689058"/>
<trkpt lat="24.146780" lon="120.688684"/>
<trkpt lat="24.146954" lon="120.688618"/>
<trkpt lat="24.147009" lon="120.688643"/>
<trkpt lat="24.147191" lon="120.688830"/>
<trkpt lat="24.147345" lon="120.689027"/>
<trkpt lat="24.147373" lon="120.689061"/>
<trkpt lat="24.147438" lon="120.689135"/>
<trkpt lat="24.147732" lon="120.689421"/>
<trkpt lat="24.147923" lon="120.689543"/>
<trkpt lat="24.148061" lon="120.689598"/>
<trkpt lat="24.148296" lon="120.689631"/>
<trkpt lat="24.148547" lon="120.689677"/>
<trkpt lat="24.148505" lon="120.690178"/>
<trkpt lat="24.148528" lon="120.690305"/>
<trkpt lat="24.148570" lon="120.690469"/>
<trkpt lat="24.148658" lon="120.690667"/>
<trkpt lat="24.148827" lon="120.690870"/>
<trkpt lat="24.148978" lon="120.690958"/>
<trkpt lat="24.149057" lon="120.691027"/>
<trkpt lat="24.149140" lon="120.691044"/>
<trkpt lat="24.149275" lon="120.691086"/>
<trkpt lat="24.149307" lon="120.691096"/>
<trkpt lat="24.149811" lon="120.691215"/>
<trkpt lat="24.149866" lon="120.691220"/>
<trkpt lat="24.149923" lon="120.691221"/>
<trkpt lat="24.149982" lon="120.691169"/>
<trkpt lat="24.150040" lon="120.691098"/>
<trkpt lat="24.150118" lon="120.690922"/>
<trkpt lat="24.150326" lon="120.690285"/>
<trkpt lat="24.150464" lon="120.689865"/>
<trkpt lat="24.151017" lon="120.688181"/>
<trkpt lat="24.151722" lon="120.688476"/>
<trkpt lat="24.152433" lon="120.688763"/>
<trkpt lat="24.152473" lon="120.688673"/>
<trkpt lat="24.152880" lon="120.687492"/>
<trkpt lat="24.152638" lon="120.687374"/>
<trkpt lat="24.152577" lon="120.687314"/>
<trkpt lat="24.152557" lon="120.687266"/>
<trkpt lat="24.152561" lon="120.687195"/>
<trkpt lat="24.152822" lon="120.686514"/>
<trkpt lat="24.152455" lon="120.686353"/>
<trkpt lat="24.152754" lon="120.685563"/>
<trkpt lat="24.152680" lon="120.685537"/>
<trkpt lat="24.152669" lon="120.685485"/>
<trkpt lat="24.152699" lon="120.685398"/>
<trkpt lat="24.152739" lon="120.685288"/>
<trkpt lat="24.152759" lon="120.685237"/>
<trkpt lat="24.152810" lon="120.685218"/>
<trkpt lat="24.152916" lon="120.684909"/>
<trkpt lat="24.152960" lon="120.684927"/>
<trkpt lat="24.153061" lon="120.684644"/>
<trkpt lat="24.153127" lon="120.684461"/>
<trkpt lat="24.153150" lon="120.684397"/>
<trkpt lat="24.153429" lon="120.683641"/>
<trkpt lat="24.153335" lon="120.683605"/>
<trkpt lat="24.153365" lon="120.683526"/>
<trkpt lat="24.153002" lon="120.683375"/>
<trkpt lat="24.152620" lon="120.683215"/>
<trkpt lat="24.152149" lon="120.683012"/>
<trkpt lat="24.152416" lon="120.682243"/>
<trkpt lat="24.151994" lon="120.682063"/>
<trkpt lat="24.152117" lon="120.681696"/>
<trkpt lat="24.152147" lon="120.681604"/>
<trkpt lat="24.152006" lon="120.681257"/>
<trkpt lat="24.151806" lon="120.681200"/>
<trkpt lat="24.151526" lon="120.681084"/>
<trkpt lat="24.151062" lon="120.680887"/>
<trkpt lat="24.150694" lon="120.680737"/>
<trkpt lat="24.150081" lon="120.680476"/>
<trkpt lat="24.150112" lon="120.680380"/>
<trkpt lat="24.150361" lon="120.679753"/>
<trkpt lat="24.149782" lon="120.679287"/>
<trkpt lat="24.149836" lon="120.679217"/>
<trkpt lat="24.149943" lon="120.679061"/>
<trkpt lat="24.149988" lon="120.678989"/>
<trkpt lat="24.150077" lon="120.678918"/>
<trkpt lat="24.150941" lon="120.678477"/>
<trkpt lat="24.150557" lon="120.677531"/>
<trkpt lat="24.150681" lon="120.677489"/>
<trkpt lat="24.151085" lon="120.677352"/>
<trkpt lat="24.151046" lon="120.677238"/>
</trkseg></trk>
</gpx>