<?xml version="1.0" encoding="UTF-8"?>
<gpx version="1.1" creator="catrun" xmlns="http://www.topografix.com/GPX/1/1">
<metadata><name>東區 貓咪肉球 圖形路跑路線</name></metadata>
<wpt lat="24.135478" lon="120.683467"><name>27號倉庫</name><desc>地標</desc></wpt>
<wpt lat="24.135649" lon="120.683800"><name>26號倉庫</name><desc>地標</desc></wpt>
<wpt lat="24.135729" lon="120.683990"><name>25號倉庫</name><desc>地標</desc></wpt>
<trk><name>東區 貓咪肉球 圖形路跑路線</name><trkseg>
<trkpt lat="24.137151" lon="120.680614"/>
<trkpt lat="24.137106" lon="120.680669"/>
<trkpt lat="24.136793" lon="120.680350"/>
<trkpt lat="24.136458" lon="120.680736"/>
<trkpt lat="24.136122" lon="120.681119"/>
<trkpt lat="24.136219" lon="120.681223"/>
<trkpt lat="24.136238" lon="120.681243"/>
<trkpt lat="24.136306" lon="120.681314"/>
<trkpt lat="24.136393" lon="120.681402"/>
<trkpt lat="24.136417" lon="120.681433"/>
<trkpt lat="24.136393" lon="120.681460"/>
<trkpt lat="24.136423" lon="120.681522"/>
<trkpt lat="24.136413" lon="120.681533"/>
<trkpt lat="24.136305" lon="120.681660"/>
<trkpt lat="24.136354" lon="120.681708"/>
<trkpt lat="24.136321" lon="120.681746"/>
<trkpt lat="24.136274" lon="120.681804"/>
<trkpt lat="24.136214" lon="120.681878"/>
<trkpt lat="24.136024" lon="120.682113"/>
<trkpt lat="24.135958" lon="120.682174"/>
<trkpt lat="24.135869" lon="120.682088"/>
<trkpt lat="24.135836" lon="120.682074"/>
<trkpt lat="24.135784" lon="120.682103"/>
<trkpt lat="24.135697" lon="120.682151"/>
<trkpt lat="24.135595" lon="120.682203"/>
<trkpt lat="24.135670" lon="120.682341"/>
<trkpt lat="24.135357" lon="120.682503"/>
<trkpt lat="24.134888" lon="120.682725"/>
<trkpt lat="24.135115" lon="120.683259"/>
<trkpt lat="24.135147" lon="120.683242"/>
<trkpt lat="24.135352" lon="120.683731"/>
<trkpt lat="24.135557" lon="120.684251"/>
<trkpt lat="24.135595" lon="120.684232"/>
<trkpt lat="24.135715" lon="120.684526"/>
<trkpt lat="24.135237" lon="120.684764"/>
<trkpt lat="24.135307" lon="120.684919"/>
<trkpt lat="24.135585" lon="120.685591"/>
<trkpt lat="24.135721" lon="120.685915"/>
<trkpt lat="24.135649" lon="120.685950"/>
<trkpt lat="24.135672" lon="120.686003"/>
<trkpt lat="24.135730" lon="120.686139"/>
<trkpt lat="24.135834" lon="120.686386"/>
<trkpt lat="24.136048" lon="120.686891"/>
<trkpt lat="24.136343" lon="120.687578"/>
<trkpt lat="24.136428" lon="120.687792"/>
<trkpt lat="24.136347" lon="120.687839"/>
<trkpt lat="24.136392" lon="120.687936"/>
<trkpt lat="24.136427" lon="120.688029"/>
<trkpt lat="24.136480" lon="120.688056"/>
<trkpt lat="24.136502" lon="120.688100"/>
<trkpt lat="24.136713" lon="120.688596"/>
<trkpt lat="24.136753" lon="120.688686"/>
<trkpt lat="24.136888" lon="120.689011"/>
<trkpt lat="24.136905" lon="120.689125"/>
<trkpt lat="24.136922" lon="120.689170"/>
<trkpt lat="24.136961" lon="120.689131"/>
<trkpt lat="24.136988" lon="120.689104"/>
<trkpt lat="24.137053" lon="120.689061"/>
<trkpt lat="24.137134" lon="120.689149"/>
<trkpt lat="24.137480" lon="120.689514"/>
<trkpt lat="24.137857" lon="120.689857"/>
<trkpt lat="24.137928" lon="120.689920"/>
<trkpt lat="24.137956" lon="120.689929"/>
<trkpt lat="24.137984" lon="120.689932"/>
<trkpt lat="24.138019" lon="120.689925"/>
<trkpt lat="24.138054" lon="120.689911"/>
<trkpt lat="24.138231" lon="120.689822"/>
<trkpt lat="24.138307" lon="120.689783"/>
<trkpt lat="24.138347" lon="120.689862"/>
<trkpt lat="24.138853" lon="120.689593"/>
<trkpt lat="24.139079" lon="120.690085"/>
<trkpt lat="24.139280" lon="120.690556"/>
<trkpt lat="24.139466" lon="120.690455"/>
<trkpt lat="24.140073" lon="120.690464"/>
<trkpt lat="24.140077" lon="120.690246"/>
<trkpt lat="24.140703" lon="120.690279"/>
<trkpt lat="24.140940" lon="120.690092"/>
<trkpt lat="24.140967" lon="120.689285"/>
<trkpt lat="24.141476" lon="120.689310"/>
<trkpt lat="24.142228" lon="120.689324"/>
<trkpt lat="24.142235" lon="120.689233"/>
<trkpt lat="24.142778" lon="120.689239"/>
<trkpt lat="24.142893" lon="120.689245"/>
<trkpt lat="24.143015" lon="120.689198"/>
<trkpt lat="24.143234" lon="120.689221"/>
<trkpt lat="24.143380" lon="120.689232"/>
<trkpt lat="24.143358" lon="120.689590"/>
<trkpt lat="24.143391" lon="120.689591"/>
<trkpt lat="24.143487" lon="120.689594"/>
<trkpt lat="24.143692" lon="120.689599"/>
<trkpt lat="24.143976" lon="120.689592"/>
<trkpt lat="24.144319" lon="120.689577"/>
<trkpt lat="24.144333" lon="120.689309"/>
<trkpt lat="24.145590" lon="120.689427"/>
<trkpt lat="24.146116" lon="120.689466"/>
<trkpt lat="24.146334" lon="120.689497"/>
<trkpt lat="24.146357" lon="120.689270"/>
<trkpt lat="24.146380" lon="120.689220"/>
<trkpt lat="24.146409" lon="120.689209"/>
<trkpt lat="24.146456" lon="120.689209"/>
<trkpt lat="24.146520" lon="120.689172"/>
<trkpt lat="24.146520" lon="120.689503"/>
<trkpt lat="24.146754" lon="120.689510"/>
<trkpt lat="24.146909" lon="120.689528"/>
<trkpt lat="24.147009" lon="120.689486"/>
<trkpt lat="24.146876" lon="120.689058"/>
<trkpt lat="24.146780" lon="120.688684"/>
<trkpt lat="24.146488" lon="120.687431"/>
<trkpt lat="24.146256" lon="120.686424"/>
<trkpt lat="24.146245" lon="120.686182"/>
<trkpt lat="24.146127" lon="120.686218"/>
<trkpt lat="24.146168" lon="120.686055"/>
<trkpt lat="24.146173" lon="120.685957"/>
<trkpt lat="24.146059" lon="120.685962"/>
<trkpt lat="24.145281" lon="120.685690"/>
<trkpt lat="24.145341" lon="120.685191"/>
<trkpt lat="24.145333" lon="120.685173"/>
<trkpt lat="24.145249" lon="120.685011"/>
<trkpt lat="24.145217" lon="120.684916"/>
<trkpt lat="24.144923" lon="120.684941"/>
<trkpt lat="24.144813" lon="120.684869"/>
<trkpt lat="24.144722" lon="120.684811"/>
<trkpt lat="24.144622" lon="120.684924"/>
<trkpt lat="24.144608" lon="120.685215"/>
<trkpt lat="24.144443" lon="120.685835"/>
<trkpt lat="24.144423" lon="120.686006"/>
<trkpt lat="24.144578" lon="120.686057"/>
<trkpt lat="24.144605" lon="120.686066"/>
<trkpt lat="24.144670" lon="120.686086"/>
<trkpt lat="24.145135" lon="120.686223"/>
<trkpt lat="24.145282" lon="120.686272"/>
<trkpt lat="24.145358" lon="120.686295"/>
<trkpt lat="24.145495" lon="120.686299"/>
<trkpt lat="24.145592" lon="120.686298"/>
<trkpt lat="24.145707" lon="120.686275"/>
<trkpt lat="24.145817" lon="120.686228"/>
<trkpt lat="24.146168" lon="120.686055"/>
<trkpt lat="24.146294" lon="120.686042"/>
<trkpt lat="24.146412" lon="120.686050"/>
<trkpt lat="24.146534" lon="120.686086"/>
<trkpt lat="24.147233" lon="120.686403"/>
<trkpt lat="24.147575" lon="120.685472"/>
<trkpt lat="24.147586" lon="120.685440"/>
<trkpt lat="24.147664" lon="120.685227"/>
<trkpt lat="24.147937" lon="120.684470"/>
<trkpt lat="24.148055" lon="120.684145"/>
<trkpt lat="24.147809" lon="120.684038"/>
<trkpt lat="24.147280" lon="120.683810"/>
<trkpt lat="24.147504" lon="120.683218"/>
<trkpt lat="24.148273" lon="120.683541"/>
<trkpt lat="24.148310" lon="120.683439"/>
<trkpt lat="24.147215" lon="120.682970"/>
<trkpt lat="24.147360" lon="120.682553"/>
<trkpt lat="24.147593" lon="120.681885"/>
<trkpt lat="24.147427" lon="120.681800"/>
<trkpt lat="24.147370" lon="120.681781"/>
<trkpt lat="24.147156" lon="120.681778"/>
<trkpt lat="24.147041" lon="120.681860"/>
<trkpt lat="24.147005" lon="120.681875"/>
<trkpt lat="24.146885" lon="120.681912"/>
<trkpt lat="24.146744" lon="120.681914"/>
<trkpt lat="24.146672" lon="120.681935"/>
<trkpt lat="24.146531" lon="120.681993"/>
<trkpt lat="24.146381" lon="120.681934"/>
<trkpt lat="24.146303" lon="120.682140"/>
<trkpt lat="24.146241" lon="120.682305"/>
<trkpt lat="24.146212" lon="120.682337"/>
<trkpt lat="24.146168" lon="120.682347"/>
<trkpt lat="24.146095" lon="120.682342"/>
<trkpt lat="24.146040" lon="120.682325"/>
<trkpt lat="24.145975" lon="120.682282"/>
<trkpt lat="24.145947" lon="120.682230"/>
<trkpt lat="24.145908" lon="120.682163"/>
<trkpt lat="24.145856" lon="120.682283"/>
<trkpt lat="24.145811" lon="120.682270"/>
<trkpt lat="24.145771" lon="120.682343"/>
<trkpt lat="24.145573" lon="120.682231"/>
<trkpt lat="24.145279" lon="120.682075"/>
<trkpt lat="24.144839" lon="120.681883"/>
<trkpt lat="24.144573" lon="120.681769"/>
<trkpt lat="24.144632" lon="120.681890"/>
<trkpt lat="24.144788" lon="120.682038"/>
<trkpt lat="24.144965" lon="120.682228"/>
<trkpt lat="24.145073" lon="120.682070"/>
<trkpt lat="24.145316" lon="120.682205"/>
<trkpt lat="24.145727" lon="120.682442"/>
<trkpt lat="24.145771" lon="120.682343"/>
<trkpt lat="24.145811" lon="120.682270"/>
<trkpt lat="24.145856" lon="120.682283"/>
<trkpt lat="24.145908" lon="120.682163"/>
<trkpt lat="24.146037" lon="120.681837"/>
<trkpt lat="24.146138" lon="120.681552"/>
<trkpt lat="24.146353" lon="120.681295"/>
<trkpt lat="24.146498" lon="120.681139"/>
<trkpt lat="24.146543" lon="120.681096"/>
<trkpt lat="24.146207" lon="120.680763"/>
<trkpt lat="24.146635" lon="120.680299"/>
<trkpt lat="24.146328" lon="120.679999"/>
<trkpt lat="24.146411" lon="120.679904"/>
<trkpt lat="24.146321" lon="120.679800"/>
<trkpt lat="24.146264" lon="120.679734"/>
<trkpt lat="24.146210" lon="120.679738"/>
<trkpt lat="24.146146" lon="120.679814"/>
<trkpt lat="24.145540" lon="120.679173"/>
<trkpt lat="24.145452" lon="120.679066"/>
<trkpt lat="24.145264" lon="120.678881"/>
<trkpt lat="24.145110" lon="120.678734"/>
<trkpt lat="24.144843" lon="120.678454"/>
<trkpt lat="24.144746" lon="120.678564"/>
<trkpt lat="24.144657" lon="120.678476"/>
<trkpt lat="24.144204" lon="120.679013"/>
<trkpt lat="24.144168" lon="120.679055"/>
<trkpt lat="24.144060" lon="120.679182"/>
<trkpt lat="24.143950" lon="120.679293"/>
<trkpt lat="24.143588" lon="120.678931"/>
<trkpt lat="24.142752" lon="120.679891"/>
<trkpt lat="24.142881" lon="120.680030"/>
<trkpt lat="24.143115" lon="120.680283"/>
<trkpt lat="24.142804" lon="120.680629"/>
<trkpt lat="24.142452" lon="120.681033"/>
<trkpt lat="24.142075" lon="120.680652"/>
<trkpt lat="24.142443" lon="120.680253"/>
<trkpt lat="24.142804" lon="120.680629"/>
<trkpt lat="24.143115" lon="120.680283"/>
<trkpt lat="24.142881" lon="120.680030"/>
<trkpt lat="24.142752" lon="120.679891"/>
<trkpt lat="24.142530" lon="120.679657"/>
<trkpt lat="24.142586" lon="120.679593"/>
<trkpt lat="24.142585" lon="120.679498"/>
<trkpt lat="24.142526" lon="120.679438"/>
<trkpt lat="24.142858" lon="120.679055"/>
<trkpt lat="24.143054" lon="120.678832"/>
<trkpt lat="24.143210" lon="120.678652"/>
<trkpt lat="24.143141" lon="120.678582"/>
<trkpt lat="24.143141" lon="120.678556"/>
<trkpt lat="24.143182" lon="120.678512"/>
<trkpt lat="24.142851" lon="120.678168"/>
<trkpt lat="24.142496" lon="120.677832"/>
<trkpt lat="24.142704" lon="120.677587"/>
<trkpt lat="24.142747" lon="120.677611"/>
<trkpt lat="24.142805" lon="120.677606"/>
<trkpt lat="24.142849" lon="120.677570"/>
<trkpt lat="24.142750" lon="120.677533"/>
<trkpt lat="24.142678" lon="120.677490"/>
<trkpt lat="24.142734" lon="120.677421"/>
<trkpt lat="24.142407" lon="120.677222"/>
<trkpt lat="24.142363" lon="120.677185"/>
<trkpt lat="24.142067" lon="120.676931"/>
<trkpt lat="24.142008" lon="120.677007"/>
<trkpt lat="24.141976" lon="120.677050"/>
<trkpt lat="24.141928" lon="120.677026"/>
<trkpt lat="24.141883" lon="120.676987"/>
<trkpt lat="24.141823" lon="120.676919"/>
<trkpt lat="24.141873" lon="120.676864"/>
<trkpt lat="24.141602" lon="120.676548"/>
<trkpt lat="24.141506" lon="120.676394"/>
<trkpt lat="24.141479" lon="120.676346"/>
<trkpt lat="24.141369" lon="120.676141"/>
<trkpt lat="24.141280" lon="120.676204"/>
<trkpt lat="24.141215" lon="120.676117"/>
<trkpt lat="24.141206" lon="120.676127"/>
<trkpt lat="24.141049" lon="120.676310"/>
<trkpt lat="24.140904" lon="120.676478"/>
<trkpt lat="24.140771" lon="120.676631"/>
<trkpt lat="24.140671" lon="120.676747"/>
<trkpt lat="24.140352" lon="120.677116"/>
<trkpt lat="24.140312" lon="120.677158"/>
<trkpt lat="24.140372" lon="120.677216"/>
<trkpt lat="24.140369" lon="120.677294"/>
<trkpt lat="24.140309" lon="120.677362"/>
<trkpt lat="24.140236" lon="120.677447"/>
<trkpt lat="24.140211" lon="120.677446"/>
<trkpt lat="24.140128" lon="120.677359"/>
<trkpt lat="24.139724" lon="120.677824"/>
<trkpt lat="24.139698" lon="120.677858"/>
<trkpt lat="24.139320" lon="120.678289"/>
<trkpt lat="24.139312" lon="120.678298"/>
<trkpt lat="24.139279" lon="120.678344"/>
<trkpt lat="24.139252" lon="120.678384"/>
<trkpt lat="24.139243" lon="120.678393"/>
<trkpt lat="24.139138" lon="120.678513"/>
<trkpt lat="24.139000" lon="120.678671"/>
<trkpt lat="24.138671" lon="120.679056"/>
<trkpt lat="24.138606" lon="120.679130"/>
<trkpt lat="24.138540" lon="120.679207"/>
<trkpt lat="24.138499" lon="120.679252"/>
<trkpt lat="24.138448" lon="120.679311"/>
<trkpt lat="24.138374" lon="120.679397"/>
<trkpt lat="24.138273" lon="120.679522"/>
<trkpt lat="24.137999" lon="120.679844"/>
<trkpt lat="24.137919" lon="120.679762"/>
<trkpt lat="24.137859" lon="120.679770"/>
<trkpt lat="24.137801" lon="120.679838"/>
<trkpt lat="24.137722" lon="120.679929"/>
<trkpt lat="24.137829" lon="120.680035"/>
<trkpt lat="24.137525" lon="120.680360"/>
<trkpt lat="24.137231" lon="120.680696"/>
<trkpt lat="24.137151" lon="120.680614"/>
</trkseg></trk>
</gpx>