<?xml version="1.0" encoding="UTF-8"?>
<gpx version="1.1" creator="catrun" xmlns="http://www.topografix.com/GPX/1/1">
<metadata><name>東區 手繪蹲坐貓（原稿描圖） 圖形路跑路線</name></metadata>
<wpt lat="24.143552" lon="120.677578"><name>柳川水岸步道</name><desc>地標</desc></wpt>
<wpt lat="24.143894" lon="120.679524"><name>臺中市立圖書館中區分館</name><desc>地標</desc></wpt>
<wpt lat="24.152684" lon="120.681274"><name>圖根點BH95216</name><desc>地標</desc></wpt>
<trk><name>東區 手繪蹲坐貓（原稿描圖） 圖形路跑路線</name><trkseg>
<trkpt lat="24.141539" lon="120.680572"/>
<trkpt lat="24.141711" lon="120.680372"/>
<trkpt lat="24.141516" lon="120.680169"/>
<trkpt lat="24.141352" lon="120.679972"/>
<trkpt lat="24.141581" lon="120.679721"/>
<trkpt lat="24.142050" lon="120.679175"/>
<trkpt lat="24.142109" lon="120.679083"/>
<trkpt lat="24.142198" lon="120.678993"/>
<trkpt lat="24.142431" lon="120.679241"/>
<trkpt lat="24.142477" lon="120.679185"/>
<trkpt lat="24.142621" lon="120.679009"/>
<trkpt lat="24.142550" lon="120.678777"/>
<trkpt lat="24.142529" lon="120.678747"/>
<trkpt lat="24.142543" lon="120.678728"/>
<trkpt lat="24.142719" lon="120.678988"/>
<trkpt lat="24.142858" lon="120.679055"/>
<trkpt lat="24.143054" lon="120.678832"/>
<trkpt lat="24.143210" lon="120.678652"/>
<trkpt lat="24.143282" lon="120.678725"/>
<trkpt lat="24.143317" lon="120.678731"/>
<trkpt lat="24.143349" lon="120.678689"/>
<trkpt lat="24.143588" lon="120.678931"/>
<trkpt lat="24.143950" lon="120.679293"/>
<trkpt lat="24.144299" lon="120.679675"/>
<trkpt lat="24.144422" lon="120.679804"/>
<trkpt lat="24.144665" lon="120.680036"/>
<trkpt lat="24.144959" lon="120.679701"/>
<trkpt lat="24.145257" lon="120.679339"/>
<trkpt lat="24.145302" lon="120.679311"/>
<trkpt lat="24.145399" lon="120.679252"/>
<trkpt lat="24.145540" lon="120.679173"/>
<trkpt lat="24.146146" lon="120.679814"/>
<trkpt lat="24.146232" lon="120.679905"/>
<trkpt lat="24.146328" lon="120.679999"/>
<trkpt lat="24.146635" lon="120.680299"/>
<trkpt lat="24.146923" lon="120.680580"/>
<trkpt lat="24.146957" lon="120.680614"/>
<trkpt lat="24.147029" lon="120.680693"/>
<trkpt lat="24.147217" lon="120.680898"/>
<trkpt lat="24.147308" lon="120.680980"/>
<trkpt lat="24.147480" lon="120.681056"/>
<trkpt lat="24.147550" lon="120.680943"/>
<trkpt lat="24.147651" lon="120.680854"/>
<trkpt lat="24.148300" lon="120.680519"/>
<trkpt lat="24.148364" lon="120.680955"/>
<trkpt lat="24.148411" lon="120.680946"/>
<trkpt lat="24.148488" lon="120.681489"/>
<trkpt lat="24.148916" lon="120.681685"/>
<trkpt lat="24.149195" lon="120.680900"/>
<trkpt lat="24.149342" lon="120.680958"/>
<trkpt lat="24.149852" lon="120.681172"/>
<trkpt lat="24.150234" lon="120.681328"/>
<trkpt lat="24.150455" lon="120.681425"/>
<trkpt lat="24.150814" lon="120.681576"/>
<trkpt lat="24.151541" lon="120.681876"/>
<trkpt lat="24.151722" lon="120.681950"/>
<trkpt lat="24.151994" lon="120.682063"/>
<trkpt lat="24.152416" lon="120.682243"/>
<trkpt lat="24.153130" lon="120.682537"/>
<trkpt lat="24.153088" lon="120.682391"/>
<trkpt lat="24.153169" lon="120.682398"/>
<trkpt lat="24.153288" lon="120.682408"/>
<trkpt lat="24.153371" lon="120.682416"/>
<trkpt lat="24.153462" lon="120.682468"/>
<trkpt lat="24.153482" lon="120.682521"/>
<trkpt lat="24.153742" lon="120.682400"/>
<trkpt lat="24.153969" lon="120.682295"/>
<trkpt lat="24.154559" lon="120.682020"/>
<trkpt lat="24.155242" lon="120.681703"/>
<trkpt lat="24.155220" lon="120.681654"/>
<trkpt lat="24.155321" lon="120.681604"/>
<trkpt lat="24.155395" lon="120.681567"/>
<trkpt lat="24.155591" lon="120.681473"/>
<trkpt lat="24.155643" lon="120.681555"/>
<trkpt lat="24.155709" lon="120.681649"/>
<trkpt lat="24.155808" lon="120.681746"/>
<trkpt lat="24.155999" lon="120.681670"/>
<trkpt lat="24.155982" lon="120.681598"/>
<trkpt lat="24.155962" lon="120.681495"/>
<trkpt lat="24.155939" lon="120.681379"/>
<trkpt lat="24.155824" lon="120.681313"/>
<trkpt lat="24.155719" lon="120.681314"/>
<trkpt lat="24.155715" lon="120.680444"/>
<trkpt lat="24.155713" lon="120.680354"/>
<trkpt lat="24.155716" lon="120.680241"/>
<trkpt lat="24.155719" lon="120.679380"/>
<trkpt lat="24.155719" lon="120.679115"/>
<trkpt lat="24.155842" lon="120.679115"/>
<trkpt lat="24.155838" lon="120.679050"/>
<trkpt lat="24.156108" lon="120.679034"/>
<trkpt lat="24.156510" lon="120.678976"/>
<trkpt lat="24.156743" lon="120.678953"/>
<trkpt lat="24.157048" lon="120.678923"/>
<trkpt lat="24.157088" lon="120.678920"/>
<trkpt lat="24.157134" lon="120.678915"/>
<trkpt lat="24.157239" lon="120.678905"/>
<trkpt lat="24.157300" lon="120.678902"/>
<trkpt lat="24.157301" lon="120.678801"/>
<trkpt lat="24.157278" lon="120.677787"/>
<trkpt lat="24.157508" lon="120.677774"/>
<trkpt lat="24.157872" lon="120.677726"/>
<trkpt lat="24.158209" lon="120.677700"/>
<trkpt lat="24.158592" lon="120.677659"/>
<trkpt lat="24.158792" lon="120.677640"/>
<trkpt lat="24.159170" lon="120.677594"/>
<trkpt lat="24.159692" lon="120.677541"/>
<trkpt lat="24.159807" lon="120.677532"/>
<trkpt lat="24.160097" lon="120.677502"/>
<trkpt lat="24.160390" lon="120.677472"/>
<trkpt lat="24.160388" lon="120.677846"/>
<trkpt lat="24.160377" lon="120.678591"/>
<trkpt lat="24.160361" lon="120.679220"/>
<trkpt lat="24.160358" lon="120.679973"/>
<trkpt lat="24.160337" lon="120.680970"/>
<trkpt lat="24.160766" lon="120.680971"/>
<trkpt lat="24.160962" lon="120.680972"/>
<trkpt lat="24.161159" lon="120.680971"/>
<trkpt lat="24.161154" lon="120.681727"/>
<trkpt lat="24.161610" lon="120.681731"/>
<trkpt lat="24.162080" lon="120.681736"/>
<trkpt lat="24.162292" lon="120.681738"/>
<trkpt lat="24.162346" lon="120.682352"/>
<trkpt lat="24.162513" lon="120.682349"/>
<trkpt lat="24.162941" lon="120.682355"/>
<trkpt lat="24.162950" lon="120.682297"/>
<trkpt lat="24.162976" lon="120.682248"/>
<trkpt lat="24.163051" lon="120.682247"/>
<trkpt lat="24.163138" lon="120.682248"/>
<trkpt lat="24.163200" lon="120.682262"/>
<trkpt lat="24.163246" lon="120.682310"/>
<trkpt lat="24.163248" lon="120.682353"/>
<trkpt lat="24.163570" lon="120.682361"/>
<trkpt lat="24.163877" lon="120.682369"/>
<trkpt lat="24.163878" lon="120.682306"/>
<trkpt lat="24.163943" lon="120.682306"/>
<trkpt lat="24.164015" lon="120.682307"/>
<trkpt lat="24.164014" lon="120.682375"/>
<trkpt lat="24.164486" lon="120.682382"/>
<trkpt lat="24.164483" lon="120.682797"/>
<trkpt lat="24.164480" lon="120.683032"/>
<trkpt lat="24.164475" lon="120.683493"/>
<trkpt lat="24.164484" lon="120.683704"/>
<trkpt lat="24.164470" lon="120.684329"/>
<trkpt lat="24.164457" lon="120.684927"/>
<trkpt lat="24.164438" lon="120.684927"/>
<trkpt lat="24.163979" lon="120.684918"/>
<trkpt lat="24.163950" lon="120.684920"/>
<trkpt lat="24.163905" lon="120.684920"/>
<trkpt lat="24.163828" lon="120.684921"/>
<trkpt lat="24.163830" lon="120.685004"/>
<trkpt lat="24.163827" lon="120.685104"/>
<trkpt lat="24.163825" lon="120.685187"/>
<trkpt lat="24.163579" lon="120.685188"/>
<trkpt lat="24.163504" lon="120.685194"/>
<trkpt lat="24.163473" lon="120.685220"/>
<trkpt lat="24.163418" lon="120.685253"/>
<trkpt lat="24.163361" lon="120.685297"/>
<trkpt lat="24.163320" lon="120.685327"/>
<trkpt lat="24.163306" lon="120.685345"/>
<trkpt lat="24.163291" lon="120.685363"/>
<trkpt lat="24.163254" lon="120.685419"/>
<trkpt lat="24.163206" lon="120.685494"/>
<trkpt lat="24.163182" lon="120.685523"/>
<trkpt lat="24.163161" lon="120.685579"/>
<trkpt lat="24.163154" lon="120.685683"/>
<trkpt lat="24.163182" lon="120.685704"/>
<trkpt lat="24.163181" lon="120.685742"/>
<trkpt lat="24.163179" lon="120.685766"/>
<trkpt lat="24.163148" lon="120.685783"/>
<trkpt lat="24.163137" lon="120.686591"/>
<trkpt lat="24.163066" lon="120.686593"/>
<trkpt lat="24.162979" lon="120.686593"/>
<trkpt lat="24.162898" lon="120.686595"/>
<trkpt lat="24.162874" lon="120.686632"/>
<trkpt lat="24.162873" lon="120.686693"/>
<trkpt lat="24.162720" lon="120.686692"/>
<trkpt lat="24.162151" lon="120.686690"/>
<trkpt lat="24.161614" lon="120.686687"/>
<trkpt lat="24.161613" lon="120.686733"/>
<trkpt lat="24.161558" lon="120.686752"/>
<trkpt lat="24.161531" lon="120.686751"/>
<trkpt lat="24.161491" lon="120.686749"/>
<trkpt lat="24.161461" lon="120.686748"/>
<trkpt lat="24.161462" lon="120.686687"/>
<trkpt lat="24.161207" lon="120.686686"/>
<trkpt lat="24.161185" lon="120.686685"/>
<trkpt lat="24.161079" lon="120.686685"/>
<trkpt lat="24.161065" lon="120.686685"/>
<trkpt lat="24.160681" lon="120.686687"/>
<trkpt lat="24.160678" lon="120.686979"/>
<trkpt lat="24.160465" lon="120.686979"/>
<trkpt lat="24.160441" lon="120.687067"/>
<trkpt lat="24.160437" lon="120.687234"/>
<trkpt lat="24.160430" lon="120.688175"/>
<trkpt lat="24.160222" lon="120.688174"/>
<trkpt lat="24.160207" lon="120.688933"/>
<trkpt lat="24.160119" lon="120.688881"/>
<trkpt lat="24.160012" lon="120.688863"/>
<trkpt lat="24.159819" lon="120.688842"/>
<trkpt lat="24.159756" lon="120.689190"/>
<trkpt lat="24.159744" lon="120.689231"/>
<trkpt lat="24.159724" lon="120.689225"/>
<trkpt lat="24.159528" lon="120.689157"/>
<trkpt lat="24.159343" lon="120.689107"/>
<trkpt lat="24.158974" lon="120.688987"/>
<trkpt lat="24.158598" lon="120.688970"/>
<trkpt lat="24.158515" lon="120.688967"/>
<trkpt lat="24.158473" lon="120.689000"/>
<trkpt lat="24.157892" lon="120.689598"/>
<trkpt lat="24.157872" lon="120.689619"/>
<trkpt lat="24.157895" lon="120.689645"/>
<trkpt lat="24.157868" lon="120.689678"/>
<trkpt lat="24.157801" lon="120.689740"/>
<trkpt lat="24.157722" lon="120.689814"/>
<trkpt lat="24.157666" lon="120.689866"/>
<trkpt lat="24.157584" lon="120.689776"/>
<trkpt lat="24.157521" lon="120.689822"/>
<trkpt lat="24.157249" lon="120.690593"/>
<trkpt lat="24.156607" lon="120.690337"/>
<trkpt lat="24.156590" lon="120.690408"/>
<trkpt lat="24.156211" lon="120.691479"/>
<trkpt lat="24.155878" lon="120.691341"/>
<trkpt lat="24.155760" lon="120.691699"/>
<trkpt lat="24.155582" lon="120.692220"/>
<trkpt lat="24.155556" lon="120.692297"/>
<trkpt lat="24.155429" lon="120.692648"/>
<trkpt lat="24.155339" lon="120.692961"/>
<trkpt lat="24.155328" lon="120.693029"/>
<trkpt lat="24.154939" lon="120.692972"/>
<trkpt lat="24.154764" lon="120.692947"/>
<trkpt lat="24.154732" lon="120.692943"/>
<trkpt lat="24.154457" lon="120.692905"/>
<trkpt lat="24.154451" lon="120.693214"/>
<trkpt lat="24.154405" lon="120.693377"/>
<trkpt lat="24.154107" lon="120.694347"/>
<trkpt lat="24.153933" lon="120.694350"/>
<trkpt lat="24.153684" lon="120.694355"/>
<trkpt lat="24.153687" lon="120.694429"/>
<trkpt lat="24.153679" lon="120.694799"/>
<trkpt lat="24.153646" lon="120.694964"/>
<trkpt lat="24.153463" lon="120.695532"/>
<trkpt lat="24.153101" lon="120.695403"/>
<trkpt lat="24.152944" lon="120.695893"/>
<trkpt lat="24.152661" lon="120.695786"/>
<trkpt lat="24.152368" lon="120.695679"/>
<trkpt lat="24.152240" lon="120.695631"/>
<trkpt lat="24.152214" lon="120.695640"/>
<trkpt lat="24.152181" lon="120.695687"/>
<trkpt lat="24.152146" lon="120.695791"/>
<trkpt lat="24.152126" lon="120.695834"/>
<trkpt lat="24.152085" lon="120.695896"/>
<trkpt lat="24.152019" lon="120.695884"/>
<trkpt lat="24.151867" lon="120.695859"/>
<trkpt lat="24.151816" lon="120.696220"/>
<trkpt lat="24.151732" lon="120.696810"/>
<trkpt lat="24.151662" lon="120.696798"/>
<trkpt lat="24.151477" lon="120.696766"/>
<trkpt lat="24.151428" lon="120.696759"/>
<trkpt lat="24.151182" lon="120.696714"/>
<trkpt lat="24.151155" lon="120.696748"/>
<trkpt lat="24.151073" lon="120.697262"/>
<trkpt lat="24.150847" lon="120.697229"/>
<trkpt lat="24.150816" lon="120.697216"/>
<trkpt lat="24.150767" lon="120.697208"/>
<trkpt lat="24.150562" lon="120.697187"/>
<trkpt lat="24.150540" lon="120.697164"/>
<trkpt lat="24.150299" lon="120.697120"/>
<trkpt lat="24.150051" lon="120.697074"/>
<trkpt lat="24.149972" lon="120.697575"/>
<trkpt lat="24.149629" lon="120.697522"/>
<trkpt lat="24.149328" lon="120.697484"/>
<trkpt lat="24.149054" lon="120.697448"/>
<trkpt lat="24.148543" lon="120.697372"/>
<trkpt lat="24.148416" lon="120.697353"/>
<trkpt lat="24.148107" lon="120.697309"/>
<trkpt lat="24.147994" lon="120.697298"/>
<trkpt lat="24.147920" lon="120.697287"/>
<trkpt lat="24.147851" lon="120.697280"/>
<trkpt lat="24.147110" lon="120.697185"/>
<trkpt lat="24.146322" lon="120.697082"/>
<trkpt lat="24.145940" lon="120.697037"/>
<trkpt lat="24.145678" lon="120.697006"/>
<trkpt lat="24.145508" lon="120.696980"/>
<trkpt lat="24.145351" lon="120.696955"/>
<trkpt lat="24.145207" lon="120.696933"/>
<trkpt lat="24.145059" lon="120.696917"/>
<trkpt lat="24.144905" lon="120.696897"/>
<trkpt lat="24.144693" lon="120.696858"/>
<trkpt lat="24.144689" lon="120.696990"/>
<trkpt lat="24.144689" lon="120.697067"/>
<trkpt lat="24.144693" lon="120.697092"/>
<trkpt lat="24.144644" lon="120.697056"/>
<trkpt lat="24.144549" lon="120.697042"/>
<trkpt lat="24.144465" lon="120.697081"/>
<trkpt lat="24.144358" lon="120.697089"/>
<trkpt lat="24.144298" lon="120.697080"/>
<trkpt lat="24.144263" lon="120.697076"/>
<trkpt lat="24.144196" lon="120.697060"/>
<trkpt lat="24.144052" lon="120.697028"/>
<trkpt lat="24.143942" lon="120.696988"/>
<trkpt lat="24.143825" lon="120.696950"/>
<trkpt lat="24.143748" lon="120.696923"/>
<trkpt lat="24.143721" lon="120.696914"/>
<trkpt lat="24.143560" lon="120.696849"/>
<trkpt lat="24.143458" lon="120.696817"/>
<trkpt lat="24.143371" lon="120.696795"/>
<trkpt lat="24.143246" lon="120.696763"/>
<trkpt lat="24.143149" lon="120.696729"/>
<trkpt lat="24.143116" lon="120.696712"/>
<trkpt lat="24.143063" lon="120.696686"/>
<trkpt lat="24.142979" lon="120.696638"/>
<trkpt lat="24.142902" lon="120.696569"/>
<trkpt lat="24.142778" lon="120.696452"/>
<trkpt lat="24.142780" lon="120.696938"/>
<trkpt lat="24.142340" lon="120.696707"/>
<trkpt lat="24.142113" lon="120.696536"/>
<trkpt lat="24.142130" lon="120.696678"/>
<trkpt lat="24.142118" lon="120.696809"/>
<trkpt lat="24.142115" lon="120.697185"/>
<trkpt lat="24.142113" lon="120.697811"/>
<trkpt lat="24.142111" lon="120.698061"/>
<trkpt lat="24.142109" lon="120.699095"/>
<trkpt lat="24.142107" lon="120.699502"/>
<trkpt lat="24.142111" lon="120.699765"/>
<trkpt lat="24.142115" lon="120.699976"/>
<trkpt lat="24.142784" lon="120.699907"/>
<trkpt lat="24.142772" lon="120.700007"/>
<trkpt lat="24.142702" lon="120.701178"/>
<trkpt lat="24.142702" lon="120.701267"/>
<trkpt lat="24.142327" lon="120.701316"/>
<trkpt lat="24.141555" lon="120.701406"/>
<trkpt lat="24.141553" lon="120.701985"/>
<trkpt lat="24.141557" lon="120.702217"/>
<trkpt lat="24.141564" lon="120.703273"/>
<trkpt lat="24.141062" lon="120.703430"/>
<trkpt lat="24.141058" lon="120.704403"/>
<trkpt lat="24.141068" lon="120.706001"/>
<trkpt lat="24.141096" lon="120.706732"/>
<trkpt lat="24.140515" lon="120.706607"/>
<trkpt lat="24.140659" lon="120.708160"/>
<trkpt lat="24.140760" lon="120.709388"/>
<trkpt lat="24.140324" lon="120.709297"/>
<trkpt lat="24.140039" lon="120.709231"/>
<trkpt lat="24.138585" lon="120.708924"/>
<trkpt lat="24.138726" lon="120.708381"/>
<trkpt lat="24.138772" lon="120.708191"/>
<trkpt lat="24.138948" lon="120.707451"/>
<trkpt lat="24.138545" lon="120.707249"/>
<trkpt lat="24.138291" lon="120.707132"/>
<trkpt lat="24.138427" lon="120.706636"/>
<trkpt lat="24.138500" lon="120.706193"/>
<trkpt lat="24.139048" lon="120.706377"/>
<trkpt lat="24.139084" lon="120.705684"/>
<trkpt lat="24.138838" lon="120.705638"/>
<trkpt lat="24.138824" lon="120.705359"/>
<trkpt lat="24.138815" lon="120.705021"/>
<trkpt lat="24.139241" lon="120.705024"/>
<trkpt lat="24.139237" lon="120.704712"/>
<trkpt lat="24.139237" lon="120.704325"/>
<trkpt lat="24.138787" lon="120.704320"/>
<trkpt lat="24.138418" lon="120.704314"/>
<trkpt lat="24.138339" lon="120.704279"/>
<trkpt lat="24.138591" lon="120.703775"/>
<trkpt lat="24.138839" lon="120.702945"/>
<trkpt lat="24.138864" lon="120.702825"/>
<trkpt lat="24.138875" lon="120.702732"/>
<trkpt lat="24.138883" lon="120.702653"/>
<trkpt lat="24.138869" lon="120.702169"/>
<trkpt lat="24.139237" lon="120.702180"/>
<trkpt lat="24.139311" lon="120.702181"/>
<trkpt lat="24.139379" lon="120.702190"/>
<trkpt lat="24.139529" lon="120.702221"/>
<trkpt lat="24.140217" lon="120.702406"/>
<trkpt lat="24.140300" lon="120.702412"/>
<trkpt lat="24.140200" lon="120.701481"/>
<trkpt lat="24.140191" lon="120.701389"/>
<trkpt lat="24.140190" lon="120.701318"/>
<trkpt lat="24.140072" lon="120.700145"/>
<trkpt lat="24.140094" lon="120.699850"/>
<trkpt lat="24.140115" lon="120.699724"/>
<trkpt lat="24.140151" lon="120.699451"/>
<trkpt lat="24.140205" lon="120.699135"/>
<trkpt lat="24.140223" lon="120.698729"/>
<trkpt lat="24.140236" lon="120.698352"/>
<trkpt lat="24.140235" lon="120.698053"/>
<trkpt lat="24.140250" lon="120.697654"/>
<trkpt lat="24.140217" lon="120.697543"/>
<trkpt lat="24.140226" lon="120.697170"/>
<trkpt lat="24.139591" lon="120.697168"/>
<trkpt lat="24.139588" lon="120.697090"/>
<trkpt lat="24.139677" lon="120.697089"/>
<trkpt lat="24.139676" lon="120.697101"/>
<trkpt lat="24.140147" lon="120.697098"/>
<trkpt lat="24.140147" lon="120.697085"/>
<trkpt lat="24.140229" lon="120.697117"/>
<trkpt lat="24.140229" lon="120.696789"/>
<trkpt lat="24.140283" lon="120.696700"/>
<trkpt lat="24.140160" lon="120.696529"/>
<trkpt lat="24.140086" lon="120.696440"/>
<trkpt lat="24.140007" lon="120.696483"/>
<trkpt lat="24.139964" lon="120.696500"/>
<trkpt lat="24.139936" lon="120.696511"/>
<trkpt lat="24.139852" lon="120.696535"/>
<trkpt lat="24.139599" lon="120.696535"/>
<trkpt lat="24.139601" lon="120.696377"/>
<trkpt lat="24.139601" lon="120.695782"/>
<trkpt lat="24.139600" lon="120.695544"/>
<trkpt lat="24.139680" lon="120.695504"/>
<trkpt lat="24.139713" lon="120.695489"/>
<trkpt lat="24.139737" lon="120.695465"/>
<trkpt lat="24.139783" lon="120.695464"/>
<trkpt lat="24.139781" lon="120.695180"/>
<trkpt lat="24.139782" lon="120.694975"/>
<trkpt lat="24.139838" lon="120.694729"/>
<trkpt lat="24.140016" lon="120.694728"/>
<trkpt lat="24.140045" lon="120.694728"/>
<trkpt lat="24.140044" lon="120.694662"/>
<trkpt lat="24.140224" lon="120.694659"/>
<trkpt lat="24.140271" lon="120.694652"/>
<trkpt lat="24.140366" lon="120.694621"/>
<trkpt lat="24.140434" lon="120.694604"/>
<trkpt lat="24.140635" lon="120.694511"/>
<trkpt lat="24.140785" lon="120.694448"/>
<trkpt lat="24.140951" lon="120.694370"/>
<trkpt lat="24.140844" lon="120.694199"/>
<trkpt lat="24.140754" lon="120.694031"/>
<trkpt lat="24.140536" lon="120.693599"/>
<trkpt lat="24.140270" lon="120.692936"/>
<trkpt lat="24.140083" lon="120.692442"/>
<trkpt lat="24.140261" lon="120.692449"/>
<trkpt lat="24.140523" lon="120.692453"/>
<trkpt lat="24.140672" lon="120.692452"/>
<trkpt lat="24.140690" lon="120.691001"/>
<trkpt lat="24.140703" lon="120.690279"/>
<trkpt lat="24.140940" lon="120.690092"/>
<trkpt lat="24.140967" lon="120.689285"/>
<trkpt lat="24.140971" lon="120.689186"/>
<trkpt lat="24.141012" lon="120.688193"/>
<trkpt lat="24.141056" lon="120.687316"/>
<trkpt lat="24.141071" lon="120.686852"/>
<trkpt lat="24.141541" lon="120.686877"/>
<trkpt lat="24.141565" lon="120.686100"/>
<trkpt lat="24.141524" lon="120.685921"/>
<trkpt lat="24.141520" lon="120.685767"/>
<trkpt lat="24.141517" lon="120.685684"/>
<trkpt lat="24.141502" lon="120.685255"/>
<trkpt lat="24.141144" lon="120.684842"/>
<trkpt lat="24.140984" lon="120.684673"/>
<trkpt lat="24.140794" lon="120.684488"/>
<trkpt lat="24.141518" lon="120.683661"/>
<trkpt lat="24.141835" lon="120.683985"/>
<trkpt lat="24.142534" lon="120.683176"/>
<trkpt lat="24.142220" lon="120.682856"/>
<trkpt lat="24.142531" lon="120.682499"/>
<trkpt lat="24.142895" lon="120.682082"/>
<trkpt lat="24.142530" lon="120.681717"/>
<trkpt lat="24.142181" lon="120.681363"/>
<trkpt lat="24.141814" lon="120.680972"/>
<trkpt lat="24.141562" lon="120.680700"/>
<trkpt lat="24.141609" lon="120.680644"/>
<trkpt lat="24.141539" lon="120.680572"/>
</trkseg></trk>
</gpx>