<?xml version="1.0" encoding="UTF-8"?>
<gpx version="1.1" creator="catrun" xmlns="http://www.topografix.com/GPX/1/1">
<metadata><name>豐原區 手繪蹲坐貓（原稿描圖） 圖形路跑路線</name></metadata>
<wpt lat="24.245319" lon="120.716604"><name>臺中綠空廊道</name><desc>地標</desc></wpt>
<wpt lat="24.247027" lon="120.718301"><name>臺中綠空廊道</name><desc>地標</desc></wpt>
<wpt lat="24.251173" lon="120.716325"><name>墩腳公園</name><desc>地標</desc></wpt>
<trk><name>豐原區 手繪蹲坐貓（原稿描圖） 圖形路跑路線</name><trkseg>
<trkpt lat="24.245196" lon="120.718848"/>
<trkpt lat="24.244813" lon="120.718751"/>
<trkpt lat="24.244822" lon="120.718660"/>
<trkpt lat="24.244845" lon="120.718385"/>
<trkpt lat="24.244885" lon="120.718030"/>
<trkpt lat="24.244887" lon="120.717954"/>
<trkpt lat="24.244934" lon="120.717924"/>
<trkpt lat="24.246043" lon="120.717345"/>
<trkpt lat="24.246082" lon="120.717324"/>
<trkpt lat="24.246083" lon="120.717324"/>
<trkpt lat="24.246181" lon="120.717274"/>
<trkpt lat="24.246675" lon="120.717249"/>
<trkpt lat="24.247104" lon="120.717226"/>
<trkpt lat="24.247305" lon="120.717215"/>
<trkpt lat="24.248241" lon="120.717165"/>
<trkpt lat="24.248243" lon="120.717082"/>
<trkpt lat="24.248285" lon="120.717077"/>
<trkpt lat="24.248355" lon="120.717029"/>
<trkpt lat="24.248420" lon="120.716976"/>
<trkpt lat="24.248519" lon="120.716929"/>
<trkpt lat="24.249238" lon="120.717018"/>
<trkpt lat="24.249443" lon="120.717043"/>
<trkpt lat="24.249337" lon="120.716322"/>
<trkpt lat="24.249330" lon="120.716263"/>
<trkpt lat="24.250613" lon="120.716306"/>
<trkpt lat="24.250646" lon="120.715884"/>
<trkpt lat="24.250791" lon="120.715866"/>
<trkpt lat="24.251246" lon="120.715688"/>
<trkpt lat="24.251306" lon="120.715665"/>
<trkpt lat="24.251418" lon="120.715621"/>
<trkpt lat="24.251381" lon="120.715498"/>
<trkpt lat="24.251364" lon="120.715442"/>
<trkpt lat="24.251125" lon="120.714658"/>
<trkpt lat="24.251105" lon="120.714600"/>
<trkpt lat="24.251050" lon="120.714425"/>
<trkpt lat="24.251033" lon="120.714252"/>
<trkpt lat="24.251028" lon="120.714208"/>
<trkpt lat="24.250989" lon="120.713816"/>
<trkpt lat="24.250841" lon="120.712721"/>
<trkpt lat="24.250913" lon="120.712677"/>
<trkpt lat="24.251547" lon="120.712554"/>
<trkpt lat="24.252084" lon="120.712465"/>
<trkpt lat="24.252540" lon="120.712390"/>
<trkpt lat="24.252937" lon="120.712331"/>
<trkpt lat="24.253028" lon="120.712321"/>
<trkpt lat="24.253116" lon="120.712307"/>
<trkpt lat="24.253209" lon="120.712310"/>
<trkpt lat="24.253279" lon="120.713397"/>
<trkpt lat="24.253467" lon="120.713921"/>
<trkpt lat="24.253533" lon="120.713889"/>
<trkpt lat="24.253837" lon="120.713770"/>
<trkpt lat="24.254386" lon="120.713563"/>
<trkpt lat="24.255215" lon="120.713145"/>
<trkpt lat="24.255208" lon="120.713314"/>
<trkpt lat="24.255208" lon="120.713550"/>
<trkpt lat="24.255208" lon="120.713778"/>
<trkpt lat="24.255218" lon="120.713916"/>
<trkpt lat="24.255502" lon="120.713829"/>
<trkpt lat="24.255678" lon="120.714557"/>
<trkpt lat="24.255723" lon="120.714766"/>
<trkpt lat="24.255839" lon="120.715406"/>
<trkpt lat="24.255687" lon="120.715481"/>
<trkpt lat="24.255621" lon="120.715518"/>
<trkpt lat="24.255300" lon="120.715707"/>
<trkpt lat="24.254588" lon="120.715791"/>
<trkpt lat="24.254705" lon="120.715892"/>
<trkpt lat="24.254771" lon="120.716070"/>
<trkpt lat="24.254797" lon="120.716177"/>
<trkpt lat="24.254808" lon="120.716332"/>
<trkpt lat="24.254842" lon="120.717069"/>
<trkpt lat="24.254849" lon="120.717410"/>
<trkpt lat="24.254866" lon="120.717887"/>
<trkpt lat="24.254815" lon="120.718106"/>
<trkpt lat="24.254684" lon="120.718053"/>
<trkpt lat="24.254438" lon="120.717946"/>
<trkpt lat="24.254295" lon="120.717996"/>
<trkpt lat="24.254370" lon="120.718617"/>
<trkpt lat="24.254114" lon="120.718649"/>
<trkpt lat="24.253849" lon="120.718681"/>
<trkpt lat="24.253916" lon="120.719274"/>
<trkpt lat="24.253791" lon="120.719293"/>
<trkpt lat="24.253508" lon="120.719335"/>
<trkpt lat="24.253576" lon="120.719889"/>
<trkpt lat="24.253689" lon="120.720680"/>
<trkpt lat="24.253700" lon="120.720782"/>
<trkpt lat="24.253725" lon="120.720929"/>
<trkpt lat="24.253757" lon="120.721214"/>
<trkpt lat="24.253824" lon="120.721441"/>
<trkpt lat="24.253860" lon="120.721562"/>
<trkpt lat="24.253950" lon="120.721901"/>
<trkpt lat="24.254050" lon="120.722275"/>
<trkpt lat="24.254050" lon="120.722365"/>
<trkpt lat="24.253771" lon="120.722453"/>
<trkpt lat="24.253655" lon="120.722411"/>
<trkpt lat="24.253567" lon="120.722326"/>
<trkpt lat="24.253313" lon="120.722084"/>
<trkpt lat="24.253056" lon="120.722427"/>
<trkpt lat="24.252430" lon="120.722130"/>
<trkpt lat="24.252365" lon="120.722261"/>
<trkpt lat="24.252215" lon="120.722186"/>
<trkpt lat="24.252174" lon="120.722166"/>
<trkpt lat="24.252138" lon="120.722148"/>
<trkpt lat="24.252108" lon="120.722137"/>
<trkpt lat="24.252113" lon="120.722195"/>
<trkpt lat="24.252115" lon="120.722225"/>
<trkpt lat="24.252118" lon="120.722265"/>
<trkpt lat="24.252130" lon="120.722470"/>
<trkpt lat="24.252190" lon="120.722509"/>
<trkpt lat="24.252214" lon="120.722525"/>
<trkpt lat="24.252378" lon="120.722629"/>
<trkpt lat="24.252419" lon="120.722669"/>
<trkpt lat="24.252911" lon="120.723106"/>
<trkpt lat="24.252635" lon="120.723453"/>
<trkpt lat="24.252478" lon="120.723716"/>
<trkpt lat="24.252207" lon="120.723578"/>
<trkpt lat="24.252076" lon="120.723503"/>
<trkpt lat="24.251972" lon="120.723597"/>
<trkpt lat="24.251907" lon="120.723747"/>
<trkpt lat="24.251718" lon="120.723770"/>
<trkpt lat="24.251594" lon="120.723785"/>
<trkpt lat="24.251053" lon="120.723850"/>
<trkpt lat="24.250803" lon="120.724335"/>
<trkpt lat="24.250698" lon="120.724539"/>
<trkpt lat="24.250609" lon="120.724748"/>
<trkpt lat="24.250538" lon="120.724680"/>
<trkpt lat="24.250324" lon="120.725006"/>
<trkpt lat="24.249917" lon="120.725550"/>
<trkpt lat="24.250177" lon="120.725681"/>
<trkpt lat="24.250022" lon="120.726027"/>
<trkpt lat="24.249644" lon="120.726822"/>
<trkpt lat="24.249283" lon="120.727580"/>
<trkpt lat="24.249251" lon="120.727650"/>
<trkpt lat="24.249774" lon="120.727939"/>
<trkpt lat="24.250292" lon="120.728219"/>
<trkpt lat="24.251025" lon="120.728633"/>
<trkpt lat="24.250951" lon="120.728877"/>
<trkpt lat="24.250982" lon="120.729005"/>
<trkpt lat="24.250978" lon="120.729234"/>
<trkpt lat="24.250949" lon="120.729416"/>
<trkpt lat="24.250932" lon="120.729626"/>
<trkpt lat="24.250921" lon="120.729866"/>
<trkpt lat="24.250632" lon="120.729702"/>
<trkpt lat="24.250558" lon="120.729660"/>
<trkpt lat="24.250118" lon="120.730538"/>
<trkpt lat="24.250722" lon="120.730951"/>
<trkpt lat="24.251342" lon="120.731206"/>
<trkpt lat="24.251075" lon="120.731763"/>
<trkpt lat="24.251030" lon="120.731922"/>
<trkpt lat="24.251746" lon="120.732364"/>
<trkpt lat="24.251935" lon="120.731444"/>
<trkpt lat="24.251950" lon="120.731351"/>
<trkpt lat="24.251676" lon="120.731306"/>
<trkpt lat="24.251585" lon="120.731515"/>
<trkpt lat="24.251379" lon="120.731987"/>
<trkpt lat="24.251202" lon="120.731892"/>
<trkpt lat="24.251478" lon="120.731263"/>
<trkpt lat="24.251676" lon="120.731306"/>
<trkpt lat="24.251950" lon="120.731351"/>
<trkpt lat="24.251935" lon="120.731444"/>
<trkpt lat="24.251746" lon="120.732364"/>
<trkpt lat="24.251030" lon="120.731922"/>
<trkpt lat="24.251075" lon="120.731763"/>
<trkpt lat="24.250905" lon="120.731679"/>
<trkpt lat="24.250706" lon="120.731452"/>
<trkpt lat="24.250555" lon="120.731213"/>
<trkpt lat="24.250722" lon="120.730951"/>
<trkpt lat="24.250118" lon="120.730538"/>
<trkpt lat="24.249298" lon="120.729900"/>
<trkpt lat="24.249231" lon="120.729912"/>
<trkpt lat="24.248813" lon="120.730481"/>
<trkpt lat="24.248511" lon="120.730264"/>
<trkpt lat="24.248596" lon="120.730190"/>
<trkpt lat="24.248675" lon="120.729602"/>
<trkpt lat="24.248699" lon="120.729503"/>
<trkpt lat="24.248712" lon="120.729335"/>
<trkpt lat="24.248715" lon="120.729203"/>
<trkpt lat="24.248732" lon="120.729082"/>
<trkpt lat="24.248768" lon="120.728946"/>
<trkpt lat="24.248834" lon="120.728464"/>
<trkpt lat="24.248857" lon="120.727842"/>
<trkpt lat="24.248855" lon="120.727437"/>
<trkpt lat="24.248851" lon="120.727346"/>
<trkpt lat="24.248775" lon="120.727299"/>
<trkpt lat="24.248047" lon="120.726889"/>
<trkpt lat="24.247925" lon="120.726820"/>
<trkpt lat="24.247659" lon="120.726673"/>
<trkpt lat="24.248105" lon="120.725975"/>
<trkpt lat="24.247470" lon="120.725621"/>
<trkpt lat="24.247517" lon="120.725277"/>
<trkpt lat="24.247532" lon="120.725162"/>
<trkpt lat="24.247546" lon="120.725061"/>
<trkpt lat="24.247596" lon="120.724815"/>
<trkpt lat="24.246961" lon="120.724347"/>
<trkpt lat="24.247009" lon="120.724278"/>
<trkpt lat="24.247187" lon="120.724026"/>
<trkpt lat="24.247302" lon="120.723863"/>
<trkpt lat="24.247356" lon="120.723781"/>
<trkpt lat="24.247116" lon="120.723570"/>
<trkpt lat="24.246909" lon="120.723372"/>
<trkpt lat="24.246728" lon="120.723201"/>
<trkpt lat="24.246871" lon="120.723035"/>
<trkpt lat="24.247024" lon="120.722598"/>
<trkpt lat="24.246850" lon="120.722470"/>
<trkpt lat="24.246396" lon="120.722159"/>
<trkpt lat="24.246759" lon="120.721560"/>
<trkpt lat="24.246149" lon="120.721055"/>
<trkpt lat="24.245688" lon="120.720675"/>
<trkpt lat="24.245254" lon="120.720326"/>
<trkpt lat="24.245417" lon="120.720058"/>
<trkpt lat="24.245576" lon="120.719927"/>
<trkpt lat="24.245590" lon="120.719917"/>
<trkpt lat="24.245712" lon="120.719836"/>
<trkpt lat="24.246058" lon="120.719606"/>
<trkpt lat="24.246143" lon="120.719549"/>
<trkpt lat="24.246405" lon="120.719375"/>
<trkpt lat="24.246513" lon="120.719266"/>
<trkpt lat="24.246075" lon="120.719016"/>
<trkpt lat="24.245932" lon="120.718948"/>
<trkpt lat="24.245778" lon="120.718899"/>
<trkpt lat="24.245433" lon="120.718876"/>
<trkpt lat="24.245196" lon="120.718848"/>
</trkseg></trk>
</gpx>