<?xml version="1.0" encoding="UTF-8"?>
<gpx version="1.1" creator="catrun" xmlns="http://www.topografix.com/GPX/1/1">
<metadata><name>后里區 手繪蹲坐貓（原稿描圖） 圖形路跑路線</name></metadata>
<wpt lat="24.312948" lon="120.729036"><name>義里里泉州厝小公園</name><desc>地標</desc></wpt>
<wpt lat="24.308269" lon="120.732109"><name>義里公園</name><desc>地標</desc></wpt>
<wpt lat="24.306064" lon="120.729362"><name>聆聽花開的聲音</name><desc>地標</desc></wpt>
<trk><name>后里區 手繪蹲坐貓（原稿描圖） 圖形路跑路線</name><trkseg>
<trkpt lat="24.313197" lon="120.718433"/>
<trkpt lat="24.313209" lon="120.718345"/>
<trkpt lat="24.313345" lon="120.718392"/>
<trkpt lat="24.313543" lon="120.718455"/>
<trkpt lat="24.313740" lon="120.718510"/>
<trkpt lat="24.313861" lon="120.718520"/>
<trkpt lat="24.313993" lon="120.718517"/>
<trkpt lat="24.314664" lon="120.718432"/>
<trkpt lat="24.314666" lon="120.718506"/>
<trkpt lat="24.315196" lon="120.718431"/>
<trkpt lat="24.316013" lon="120.718329"/>
<trkpt lat="24.316208" lon="120.718312"/>
<trkpt lat="24.316280" lon="120.718321"/>
<trkpt lat="24.316363" lon="120.718345"/>
<trkpt lat="24.316519" lon="120.718419"/>
<trkpt lat="24.316691" lon="120.718537"/>
<trkpt lat="24.316930" lon="120.718696"/>
<trkpt lat="24.317236" lon="120.718901"/>
<trkpt lat="24.317683" lon="120.719199"/>
<trkpt lat="24.317609" lon="120.719392"/>
<trkpt lat="24.317552" lon="120.719592"/>
<trkpt lat="24.316965" lon="120.721849"/>
<trkpt lat="24.317030" lon="120.721863"/>
<trkpt lat="24.316830" lon="120.722663"/>
<trkpt lat="24.316595" lon="120.723602"/>
<trkpt lat="24.316416" lon="120.724314"/>
<trkpt lat="24.317667" lon="120.724653"/>
<trkpt lat="24.318639" lon="120.724902"/>
<trkpt lat="24.318678" lon="120.724753"/>
<trkpt lat="24.318656" lon="120.724745"/>
<trkpt lat="24.318640" lon="120.724729"/>
<trkpt lat="24.318629" lon="120.724708"/>
<trkpt lat="24.318627" lon="120.724685"/>
<trkpt lat="24.318631" lon="120.724662"/>
<trkpt lat="24.318643" lon="120.724641"/>
<trkpt lat="24.318660" lon="120.724628"/>
<trkpt lat="24.318683" lon="120.724621"/>
<trkpt lat="24.318941" lon="120.723535"/>
<trkpt lat="24.319261" lon="120.722193"/>
<trkpt lat="24.320445" lon="120.722481"/>
<trkpt lat="24.320627" lon="120.721666"/>
<trkpt lat="24.320115" lon="120.721537"/>
<trkpt lat="24.320306" lon="120.720728"/>
<trkpt lat="24.320276" lon="120.720632"/>
<trkpt lat="24.320359" lon="120.720246"/>
<trkpt lat="24.320651" lon="120.720297"/>
<trkpt lat="24.320788" lon="120.720316"/>
<trkpt lat="24.321791" lon="120.720388"/>
<trkpt lat="24.322008" lon="120.720392"/>
<trkpt lat="24.321948" lon="120.720650"/>
<trkpt lat="24.321542" lon="120.722200"/>
<trkpt lat="24.321418" lon="120.722759"/>
<trkpt lat="24.321351" lon="120.723141"/>
<trkpt lat="24.321273" lon="120.723652"/>
<trkpt lat="24.321238" lon="120.724321"/>
<trkpt lat="24.321222" lon="120.725133"/>
<trkpt lat="24.321012" lon="120.725194"/>
<trkpt lat="24.320726" lon="120.725249"/>
<trkpt lat="24.320439" lon="120.725270"/>
<trkpt lat="24.320163" lon="120.725249"/>
<trkpt lat="24.319848" lon="120.725217"/>
<trkpt lat="24.319557" lon="120.725145"/>
<trkpt lat="24.318639" lon="120.724902"/>
<trkpt lat="24.318611" lon="120.725011"/>
<trkpt lat="24.317676" lon="120.724770"/>
<trkpt lat="24.316389" lon="120.724421"/>
<trkpt lat="24.315949" lon="120.725924"/>
<trkpt lat="24.315560" lon="120.727301"/>
<trkpt lat="24.315489" lon="120.727282"/>
<trkpt lat="24.315331" lon="120.727969"/>
<trkpt lat="24.315236" lon="120.728483"/>
<trkpt lat="24.314756" lon="120.728577"/>
<trkpt lat="24.314300" lon="120.728687"/>
<trkpt lat="24.313316" lon="120.729053"/>
<trkpt lat="24.313312" lon="120.728970"/>
<trkpt lat="24.313384" lon="120.728257"/>
<trkpt lat="24.313519" lon="120.727645"/>
<trkpt lat="24.313538" lon="120.727561"/>
<trkpt lat="24.313598" lon="120.727313"/>
<trkpt lat="24.313390" lon="120.727219"/>
<trkpt lat="24.312893" lon="120.727006"/>
<trkpt lat="24.312375" lon="120.726834"/>
<trkpt lat="24.312327" lon="120.726795"/>
<trkpt lat="24.312293" lon="120.726702"/>
<trkpt lat="24.312415" lon="120.726241"/>
<trkpt lat="24.311896" lon="120.726100"/>
<trkpt lat="24.311462" lon="120.725983"/>
<trkpt lat="24.311229" lon="120.725786"/>
<trkpt lat="24.310965" lon="120.725633"/>
<trkpt lat="24.310696" lon="120.725611"/>
<trkpt lat="24.309078" lon="120.725867"/>
<trkpt lat="24.309132" lon="120.726531"/>
<trkpt lat="24.309496" lon="120.726760"/>
<trkpt lat="24.309556" lon="120.727153"/>
<trkpt lat="24.309864" lon="120.727187"/>
<trkpt lat="24.309877" lon="120.727743"/>
<trkpt lat="24.309753" lon="120.727765"/>
<trkpt lat="24.309813" lon="120.728095"/>
<trkpt lat="24.309875" lon="120.728430"/>
<trkpt lat="24.310489" lon="120.728600"/>
<trkpt lat="24.310845" lon="120.728705"/>
<trkpt lat="24.311205" lon="120.728799"/>
<trkpt lat="24.310969" lon="120.729910"/>
<trkpt lat="24.310964" lon="120.729911"/>
<trkpt lat="24.310919" lon="120.729928"/>
<trkpt lat="24.309736" lon="120.730353"/>
<trkpt lat="24.309474" lon="120.730447"/>
<trkpt lat="24.309397" lon="120.730462"/>
<trkpt lat="24.309417" lon="120.730896"/>
<trkpt lat="24.309444" lon="120.731293"/>
<trkpt lat="24.308957" lon="120.731232"/>
<trkpt lat="24.308941" lon="120.731441"/>
<trkpt lat="24.308408" lon="120.731297"/>
<trkpt lat="24.308091" lon="120.731257"/>
<trkpt lat="24.308092" lon="120.731200"/>
<trkpt lat="24.308098" lon="120.731080"/>
<trkpt lat="24.308102" lon="120.730997"/>
<trkpt lat="24.308066" lon="120.730755"/>
<trkpt lat="24.307914" lon="120.730460"/>
<trkpt lat="24.307718" lon="120.730104"/>
<trkpt lat="24.307564" lon="120.729841"/>
<trkpt lat="24.307925" lon="120.729698"/>
<trkpt lat="24.308272" lon="120.729678"/>
<trkpt lat="24.308270" lon="120.729649"/>
<trkpt lat="24.308783" lon="120.729598"/>
<trkpt lat="24.308807" lon="120.730006"/>
<trkpt lat="24.309373" lon="120.729975"/>
<trkpt lat="24.309279" lon="120.728510"/>
<trkpt lat="24.309243" lon="120.728094"/>
<trkpt lat="24.309231" lon="120.727847"/>
<trkpt lat="24.309753" lon="120.727765"/>
<trkpt lat="24.309877" lon="120.727743"/>
<trkpt lat="24.309864" lon="120.727187"/>
<trkpt lat="24.309556" lon="120.727153"/>
<trkpt lat="24.309496" lon="120.726760"/>
<trkpt lat="24.309132" lon="120.726531"/>
<trkpt lat="24.309078" lon="120.725867"/>
<trkpt lat="24.309056" lon="120.725289"/>
<trkpt lat="24.309047" lon="120.725114"/>
<trkpt lat="24.309008" lon="120.724495"/>
<trkpt lat="24.309573" lon="120.724456"/>
<trkpt lat="24.309852" lon="120.724434"/>
<trkpt lat="24.309924" lon="120.724421"/>
<trkpt lat="24.310134" lon="120.724388"/>
<trkpt lat="24.310297" lon="120.724439"/>
<trkpt lat="24.310767" lon="120.724579"/>
<trkpt lat="24.310784" lon="120.724574"/>
<trkpt lat="24.310798" lon="120.724555"/>
<trkpt lat="24.310867" lon="120.724296"/>
<trkpt lat="24.311066" lon="120.723597"/>
<trkpt lat="24.311154" lon="120.723243"/>
<trkpt lat="24.311203" lon="120.723040"/>
<trkpt lat="24.311224" lon="120.722951"/>
<trkpt lat="24.311318" lon="120.722619"/>
<trkpt lat="24.311409" lon="120.722260"/>
<trkpt lat="24.311447" lon="120.722020"/>
<trkpt lat="24.311520" lon="120.722004"/>
<trkpt lat="24.311805" lon="120.721770"/>
<trkpt lat="24.311942" lon="120.721644"/>
<trkpt lat="24.312036" lon="120.721630"/>
<trkpt lat="24.312136" lon="120.721660"/>
<trkpt lat="24.312256" lon="120.721758"/>
<trkpt lat="24.312282" lon="120.721864"/>
<trkpt lat="24.312500" lon="120.720826"/>
<trkpt lat="24.312549" lon="120.720593"/>
<trkpt lat="24.312644" lon="120.720241"/>
<trkpt lat="24.312673" lon="120.720050"/>
<trkpt lat="24.312689" lon="120.719913"/>
<trkpt lat="24.312665" lon="120.719784"/>
<trkpt lat="24.312637" lon="120.719702"/>
<trkpt lat="24.312606" lon="120.719597"/>
<trkpt lat="24.312563" lon="120.719484"/>
<trkpt lat="24.312675" lon="120.719488"/>
<trkpt lat="24.312968" lon="120.719552"/>
<trkpt lat="24.313197" lon="120.718433"/>
</trkseg></trk>
</gpx>