<?xml version="1.0" encoding="UTF-8"?>
<gpx version="1.1" creator="catrun" xmlns="http://www.topografix.com/GPX/1/1">
<metadata><name>龍井區 手繪蹲坐貓（原稿描圖） 圖形路跑路線</name></metadata>
<wpt lat="24.225451" lon="120.567338"><name>青山公園</name><desc>地標</desc></wpt>
<wpt lat="24.221975" lon="120.573519"><name>青年公園</name><desc>地標</desc></wpt>
<wpt lat="24.216024" lon="120.579208"><name>六福公園</name><desc>地標</desc></wpt>
<trk><name>龍井區 手繪蹲坐貓（原稿描圖） 圖形路跑路線</name><trkseg>
<trkpt lat="24.216136" lon="120.567724"/>
<trkpt lat="24.216222" lon="120.567741"/>
<trkpt lat="24.216560" lon="120.567787"/>
<trkpt lat="24.216556" lon="120.567709"/>
<trkpt lat="24.216528" lon="120.567392"/>
<trkpt lat="24.216511" lon="120.567005"/>
<trkpt lat="24.216503" lon="120.566659"/>
<trkpt lat="24.216487" lon="120.566304"/>
<trkpt lat="24.216879" lon="120.566307"/>
<trkpt lat="24.216960" lon="120.566457"/>
<trkpt lat="24.217103" lon="120.566593"/>
<trkpt lat="24.217184" lon="120.566641"/>
<trkpt lat="24.217173" lon="120.566847"/>
<trkpt lat="24.217393" lon="120.566829"/>
<trkpt lat="24.217411" lon="120.567068"/>
<trkpt lat="24.217443" lon="120.567229"/>
<trkpt lat="24.217442" lon="120.567384"/>
<trkpt lat="24.217715" lon="120.567371"/>
<trkpt lat="24.218278" lon="120.567481"/>
<trkpt lat="24.218893" lon="120.567663"/>
<trkpt lat="24.219291" lon="120.567771"/>
<trkpt lat="24.219490" lon="120.567834"/>
<trkpt lat="24.219678" lon="120.567860"/>
<trkpt lat="24.219743" lon="120.567863"/>
<trkpt lat="24.219818" lon="120.567847"/>
<trkpt lat="24.220033" lon="120.567723"/>
<trkpt lat="24.220281" lon="120.568568"/>
<trkpt lat="24.220312" lon="120.568708"/>
<trkpt lat="24.220489" lon="120.568721"/>
<trkpt lat="24.220781" lon="120.568682"/>
<trkpt lat="24.220802" lon="120.568989"/>
<trkpt lat="24.220847" lon="120.569233"/>
<trkpt lat="24.221584" lon="120.568996"/>
<trkpt lat="24.222096" lon="120.568838"/>
<trkpt lat="24.222205" lon="120.568802"/>
<trkpt lat="24.222372" lon="120.568759"/>
<trkpt lat="24.222569" lon="120.568718"/>
<trkpt lat="24.222672" lon="120.568708"/>
<trkpt lat="24.222894" lon="120.568339"/>
<trkpt lat="24.222944" lon="120.568256"/>
<trkpt lat="24.223119" lon="120.567994"/>
<trkpt lat="24.223250" lon="120.567793"/>
<trkpt lat="24.223456" lon="120.567505"/>
<trkpt lat="24.223535" lon="120.567496"/>
<trkpt lat="24.223527" lon="120.567374"/>
<trkpt lat="24.223519" lon="120.567211"/>
<trkpt lat="24.223484" lon="120.566500"/>
<trkpt lat="24.224013" lon="120.566471"/>
<trkpt lat="24.223827" lon="120.566773"/>
<trkpt lat="24.223707" lon="120.566974"/>
<trkpt lat="24.223644" lon="120.567195"/>
<trkpt lat="24.223974" lon="120.567145"/>
<trkpt lat="24.224187" lon="120.567120"/>
<trkpt lat="24.224523" lon="120.567045"/>
<trkpt lat="24.225929" lon="120.566488"/>
<trkpt lat="24.226148" lon="120.567143"/>
<trkpt lat="24.226413" lon="120.567917"/>
<trkpt lat="24.226446" lon="120.568008"/>
<trkpt lat="24.226787" lon="120.567865"/>
<trkpt lat="24.226848" lon="120.568095"/>
<trkpt lat="24.226988" lon="120.568621"/>
<trkpt lat="24.227202" lon="120.569406"/>
<trkpt lat="24.225895" lon="120.569815"/>
<trkpt lat="24.225295" lon="120.570021"/>
<trkpt lat="24.225191" lon="120.570055"/>
<trkpt lat="24.225327" lon="120.570535"/>
<trkpt lat="24.225137" lon="120.570591"/>
<trkpt lat="24.224957" lon="120.570646"/>
<trkpt lat="24.224898" lon="120.570650"/>
<trkpt lat="24.224801" lon="120.570583"/>
<trkpt lat="24.224657" lon="120.570512"/>
<trkpt lat="24.224707" lon="120.570701"/>
<trkpt lat="24.224184" lon="120.570757"/>
<trkpt lat="24.224167" lon="120.570998"/>
<trkpt lat="24.224169" lon="120.571205"/>
<trkpt lat="24.224131" lon="120.571471"/>
<trkpt lat="24.224080" lon="120.571793"/>
<trkpt lat="24.224011" lon="120.571795"/>
<trkpt lat="24.224008" lon="120.571859"/>
<trkpt lat="24.223998" lon="120.572131"/>
<trkpt lat="24.223953" lon="120.572420"/>
<trkpt lat="24.223904" lon="120.572890"/>
<trkpt lat="24.223395" lon="120.572663"/>
<trkpt lat="24.222599" lon="120.572183"/>
<trkpt lat="24.222521" lon="120.572582"/>
<trkpt lat="24.222469" lon="120.572845"/>
<trkpt lat="24.222399" lon="120.573279"/>
<trkpt lat="24.222276" lon="120.573983"/>
<trkpt lat="24.221582" lon="120.573858"/>
<trkpt lat="24.221550" lon="120.573832"/>
<trkpt lat="24.221537" lon="120.573782"/>
<trkpt lat="24.221540" lon="120.573717"/>
<trkpt lat="24.221378" lon="120.573740"/>
<trkpt lat="24.221223" lon="120.573786"/>
<trkpt lat="24.221093" lon="120.573770"/>
<trkpt lat="24.220959" lon="120.573690"/>
<trkpt lat="24.220881" lon="120.573672"/>
<trkpt lat="24.220628" lon="120.573658"/>
<trkpt lat="24.220592" lon="120.573697"/>
<trkpt lat="24.220544" lon="120.573706"/>
<trkpt lat="24.219288" lon="120.573370"/>
<trkpt lat="24.219054" lon="120.573994"/>
<trkpt lat="24.220215" lon="120.574494"/>
<trkpt lat="24.220502" lon="120.574598"/>
<trkpt lat="24.220398" lon="120.574941"/>
<trkpt lat="24.220163" lon="120.574870"/>
<trkpt lat="24.220132" lon="120.574993"/>
<trkpt lat="24.220094" lon="120.575060"/>
<trkpt lat="24.220027" lon="120.575087"/>
<trkpt lat="24.219962" lon="120.575061"/>
<trkpt lat="24.218818" lon="120.574682"/>
<trkpt lat="24.218728" lon="120.575428"/>
<trkpt lat="24.218302" lon="120.575234"/>
<trkpt lat="24.218063" lon="120.575128"/>
<trkpt lat="24.217774" lon="120.575001"/>
<trkpt lat="24.217160" lon="120.574763"/>
<trkpt lat="24.216958" lon="120.575340"/>
<trkpt lat="24.216877" lon="120.575394"/>
<trkpt lat="24.215187" lon="120.574692"/>
<trkpt lat="24.214951" lon="120.575340"/>
<trkpt lat="24.216620" lon="120.575999"/>
<trkpt lat="24.216648" lon="120.576036"/>
<trkpt lat="24.216658" lon="120.576090"/>
<trkpt lat="24.216618" lon="120.576626"/>
<trkpt lat="24.216569" lon="120.576678"/>
<trkpt lat="24.216606" lon="120.576799"/>
<trkpt lat="24.216743" lon="120.577028"/>
<trkpt lat="24.216616" lon="120.577129"/>
<trkpt lat="24.216474" lon="120.577436"/>
<trkpt lat="24.216562" lon="120.577478"/>
<trkpt lat="24.216587" lon="120.577526"/>
<trkpt lat="24.216561" lon="120.578068"/>
<trkpt lat="24.216528" lon="120.578138"/>
<trkpt lat="24.216488" lon="120.578162"/>
<trkpt lat="24.216226" lon="120.578079"/>
<trkpt lat="24.215842" lon="120.577916"/>
<trkpt lat="24.215673" lon="120.577854"/>
<trkpt lat="24.214762" lon="120.577950"/>
<trkpt lat="24.214774" lon="120.578051"/>
<trkpt lat="24.214793" lon="120.578258"/>
<trkpt lat="24.214828" lon="120.578632"/>
<trkpt lat="24.215331" lon="120.578584"/>
<trkpt lat="24.215615" lon="120.578570"/>
<trkpt lat="24.215781" lon="120.578635"/>
<trkpt lat="24.216610" lon="120.578950"/>
<trkpt lat="24.216654" lon="120.578979"/>
<trkpt lat="24.216679" lon="120.579056"/>
<trkpt lat="24.216735" lon="120.579715"/>
<trkpt lat="24.216110" lon="120.579789"/>
<trkpt lat="24.215442" lon="120.579864"/>
<trkpt lat="24.215445" lon="120.580078"/>
<trkpt lat="24.215437" lon="120.580241"/>
<trkpt lat="24.215559" lon="120.580239"/>
<trkpt lat="24.215992" lon="120.580273"/>
<trkpt lat="24.216034" lon="120.580316"/>
<trkpt lat="24.216085" lon="120.580405"/>
<trkpt lat="24.216109" lon="120.580468"/>
<trkpt lat="24.216142" lon="120.580552"/>
<trkpt lat="24.216163" lon="120.580637"/>
<trkpt lat="24.216206" lon="120.580745"/>
<trkpt lat="24.216072" lon="120.580761"/>
<trkpt lat="24.215348" lon="120.580852"/>
<trkpt lat="24.214613" lon="120.580944"/>
<trkpt lat="24.214605" lon="120.580896"/>
<trkpt lat="24.214592" lon="120.580833"/>
<trkpt lat="24.214575" lon="120.580723"/>
<trkpt lat="24.214565" lon="120.580670"/>
<trkpt lat="24.214554" lon="120.580616"/>
<trkpt lat="24.214199" lon="120.580651"/>
<trkpt lat="24.214205" lon="120.580530"/>
<trkpt lat="24.214201" lon="120.580404"/>
<trkpt lat="24.214269" lon="120.580218"/>
<trkpt lat="24.214366" lon="120.580112"/>
<trkpt lat="24.214373" lon="120.579987"/>
<trkpt lat="24.214447" lon="120.579982"/>
<trkpt lat="24.214514" lon="120.579974"/>
<trkpt lat="24.214965" lon="120.579924"/>
<trkpt lat="24.214894" lon="120.579270"/>
<trkpt lat="24.214862" lon="120.578935"/>
<trkpt lat="24.214828" lon="120.578632"/>
<trkpt lat="24.214793" lon="120.578258"/>
<trkpt lat="24.214774" lon="120.578051"/>
<trkpt lat="24.214762" lon="120.577950"/>
<trkpt lat="24.214684" lon="120.577279"/>
<trkpt lat="24.214661" lon="120.576943"/>
<trkpt lat="24.214653" lon="120.576562"/>
<trkpt lat="24.214707" lon="120.576192"/>
<trkpt lat="24.214771" lon="120.575881"/>
<trkpt lat="24.214846" lon="120.575674"/>
<trkpt lat="24.214951" lon="120.575340"/>
<trkpt lat="24.215187" lon="120.574692"/>
<trkpt lat="24.215422" lon="120.574029"/>
<trkpt lat="24.215620" lon="120.573448"/>
<trkpt lat="24.215970" lon="120.572485"/>
<trkpt lat="24.216160" lon="120.571872"/>
<trkpt lat="24.216280" lon="120.571501"/>
<trkpt lat="24.216326" lon="120.571360"/>
<trkpt lat="24.216351" lon="120.571256"/>
<trkpt lat="24.216376" lon="120.571121"/>
<trkpt lat="24.216383" lon="120.571012"/>
<trkpt lat="24.216358" lon="120.570853"/>
<trkpt lat="24.216042" lon="120.570952"/>
<trkpt lat="24.215829" lon="120.570980"/>
<trkpt lat="24.215611" lon="120.571004"/>
<trkpt lat="24.215601" lon="120.570909"/>
<trkpt lat="24.215973" lon="120.570863"/>
<trkpt lat="24.216221" lon="120.570059"/>
<trkpt lat="24.216508" lon="120.569204"/>
<trkpt lat="24.216850" lon="120.569088"/>
<trkpt lat="24.216695" lon="120.568589"/>
<trkpt lat="24.216656" lon="120.568450"/>
<trkpt lat="24.216635" lon="120.568373"/>
<trkpt lat="24.216618" lon="120.568300"/>
<trkpt lat="24.216593" lon="120.568175"/>
<trkpt lat="24.216580" lon="120.568053"/>
<trkpt lat="24.216560" lon="120.567787"/>
<trkpt lat="24.216222" lon="120.567741"/>
<trkpt lat="24.216136" lon="120.567724"/>
</trkseg></trk>
</gpx>