<?xml version="1.0" encoding="UTF-8"?>
<gpx version="1.1" creator="catrun" xmlns="http://www.topografix.com/GPX/1/1">
<metadata><name>南屯區 貓臉（正面） 圖形路跑路線</name></metadata>
<wpt lat="24.135261" lon="120.654085"><name>大興公園</name><desc>地標</desc></wpt>
<wpt lat="24.120137" lon="120.656179"><name>兒91公園</name><desc>地標</desc></wpt>
<wpt lat="24.118971" lon="120.657711"><name>和平公園</name><desc>地標</desc></wpt>
<trk><name>南屯區 貓臉（正面） 圖形路跑路線</name><trkseg>
<trkpt lat="24.132008" lon="120.650729"/>
<trkpt lat="24.132674" lon="120.650722"/>
<trkpt lat="24.132660" lon="120.652379"/>
<trkpt lat="24.132684" lon="120.652424"/>
<trkpt lat="24.132744" lon="120.652433"/>
<trkpt lat="24.133317" lon="120.652405"/>
<trkpt lat="24.133308" lon="120.653029"/>
<trkpt lat="24.133405" lon="120.653027"/>
<trkpt lat="24.133406" lon="120.653117"/>
<trkpt lat="24.133407" lon="120.653207"/>
<trkpt lat="24.133306" lon="120.653208"/>
<trkpt lat="24.133301" lon="120.654061"/>
<trkpt lat="24.133299" lon="120.654506"/>
<trkpt lat="24.133382" lon="120.654505"/>
<trkpt lat="24.133380" lon="120.654586"/>
<trkpt lat="24.134862" lon="120.654590"/>
<trkpt lat="24.134861" lon="120.654644"/>
<trkpt lat="24.134861" lon="120.654661"/>
<trkpt lat="24.134957" lon="120.654689"/>
<trkpt lat="24.134968" lon="120.655053"/>
<trkpt lat="24.134969" lon="120.655067"/>
<trkpt lat="24.135116" lon="120.655062"/>
<trkpt lat="24.135251" lon="120.655058"/>
<trkpt lat="24.135253" lon="120.655076"/>
<trkpt lat="24.135220" lon="120.655141"/>
<trkpt lat="24.135171" lon="120.655220"/>
<trkpt lat="24.135040" lon="120.655212"/>
<trkpt lat="24.135026" lon="120.655238"/>
<trkpt lat="24.134943" lon="120.655377"/>
<trkpt lat="24.134855" lon="120.655522"/>
<trkpt lat="24.134722" lon="120.655762"/>
<trkpt lat="24.134423" lon="120.655626"/>
<trkpt lat="24.134049" lon="120.655495"/>
<trkpt lat="24.133832" lon="120.655421"/>
<trkpt lat="24.133499" lon="120.655328"/>
<trkpt lat="24.133143" lon="120.655285"/>
<trkpt lat="24.133139" lon="120.655680"/>
<trkpt lat="24.133130" lon="120.656160"/>
<trkpt lat="24.132754" lon="120.656159"/>
<trkpt lat="24.132711" lon="120.656159"/>
<trkpt lat="24.132396" lon="120.656152"/>
<trkpt lat="24.132360" lon="120.656152"/>
<trkpt lat="24.132162" lon="120.656154"/>
<trkpt lat="24.131893" lon="120.656156"/>
<trkpt lat="24.131613" lon="120.656159"/>
<trkpt lat="24.131613" lon="120.657255"/>
<trkpt lat="24.131342" lon="120.657255"/>
<trkpt lat="24.130793" lon="120.657256"/>
<trkpt lat="24.130568" lon="120.657256"/>
<trkpt lat="24.130104" lon="120.657257"/>
<trkpt lat="24.130124" lon="120.657360"/>
<trkpt lat="24.130119" lon="120.657447"/>
<trkpt lat="24.130120" lon="120.657827"/>
<trkpt lat="24.130123" lon="120.658779"/>
<trkpt lat="24.130125" lon="120.659169"/>
<trkpt lat="24.130036" lon="120.659169"/>
<trkpt lat="24.129928" lon="120.659165"/>
<trkpt lat="24.129945" lon="120.659223"/>
<trkpt lat="24.129952" lon="120.659246"/>
<trkpt lat="24.129949" lon="120.659502"/>
<trkpt lat="24.129949" lon="120.659547"/>
<trkpt lat="24.130034" lon="120.659547"/>
<trkpt lat="24.130037" lon="120.659639"/>
<trkpt lat="24.129947" lon="120.659612"/>
<trkpt lat="24.129821" lon="120.659608"/>
<trkpt lat="24.129065" lon="120.659609"/>
<trkpt lat="24.128755" lon="120.659606"/>
<trkpt lat="24.128333" lon="120.659603"/>
<trkpt lat="24.128023" lon="120.659599"/>
<trkpt lat="24.127391" lon="120.659606"/>
<trkpt lat="24.126990" lon="120.659614"/>
<trkpt lat="24.126987" lon="120.660042"/>
<trkpt lat="24.126988" lon="120.660288"/>
<trkpt lat="24.126608" lon="120.660487"/>
<trkpt lat="24.126382" lon="120.659923"/>
<trkpt lat="24.126283" lon="120.659976"/>
<trkpt lat="24.126180" lon="120.660022"/>
<trkpt lat="24.126121" lon="120.660050"/>
<trkpt lat="24.125902" lon="120.660159"/>
<trkpt lat="24.125884" lon="120.660116"/>
<trkpt lat="24.125782" lon="120.659877"/>
<trkpt lat="24.125687" lon="120.659683"/>
<trkpt lat="24.124839" lon="120.660036"/>
<trkpt lat="24.124763" lon="120.660005"/>
<trkpt lat="24.124734" lon="120.659930"/>
<trkpt lat="24.124693" lon="120.659817"/>
<trkpt lat="24.124626" lon="120.659854"/>
<trkpt lat="24.124396" lon="120.659970"/>
<trkpt lat="24.124325" lon="120.660001"/>
<trkpt lat="24.124216" lon="120.659735"/>
<trkpt lat="24.123802" lon="120.658689"/>
<trkpt lat="24.123708" lon="120.658658"/>
<trkpt lat="24.123626" lon="120.658657"/>
<trkpt lat="24.123515" lon="120.658686"/>
<trkpt lat="24.123418" lon="120.658737"/>
<trkpt lat="24.123331" lon="120.658800"/>
<trkpt lat="24.122952" lon="120.659199"/>
<trkpt lat="24.122108" lon="120.658720"/>
<trkpt lat="24.121948" lon="120.658339"/>
<trkpt lat="24.121701" lon="120.657753"/>
<trkpt lat="24.121599" lon="120.657689"/>
<trkpt lat="24.121178" lon="120.657596"/>
<trkpt lat="24.120988" lon="120.657649"/>
<trkpt lat="24.120962" lon="120.657501"/>
<trkpt lat="24.120939" lon="120.657390"/>
<trkpt lat="24.120843" lon="120.656922"/>
<trkpt lat="24.120755" lon="120.656921"/>
<trkpt lat="24.120671" lon="120.656922"/>
<trkpt lat="24.120582" lon="120.656911"/>
<trkpt lat="24.120572" lon="120.656887"/>
<trkpt lat="24.120487" lon="120.656573"/>
<trkpt lat="24.120473" lon="120.656500"/>
<trkpt lat="24.120414" lon="120.656492"/>
<trkpt lat="24.120301" lon="120.656499"/>
<trkpt lat="24.119957" lon="120.656426"/>
<trkpt lat="24.119758" lon="120.656361"/>
<trkpt lat="24.119644" lon="120.656300"/>
<trkpt lat="24.119820" lon="120.656138"/>
<trkpt lat="24.120161" lon="120.655811"/>
<trkpt lat="24.120118" lon="120.655716"/>
<trkpt lat="24.120121" lon="120.655633"/>
<trkpt lat="24.119870" lon="120.655259"/>
<trkpt lat="24.119538" lon="120.654857"/>
<trkpt lat="24.119480" lon="120.654789"/>
<trkpt lat="24.119445" lon="120.654825"/>
<trkpt lat="24.119064" lon="120.655177"/>
<trkpt lat="24.118304" lon="120.654191"/>
<trkpt lat="24.118494" lon="120.654008"/>
<trkpt lat="24.118517" lon="120.653985"/>
<trkpt lat="24.118552" lon="120.653952"/>
<trkpt lat="24.118578" lon="120.653927"/>
<trkpt lat="24.118631" lon="120.653876"/>
<trkpt lat="24.118668" lon="120.653841"/>
<trkpt lat="24.118630" lon="120.653785"/>
<trkpt lat="24.118697" lon="120.653730"/>
<trkpt lat="24.118765" lon="120.653672"/>
<trkpt lat="24.118815" lon="120.653606"/>
<trkpt lat="24.118768" lon="120.653575"/>
<trkpt lat="24.118558" lon="120.653315"/>
<trkpt lat="24.118502" lon="120.653232"/>
<trkpt lat="24.119556" lon="120.652169"/>
<trkpt lat="24.119183" lon="120.651638"/>
<trkpt lat="24.120297" lon="120.650583"/>
<trkpt lat="24.120219" lon="120.650452"/>
<trkpt lat="24.119272" lon="120.648894"/>
<trkpt lat="24.119334" lon="120.648852"/>
<trkpt lat="24.119469" lon="120.648760"/>
<trkpt lat="24.119498" lon="120.648740"/>
<trkpt lat="24.119521" lon="120.648724"/>
<trkpt lat="24.119646" lon="120.648637"/>
<trkpt lat="24.119733" lon="120.648578"/>
<trkpt lat="24.119677" lon="120.648485"/>
<trkpt lat="24.119480" lon="120.648158"/>
<trkpt lat="24.119355" lon="120.647955"/>
<trkpt lat="24.119228" lon="120.647747"/>
<trkpt lat="24.119976" lon="120.647187"/>
<trkpt lat="24.120492" lon="120.647981"/>
<trkpt lat="24.121109" lon="120.647483"/>
<trkpt lat="24.121639" lon="120.647070"/>
<trkpt lat="24.120688" lon="120.645863"/>
<trkpt lat="24.120759" lon="120.645794"/>
<trkpt lat="24.120783" lon="120.645776"/>
<trkpt lat="24.120779" lon="120.645770"/>
<trkpt lat="24.121138" lon="120.645476"/>
<trkpt lat="24.121195" lon="120.645441"/>
<trkpt lat="24.121229" lon="120.645406"/>
<trkpt lat="24.121163" lon="120.645323"/>
<trkpt lat="24.121249" lon="120.645251"/>
<trkpt lat="24.121668" lon="120.644899"/>
<trkpt lat="24.121714" lon="120.644861"/>
<trkpt lat="24.121765" lon="120.644819"/>
<trkpt lat="24.122154" lon="120.644498"/>
<trkpt lat="24.122521" lon="120.644196"/>
<trkpt lat="24.122595" lon="120.644135"/>
<trkpt lat="24.122670" lon="120.644084"/>
<trkpt lat="24.122679" lon="120.644077"/>
<trkpt lat="24.122702" lon="120.644060"/>
<trkpt lat="24.123482" lon="120.643395"/>
<trkpt lat="24.123541" lon="120.643344"/>
<trkpt lat="24.123603" lon="120.643293"/>
<trkpt lat="24.124005" lon="120.642957"/>
<trkpt lat="24.124041" lon="120.643000"/>
<trkpt lat="24.124090" lon="120.643013"/>
<trkpt lat="24.124112" lon="120.643008"/>
<trkpt lat="24.124140" lon="120.642983"/>
<trkpt lat="24.124232" lon="120.642905"/>
<trkpt lat="24.124256" lon="120.642887"/>
<trkpt lat="24.124264" lon="120.642871"/>
<trkpt lat="24.124284" lon="120.642848"/>
<trkpt lat="24.124294" lon="120.642829"/>
<trkpt lat="24.124299" lon="120.642813"/>
<trkpt lat="24.124296" lon="120.642795"/>
<trkpt lat="24.124260" lon="120.642741"/>
<trkpt lat="24.124646" lon="120.642424"/>
<trkpt lat="24.124699" lon="120.642380"/>
<trkpt lat="24.124750" lon="120.642455"/>
<trkpt lat="24.124782" lon="120.642502"/>
<trkpt lat="24.125136" lon="120.643154"/>
<trkpt lat="24.125578" lon="120.642792"/>
<trkpt lat="24.125630" lon="120.642799"/>
<trkpt lat="24.126176" lon="120.643604"/>
<trkpt lat="24.126798" lon="120.643137"/>
<trkpt lat="24.127290" lon="120.643540"/>
<trkpt lat="24.127381" lon="120.643598"/>
<trkpt lat="24.127685" lon="120.643740"/>
<trkpt lat="24.127914" lon="120.643820"/>
<trkpt lat="24.128126" lon="120.643895"/>
<trkpt lat="24.128602" lon="120.643926"/>
<trkpt lat="24.129523" lon="120.643935"/>
<trkpt lat="24.129528" lon="120.645081"/>
<trkpt lat="24.130159" lon="120.645085"/>
<trkpt lat="24.130339" lon="120.645080"/>
<trkpt lat="24.130685" lon="120.645084"/>
<trkpt lat="24.130846" lon="120.645079"/>
<trkpt lat="24.131242" lon="120.645079"/>
<trkpt lat="24.132052" lon="120.645077"/>
<trkpt lat="24.133366" lon="120.645075"/>
<trkpt lat="24.133361" lon="120.645650"/>
<trkpt lat="24.133354" lon="120.646363"/>
<trkpt lat="24.133352" lon="120.646584"/>
<trkpt lat="24.133350" lon="120.646823"/>
<trkpt lat="24.133344" lon="120.647304"/>
<trkpt lat="24.133344" lon="120.648344"/>
<trkpt lat="24.132021" lon="120.648306"/>
<trkpt lat="24.132018" lon="120.648830"/>
<trkpt lat="24.132012" lon="120.649988"/>
<trkpt lat="24.132008" lon="120.650729"/>
</trkseg></trk>
</gpx>