<?xml version="1.0" encoding="UTF-8"?>
<gpx version="1.1" creator="catrun" xmlns="http://www.topografix.com/GPX/1/1">
<metadata><name>南屯區 貓臉（正面） 圖形路跑路線</name></metadata>
<wpt lat="24.147062" lon="120.643019"><name>椅子</name><desc>地標</desc></wpt>
<wpt lat="24.147052" lon="120.642971"><name>粉筆</name><desc>地標</desc></wpt>
<wpt lat="24.147066" lon="120.642903"><name>書本</name><desc>地標</desc></wpt>
<trk><name>南屯區 貓臉（正面） 圖形路跑路線</name><trkseg>
<trkpt lat="24.147796" lon="120.640614"/>
<trkpt lat="24.148760" lon="120.640623"/>
<trkpt lat="24.148760" lon="120.640742"/>
<trkpt lat="24.148765" lon="120.641691"/>
<trkpt lat="24.148273" lon="120.641694"/>
<trkpt lat="24.148277" lon="120.641737"/>
<trkpt lat="24.148275" lon="120.641868"/>
<trkpt lat="24.148275" lon="120.641898"/>
<trkpt lat="24.148768" lon="120.641903"/>
<trkpt lat="24.148774" lon="120.642657"/>
<trkpt lat="24.148784" lon="120.643837"/>
<trkpt lat="24.149394" lon="120.643833"/>
<trkpt lat="24.149861" lon="120.643830"/>
<trkpt lat="24.149908" lon="120.645444"/>
<trkpt lat="24.149945" lon="120.646656"/>
<trkpt lat="24.150784" lon="120.646665"/>
<trkpt lat="24.150777" lon="120.646856"/>
<trkpt lat="24.150783" lon="120.647798"/>
<trkpt lat="24.150885" lon="120.647798"/>
<trkpt lat="24.151319" lon="120.647799"/>
<trkpt lat="24.151321" lon="120.647151"/>
<trkpt lat="24.152020" lon="120.647159"/>
<trkpt lat="24.152019" lon="120.647800"/>
<trkpt lat="24.152138" lon="120.647800"/>
<trkpt lat="24.152344" lon="120.647800"/>
<trkpt lat="24.152351" lon="120.648680"/>
<trkpt lat="24.152352" lon="120.648743"/>
<trkpt lat="24.152956" lon="120.648748"/>
<trkpt lat="24.152957" lon="120.649315"/>
<trkpt lat="24.152956" lon="120.649789"/>
<trkpt lat="24.152339" lon="120.649795"/>
<trkpt lat="24.151602" lon="120.649801"/>
<trkpt lat="24.150877" lon="120.649808"/>
<trkpt lat="24.150782" lon="120.649809"/>
<trkpt lat="24.149943" lon="120.649823"/>
<trkpt lat="24.148840" lon="120.649837"/>
<trkpt lat="24.147741" lon="120.649855"/>
<trkpt lat="24.146756" lon="120.649862"/>
<trkpt lat="24.146105" lon="120.649867"/>
<trkpt lat="24.145562" lon="120.649875"/>
<trkpt lat="24.145253" lon="120.649874"/>
<trkpt lat="24.145248" lon="120.649985"/>
<trkpt lat="24.145249" lon="120.650627"/>
<trkpt lat="24.145251" lon="120.651309"/>
<trkpt lat="24.144952" lon="120.651310"/>
<trkpt lat="24.144959" lon="120.652134"/>
<trkpt lat="24.144411" lon="120.652140"/>
<trkpt lat="24.143827" lon="120.652137"/>
<trkpt lat="24.143829" lon="120.652543"/>
<trkpt lat="24.143829" lon="120.653014"/>
<trkpt lat="24.143827" lon="120.653974"/>
<trkpt lat="24.143228" lon="120.653978"/>
<trkpt lat="24.142645" lon="120.653979"/>
<trkpt lat="24.142314" lon="120.653979"/>
<trkpt lat="24.142220" lon="120.653980"/>
<trkpt lat="24.141843" lon="120.653981"/>
<trkpt lat="24.141842" lon="120.655128"/>
<trkpt lat="24.141469" lon="120.655128"/>
<trkpt lat="24.141032" lon="120.655123"/>
<trkpt lat="24.140541" lon="120.654663"/>
<trkpt lat="24.140452" lon="120.654586"/>
<trkpt lat="24.140364" lon="120.654579"/>
<trkpt lat="24.140234" lon="120.654579"/>
<trkpt lat="24.140234" lon="120.654676"/>
<trkpt lat="24.140144" lon="120.654679"/>
<trkpt lat="24.140037" lon="120.654679"/>
<trkpt lat="24.140038" lon="120.655062"/>
<trkpt lat="24.140040" lon="120.655132"/>
<trkpt lat="24.139027" lon="120.655141"/>
<trkpt lat="24.138739" lon="120.655141"/>
<trkpt lat="24.138734" lon="120.656058"/>
<trkpt lat="24.138428" lon="120.656057"/>
<trkpt lat="24.138427" lon="120.656233"/>
<trkpt lat="24.138158" lon="120.656234"/>
<trkpt lat="24.137969" lon="120.656234"/>
<trkpt lat="24.137882" lon="120.656234"/>
<trkpt lat="24.137614" lon="120.656233"/>
<trkpt lat="24.137495" lon="120.656234"/>
<trkpt lat="24.137110" lon="120.656233"/>
<trkpt lat="24.137075" lon="120.656233"/>
<trkpt lat="24.136563" lon="120.656233"/>
<trkpt lat="24.135944" lon="120.656232"/>
<trkpt lat="24.135150" lon="120.656232"/>
<trkpt lat="24.134850" lon="120.656231"/>
<trkpt lat="24.134450" lon="120.656231"/>
<trkpt lat="24.134370" lon="120.656381"/>
<trkpt lat="24.134146" lon="120.656207"/>
<trkpt lat="24.134096" lon="120.656178"/>
<trkpt lat="24.133977" lon="120.656170"/>
<trkpt lat="24.133617" lon="120.656167"/>
<trkpt lat="24.133497" lon="120.656168"/>
<trkpt lat="24.133499" lon="120.655328"/>
<trkpt lat="24.133496" lon="120.655141"/>
<trkpt lat="24.132726" lon="120.655141"/>
<trkpt lat="24.132441" lon="120.655141"/>
<trkpt lat="24.132171" lon="120.655141"/>
<trkpt lat="24.131890" lon="120.655141"/>
<trkpt lat="24.131612" lon="120.655141"/>
<trkpt lat="24.131619" lon="120.654585"/>
<trkpt lat="24.130894" lon="120.654585"/>
<trkpt lat="24.130884" lon="120.654490"/>
<trkpt lat="24.130864" lon="120.654372"/>
<trkpt lat="24.130864" lon="120.654281"/>
<trkpt lat="24.130779" lon="120.654309"/>
<trkpt lat="24.130732" lon="120.654309"/>
<trkpt lat="24.130676" lon="120.654291"/>
<trkpt lat="24.130590" lon="120.654283"/>
<trkpt lat="24.130469" lon="120.654322"/>
<trkpt lat="24.130324" lon="120.654254"/>
<trkpt lat="24.130094" lon="120.654265"/>
<trkpt lat="24.129937" lon="120.654198"/>
<trkpt lat="24.129872" lon="120.654320"/>
<trkpt lat="24.129724" lon="120.654491"/>
<trkpt lat="24.129622" lon="120.654585"/>
<trkpt lat="24.129287" lon="120.654585"/>
<trkpt lat="24.129143" lon="120.654502"/>
<trkpt lat="24.129050" lon="120.654473"/>
<trkpt lat="24.128999" lon="120.654331"/>
<trkpt lat="24.128623" lon="120.653410"/>
<trkpt lat="24.128632" lon="120.653376"/>
<trkpt lat="24.128708" lon="120.653375"/>
<trkpt lat="24.128674" lon="120.653287"/>
<trkpt lat="24.127939" lon="120.653301"/>
<trkpt lat="24.127408" lon="120.653324"/>
<trkpt lat="24.126369" lon="120.651962"/>
<trkpt lat="24.125900" lon="120.651354"/>
<trkpt lat="24.125705" lon="120.651114"/>
<trkpt lat="24.124656" lon="120.649762"/>
<trkpt lat="24.124243" lon="120.649237"/>
<trkpt lat="24.123838" lon="120.648730"/>
<trkpt lat="24.123462" lon="120.648243"/>
<trkpt lat="24.123388" lon="120.648180"/>
<trkpt lat="24.123267" lon="120.648030"/>
<trkpt lat="24.123206" lon="120.647940"/>
<trkpt lat="24.123135" lon="120.647994"/>
<trkpt lat="24.123100" lon="120.648032"/>
<trkpt lat="24.123099" lon="120.648000"/>
<trkpt lat="24.122798" lon="120.647611"/>
<trkpt lat="24.122164" lon="120.646795"/>
<trkpt lat="24.122223" lon="120.646744"/>
<trkpt lat="24.122258" lon="120.646715"/>
<trkpt lat="24.122209" lon="120.646652"/>
<trkpt lat="24.122292" lon="120.646590"/>
<trkpt lat="24.122778" lon="120.646221"/>
<trkpt lat="24.123187" lon="120.645910"/>
<trkpt lat="24.122170" lon="120.644522"/>
<trkpt lat="24.122154" lon="120.644498"/>
<trkpt lat="24.122521" lon="120.644196"/>
<trkpt lat="24.122595" lon="120.644135"/>
<trkpt lat="24.122526" lon="120.644049"/>
<trkpt lat="24.122506" lon="120.644023"/>
<trkpt lat="24.122342" lon="120.643816"/>
<trkpt lat="24.122304" lon="120.643769"/>
<trkpt lat="24.122273" lon="120.643729"/>
<trkpt lat="24.122000" lon="120.643386"/>
<trkpt lat="24.121962" lon="120.643338"/>
<trkpt lat="24.121906" lon="120.643268"/>
<trkpt lat="24.121365" lon="120.642596"/>
<trkpt lat="24.121310" lon="120.642527"/>
<trkpt lat="24.121431" lon="120.642427"/>
<trkpt lat="24.121379" lon="120.642353"/>
<trkpt lat="24.121402" lon="120.642354"/>
<trkpt lat="24.121429" lon="120.642346"/>
<trkpt lat="24.121448" lon="120.642329"/>
<trkpt lat="24.121426" lon="120.642301"/>
<trkpt lat="24.121393" lon="120.642258"/>
<trkpt lat="24.121403" lon="120.642250"/>
<trkpt lat="24.121478" lon="120.642185"/>
<trkpt lat="24.121505" lon="120.642152"/>
<trkpt lat="24.121547" lon="120.642109"/>
<trkpt lat="24.121665" lon="120.642025"/>
<trkpt lat="24.121829" lon="120.641877"/>
<trkpt lat="24.121846" lon="120.641814"/>
<trkpt lat="24.122017" lon="120.641656"/>
<trkpt lat="24.122123" lon="120.641629"/>
<trkpt lat="24.122464" lon="120.641323"/>
<trkpt lat="24.122424" lon="120.641268"/>
<trkpt lat="24.122407" lon="120.641246"/>
<trkpt lat="24.122411" lon="120.641241"/>
<trkpt lat="24.122436" lon="120.641229"/>
<trkpt lat="24.122457" lon="120.641227"/>
<trkpt lat="24.122470" lon="120.641227"/>
<trkpt lat="24.122417" lon="120.641155"/>
<trkpt lat="24.122383" lon="120.641109"/>
<trkpt lat="24.122406" lon="120.641063"/>
<trkpt lat="24.122423" lon="120.641024"/>
<trkpt lat="24.122428" lon="120.640986"/>
<trkpt lat="24.122387" lon="120.640913"/>
<trkpt lat="24.122307" lon="120.640809"/>
<trkpt lat="24.121957" lon="120.640358"/>
<trkpt lat="24.121421" lon="120.639706"/>
<trkpt lat="24.121333" lon="120.639607"/>
<trkpt lat="24.121353" lon="120.639582"/>
<trkpt lat="24.121370" lon="120.639567"/>
<trkpt lat="24.121458" lon="120.639487"/>
<trkpt lat="24.121491" lon="120.639457"/>
<trkpt lat="24.121542" lon="120.639426"/>
<trkpt lat="24.121540" lon="120.639390"/>
<trkpt lat="24.121553" lon="120.639358"/>
<trkpt lat="24.121890" lon="120.639051"/>
<trkpt lat="24.121857" lon="120.639051"/>
<trkpt lat="24.121930" lon="120.638982"/>
<trkpt lat="24.122010" lon="120.638908"/>
<trkpt lat="24.122015" lon="120.638927"/>
<trkpt lat="24.122600" lon="120.638375"/>
<trkpt lat="24.122623" lon="120.638364"/>
<trkpt lat="24.122540" lon="120.638266"/>
<trkpt lat="24.122474" lon="120.638190"/>
<trkpt lat="24.122462" lon="120.638143"/>
<trkpt lat="24.122528" lon="120.638075"/>
<trkpt lat="24.122462" lon="120.637995"/>
<trkpt lat="24.122148" lon="120.637633"/>
<trkpt lat="24.121572" lon="120.636954"/>
<trkpt lat="24.121091" lon="120.636375"/>
<trkpt lat="24.120998" lon="120.636291"/>
<trkpt lat="24.122093" lon="120.635152"/>
<trkpt lat="24.122479" lon="120.634767"/>
<trkpt lat="24.123552" lon="120.633681"/>
<trkpt lat="24.123849" lon="120.633366"/>
<trkpt lat="24.123765" lon="120.633259"/>
<trkpt lat="24.123660" lon="120.633117"/>
<trkpt lat="24.123583" lon="120.633037"/>
<trkpt lat="24.123436" lon="120.632884"/>
<trkpt lat="24.123321" lon="120.632756"/>
<trkpt lat="24.123094" lon="120.632470"/>
<trkpt lat="24.123297" lon="120.632249"/>
<trkpt lat="24.123313" lon="120.632176"/>
<trkpt lat="24.123352" lon="120.632118"/>
<trkpt lat="24.123397" lon="120.632068"/>
<trkpt lat="24.123434" lon="120.632056"/>
<trkpt lat="24.123526" lon="120.632069"/>
<trkpt lat="24.123560" lon="120.631984"/>
<trkpt lat="24.123557" lon="120.631930"/>
<trkpt lat="24.123582" lon="120.631871"/>
<trkpt lat="24.123614" lon="120.631826"/>
<trkpt lat="24.123688" lon="120.631785"/>
<trkpt lat="24.123750" lon="120.631775"/>
<trkpt lat="24.123807" lon="120.631761"/>
<trkpt lat="24.123846" lon="120.631761"/>
<trkpt lat="24.123857" lon="120.631698"/>
<trkpt lat="24.123874" lon="120.631649"/>
<trkpt lat="24.123920" lon="120.631596"/>
<trkpt lat="24.124015" lon="120.631570"/>
<trkpt lat="24.124106" lon="120.631564"/>
<trkpt lat="24.124202" lon="120.631566"/>
<trkpt lat="24.124297" lon="120.631584"/>
<trkpt lat="24.124384" lon="120.631655"/>
<trkpt lat="24.124464" lon="120.631710"/>
<trkpt lat="24.124545" lon="120.631718"/>
<trkpt lat="24.124840" lon="120.631731"/>
<trkpt lat="24.124945" lon="120.631846"/>
<trkpt lat="24.125254" lon="120.631530"/>
<trkpt lat="24.125883" lon="120.630913"/>
<trkpt lat="24.126038" lon="120.630734"/>
<trkpt lat="24.125979" lon="120.630583"/>
<trkpt lat="24.126039" lon="120.630331"/>
<trkpt lat="24.126071" lon="120.630148"/>
<trkpt lat="24.126072" lon="120.630044"/>
<trkpt lat="24.126088" lon="120.629818"/>
<trkpt lat="24.126170" lon="120.629396"/>
<trkpt lat="24.126212" lon="120.629243"/>
<trkpt lat="24.126351" lon="120.628769"/>
<trkpt lat="24.126476" lon="120.628370"/>
<trkpt lat="24.126482" lon="120.628350"/>
<trkpt lat="24.126497" lon="120.628294"/>
<trkpt lat="24.126541" lon="120.628129"/>
<trkpt lat="24.126571" lon="120.627992"/>
<trkpt lat="24.126573" lon="120.627929"/>
<trkpt lat="24.126702" lon="120.627663"/>
<trkpt lat="24.126729" lon="120.627525"/>
<trkpt lat="24.126745" lon="120.627486"/>
<trkpt lat="24.126814" lon="120.627404"/>
<trkpt lat="24.126920" lon="120.627276"/>
<trkpt lat="24.127003" lon="120.627140"/>
<trkpt lat="24.127174" lon="120.627099"/>
<trkpt lat="24.127371" lon="120.627053"/>
<trkpt lat="24.127511" lon="120.626993"/>
<trkpt lat="24.127688" lon="120.626911"/>
<trkpt lat="24.127730" lon="120.626861"/>
<trkpt lat="24.127764" lon="120.626802"/>
<trkpt lat="24.127794" lon="120.626731"/>
<trkpt lat="24.127821" lon="120.626568"/>
<trkpt lat="24.127851" lon="120.626497"/>
<trkpt lat="24.127945" lon="120.626423"/>
<trkpt lat="24.128056" lon="120.626343"/>
<trkpt lat="24.128096" lon="120.626288"/>
<trkpt lat="24.128341" lon="120.626220"/>
<trkpt lat="24.128586" lon="120.626186"/>
<trkpt lat="24.128843" lon="120.626227"/>
<trkpt lat="24.129069" lon="120.626235"/>
<trkpt lat="24.129219" lon="120.626234"/>
<trkpt lat="24.129414" lon="120.626226"/>
<trkpt lat="24.129593" lon="120.626232"/>
<trkpt lat="24.129666" lon="120.626170"/>
<trkpt lat="24.129704" lon="120.626081"/>
<trkpt lat="24.129714" lon="120.626014"/>
<trkpt lat="24.129682" lon="120.625796"/>
<trkpt lat="24.129701" lon="120.625713"/>
<trkpt lat="24.129789" lon="120.625510"/>
<trkpt lat="24.129811" lon="120.625441"/>
<trkpt lat="24.129860" lon="120.625310"/>
<trkpt lat="24.129928" lon="120.625106"/>
<trkpt lat="24.129948" lon="120.625064"/>
<trkpt lat="24.130026" lon="120.624962"/>
<trkpt lat="24.130138" lon="120.624839"/>
<trkpt lat="24.130178" lon="120.624849"/>
<trkpt lat="24.130214" lon="120.624855"/>
<trkpt lat="24.130327" lon="120.624862"/>
<trkpt lat="24.130408" lon="120.624878"/>
<trkpt lat="24.130453" lon="120.624896"/>
<trkpt lat="24.130540" lon="120.625002"/>
<trkpt lat="24.130607" lon="120.625100"/>
<trkpt lat="24.130673" lon="120.625168"/>
<trkpt lat="24.130730" lon="120.625196"/>
<trkpt lat="24.131344" lon="120.625326"/>
<trkpt lat="24.131432" lon="120.625412"/>
<trkpt lat="24.131842" lon="120.625093"/>
<trkpt lat="24.132194" lon="120.624847"/>
<trkpt lat="24.132230" lon="120.624821"/>
<trkpt lat="24.132331" lon="120.624991"/>
<trkpt lat="24.132394" lon="120.625097"/>
<trkpt lat="24.132480" lon="120.625037"/>
<trkpt lat="24.132597" lon="120.624954"/>
<trkpt lat="24.132641" lon="120.624923"/>
<trkpt lat="24.132972" lon="120.624690"/>
<trkpt lat="24.133851" lon="120.624154"/>
<trkpt lat="24.134431" lon="120.623853"/>
<trkpt lat="24.134924" lon="120.623639"/>
<trkpt lat="24.135312" lon="120.623524"/>
<trkpt lat="24.135614" lon="120.623433"/>
<trkpt lat="24.135651" lon="120.623604"/>
<trkpt lat="24.135685" lon="120.623757"/>
<trkpt lat="24.135818" lon="120.624395"/>
<trkpt lat="24.136021" lon="120.624344"/>
<trkpt lat="24.136642" lon="120.624198"/>
<trkpt lat="24.137489" lon="120.624053"/>
<trkpt lat="24.137956" lon="120.624013"/>
<trkpt lat="24.138145" lon="120.623993"/>
<trkpt lat="24.138147" lon="120.624342"/>
<trkpt lat="24.138146" lon="120.624860"/>
<trkpt lat="24.138241" lon="120.624849"/>
<trkpt lat="24.138716" lon="120.624829"/>
<trkpt lat="24.139091" lon="120.624827"/>
<trkpt lat="24.139744" lon="120.624843"/>
<trkpt lat="24.140691" lon="120.624888"/>
<trkpt lat="24.140665" lon="120.625052"/>
<trkpt lat="24.140568" lon="120.625653"/>
<trkpt lat="24.140556" lon="120.625723"/>
<trkpt lat="24.140629" lon="120.625737"/>
<trkpt lat="24.140741" lon="120.625060"/>
<trkpt lat="24.140971" lon="120.625068"/>
<trkpt lat="24.143016" lon="120.625137"/>
<trkpt lat="24.143006" lon="120.625892"/>
<trkpt lat="24.143003" lon="120.625986"/>
<trkpt lat="24.142947" lon="120.628336"/>
<trkpt lat="24.142944" lon="120.628413"/>
<trkpt lat="24.143046" lon="120.628420"/>
<trkpt lat="24.143153" lon="120.628423"/>
<trkpt lat="24.143909" lon="120.628451"/>
<trkpt lat="24.144536" lon="120.628463"/>
<trkpt lat="24.144828" lon="120.628468"/>
<trkpt lat="24.144913" lon="120.628470"/>
<trkpt lat="24.145014" lon="120.628474"/>
<trkpt lat="24.145114" lon="120.628479"/>
<trkpt lat="24.145114" lon="120.628567"/>
<trkpt lat="24.145823" lon="120.628593"/>
<trkpt lat="24.145811" lon="120.628833"/>
<trkpt lat="24.145776" lon="120.629645"/>
<trkpt lat="24.145758" lon="120.629973"/>
<trkpt lat="24.145751" lon="120.630779"/>
<trkpt lat="24.146314" lon="120.630790"/>
<trkpt lat="24.146529" lon="120.630794"/>
<trkpt lat="24.146624" lon="120.630832"/>
<trkpt lat="24.146832" lon="120.630835"/>
<trkpt lat="24.146890" lon="120.630836"/>
<trkpt lat="24.147953" lon="120.630857"/>
<trkpt lat="24.148839" lon="120.630845"/>
<trkpt lat="24.149421" lon="120.630830"/>
<trkpt lat="24.149909" lon="120.630829"/>
<trkpt lat="24.150186" lon="120.630829"/>
<trkpt lat="24.150816" lon="120.630828"/>
<trkpt lat="24.150901" lon="120.630827"/>
<trkpt lat="24.150942" lon="120.630588"/>
<trkpt lat="24.151378" lon="120.630669"/>
<trkpt lat="24.151467" lon="120.631166"/>
<trkpt lat="24.151612" lon="120.631137"/>
<trkpt lat="24.151958" lon="120.631093"/>
<trkpt lat="24.151997" lon="120.631320"/>
<trkpt lat="24.152085" lon="120.631852"/>
<trkpt lat="24.152131" lon="120.632132"/>
<trkpt lat="24.151772" lon="120.632222"/>
<trkpt lat="24.151643" lon="120.632243"/>
<trkpt lat="24.151477" lon="120.632269"/>
<trkpt lat="24.151357" lon="120.632288"/>
<trkpt lat="24.151190" lon="120.632314"/>
<trkpt lat="24.151256" lon="120.632763"/>
<trkpt lat="24.151326" lon="120.633308"/>
<trkpt lat="24.151034" lon="120.633439"/>
<trkpt lat="24.150955" lon="120.633428"/>
<trkpt lat="24.150561" lon="120.633359"/>
<trkpt lat="24.150275" lon="120.633353"/>
<trkpt lat="24.149823" lon="120.633419"/>
<trkpt lat="24.149758" lon="120.633429"/>
<trkpt lat="24.149891" lon="120.634463"/>
<trkpt lat="24.149132" lon="120.634586"/>
<trkpt lat="24.148410" lon="120.634696"/>
<trkpt lat="24.148524" lon="120.635733"/>
<trkpt lat="24.148608" lon="120.636588"/>
<trkpt lat="24.148625" lon="120.636746"/>
<trkpt lat="24.148723" lon="120.637760"/>
<trkpt lat="24.148734" lon="120.637883"/>
<trkpt lat="24.148749" lon="120.638758"/>
<trkpt lat="24.147859" lon="120.638924"/>
<trkpt lat="24.147806" lon="120.638975"/>
<trkpt lat="24.147808" lon="120.639468"/>
<trkpt lat="24.147796" lon="120.640614"/>
</trkseg></trk>
</gpx>