<?xml version="1.0" encoding="UTF-8"?>
<gpx version="1.1" creator="catrun" xmlns="http://www.topografix.com/GPX/1/1">
<metadata><name>南屯區 蜷睡貓咪 圖形路跑路線</name></metadata>
<wpt lat="24.139834" lon="120.642680"><name>田心公園</name><desc>地標</desc></wpt>
<wpt lat="24.142507" lon="120.644305"><name>田新公園</name><desc>地標</desc></wpt>
<wpt lat="24.144679" lon="120.646256"><name>「TAICHUNG」大字藝術</name><desc>地標</desc></wpt>
<trk><name>南屯區 蜷睡貓咪 圖形路跑路線</name><trkseg>
<trkpt lat="24.139715" lon="120.644713"/>
<trkpt lat="24.140091" lon="120.644910"/>
<trkpt lat="24.140179" lon="120.644967"/>
<trkpt lat="24.140559" lon="120.645167"/>
<trkpt lat="24.140656" lon="120.644820"/>
<trkpt lat="24.140667" lon="120.644756"/>
<trkpt lat="24.140731" lon="120.644485"/>
<trkpt lat="24.140805" lon="120.644246"/>
<trkpt lat="24.140974" lon="120.643747"/>
<trkpt lat="24.141522" lon="120.643974"/>
<trkpt lat="24.142153" lon="120.644189"/>
<trkpt lat="24.142288" lon="120.643576"/>
<trkpt lat="24.142359" lon="120.643517"/>
<trkpt lat="24.142447" lon="120.643520"/>
<trkpt lat="24.142919" lon="120.643578"/>
<trkpt lat="24.143012" lon="120.642923"/>
<trkpt lat="24.144021" lon="120.643168"/>
<trkpt lat="24.144118" lon="120.643193"/>
<trkpt lat="24.144392" lon="120.643265"/>
<trkpt lat="24.144407" lon="120.643444"/>
<trkpt lat="24.144396" lon="120.643546"/>
<trkpt lat="24.144431" lon="120.643566"/>
<trkpt lat="24.144452" lon="120.643609"/>
<trkpt lat="24.144461" lon="120.643694"/>
<trkpt lat="24.144493" lon="120.643715"/>
<trkpt lat="24.144507" lon="120.643740"/>
<trkpt lat="24.144515" lon="120.643794"/>
<trkpt lat="24.144543" lon="120.643804"/>
<trkpt lat="24.144566" lon="120.643829"/>
<trkpt lat="24.144572" lon="120.643852"/>
<trkpt lat="24.144605" lon="120.643870"/>
<trkpt lat="24.144614" lon="120.643899"/>
<trkpt lat="24.144613" lon="120.643929"/>
<trkpt lat="24.144720" lon="120.644006"/>
<trkpt lat="24.144731" lon="120.644008"/>
<trkpt lat="24.144740" lon="120.644014"/>
<trkpt lat="24.144748" lon="120.644022"/>
<trkpt lat="24.144754" lon="120.644034"/>
<trkpt lat="24.144756" lon="120.644047"/>
<trkpt lat="24.144754" lon="120.644061"/>
<trkpt lat="24.144749" lon="120.644073"/>
<trkpt lat="24.144782" lon="120.644099"/>
<trkpt lat="24.144792" lon="120.644091"/>
<trkpt lat="24.144804" lon="120.644086"/>
<trkpt lat="24.144816" lon="120.644085"/>
<trkpt lat="24.144828" lon="120.644089"/>
<trkpt lat="24.144839" lon="120.644097"/>
<trkpt lat="24.144846" lon="120.644108"/>
<trkpt lat="24.144851" lon="120.644121"/>
<trkpt lat="24.144851" lon="120.644134"/>
<trkpt lat="24.144847" lon="120.644147"/>
<trkpt lat="24.144873" lon="120.644171"/>
<trkpt lat="24.144883" lon="120.644163"/>
<trkpt lat="24.144895" lon="120.644158"/>
<trkpt lat="24.144908" lon="120.644158"/>
<trkpt lat="24.144921" lon="120.644163"/>
<trkpt lat="24.144931" lon="120.644172"/>
<trkpt lat="24.144938" lon="120.644183"/>
<trkpt lat="24.144941" lon="120.644197"/>
<trkpt lat="24.144940" lon="120.644211"/>
<trkpt lat="24.144938" lon="120.644217"/>
<trkpt lat="24.145040" lon="120.644303"/>
<trkpt lat="24.145034" lon="120.644320"/>
<trkpt lat="24.145028" lon="120.644346"/>
<trkpt lat="24.145030" lon="120.644372"/>
<trkpt lat="24.145040" lon="120.644397"/>
<trkpt lat="24.145057" lon="120.644417"/>
<trkpt lat="24.145080" lon="120.644430"/>
<trkpt lat="24.145105" lon="120.644435"/>
<trkpt lat="24.145130" lon="120.644429"/>
<trkpt lat="24.145152" lon="120.644415"/>
<trkpt lat="24.145163" lon="120.644402"/>
<trkpt lat="24.145255" lon="120.644488"/>
<trkpt lat="24.145325" lon="120.644550"/>
<trkpt lat="24.145374" lon="120.644644"/>
<trkpt lat="24.145385" lon="120.644726"/>
<trkpt lat="24.145384" lon="120.644817"/>
<trkpt lat="24.145424" lon="120.644886"/>
<trkpt lat="24.145472" lon="120.644927"/>
<trkpt lat="24.145477" lon="120.644932"/>
<trkpt lat="24.145537" lon="120.644937"/>
<trkpt lat="24.145634" lon="120.644919"/>
<trkpt lat="24.145709" lon="120.644927"/>
<trkpt lat="24.145782" lon="120.644943"/>
<trkpt lat="24.145899" lon="120.645014"/>
<trkpt lat="24.145942" lon="120.645044"/>
<trkpt lat="24.146062" lon="120.645044"/>
<trkpt lat="24.146151" lon="120.645030"/>
<trkpt lat="24.146253" lon="120.645064"/>
<trkpt lat="24.146336" lon="120.645224"/>
<trkpt lat="24.146419" lon="120.645360"/>
<trkpt lat="24.146478" lon="120.645467"/>
<trkpt lat="24.146541" lon="120.645595"/>
<trkpt lat="24.146573" lon="120.645771"/>
<trkpt lat="24.146555" lon="120.645959"/>
<trkpt lat="24.146523" lon="120.646035"/>
<trkpt lat="24.146473" lon="120.646126"/>
<trkpt lat="24.146415" lon="120.646197"/>
<trkpt lat="24.146793" lon="120.646625"/>
<trkpt lat="24.146792" lon="120.646847"/>
<trkpt lat="24.147740" lon="120.646865"/>
<trkpt lat="24.147741" lon="120.647399"/>
<trkpt lat="24.147741" lon="120.647808"/>
<trkpt lat="24.147741" lon="120.648270"/>
<trkpt lat="24.147741" lon="120.648751"/>
<trkpt lat="24.147741" lon="120.649855"/>
<trkpt lat="24.148840" lon="120.649837"/>
<trkpt lat="24.148836" lon="120.650631"/>
<trkpt lat="24.148181" lon="120.650632"/>
<trkpt lat="24.147741" lon="120.650633"/>
<trkpt lat="24.147741" lon="120.651025"/>
<trkpt lat="24.147741" lon="120.651331"/>
<trkpt lat="24.147741" lon="120.652188"/>
<trkpt lat="24.148837" lon="120.652208"/>
<trkpt lat="24.148839" lon="120.652576"/>
<trkpt lat="24.148845" lon="120.653021"/>
<trkpt lat="24.148838" lon="120.653966"/>
<trkpt lat="24.148383" lon="120.653967"/>
<trkpt lat="24.148290" lon="120.653967"/>
<trkpt lat="24.147751" lon="120.653968"/>
<trkpt lat="24.147745" lon="120.655030"/>
<trkpt lat="24.147765" lon="120.655142"/>
<trkpt lat="24.147240" lon="120.655142"/>
<trkpt lat="24.147262" lon="120.655232"/>
<trkpt lat="24.147254" lon="120.656763"/>
<trkpt lat="24.146695" lon="120.656763"/>
<trkpt lat="24.146695" lon="120.656820"/>
<trkpt lat="24.146697" lon="120.657184"/>
<trkpt lat="24.146697" lon="120.657261"/>
<trkpt lat="24.146699" lon="120.657371"/>
<trkpt lat="24.146698" lon="120.657831"/>
<trkpt lat="24.146701" lon="120.657946"/>
<trkpt lat="24.145543" lon="120.657943"/>
<trkpt lat="24.145544" lon="120.658365"/>
<trkpt lat="24.145503" lon="120.658441"/>
<trkpt lat="24.145544" lon="120.658501"/>
<trkpt lat="24.145545" lon="120.658831"/>
<trkpt lat="24.144923" lon="120.658832"/>
<trkpt lat="24.144317" lon="120.658832"/>
<trkpt lat="24.143845" lon="120.658832"/>
<trkpt lat="24.143836" lon="120.659418"/>
<trkpt lat="24.143808" lon="120.659473"/>
<trkpt lat="24.143344" lon="120.659475"/>
<trkpt lat="24.142946" lon="120.659476"/>
<trkpt lat="24.142946" lon="120.660199"/>
<trkpt lat="24.142600" lon="120.660203"/>
<trkpt lat="24.142463" lon="120.660203"/>
<trkpt lat="24.142357" lon="120.660203"/>
<trkpt lat="24.142290" lon="120.660203"/>
<trkpt lat="24.142202" lon="120.660202"/>
<trkpt lat="24.142046" lon="120.660198"/>
<trkpt lat="24.141561" lon="120.660194"/>
<trkpt lat="24.141420" lon="120.660197"/>
<trkpt lat="24.141250" lon="120.660195"/>
<trkpt lat="24.140159" lon="120.660191"/>
<trkpt lat="24.140037" lon="120.660190"/>
<trkpt lat="24.140055" lon="120.660973"/>
<trkpt lat="24.140056" lon="120.660990"/>
<trkpt lat="24.140051" lon="120.661693"/>
<trkpt lat="24.139609" lon="120.661693"/>
<trkpt lat="24.139480" lon="120.661693"/>
<trkpt lat="24.139452" lon="120.661693"/>
<trkpt lat="24.139274" lon="120.661693"/>
<trkpt lat="24.138962" lon="120.661693"/>
<trkpt lat="24.138846" lon="120.661693"/>
<trkpt lat="24.138843" lon="120.660190"/>
<trkpt lat="24.138669" lon="120.660190"/>
<trkpt lat="24.138424" lon="120.660189"/>
<trkpt lat="24.138393" lon="120.660189"/>
<trkpt lat="24.138356" lon="120.660189"/>
<trkpt lat="24.138237" lon="120.660189"/>
<trkpt lat="24.137964" lon="120.660189"/>
<trkpt lat="24.137630" lon="120.660189"/>
<trkpt lat="24.137574" lon="120.660189"/>
<trkpt lat="24.137273" lon="120.660188"/>
<trkpt lat="24.136974" lon="120.660188"/>
<trkpt lat="24.136663" lon="120.660188"/>
<trkpt lat="24.136553" lon="120.660188"/>
<trkpt lat="24.136443" lon="120.660188"/>
<trkpt lat="24.135939" lon="120.660187"/>
<trkpt lat="24.135846" lon="120.660187"/>
<trkpt lat="24.135553" lon="120.660187"/>
<trkpt lat="24.135556" lon="120.659780"/>
<trkpt lat="24.135557" lon="120.659753"/>
<trkpt lat="24.135557" lon="120.659707"/>
<trkpt lat="24.135555" lon="120.659524"/>
<trkpt lat="24.135509" lon="120.659525"/>
<trkpt lat="24.135144" lon="120.659526"/>
<trkpt lat="24.135144" lon="120.658921"/>
<trkpt lat="24.135120" lon="120.658922"/>
<trkpt lat="24.135098" lon="120.658922"/>
<trkpt lat="24.135099" lon="120.658734"/>
<trkpt lat="24.135099" lon="120.657534"/>
<trkpt lat="24.135091" lon="120.657527"/>
<trkpt lat="24.135034" lon="120.657476"/>
<trkpt lat="24.134926" lon="120.657476"/>
<trkpt lat="24.134767" lon="120.657475"/>
<trkpt lat="24.134051" lon="120.657473"/>
<trkpt lat="24.133980" lon="120.657473"/>
<trkpt lat="24.133931" lon="120.657490"/>
<trkpt lat="24.133902" lon="120.657519"/>
<trkpt lat="24.133836" lon="120.657899"/>
<trkpt lat="24.133744" lon="120.658430"/>
<trkpt lat="24.133651" lon="120.658413"/>
<trkpt lat="24.133740" lon="120.657891"/>
<trkpt lat="24.133764" lon="120.657755"/>
<trkpt lat="24.133832" lon="120.657355"/>
<trkpt lat="24.132874" lon="120.657356"/>
<trkpt lat="24.131897" lon="120.657356"/>
<trkpt lat="24.131891" lon="120.657255"/>
<trkpt lat="24.131893" lon="120.656156"/>
<trkpt lat="24.131890" lon="120.655141"/>
<trkpt lat="24.131612" lon="120.655141"/>
<trkpt lat="24.131619" lon="120.654585"/>
<trkpt lat="24.130894" lon="120.654585"/>
<trkpt lat="24.130884" lon="120.654490"/>
<trkpt lat="24.130864" lon="120.654372"/>
<trkpt lat="24.130864" lon="120.654281"/>
<trkpt lat="24.130897" lon="120.654193"/>
<trkpt lat="24.130906" lon="120.654114"/>
<trkpt lat="24.130906" lon="120.654014"/>
<trkpt lat="24.130901" lon="120.653947"/>
<trkpt lat="24.130888" lon="120.653864"/>
<trkpt lat="24.130864" lon="120.653797"/>
<trkpt lat="24.130849" lon="120.653736"/>
<trkpt lat="24.130869" lon="120.653689"/>
<trkpt lat="24.130871" lon="120.653604"/>
<trkpt lat="24.130864" lon="120.653539"/>
<trkpt lat="24.130838" lon="120.653488"/>
<trkpt lat="24.130825" lon="120.653427"/>
<trkpt lat="24.130823" lon="120.653378"/>
<trkpt lat="24.130836" lon="120.653192"/>
<trkpt lat="24.130732" lon="120.653197"/>
<trkpt lat="24.130741" lon="120.652498"/>
<trkpt lat="24.130758" lon="120.650735"/>
<trkpt lat="24.130766" lon="120.650000"/>
<trkpt lat="24.130774" lon="120.649235"/>
<trkpt lat="24.130786" lon="120.648274"/>
<trkpt lat="24.131413" lon="120.648289"/>
<trkpt lat="24.131419" lon="120.647298"/>
<trkpt lat="24.131420" lon="120.647206"/>
<trkpt lat="24.132025" lon="120.647204"/>
<trkpt lat="24.132030" lon="120.646562"/>
<trkpt lat="24.132045" lon="120.646346"/>
<trkpt lat="24.132052" lon="120.645077"/>
<trkpt lat="24.133366" lon="120.645075"/>
<trkpt lat="24.133370" lon="120.644671"/>
<trkpt lat="24.133372" lon="120.644394"/>
<trkpt lat="24.133543" lon="120.644394"/>
<trkpt lat="24.133585" lon="120.644394"/>
<trkpt lat="24.133588" lon="120.644167"/>
<trkpt lat="24.133772" lon="120.644170"/>
<trkpt lat="24.133942" lon="120.644172"/>
<trkpt lat="24.134060" lon="120.644173"/>
<trkpt lat="24.134060" lon="120.644124"/>
<trkpt lat="24.134061" lon="120.643978"/>
<trkpt lat="24.134226" lon="120.643980"/>
<trkpt lat="24.134230" lon="120.643694"/>
<trkpt lat="24.134269" lon="120.643695"/>
<trkpt lat="24.134308" lon="120.643659"/>
<trkpt lat="24.134670" lon="120.643657"/>
<trkpt lat="24.134730" lon="120.643656"/>
<trkpt lat="24.134742" lon="120.643129"/>
<trkpt lat="24.134745" lon="120.643037"/>
<trkpt lat="24.134815" lon="120.643039"/>
<trkpt lat="24.135454" lon="120.643039"/>
<trkpt lat="24.136022" lon="120.643040"/>
<trkpt lat="24.136004" lon="120.643929"/>
<trkpt lat="24.135981" lon="120.645080"/>
<trkpt lat="24.135955" lon="120.645697"/>
<trkpt lat="24.135343" lon="120.645676"/>
<trkpt lat="24.134728" lon="120.645657"/>
<trkpt lat="24.134712" lon="120.646201"/>
<trkpt lat="24.134708" lon="120.646219"/>
<trkpt lat="24.134673" lon="120.646380"/>
<trkpt lat="24.134681" lon="120.646604"/>
<trkpt lat="24.134704" lon="120.647288"/>
<trkpt lat="24.134740" lon="120.648367"/>
<trkpt lat="24.134770" lon="120.649268"/>
<trkpt lat="24.134830" lon="120.649829"/>
<trkpt lat="24.134833" lon="120.649973"/>
<trkpt lat="24.134839" lon="120.650123"/>
<trkpt lat="24.134889" lon="120.651288"/>
<trkpt lat="24.135005" lon="120.651290"/>
<trkpt lat="24.135006" lon="120.651382"/>
<trkpt lat="24.135008" lon="120.651459"/>
<trkpt lat="24.134898" lon="120.651462"/>
<trkpt lat="24.134944" lon="120.652934"/>
<trkpt lat="24.135074" lon="120.652931"/>
<trkpt lat="24.135077" lon="120.653048"/>
<trkpt lat="24.135276" lon="120.653038"/>
<trkpt lat="24.135634" lon="120.653039"/>
<trkpt lat="24.135664" lon="120.652927"/>
<trkpt lat="24.135784" lon="120.652927"/>
<trkpt lat="24.135907" lon="120.652922"/>
<trkpt lat="24.135885" lon="120.653037"/>
<trkpt lat="24.136042" lon="120.653033"/>
<trkpt lat="24.136678" lon="120.653029"/>
<trkpt lat="24.136675" lon="120.653812"/>
<trkpt lat="24.136893" lon="120.653813"/>
<trkpt lat="24.136949" lon="120.653813"/>
<trkpt lat="24.137096" lon="120.653813"/>
<trkpt lat="24.137438" lon="120.653815"/>
<trkpt lat="24.137612" lon="120.653815"/>
<trkpt lat="24.137845" lon="120.653816"/>
<trkpt lat="24.138912" lon="120.653826"/>
<trkpt lat="24.139439" lon="120.653822"/>
<trkpt lat="24.139491" lon="120.653768"/>
<trkpt lat="24.139486" lon="120.653013"/>
<trkpt lat="24.140044" lon="120.653009"/>
<trkpt lat="24.140162" lon="120.653011"/>
<trkpt lat="24.140410" lon="120.653013"/>
<trkpt lat="24.140969" lon="120.653013"/>
<trkpt lat="24.140967" lon="120.652355"/>
<trkpt lat="24.140967" lon="120.652231"/>
<trkpt lat="24.140967" lon="120.652149"/>
<trkpt lat="24.140966" lon="120.652022"/>
<trkpt lat="24.140965" lon="120.651319"/>
<trkpt lat="24.141381" lon="120.651321"/>
<trkpt lat="24.141388" lon="120.649924"/>
<trkpt lat="24.140953" lon="120.649923"/>
<trkpt lat="24.140945" lon="120.648831"/>
<trkpt lat="24.140940" lon="120.648190"/>
<trkpt lat="24.140937" lon="120.647800"/>
<trkpt lat="24.140929" lon="120.646846"/>
<trkpt lat="24.140203" lon="120.646829"/>
<trkpt lat="24.140203" lon="120.646909"/>
<trkpt lat="24.140162" lon="120.646965"/>
<trkpt lat="24.140084" lon="120.646965"/>
<trkpt lat="24.139963" lon="120.646965"/>
<trkpt lat="24.139962" lon="120.647481"/>
<trkpt lat="24.139917" lon="120.647481"/>
<trkpt lat="24.139720" lon="120.647481"/>
<trkpt lat="24.139720" lon="120.647591"/>
<trkpt lat="24.139643" lon="120.647591"/>
<trkpt lat="24.139462" lon="120.647592"/>
<trkpt lat="24.138830" lon="120.647596"/>
<trkpt lat="24.138822" lon="120.647333"/>
<trkpt lat="24.138824" lon="120.646774"/>
<trkpt lat="24.139087" lon="120.646792"/>
<trkpt lat="24.139208" lon="120.646801"/>
<trkpt lat="24.139848" lon="120.646819"/>
<trkpt lat="24.139851" lon="120.646586"/>
<trkpt lat="24.139637" lon="120.646584"/>
<trkpt lat="24.139479" lon="120.646584"/>
<trkpt lat="24.139525" lon="120.646020"/>
<trkpt lat="24.139583" lon="120.645503"/>
<trkpt lat="24.139589" lon="120.645503"/>
<trkpt lat="24.139715" lon="120.644713"/>
</trkseg></trk>
</gpx>