<?xml version="1.0" encoding="UTF-8"?>
<gpx version="1.1" creator="catrun" xmlns="http://www.topografix.com/GPX/1/1">
<metadata><name>南屯區 蹲坐貓咪（側面） 圖形路跑路線</name></metadata>
<wpt lat="24.164456" lon="120.634879"><name>惠泰公園</name><desc>地標</desc></wpt>
<wpt lat="24.167278" lon="120.636946"><name>惠安公園</name><desc>地標</desc></wpt>
<wpt lat="24.170566" lon="120.635287"><name>朝貴公園</name><desc>地標</desc></wpt>
<trk><name>南屯區 蹲坐貓咪（側面） 圖形路跑路線</name><trkseg>
<trkpt lat="24.164031" lon="120.636110"/>
<trkpt lat="24.164099" lon="120.636151"/>
<trkpt lat="24.164210" lon="120.636219"/>
<trkpt lat="24.164272" lon="120.636107"/>
<trkpt lat="24.164761" lon="120.636425"/>
<trkpt lat="24.165134" lon="120.635795"/>
<trkpt lat="24.165699" lon="120.636176"/>
<trkpt lat="24.166045" lon="120.636397"/>
<trkpt lat="24.166784" lon="120.635205"/>
<trkpt lat="24.166823" lon="120.635217"/>
<trkpt lat="24.167113" lon="120.635313"/>
<trkpt lat="24.167178" lon="120.635327"/>
<trkpt lat="24.167874" lon="120.635560"/>
<trkpt lat="24.168480" lon="120.635767"/>
<trkpt lat="24.169221" lon="120.636016"/>
<trkpt lat="24.170104" lon="120.636318"/>
<trkpt lat="24.170841" lon="120.636569"/>
<trkpt lat="24.171193" lon="120.636719"/>
<trkpt lat="24.171787" lon="120.636930"/>
<trkpt lat="24.171996" lon="120.637001"/>
<trkpt lat="24.172161" lon="120.637049"/>
<trkpt lat="24.172231" lon="120.637070"/>
<trkpt lat="24.173235" lon="120.637333"/>
<trkpt lat="24.173640" lon="120.637399"/>
<trkpt lat="24.173909" lon="120.637569"/>
<trkpt lat="24.174081" lon="120.637655"/>
<trkpt lat="24.174544" lon="120.637770"/>
<trkpt lat="24.174716" lon="120.637812"/>
<trkpt lat="24.175335" lon="120.637983"/>
<trkpt lat="24.175331" lon="120.637926"/>
<trkpt lat="24.175312" lon="120.637911"/>
<trkpt lat="24.175320" lon="120.637579"/>
<trkpt lat="24.175282" lon="120.637531"/>
<trkpt lat="24.175284" lon="120.637434"/>
<trkpt lat="24.175281" lon="120.637351"/>
<trkpt lat="24.175495" lon="120.637353"/>
<trkpt lat="24.175722" lon="120.637353"/>
<trkpt lat="24.175806" lon="120.637353"/>
<trkpt lat="24.175856" lon="120.637354"/>
<trkpt lat="24.175960" lon="120.637354"/>
<trkpt lat="24.176059" lon="120.637354"/>
<trkpt lat="24.176059" lon="120.637437"/>
<trkpt lat="24.176058" lon="120.637534"/>
<trkpt lat="24.176036" lon="120.637535"/>
<trkpt lat="24.175974" lon="120.637541"/>
<trkpt lat="24.175896" lon="120.637544"/>
<trkpt lat="24.175815" lon="120.637540"/>
<trkpt lat="24.175720" lon="120.637546"/>
<trkpt lat="24.175719" lon="120.637590"/>
<trkpt lat="24.175562" lon="120.637850"/>
<trkpt lat="24.175517" lon="120.637829"/>
<trkpt lat="24.175437" lon="120.637868"/>
<trkpt lat="24.175331" lon="120.637926"/>
<trkpt lat="24.175335" lon="120.637983"/>
<trkpt lat="24.175354" lon="120.638034"/>
<trkpt lat="24.175366" lon="120.638089"/>
<trkpt lat="24.174990" lon="120.638698"/>
<trkpt lat="24.174581" lon="120.639358"/>
<trkpt lat="24.174553" lon="120.639376"/>
<trkpt lat="24.174526" lon="120.639418"/>
<trkpt lat="24.174464" lon="120.639515"/>
<trkpt lat="24.173483" lon="120.640929"/>
<trkpt lat="24.173547" lon="120.640980"/>
<trkpt lat="24.173609" lon="120.641033"/>
<trkpt lat="24.173672" lon="120.641107"/>
<trkpt lat="24.173653" lon="120.641129"/>
<trkpt lat="24.174257" lon="120.641621"/>
<trkpt lat="24.174671" lon="120.641959"/>
<trkpt lat="24.174765" lon="120.642017"/>
<trkpt lat="24.174961" lon="120.642171"/>
<trkpt lat="24.175272" lon="120.642343"/>
<trkpt lat="24.175496" lon="120.642034"/>
<trkpt lat="24.175947" lon="120.641399"/>
<trkpt lat="24.175476" lon="120.640970"/>
<trkpt lat="24.175791" lon="120.640539"/>
<trkpt lat="24.175893" lon="120.640613"/>
<trkpt lat="24.176082" lon="120.640749"/>
<trkpt lat="24.176217" lon="120.640846"/>
<trkpt lat="24.176527" lon="120.641082"/>
<trkpt lat="24.176702" lon="120.641222"/>
<trkpt lat="24.176894" lon="120.641386"/>
<trkpt lat="24.176917" lon="120.641406"/>
<trkpt lat="24.177248" lon="120.641730"/>
<trkpt lat="24.177303" lon="120.641795"/>
<trkpt lat="24.177656" lon="120.642242"/>
<trkpt lat="24.177668" lon="120.642272"/>
<trkpt lat="24.177737" lon="120.642204"/>
<trkpt lat="24.177785" lon="120.642159"/>
<trkpt lat="24.177828" lon="120.642213"/>
<trkpt lat="24.178032" lon="120.641985"/>
<trkpt lat="24.178253" lon="120.641694"/>
<trkpt lat="24.178595" lon="120.641981"/>
<trkpt lat="24.178560" lon="120.642041"/>
<trkpt lat="24.178402" lon="120.642321"/>
<trkpt lat="24.178372" lon="120.642384"/>
<trkpt lat="24.178408" lon="120.642423"/>
<trkpt lat="24.178402" lon="120.642473"/>
<trkpt lat="24.178342" lon="120.642725"/>
<trkpt lat="24.178327" lon="120.642869"/>
<trkpt lat="24.178208" lon="120.642944"/>
<trkpt lat="24.178273" lon="120.643054"/>
<trkpt lat="24.178293" lon="120.643086"/>
<trkpt lat="24.178215" lon="120.643132"/>
<trkpt lat="24.178231" lon="120.643160"/>
<trkpt lat="24.178248" lon="120.643185"/>
<trkpt lat="24.178209" lon="120.643195"/>
<trkpt lat="24.178138" lon="120.643205"/>
<trkpt lat="24.178038" lon="120.643208"/>
<trkpt lat="24.177691" lon="120.643194"/>
<trkpt lat="24.177523" lon="120.643179"/>
<trkpt lat="24.177321" lon="120.643152"/>
<trkpt lat="24.177130" lon="120.643107"/>
<trkpt lat="24.177073" lon="120.643089"/>
<trkpt lat="24.177056" lon="120.643107"/>
<trkpt lat="24.176953" lon="120.643212"/>
<trkpt lat="24.176936" lon="120.643229"/>
<trkpt lat="24.176917" lon="120.643221"/>
<trkpt lat="24.176869" lon="120.643264"/>
<trkpt lat="24.176810" lon="120.643320"/>
<trkpt lat="24.176786" lon="120.643341"/>
<trkpt lat="24.176714" lon="120.643279"/>
<trkpt lat="24.176699" lon="120.643293"/>
<trkpt lat="24.176500" lon="120.643470"/>
<trkpt lat="24.176034" lon="120.643906"/>
<trkpt lat="24.175952" lon="120.643970"/>
<trkpt lat="24.175887" lon="120.644020"/>
<trkpt lat="24.175417" lon="120.644988"/>
<trkpt lat="24.175230" lon="120.645358"/>
<trkpt lat="24.175116" lon="120.645613"/>
<trkpt lat="24.175093" lon="120.645657"/>
<trkpt lat="24.174996" lon="120.645875"/>
<trkpt lat="24.174520" lon="120.645731"/>
<trkpt lat="24.174485" lon="120.645922"/>
<trkpt lat="24.173792" lon="120.646414"/>
<trkpt lat="24.173395" lon="120.646809"/>
<trkpt lat="24.173327" lon="120.646905"/>
<trkpt lat="24.172807" lon="120.647453"/>
<trkpt lat="24.172354" lon="120.647976"/>
<trkpt lat="24.171944" lon="120.648448"/>
<trkpt lat="24.171559" lon="120.648892"/>
<trkpt lat="24.171238" lon="120.649262"/>
<trkpt lat="24.171695" lon="120.649578"/>
<trkpt lat="24.172216" lon="120.649933"/>
<trkpt lat="24.172261" lon="120.649963"/>
<trkpt lat="24.172230" lon="120.650003"/>
<trkpt lat="24.172104" lon="120.650187"/>
<trkpt lat="24.172071" lon="120.650233"/>
<trkpt lat="24.171718" lon="120.650784"/>
<trkpt lat="24.171381" lon="120.651313"/>
<trkpt lat="24.171827" lon="120.651632"/>
<trkpt lat="24.172235" lon="120.651913"/>
<trkpt lat="24.172274" lon="120.651962"/>
<trkpt lat="24.172300" lon="120.652936"/>
<trkpt lat="24.171863" lon="120.652904"/>
<trkpt lat="24.171879" lon="120.653502"/>
<trkpt lat="24.171896" lon="120.654106"/>
<trkpt lat="24.171351" lon="120.654140"/>
<trkpt lat="24.170299" lon="120.654223"/>
<trkpt lat="24.170363" lon="120.655227"/>
<trkpt lat="24.170423" lon="120.655917"/>
<trkpt lat="24.169612" lon="120.656078"/>
<trkpt lat="24.169418" lon="120.656202"/>
<trkpt lat="24.169017" lon="120.656544"/>
<trkpt lat="24.168911" lon="120.656638"/>
<trkpt lat="24.168813" lon="120.656718"/>
<trkpt lat="24.168702" lon="120.656803"/>
<trkpt lat="24.168590" lon="120.656882"/>
<trkpt lat="24.169110" lon="120.657625"/>
<trkpt lat="24.169127" lon="120.657667"/>
<trkpt lat="24.169125" lon="120.657717"/>
<trkpt lat="24.169049" lon="120.658052"/>
<trkpt lat="24.168940" lon="120.658668"/>
<trkpt lat="24.168916" lon="120.658723"/>
<trkpt lat="24.168863" lon="120.658776"/>
<trkpt lat="24.168551" lon="120.658975"/>
<trkpt lat="24.168315" lon="120.658566"/>
<trkpt lat="24.168070" lon="120.658118"/>
<trkpt lat="24.167858" lon="120.657739"/>
<trkpt lat="24.167771" lon="120.657583"/>
<trkpt lat="24.167423" lon="120.657920"/>
<trkpt lat="24.166443" lon="120.658724"/>
<trkpt lat="24.167037" lon="120.659848"/>
<trkpt lat="24.167299" lon="120.660340"/>
<trkpt lat="24.166361" lon="120.660891"/>
<trkpt lat="24.166647" lon="120.661436"/>
<trkpt lat="24.167110" lon="120.662327"/>
<trkpt lat="24.167271" lon="120.662650"/>
<trkpt lat="24.167428" lon="120.662953"/>
<trkpt lat="24.167600" lon="120.663294"/>
<trkpt lat="24.167067" lon="120.663570"/>
<trkpt lat="24.167342" lon="120.664085"/>
<trkpt lat="24.167630" lon="120.664631"/>
<trkpt lat="24.167261" lon="120.664830"/>
<trkpt lat="24.167341" lon="120.665012"/>
<trkpt lat="24.167414" lon="120.665071"/>
<trkpt lat="24.167697" lon="120.665132"/>
<trkpt lat="24.167829" lon="120.665037"/>
<trkpt lat="24.167630" lon="120.664631"/>
<trkpt lat="24.167342" lon="120.664085"/>
<trkpt lat="24.167067" lon="120.663570"/>
<trkpt lat="24.166905" lon="120.663655"/>
<trkpt lat="24.166288" lon="120.664006"/>
<trkpt lat="24.166128" lon="120.663700"/>
<trkpt lat="24.165801" lon="120.663065"/>
<trkpt lat="24.165578" lon="120.662617"/>
<trkpt lat="24.165418" lon="120.662321"/>
<trkpt lat="24.165362" lon="120.662216"/>
<trkpt lat="24.164826" lon="120.662436"/>
<trkpt lat="24.163818" lon="120.662992"/>
<trkpt lat="24.163556" lon="120.662611"/>
<trkpt lat="24.163286" lon="120.662164"/>
<trkpt lat="24.163082" lon="120.662316"/>
<trkpt lat="24.162903" lon="120.662451"/>
<trkpt lat="24.162903" lon="120.662509"/>
<trkpt lat="24.162709" lon="120.662789"/>
<trkpt lat="24.162364" lon="120.662520"/>
<trkpt lat="24.162255" lon="120.662437"/>
<trkpt lat="24.162149" lon="120.662401"/>
<trkpt lat="24.162053" lon="120.662384"/>
<trkpt lat="24.161945" lon="120.662380"/>
<trkpt lat="24.161801" lon="120.662409"/>
<trkpt lat="24.161687" lon="120.662446"/>
<trkpt lat="24.161302" lon="120.662732"/>
<trkpt lat="24.161126" lon="120.662448"/>
<trkpt lat="24.160888" lon="120.662147"/>
<trkpt lat="24.160664" lon="120.661958"/>
<trkpt lat="24.160209" lon="120.661666"/>
<trkpt lat="24.160174" lon="120.661740"/>
<trkpt lat="24.159581" lon="120.661357"/>
<trkpt lat="24.159383" lon="120.661676"/>
<trkpt lat="24.158936" lon="120.661402"/>
<trkpt lat="24.158853" lon="120.661549"/>
<trkpt lat="24.158646" lon="120.661901"/>
<trkpt lat="24.158632" lon="120.661929"/>
<trkpt lat="24.158480" lon="120.662192"/>
<trkpt lat="24.158457" lon="120.662237"/>
<trkpt lat="24.157441" lon="120.661572"/>
<trkpt lat="24.157203" lon="120.661998"/>
<trkpt lat="24.157000" lon="120.662366"/>
<trkpt lat="24.156559" lon="120.663191"/>
<trkpt lat="24.156144" lon="120.662929"/>
<trkpt lat="24.155668" lon="120.662618"/>
<trkpt lat="24.155572" lon="120.662792"/>
<trkpt lat="24.155527" lon="120.662732"/>
<trkpt lat="24.155486" lon="120.662705"/>
<trkpt lat="24.155435" lon="120.662672"/>
<trkpt lat="24.155379" lon="120.662636"/>
<trkpt lat="24.155329" lon="120.662617"/>
<trkpt lat="24.155416" lon="120.662460"/>
<trkpt lat="24.155272" lon="120.662366"/>
<trkpt lat="24.154865" lon="120.662098"/>
<trkpt lat="24.154766" lon="120.662033"/>
<trkpt lat="24.155223" lon="120.661201"/>
<trkpt lat="24.154857" lon="120.660960"/>
<trkpt lat="24.155272" lon="120.660193"/>
<trkpt lat="24.155299" lon="120.660144"/>
<trkpt lat="24.155437" lon="120.659881"/>
<trkpt lat="24.155477" lon="120.659816"/>
<trkpt lat="24.155070" lon="120.659562"/>
<trkpt lat="24.154913" lon="120.659458"/>
<trkpt lat="24.154290" lon="120.659054"/>
<trkpt lat="24.154535" lon="120.658618"/>
<trkpt lat="24.154761" lon="120.658215"/>
<trkpt lat="24.154112" lon="120.657802"/>
<trkpt lat="24.154160" lon="120.657707"/>
<trkpt lat="24.153884" lon="120.657537"/>
<trkpt lat="24.153810" lon="120.657497"/>
<trkpt lat="24.153667" lon="120.657443"/>
<trkpt lat="24.153522" lon="120.657385"/>
<trkpt lat="24.153622" lon="120.657020"/>
<trkpt lat="24.153633" lon="120.656633"/>
<trkpt lat="24.153217" lon="120.656630"/>
<trkpt lat="24.153222" lon="120.656207"/>
<trkpt lat="24.153222" lon="120.655119"/>
<trkpt lat="24.152927" lon="120.655116"/>
<trkpt lat="24.152788" lon="120.655117"/>
<trkpt lat="24.152392" lon="120.655117"/>
<trkpt lat="24.152391" lon="120.655047"/>
<trkpt lat="24.152318" lon="120.655044"/>
<trkpt lat="24.152322" lon="120.653868"/>
<trkpt lat="24.152326" lon="120.653466"/>
<trkpt lat="24.152331" lon="120.653025"/>
<trkpt lat="24.152332" lon="120.652501"/>
<trkpt lat="24.152332" lon="120.652435"/>
<trkpt lat="24.152335" lon="120.652242"/>
<trkpt lat="24.152335" lon="120.651399"/>
<trkpt lat="24.152337" lon="120.650632"/>
<trkpt lat="24.152339" lon="120.649795"/>
<trkpt lat="24.151602" lon="120.649801"/>
<trkpt lat="24.151620" lon="120.648761"/>
<trkpt lat="24.150880" lon="120.648760"/>
<trkpt lat="24.150885" lon="120.647798"/>
<trkpt lat="24.150783" lon="120.647798"/>
<trkpt lat="24.150777" lon="120.646856"/>
<trkpt lat="24.150784" lon="120.646665"/>
<trkpt lat="24.150859" lon="120.645448"/>
<trkpt lat="24.150958" lon="120.643829"/>
<trkpt lat="24.151060" lon="120.643829"/>
<trkpt lat="24.151782" lon="120.643837"/>
<trkpt lat="24.152410" lon="120.643843"/>
<trkpt lat="24.152978" lon="120.643847"/>
<trkpt lat="24.153642" lon="120.643856"/>
<trkpt lat="24.154640" lon="120.643863"/>
<trkpt lat="24.154651" lon="120.642645"/>
<trkpt lat="24.155568" lon="120.642647"/>
<trkpt lat="24.155909" lon="120.641984"/>
<trkpt lat="24.156323" lon="120.641231"/>
<trkpt lat="24.156561" lon="120.641351"/>
<trkpt lat="24.156900" lon="120.641564"/>
<trkpt lat="24.157180" lon="120.641726"/>
<trkpt lat="24.157238" lon="120.641614"/>
<trkpt lat="24.157291" lon="120.641645"/>
<trkpt lat="24.157356" lon="120.641530"/>
<trkpt lat="24.157451" lon="120.641590"/>
<trkpt lat="24.157670" lon="120.641170"/>
<trkpt lat="24.158120" lon="120.640333"/>
<trkpt lat="24.158889" lon="120.638949"/>
<trkpt lat="24.158943" lon="120.639001"/>
<trkpt lat="24.159007" lon="120.639059"/>
<trkpt lat="24.159113" lon="120.639156"/>
<trkpt lat="24.160367" lon="120.640005"/>
<trkpt lat="24.160722" lon="120.639383"/>
<trkpt lat="24.161262" lon="120.638436"/>
<trkpt lat="24.161934" lon="120.637256"/>
<trkpt lat="24.162040" lon="120.637210"/>
<trkpt lat="24.162102" lon="120.637251"/>
<trkpt lat="24.163097" lon="120.637893"/>
<trkpt lat="24.163757" lon="120.636745"/>
<trkpt lat="24.164099" lon="120.636151"/>
<trkpt lat="24.164031" lon="120.636110"/>
</trkseg></trk>
</gpx>