<?xml version="1.0" encoding="UTF-8"?>
<gpx version="1.1" creator="catrun" xmlns="http://www.topografix.com/GPX/1/1">
<metadata><name>南屯區 蹲坐貓咪（側面） 圖形路跑路線</name></metadata>
<wpt lat="24.155596" lon="120.642249"><name>惠順公園</name><desc>地標</desc></wpt>
<wpt lat="24.158797" lon="120.651581"><name>大墩公園</name><desc>地標</desc></wpt>
<wpt lat="24.158826" lon="120.653130"><name>大聖公園</name><desc>地標</desc></wpt>
<trk><name>南屯區 蹲坐貓咪（側面） 圖形路跑路線</name><trkseg>
<trkpt lat="24.155565" lon="120.643870"/>
<trkpt lat="24.155969" lon="120.643873"/>
<trkpt lat="24.155918" lon="120.643976"/>
<trkpt lat="24.156014" lon="120.644026"/>
<trkpt lat="24.156132" lon="120.644088"/>
<trkpt lat="24.156243" lon="120.644145"/>
<trkpt lat="24.156357" lon="120.644205"/>
<trkpt lat="24.156511" lon="120.643916"/>
<trkpt lat="24.157660" lon="120.644648"/>
<trkpt lat="24.157607" lon="120.644737"/>
<trkpt lat="24.157650" lon="120.644769"/>
<trkpt lat="24.157741" lon="120.644837"/>
<trkpt lat="24.157580" lon="120.645121"/>
<trkpt lat="24.157498" lon="120.645268"/>
<trkpt lat="24.157348" lon="120.645633"/>
<trkpt lat="24.157219" lon="120.646019"/>
<trkpt lat="24.157176" lon="120.646362"/>
<trkpt lat="24.157150" lon="120.646594"/>
<trkpt lat="24.157135" lon="120.646719"/>
<trkpt lat="24.157578" lon="120.646726"/>
<trkpt lat="24.157766" lon="120.646727"/>
<trkpt lat="24.158032" lon="120.646729"/>
<trkpt lat="24.158232" lon="120.646732"/>
<trkpt lat="24.158402" lon="120.646749"/>
<trkpt lat="24.158552" lon="120.646805"/>
<trkpt lat="24.158817" lon="120.646970"/>
<trkpt lat="24.159113" lon="120.647156"/>
<trkpt lat="24.159328" lon="120.647296"/>
<trkpt lat="24.159207" lon="120.647442"/>
<trkpt lat="24.159139" lon="120.647524"/>
<trkpt lat="24.159245" lon="120.647600"/>
<trkpt lat="24.159343" lon="120.647671"/>
<trkpt lat="24.159409" lon="120.647568"/>
<trkpt lat="24.159502" lon="120.647408"/>
<trkpt lat="24.159827" lon="120.647610"/>
<trkpt lat="24.160477" lon="120.648034"/>
<trkpt lat="24.160399" lon="120.648177"/>
<trkpt lat="24.160011" lon="120.648862"/>
<trkpt lat="24.159668" lon="120.649509"/>
<trkpt lat="24.159288" lon="120.650190"/>
<trkpt lat="24.160505" lon="120.650985"/>
<trkpt lat="24.160472" lon="120.651045"/>
<trkpt lat="24.160414" lon="120.651145"/>
<trkpt lat="24.160376" lon="120.651202"/>
<trkpt lat="24.160037" lon="120.651819"/>
<trkpt lat="24.159653" lon="120.651569"/>
<trkpt lat="24.159317" lon="120.651351"/>
<trkpt lat="24.158828" lon="120.651033"/>
<trkpt lat="24.158538" lon="120.651561"/>
<trkpt lat="24.158510" lon="120.651541"/>
<trkpt lat="24.158453" lon="120.651650"/>
<trkpt lat="24.157955" lon="120.651320"/>
<trkpt lat="24.157388" lon="120.650945"/>
<trkpt lat="24.157147" lon="120.651386"/>
<trkpt lat="24.156962" lon="120.651725"/>
<trkpt lat="24.156520" lon="120.651430"/>
<trkpt lat="24.156105" lon="120.651153"/>
<trkpt lat="24.155659" lon="120.651947"/>
<trkpt lat="24.156076" lon="120.652226"/>
<trkpt lat="24.156516" lon="120.652519"/>
<trkpt lat="24.156174" lon="120.653130"/>
<trkpt lat="24.155763" lon="120.653863"/>
<trkpt lat="24.155199" lon="120.653502"/>
<trkpt lat="24.154764" lon="120.653224"/>
<trkpt lat="24.154778" lon="120.653193"/>
<trkpt lat="24.154699" lon="120.653144"/>
<trkpt lat="24.154655" lon="120.653225"/>
<trkpt lat="24.154619" lon="120.653216"/>
<trkpt lat="24.154563" lon="120.653182"/>
<trkpt lat="24.154598" lon="120.653118"/>
<trkpt lat="24.154545" lon="120.653084"/>
<trkpt lat="24.154475" lon="120.653051"/>
<trkpt lat="24.154291" lon="120.653024"/>
<trkpt lat="24.153588" lon="120.653023"/>
<trkpt lat="24.153588" lon="120.653871"/>
<trkpt lat="24.152925" lon="120.653869"/>
<trkpt lat="24.152926" lon="120.654340"/>
<trkpt lat="24.152926" lon="120.654664"/>
<trkpt lat="24.152927" lon="120.655116"/>
<trkpt lat="24.152788" lon="120.655117"/>
<trkpt lat="24.152392" lon="120.655117"/>
<trkpt lat="24.152340" lon="120.655116"/>
<trkpt lat="24.152264" lon="120.655118"/>
<trkpt lat="24.152028" lon="120.655122"/>
<trkpt lat="24.151686" lon="120.655123"/>
<trkpt lat="24.151592" lon="120.655125"/>
<trkpt lat="24.151335" lon="120.655126"/>
<trkpt lat="24.150986" lon="120.655121"/>
<trkpt lat="24.150832" lon="120.655118"/>
<trkpt lat="24.150711" lon="120.655120"/>
<trkpt lat="24.150307" lon="120.655127"/>
<trkpt lat="24.150300" lon="120.656765"/>
<trkpt lat="24.149789" lon="120.656767"/>
<trkpt lat="24.149598" lon="120.656768"/>
<trkpt lat="24.149862" lon="120.657262"/>
<trkpt lat="24.149753" lon="120.657261"/>
<trkpt lat="24.149450" lon="120.657264"/>
<trkpt lat="24.149429" lon="120.657263"/>
<trkpt lat="24.149469" lon="120.657363"/>
<trkpt lat="24.149637" lon="120.657692"/>
<trkpt lat="24.149628" lon="120.658168"/>
<trkpt lat="24.149895" lon="120.658167"/>
<trkpt lat="24.149819" lon="120.658028"/>
<trkpt lat="24.150158" lon="120.657827"/>
<trkpt lat="24.149914" lon="120.657360"/>
<trkpt lat="24.149862" lon="120.657262"/>
<trkpt lat="24.149598" lon="120.656768"/>
<trkpt lat="24.149287" lon="120.656767"/>
<trkpt lat="24.149295" lon="120.655119"/>
<trkpt lat="24.148824" lon="120.655114"/>
<trkpt lat="24.148298" lon="120.655119"/>
<trkpt lat="24.147765" lon="120.655142"/>
<trkpt lat="24.147745" lon="120.655030"/>
<trkpt lat="24.147751" lon="120.653968"/>
<trkpt lat="24.147240" lon="120.653969"/>
<trkpt lat="24.146714" lon="120.653970"/>
<trkpt lat="24.146305" lon="120.653971"/>
<trkpt lat="24.145820" lon="120.653972"/>
<trkpt lat="24.144956" lon="120.653974"/>
<trkpt lat="24.144967" lon="120.653017"/>
<trkpt lat="24.144959" lon="120.652134"/>
<trkpt lat="24.144952" lon="120.651310"/>
<trkpt lat="24.145251" lon="120.651309"/>
<trkpt lat="24.145249" lon="120.650627"/>
<trkpt lat="24.145248" lon="120.649985"/>
<trkpt lat="24.145253" lon="120.649874"/>
<trkpt lat="24.145562" lon="120.649875"/>
<trkpt lat="24.145566" lon="120.648782"/>
<trkpt lat="24.144933" lon="120.648787"/>
<trkpt lat="24.144928" lon="120.648043"/>
<trkpt lat="24.144928" lon="120.647807"/>
<trkpt lat="24.144924" lon="120.646834"/>
<trkpt lat="24.145594" lon="120.646840"/>
<trkpt lat="24.146332" lon="120.646844"/>
<trkpt lat="24.146792" lon="120.646847"/>
<trkpt lat="24.146793" lon="120.646625"/>
<trkpt lat="24.146415" lon="120.646197"/>
<trkpt lat="24.146473" lon="120.646126"/>
<trkpt lat="24.146523" lon="120.646035"/>
<trkpt lat="24.146555" lon="120.645959"/>
<trkpt lat="24.146573" lon="120.645771"/>
<trkpt lat="24.146541" lon="120.645595"/>
<trkpt lat="24.146478" lon="120.645467"/>
<trkpt lat="24.146419" lon="120.645360"/>
<trkpt lat="24.146336" lon="120.645224"/>
<trkpt lat="24.146253" lon="120.645064"/>
<trkpt lat="24.146151" lon="120.645030"/>
<trkpt lat="24.146121" lon="120.644924"/>
<trkpt lat="24.146108" lon="120.644802"/>
<trkpt lat="24.146114" lon="120.644696"/>
<trkpt lat="24.146134" lon="120.644576"/>
<trkpt lat="24.146179" lon="120.644491"/>
<trkpt lat="24.146229" lon="120.644438"/>
<trkpt lat="24.146297" lon="120.644358"/>
<trkpt lat="24.146314" lon="120.644338"/>
<trkpt lat="24.146333" lon="120.644294"/>
<trkpt lat="24.146337" lon="120.644261"/>
<trkpt lat="24.146338" lon="120.644246"/>
<trkpt lat="24.146331" lon="120.644171"/>
<trkpt lat="24.146425" lon="120.644116"/>
<trkpt lat="24.146442" lon="120.644105"/>
<trkpt lat="24.146493" lon="120.644073"/>
<trkpt lat="24.146833" lon="120.643849"/>
<trkpt lat="24.147761" lon="120.643843"/>
<trkpt lat="24.148158" lon="120.643841"/>
<trkpt lat="24.148784" lon="120.643837"/>
<trkpt lat="24.149394" lon="120.643833"/>
<trkpt lat="24.149861" lon="120.643830"/>
<trkpt lat="24.150336" lon="120.643830"/>
<trkpt lat="24.150519" lon="120.643829"/>
<trkpt lat="24.150958" lon="120.643829"/>
<trkpt lat="24.151060" lon="120.643829"/>
<trkpt lat="24.151782" lon="120.643837"/>
<trkpt lat="24.152410" lon="120.643843"/>
<trkpt lat="24.152978" lon="120.643847"/>
<trkpt lat="24.153642" lon="120.643856"/>
<trkpt lat="24.154640" lon="120.643863"/>
<trkpt lat="24.155565" lon="120.643870"/>
</trkseg></trk>
</gpx>