<?xml version="1.0" encoding="UTF-8"?>
<gpx version="1.1" creator="catrun" xmlns="http://www.topografix.com/GPX/1/1">
<metadata><name>南屯區 手繪蹲坐貓（原稿描圖） 圖形路跑路線</name></metadata>
<wpt lat="24.134495" lon="120.644274"><name>南屯區公所4樓禮堂</name><desc>地標</desc></wpt>
<wpt lat="24.135757" lon="120.644666"><name>向心兒童公園</name><desc>地標</desc></wpt>
<wpt lat="24.139834" lon="120.642680"><name>田心公園</name><desc>地標</desc></wpt>
<trk><name>南屯區 手繪蹲坐貓（原稿描圖） 圖形路跑路線</name><trkseg>
<trkpt lat="24.133352" lon="120.646584"/>
<trkpt lat="24.133354" lon="120.646363"/>
<trkpt lat="24.133361" lon="120.645650"/>
<trkpt lat="24.133961" lon="120.645658"/>
<trkpt lat="24.134027" lon="120.645617"/>
<trkpt lat="24.134060" lon="120.645564"/>
<trkpt lat="24.134071" lon="120.645484"/>
<trkpt lat="24.134082" lon="120.644675"/>
<trkpt lat="24.134692" lon="120.644679"/>
<trkpt lat="24.134666" lon="120.645657"/>
<trkpt lat="24.134728" lon="120.645657"/>
<trkpt lat="24.135343" lon="120.645676"/>
<trkpt lat="24.135955" lon="120.645697"/>
<trkpt lat="24.136481" lon="120.645697"/>
<trkpt lat="24.136824" lon="120.645698"/>
<trkpt lat="24.136951" lon="120.645705"/>
<trkpt lat="24.137701" lon="120.645748"/>
<trkpt lat="24.138252" lon="120.645779"/>
<trkpt lat="24.138558" lon="120.645803"/>
<trkpt lat="24.139332" lon="120.645858"/>
<trkpt lat="24.139354" lon="120.645471"/>
<trkpt lat="24.139583" lon="120.645503"/>
<trkpt lat="24.139589" lon="120.645503"/>
<trkpt lat="24.139715" lon="120.644713"/>
<trkpt lat="24.140091" lon="120.644910"/>
<trkpt lat="24.140179" lon="120.644967"/>
<trkpt lat="24.140559" lon="120.645167"/>
<trkpt lat="24.140700" lon="120.645240"/>
<trkpt lat="24.140725" lon="120.645177"/>
<trkpt lat="24.140744" lon="120.644773"/>
<trkpt lat="24.140667" lon="120.644756"/>
<trkpt lat="24.140731" lon="120.644485"/>
<trkpt lat="24.140805" lon="120.644246"/>
<trkpt lat="24.140974" lon="120.643747"/>
<trkpt lat="24.141330" lon="120.642749"/>
<trkpt lat="24.141424" lon="120.642458"/>
<trkpt lat="24.141941" lon="120.642659"/>
<trkpt lat="24.143012" lon="120.642923"/>
<trkpt lat="24.144021" lon="120.643168"/>
<trkpt lat="24.144118" lon="120.643193"/>
<trkpt lat="24.144091" lon="120.643494"/>
<trkpt lat="24.144203" lon="120.643505"/>
<trkpt lat="24.144286" lon="120.643592"/>
<trkpt lat="24.144291" lon="120.643580"/>
<trkpt lat="24.144324" lon="120.643552"/>
<trkpt lat="24.144361" lon="120.643540"/>
<trkpt lat="24.144396" lon="120.643546"/>
<trkpt lat="24.144407" lon="120.643444"/>
<trkpt lat="24.144392" lon="120.643265"/>
<trkpt lat="24.144802" lon="120.643376"/>
<trkpt lat="24.145479" lon="120.643552"/>
<trkpt lat="24.146179" lon="120.643706"/>
<trkpt lat="24.146833" lon="120.643849"/>
<trkpt lat="24.146493" lon="120.644073"/>
<trkpt lat="24.146447" lon="120.644012"/>
<trkpt lat="24.146387" lon="120.643970"/>
<trkpt lat="24.146317" lon="120.643951"/>
<trkpt lat="24.146245" lon="120.643956"/>
<trkpt lat="24.146179" lon="120.643985"/>
<trkpt lat="24.146124" lon="120.644035"/>
<trkpt lat="24.146082" lon="120.644123"/>
<trkpt lat="24.146067" lon="120.644181"/>
<trkpt lat="24.146101" lon="120.644174"/>
<trkpt lat="24.146126" lon="120.644165"/>
<trkpt lat="24.146155" lon="120.644155"/>
<trkpt lat="24.146187" lon="120.644143"/>
<trkpt lat="24.146220" lon="120.644144"/>
<trkpt lat="24.146252" lon="120.644157"/>
<trkpt lat="24.146265" lon="120.644170"/>
<trkpt lat="24.146277" lon="120.644181"/>
<trkpt lat="24.146293" lon="120.644210"/>
<trkpt lat="24.146300" lon="120.644243"/>
<trkpt lat="24.146296" lon="120.644277"/>
<trkpt lat="24.146284" lon="120.644308"/>
<trkpt lat="24.146263" lon="120.644333"/>
<trkpt lat="24.146235" lon="120.644350"/>
<trkpt lat="24.146217" lon="120.644377"/>
<trkpt lat="24.146214" lon="120.644403"/>
<trkpt lat="24.146217" lon="120.644418"/>
<trkpt lat="24.146229" lon="120.644438"/>
<trkpt lat="24.146179" lon="120.644491"/>
<trkpt lat="24.146134" lon="120.644576"/>
<trkpt lat="24.146114" lon="120.644696"/>
<trkpt lat="24.146108" lon="120.644802"/>
<trkpt lat="24.146121" lon="120.644924"/>
<trkpt lat="24.146151" lon="120.645030"/>
<trkpt lat="24.146062" lon="120.645044"/>
<trkpt lat="24.145942" lon="120.645044"/>
<trkpt lat="24.145826" lon="120.645072"/>
<trkpt lat="24.145783" lon="120.645114"/>
<trkpt lat="24.145753" lon="120.645144"/>
<trkpt lat="24.145670" lon="120.645208"/>
<trkpt lat="24.145554" lon="120.645258"/>
<trkpt lat="24.145472" lon="120.645363"/>
<trkpt lat="24.145440" lon="120.645498"/>
<trkpt lat="24.145440" lon="120.645624"/>
<trkpt lat="24.145406" lon="120.645747"/>
<trkpt lat="24.145348" lon="120.645851"/>
<trkpt lat="24.145270" lon="120.645841"/>
<trkpt lat="24.145205" lon="120.645863"/>
<trkpt lat="24.145115" lon="120.645891"/>
<trkpt lat="24.145000" lon="120.645990"/>
<trkpt lat="24.144956" lon="120.646015"/>
<trkpt lat="24.144900" lon="120.646041"/>
<trkpt lat="24.144859" lon="120.646059"/>
<trkpt lat="24.144762" lon="120.646108"/>
<trkpt lat="24.144748" lon="120.646114"/>
<trkpt lat="24.144758" lon="120.646163"/>
<trkpt lat="24.144869" lon="120.646488"/>
<trkpt lat="24.144922" lon="120.646606"/>
<trkpt lat="24.144924" lon="120.646834"/>
<trkpt lat="24.144369" lon="120.646835"/>
<trkpt lat="24.143791" lon="120.646837"/>
<trkpt lat="24.143791" lon="120.647805"/>
<trkpt lat="24.143326" lon="120.647804"/>
<trkpt lat="24.143202" lon="120.647804"/>
<trkpt lat="24.143189" lon="120.647804"/>
<trkpt lat="24.143115" lon="120.648315"/>
<trkpt lat="24.143108" lon="120.648504"/>
<trkpt lat="24.143231" lon="120.648528"/>
<trkpt lat="24.143548" lon="120.648529"/>
<trkpt lat="24.143677" lon="120.648804"/>
<trkpt lat="24.143373" lon="120.648809"/>
<trkpt lat="24.143035" lon="120.648813"/>
<trkpt lat="24.142607" lon="120.648819"/>
<trkpt lat="24.142608" lon="120.649907"/>
<trkpt lat="24.142609" lon="120.650521"/>
<trkpt lat="24.142224" lon="120.650524"/>
<trkpt lat="24.142224" lon="120.651322"/>
<trkpt lat="24.141822" lon="120.651324"/>
<trkpt lat="24.141823" lon="120.651411"/>
<trkpt lat="24.141824" lon="120.651427"/>
<trkpt lat="24.141827" lon="120.651713"/>
<trkpt lat="24.141827" lon="120.651741"/>
<trkpt lat="24.141832" lon="120.652147"/>
<trkpt lat="24.141843" lon="120.653013"/>
<trkpt lat="24.141481" lon="120.653013"/>
<trkpt lat="24.140969" lon="120.653013"/>
<trkpt lat="24.140410" lon="120.653013"/>
<trkpt lat="24.140162" lon="120.653011"/>
<trkpt lat="24.140140" lon="120.654499"/>
<trkpt lat="24.140038" lon="120.654500"/>
<trkpt lat="24.139909" lon="120.654498"/>
<trkpt lat="24.139909" lon="120.654582"/>
<trkpt lat="24.138988" lon="120.654580"/>
<trkpt lat="24.138990" lon="120.654507"/>
<trkpt lat="24.138917" lon="120.654507"/>
<trkpt lat="24.138837" lon="120.654507"/>
<trkpt lat="24.138836" lon="120.654581"/>
<trkpt lat="24.138434" lon="120.654582"/>
<trkpt lat="24.137937" lon="120.654584"/>
<trkpt lat="24.137939" lon="120.654502"/>
<trkpt lat="24.137840" lon="120.654502"/>
<trkpt lat="24.137795" lon="120.654501"/>
<trkpt lat="24.137793" lon="120.654584"/>
<trkpt lat="24.136674" lon="120.654587"/>
<trkpt lat="24.136658" lon="120.654660"/>
<trkpt lat="24.136566" lon="120.655070"/>
<trkpt lat="24.136552" lon="120.655141"/>
<trkpt lat="24.136556" lon="120.655517"/>
<trkpt lat="24.136563" lon="120.656233"/>
<trkpt lat="24.136561" lon="120.656752"/>
<trkpt lat="24.136556" lon="120.657184"/>
<trkpt lat="24.136692" lon="120.657181"/>
<trkpt lat="24.136694" lon="120.657253"/>
<trkpt lat="24.136697" lon="120.657364"/>
<trkpt lat="24.136672" lon="120.657499"/>
<trkpt lat="24.136555" lon="120.657500"/>
<trkpt lat="24.136554" lon="120.657849"/>
<trkpt lat="24.136554" lon="120.657986"/>
<trkpt lat="24.136554" lon="120.658831"/>
<trkpt lat="24.136983" lon="120.658833"/>
<trkpt lat="24.136980" lon="120.659486"/>
<trkpt lat="24.136974" lon="120.660188"/>
<trkpt lat="24.137273" lon="120.660188"/>
<trkpt lat="24.137283" lon="120.661426"/>
<trkpt lat="24.137284" lon="120.661580"/>
<trkpt lat="24.137249" lon="120.661579"/>
<trkpt lat="24.137143" lon="120.661578"/>
<trkpt lat="24.137131" lon="120.661594"/>
<trkpt lat="24.136997" lon="120.661593"/>
<trkpt lat="24.136980" lon="120.661591"/>
<trkpt lat="24.136955" lon="120.661591"/>
<trkpt lat="24.136906" lon="120.661590"/>
<trkpt lat="24.136859" lon="120.661591"/>
<trkpt lat="24.136699" lon="120.661591"/>
<trkpt lat="24.136698" lon="120.661605"/>
<trkpt lat="24.136697" lon="120.661692"/>
<trkpt lat="24.136696" lon="120.661803"/>
<trkpt lat="24.136696" lon="120.661818"/>
<trkpt lat="24.136673" lon="120.661845"/>
<trkpt lat="24.136651" lon="120.661871"/>
<trkpt lat="24.136651" lon="120.661878"/>
<trkpt lat="24.136651" lon="120.661926"/>
<trkpt lat="24.136651" lon="120.661972"/>
<trkpt lat="24.136651" lon="120.662016"/>
<trkpt lat="24.136651" lon="120.662061"/>
<trkpt lat="24.136651" lon="120.662107"/>
<trkpt lat="24.136651" lon="120.662135"/>
<trkpt lat="24.136652" lon="120.662187"/>
<trkpt lat="24.136652" lon="120.662219"/>
<trkpt lat="24.136662" lon="120.662239"/>
<trkpt lat="24.136662" lon="120.662507"/>
<trkpt lat="24.136681" lon="120.662534"/>
<trkpt lat="24.136659" lon="120.662534"/>
<trkpt lat="24.136551" lon="120.662535"/>
<trkpt lat="24.136552" lon="120.662187"/>
<trkpt lat="24.136552" lon="120.661847"/>
<trkpt lat="24.136453" lon="120.661849"/>
<trkpt lat="24.136443" lon="120.661863"/>
<trkpt lat="24.136406" lon="120.661826"/>
<trkpt lat="24.136415" lon="120.661814"/>
<trkpt lat="24.136416" lon="120.661692"/>
<trkpt lat="24.136415" lon="120.661606"/>
<trkpt lat="24.136412" lon="120.661596"/>
<trkpt lat="24.136391" lon="120.661597"/>
<trkpt lat="24.136347" lon="120.661598"/>
<trkpt lat="24.136305" lon="120.661599"/>
<trkpt lat="24.136266" lon="120.661599"/>
<trkpt lat="24.136225" lon="120.661598"/>
<trkpt lat="24.136184" lon="120.661598"/>
<trkpt lat="24.136141" lon="120.661599"/>
<trkpt lat="24.136097" lon="120.661598"/>
<trkpt lat="24.136051" lon="120.661599"/>
<trkpt lat="24.136006" lon="120.661599"/>
<trkpt lat="24.135883" lon="120.661598"/>
<trkpt lat="24.135850" lon="120.661599"/>
<trkpt lat="24.135846" lon="120.660827"/>
<trkpt lat="24.135846" lon="120.660518"/>
<trkpt lat="24.135846" lon="120.660187"/>
<trkpt lat="24.135553" lon="120.660187"/>
<trkpt lat="24.135556" lon="120.659780"/>
<trkpt lat="24.135557" lon="120.659753"/>
<trkpt lat="24.135557" lon="120.659707"/>
<trkpt lat="24.135555" lon="120.659524"/>
<trkpt lat="24.135557" lon="120.659524"/>
<trkpt lat="24.135838" lon="120.659523"/>
<trkpt lat="24.135839" lon="120.659344"/>
<trkpt lat="24.135840" lon="120.659108"/>
<trkpt lat="24.135840" lon="120.658829"/>
<trkpt lat="24.135583" lon="120.658828"/>
<trkpt lat="24.135502" lon="120.658828"/>
<trkpt lat="24.135211" lon="120.658827"/>
<trkpt lat="24.135211" lon="120.658737"/>
<trkpt lat="24.135145" lon="120.658734"/>
<trkpt lat="24.135120" lon="120.658734"/>
<trkpt lat="24.135099" lon="120.658734"/>
<trkpt lat="24.135099" lon="120.657534"/>
<trkpt lat="24.135091" lon="120.657527"/>
<trkpt lat="24.135105" lon="120.657505"/>
<trkpt lat="24.135152" lon="120.657506"/>
<trkpt lat="24.135153" lon="120.657362"/>
<trkpt lat="24.135147" lon="120.657253"/>
<trkpt lat="24.135150" lon="120.656744"/>
<trkpt lat="24.135150" lon="120.656232"/>
<trkpt lat="24.135152" lon="120.655702"/>
<trkpt lat="24.134855" lon="120.655522"/>
<trkpt lat="24.134943" lon="120.655377"/>
<trkpt lat="24.135026" lon="120.655238"/>
<trkpt lat="24.135012" lon="120.655210"/>
<trkpt lat="24.134975" lon="120.655141"/>
<trkpt lat="24.134969" lon="120.655067"/>
<trkpt lat="24.134968" lon="120.655053"/>
<trkpt lat="24.134957" lon="120.654689"/>
<trkpt lat="24.134861" lon="120.654661"/>
<trkpt lat="24.134861" lon="120.654644"/>
<trkpt lat="24.134862" lon="120.654590"/>
<trkpt lat="24.134864" lon="120.654507"/>
<trkpt lat="24.134999" lon="120.654507"/>
<trkpt lat="24.134951" lon="120.653164"/>
<trkpt lat="24.134828" lon="120.653167"/>
<trkpt lat="24.134827" lon="120.653059"/>
<trkpt lat="24.134826" lon="120.652937"/>
<trkpt lat="24.134944" lon="120.652934"/>
<trkpt lat="24.134898" lon="120.651462"/>
<trkpt lat="24.134786" lon="120.651462"/>
<trkpt lat="24.134788" lon="120.651367"/>
<trkpt lat="24.133999" lon="120.651319"/>
<trkpt lat="24.134000" lon="120.650798"/>
<trkpt lat="24.133977" lon="120.650755"/>
<trkpt lat="24.133933" lon="120.650722"/>
<trkpt lat="24.133330" lon="120.650717"/>
<trkpt lat="24.133337" lon="120.649977"/>
<trkpt lat="24.133342" lon="120.649192"/>
<trkpt lat="24.133957" lon="120.649203"/>
<trkpt lat="24.134011" lon="120.649138"/>
<trkpt lat="24.134016" lon="120.648350"/>
<trkpt lat="24.134051" lon="120.647423"/>
<trkpt lat="24.134035" lon="120.647361"/>
<trkpt lat="24.134010" lon="120.647331"/>
<trkpt lat="24.133970" lon="120.647310"/>
<trkpt lat="24.133911" lon="120.647312"/>
<trkpt lat="24.133344" lon="120.647304"/>
<trkpt lat="24.133350" lon="120.646823"/>
<trkpt lat="24.133352" lon="120.646584"/>
</trkseg></trk>
</gpx>