<?xml version="1.0" encoding="UTF-8"?>
<gpx version="1.1" creator="catrun" xmlns="http://www.topografix.com/GPX/1/1">
<metadata><name>南屯區 蜷睡貓咪 圖形路跑路線</name></metadata>
<wpt lat="24.153086" lon="120.646363"><name>水安公園</name><desc>地標</desc></wpt>
<wpt lat="24.158797" lon="120.651581"><name>大墩公園</name><desc>地標</desc></wpt>
<wpt lat="24.158826" lon="120.653130"><name>大聖公園</name><desc>地標</desc></wpt>
<trk><name>南屯區 蜷睡貓咪 圖形路跑路線</name><trkseg>
<trkpt lat="24.152835" lon="120.646685"/>
<trkpt lat="24.153608" lon="120.646693"/>
<trkpt lat="24.154614" lon="120.646703"/>
<trkpt lat="24.155250" lon="120.646701"/>
<trkpt lat="24.155213" lon="120.646638"/>
<trkpt lat="24.155249" lon="120.646604"/>
<trkpt lat="24.155342" lon="120.646604"/>
<trkpt lat="24.155441" lon="120.646606"/>
<trkpt lat="24.155576" lon="120.646607"/>
<trkpt lat="24.155678" lon="120.646608"/>
<trkpt lat="24.155752" lon="120.646609"/>
<trkpt lat="24.155786" lon="120.646638"/>
<trkpt lat="24.155942" lon="120.646618"/>
<trkpt lat="24.156988" lon="120.646649"/>
<trkpt lat="24.156992" lon="120.646596"/>
<trkpt lat="24.157032" lon="120.646595"/>
<trkpt lat="24.157150" lon="120.646594"/>
<trkpt lat="24.157135" lon="120.646719"/>
<trkpt lat="24.157146" lon="120.646937"/>
<trkpt lat="24.158271" lon="120.646942"/>
<trkpt lat="24.158433" lon="120.646974"/>
<trkpt lat="24.158119" lon="120.647543"/>
<trkpt lat="24.157754" lon="120.648220"/>
<trkpt lat="24.157837" lon="120.648293"/>
<trkpt lat="24.158080" lon="120.649288"/>
<trkpt lat="24.158196" lon="120.649471"/>
<trkpt lat="24.159288" lon="120.650190"/>
<trkpt lat="24.159173" lon="120.650407"/>
<trkpt lat="24.158828" lon="120.651033"/>
<trkpt lat="24.159317" lon="120.651351"/>
<trkpt lat="24.159653" lon="120.651569"/>
<trkpt lat="24.160037" lon="120.651819"/>
<trkpt lat="24.159727" lon="120.652384"/>
<trkpt lat="24.159693" lon="120.652361"/>
<trkpt lat="24.159654" lon="120.652430"/>
<trkpt lat="24.159114" lon="120.652079"/>
<trkpt lat="24.158880" lon="120.652513"/>
<trkpt lat="24.158685" lon="120.652875"/>
<trkpt lat="24.157913" lon="120.654270"/>
<trkpt lat="24.158475" lon="120.654639"/>
<trkpt lat="24.158439" lon="120.654704"/>
<trkpt lat="24.158082" lon="120.655348"/>
<trkpt lat="24.157734" lon="120.655987"/>
<trkpt lat="24.157512" lon="120.655844"/>
<trkpt lat="24.157324" lon="120.655722"/>
<trkpt lat="24.156956" lon="120.655484"/>
<trkpt lat="24.156652" lon="120.656038"/>
<trkpt lat="24.156411" lon="120.656476"/>
<trkpt lat="24.156337" lon="120.656619"/>
<trkpt lat="24.155895" lon="120.657451"/>
<trkpt lat="24.155789" lon="120.657640"/>
<trkpt lat="24.155927" lon="120.658100"/>
<trkpt lat="24.155728" lon="120.658156"/>
<trkpt lat="24.155162" lon="120.657802"/>
<trkpt lat="24.154940" lon="120.658201"/>
<trkpt lat="24.154590" lon="120.657980"/>
<trkpt lat="24.154160" lon="120.657707"/>
<trkpt lat="24.154112" lon="120.657802"/>
<trkpt lat="24.153838" lon="120.657645"/>
<trkpt lat="24.153748" lon="120.657594"/>
<trkpt lat="24.153597" lon="120.657527"/>
<trkpt lat="24.153402" lon="120.657937"/>
<trkpt lat="24.153311" lon="120.657932"/>
<trkpt lat="24.153108" lon="120.657927"/>
<trkpt lat="24.153110" lon="120.658453"/>
<trkpt lat="24.152540" lon="120.658454"/>
<trkpt lat="24.152545" lon="120.657934"/>
<trkpt lat="24.151711" lon="120.657926"/>
<trkpt lat="24.151707" lon="120.658452"/>
<trkpt lat="24.151028" lon="120.658459"/>
<trkpt lat="24.150990" lon="120.658459"/>
<trkpt lat="24.150845" lon="120.658456"/>
<trkpt lat="24.150731" lon="120.658460"/>
<trkpt lat="24.150732" lon="120.658385"/>
<trkpt lat="24.150719" lon="120.658357"/>
<trkpt lat="24.150708" lon="120.658298"/>
<trkpt lat="24.150668" lon="120.658202"/>
<trkpt lat="24.150622" lon="120.658124"/>
<trkpt lat="24.150655" lon="120.658104"/>
<trkpt lat="24.150691" lon="120.658073"/>
<trkpt lat="24.150711" lon="120.658036"/>
<trkpt lat="24.150715" lon="120.658000"/>
<trkpt lat="24.150715" lon="120.657963"/>
<trkpt lat="24.150704" lon="120.657925"/>
<trkpt lat="24.150683" lon="120.657896"/>
<trkpt lat="24.150660" lon="120.657869"/>
<trkpt lat="24.150637" lon="120.657840"/>
<trkpt lat="24.150635" lon="120.657796"/>
<trkpt lat="24.150633" lon="120.657759"/>
<trkpt lat="24.150634" lon="120.657706"/>
<trkpt lat="24.150593" lon="120.657712"/>
<trkpt lat="24.150570" lon="120.657733"/>
<trkpt lat="24.150542" lon="120.657760"/>
<trkpt lat="24.150514" lon="120.657785"/>
<trkpt lat="24.150473" lon="120.657803"/>
<trkpt lat="24.150434" lon="120.657800"/>
<trkpt lat="24.150389" lon="120.657795"/>
<trkpt lat="24.150349" lon="120.657789"/>
<trkpt lat="24.150309" lon="120.657782"/>
<trkpt lat="24.150171" lon="120.657573"/>
<trkpt lat="24.150107" lon="120.657506"/>
<trkpt lat="24.150039" lon="120.657418"/>
<trkpt lat="24.150038" lon="120.657362"/>
<trkpt lat="24.149914" lon="120.657360"/>
<trkpt lat="24.149862" lon="120.657262"/>
<trkpt lat="24.149598" lon="120.656768"/>
<trkpt lat="24.149287" lon="120.656767"/>
<trkpt lat="24.148797" lon="120.656763"/>
<trkpt lat="24.148280" lon="120.656764"/>
<trkpt lat="24.148298" lon="120.655119"/>
<trkpt lat="24.147765" lon="120.655142"/>
<trkpt lat="24.147745" lon="120.655030"/>
<trkpt lat="24.147751" lon="120.653968"/>
<trkpt lat="24.147747" lon="120.653558"/>
<trkpt lat="24.147741" lon="120.653018"/>
<trkpt lat="24.147103" lon="120.653018"/>
<trkpt lat="24.146720" lon="120.653018"/>
<trkpt lat="24.146730" lon="120.652170"/>
<trkpt lat="24.146740" lon="120.651302"/>
<trkpt lat="24.146747" lon="120.650633"/>
<trkpt lat="24.146756" lon="120.649862"/>
<trkpt lat="24.146769" lon="120.648762"/>
<trkpt lat="24.147741" lon="120.648751"/>
<trkpt lat="24.147741" lon="120.648270"/>
<trkpt lat="24.147741" lon="120.647808"/>
<trkpt lat="24.148827" lon="120.647805"/>
<trkpt lat="24.148828" lon="120.646870"/>
<trkpt lat="24.148809" lon="120.646645"/>
<trkpt lat="24.149945" lon="120.646656"/>
<trkpt lat="24.150784" lon="120.646665"/>
<trkpt lat="24.150777" lon="120.646856"/>
<trkpt lat="24.150313" lon="120.646869"/>
<trkpt lat="24.149950" lon="120.646885"/>
<trkpt lat="24.149945" lon="120.647797"/>
<trkpt lat="24.149944" lon="120.648255"/>
<trkpt lat="24.148834" lon="120.648270"/>
<trkpt lat="24.148837" lon="120.648738"/>
<trkpt lat="24.148840" lon="120.649837"/>
<trkpt lat="24.148836" lon="120.650631"/>
<trkpt lat="24.148837" lon="120.651364"/>
<trkpt lat="24.149941" lon="120.651403"/>
<trkpt lat="24.149940" lon="120.652227"/>
<trkpt lat="24.149940" lon="120.652579"/>
<trkpt lat="24.149939" lon="120.652749"/>
<trkpt lat="24.149939" lon="120.652770"/>
<trkpt lat="24.149939" lon="120.653020"/>
<trkpt lat="24.150773" lon="120.653021"/>
<trkpt lat="24.150776" lon="120.653876"/>
<trkpt lat="24.150881" lon="120.653872"/>
<trkpt lat="24.151582" lon="120.653863"/>
<trkpt lat="24.151944" lon="120.653867"/>
<trkpt lat="24.152322" lon="120.653868"/>
<trkpt lat="24.152326" lon="120.653466"/>
<trkpt lat="24.152331" lon="120.653025"/>
<trkpt lat="24.153588" lon="120.653023"/>
<trkpt lat="24.153588" lon="120.652174"/>
<trkpt lat="24.153589" lon="120.651404"/>
<trkpt lat="24.153593" lon="120.650632"/>
<trkpt lat="24.153598" lon="120.649783"/>
<trkpt lat="24.153619" lon="120.648812"/>
<trkpt lat="24.153621" lon="120.648745"/>
<trkpt lat="24.153519" lon="120.648745"/>
<trkpt lat="24.152956" lon="120.648748"/>
<trkpt lat="24.152352" lon="120.648743"/>
<trkpt lat="24.152351" lon="120.648680"/>
<trkpt lat="24.152344" lon="120.647800"/>
<trkpt lat="24.152682" lon="120.647804"/>
<trkpt lat="24.153235" lon="120.647809"/>
<trkpt lat="24.153605" lon="120.647813"/>
<trkpt lat="24.153610" lon="120.646921"/>
<trkpt lat="24.153608" lon="120.646693"/>
<trkpt lat="24.152835" lon="120.646685"/>
</trkseg></trk>
</gpx>