<?xml version="1.0" encoding="UTF-8"?>
<gpx version="1.1" creator="catrun" xmlns="http://www.topografix.com/GPX/1/1">
<metadata><name>南屯區 貓咪肉球 圖形路跑路線</name></metadata>
<wpt lat="24.132723" lon="120.647387"><name>南苑公園</name><desc>地標</desc></wpt>
<wpt lat="24.129945" lon="120.653891"><name>豐富公園</name><desc>地標</desc></wpt>
<wpt lat="24.132622" lon="120.659593"><name>半平厝公園</name><desc>地標</desc></wpt>
<trk><name>南屯區 貓咪肉球 圖形路跑路線</name><trkseg>
<trkpt lat="24.134071" lon="120.645484"/>
<trkpt lat="24.134060" lon="120.645564"/>
<trkpt lat="24.134027" lon="120.645617"/>
<trkpt lat="24.133961" lon="120.645658"/>
<trkpt lat="24.133361" lon="120.645650"/>
<trkpt lat="24.133354" lon="120.646363"/>
<trkpt lat="24.132045" lon="120.646346"/>
<trkpt lat="24.132030" lon="120.646562"/>
<trkpt lat="24.132025" lon="120.647204"/>
<trkpt lat="24.131420" lon="120.647206"/>
<trkpt lat="24.131419" lon="120.647298"/>
<trkpt lat="24.131413" lon="120.648289"/>
<trkpt lat="24.130786" lon="120.648274"/>
<trkpt lat="24.130774" lon="120.649235"/>
<trkpt lat="24.130766" lon="120.650000"/>
<trkpt lat="24.130758" lon="120.650735"/>
<trkpt lat="24.130741" lon="120.652498"/>
<trkpt lat="24.130732" lon="120.653197"/>
<trkpt lat="24.130836" lon="120.653192"/>
<trkpt lat="24.130823" lon="120.653378"/>
<trkpt lat="24.130825" lon="120.653427"/>
<trkpt lat="24.130838" lon="120.653488"/>
<trkpt lat="24.130864" lon="120.653539"/>
<trkpt lat="24.130871" lon="120.653604"/>
<trkpt lat="24.130869" lon="120.653689"/>
<trkpt lat="24.130849" lon="120.653736"/>
<trkpt lat="24.130864" lon="120.653797"/>
<trkpt lat="24.130888" lon="120.653864"/>
<trkpt lat="24.130901" lon="120.653947"/>
<trkpt lat="24.130906" lon="120.654014"/>
<trkpt lat="24.130906" lon="120.654114"/>
<trkpt lat="24.130897" lon="120.654193"/>
<trkpt lat="24.130864" lon="120.654281"/>
<trkpt lat="24.130864" lon="120.654372"/>
<trkpt lat="24.130884" lon="120.654490"/>
<trkpt lat="24.130894" lon="120.654585"/>
<trkpt lat="24.131619" lon="120.654585"/>
<trkpt lat="24.131612" lon="120.655141"/>
<trkpt lat="24.131613" lon="120.656159"/>
<trkpt lat="24.131893" lon="120.656156"/>
<trkpt lat="24.132162" lon="120.656154"/>
<trkpt lat="24.132360" lon="120.656152"/>
<trkpt lat="24.132396" lon="120.656152"/>
<trkpt lat="24.132397" lon="120.656688"/>
<trkpt lat="24.132330" lon="120.656686"/>
<trkpt lat="24.132330" lon="120.657254"/>
<trkpt lat="24.131891" lon="120.657255"/>
<trkpt lat="24.131897" lon="120.657356"/>
<trkpt lat="24.132874" lon="120.657356"/>
<trkpt lat="24.132861" lon="120.658136"/>
<trkpt lat="24.132931" lon="120.658140"/>
<trkpt lat="24.133044" lon="120.658243"/>
<trkpt lat="24.133093" lon="120.658356"/>
<trkpt lat="24.133038" lon="120.658490"/>
<trkpt lat="24.132831" lon="120.658515"/>
<trkpt lat="24.132857" lon="120.658639"/>
<trkpt lat="24.132847" lon="120.658749"/>
<trkpt lat="24.132802" lon="120.658901"/>
<trkpt lat="24.132728" lon="120.659004"/>
<trkpt lat="24.132686" lon="120.659149"/>
<trkpt lat="24.132665" lon="120.659237"/>
<trkpt lat="24.132637" lon="120.659354"/>
<trkpt lat="24.132647" lon="120.659471"/>
<trkpt lat="24.132640" lon="120.659814"/>
<trkpt lat="24.132550" lon="120.660275"/>
<trkpt lat="24.132634" lon="120.660249"/>
<trkpt lat="24.132738" lon="120.660298"/>
<trkpt lat="24.132816" lon="120.660346"/>
<trkpt lat="24.132873" lon="120.660380"/>
<trkpt lat="24.133013" lon="120.660135"/>
<trkpt lat="24.133123" lon="120.660134"/>
<trkpt lat="24.133156" lon="120.660084"/>
<trkpt lat="24.133198" lon="120.660005"/>
<trkpt lat="24.133232" lon="120.659943"/>
<trkpt lat="24.133261" lon="120.659890"/>
<trkpt lat="24.133306" lon="120.659811"/>
<trkpt lat="24.133459" lon="120.659537"/>
<trkpt lat="24.133485" lon="120.659485"/>
<trkpt lat="24.133526" lon="120.659406"/>
<trkpt lat="24.133540" lon="120.659370"/>
<trkpt lat="24.133566" lon="120.659351"/>
<trkpt lat="24.133573" lon="120.659332"/>
<trkpt lat="24.133599" lon="120.659266"/>
<trkpt lat="24.133636" lon="120.659284"/>
<trkpt lat="24.133979" lon="120.659289"/>
<trkpt lat="24.134285" lon="120.659294"/>
<trkpt lat="24.134287" lon="120.660033"/>
<trkpt lat="24.134287" lon="120.660186"/>
<trkpt lat="24.134541" lon="120.660186"/>
<trkpt lat="24.135096" lon="120.660187"/>
<trkpt lat="24.135095" lon="120.660264"/>
<trkpt lat="24.135089" lon="120.660278"/>
<trkpt lat="24.135104" lon="120.660275"/>
<trkpt lat="24.135144" lon="120.660275"/>
<trkpt lat="24.135183" lon="120.660273"/>
<trkpt lat="24.135208" lon="120.660267"/>
<trkpt lat="24.135188" lon="120.660289"/>
<trkpt lat="24.135187" lon="120.660486"/>
<trkpt lat="24.135186" lon="120.660513"/>
<trkpt lat="24.135846" lon="120.660518"/>
<trkpt lat="24.136553" lon="120.660524"/>
<trkpt lat="24.136553" lon="120.660272"/>
<trkpt lat="24.136661" lon="120.660271"/>
<trkpt lat="24.136663" lon="120.660188"/>
<trkpt lat="24.136974" lon="120.660188"/>
<trkpt lat="24.137273" lon="120.660188"/>
<trkpt lat="24.137574" lon="120.660189"/>
<trkpt lat="24.137630" lon="120.660189"/>
<trkpt lat="24.137964" lon="120.660189"/>
<trkpt lat="24.138237" lon="120.660189"/>
<trkpt lat="24.138356" lon="120.660189"/>
<trkpt lat="24.138393" lon="120.660189"/>
<trkpt lat="24.138424" lon="120.660189"/>
<trkpt lat="24.138669" lon="120.660190"/>
<trkpt lat="24.138843" lon="120.660190"/>
<trkpt lat="24.138946" lon="120.660190"/>
<trkpt lat="24.139269" lon="120.660190"/>
<trkpt lat="24.140037" lon="120.660190"/>
<trkpt lat="24.140159" lon="120.660191"/>
<trkpt lat="24.141250" lon="120.660195"/>
<trkpt lat="24.141420" lon="120.660197"/>
<trkpt lat="24.141561" lon="120.660194"/>
<trkpt lat="24.142046" lon="120.660198"/>
<trkpt lat="24.142202" lon="120.660202"/>
<trkpt lat="24.142290" lon="120.660203"/>
<trkpt lat="24.142357" lon="120.660203"/>
<trkpt lat="24.142471" lon="120.660301"/>
<trkpt lat="24.142946" lon="120.660456"/>
<trkpt lat="24.142946" lon="120.660498"/>
<trkpt lat="24.143604" lon="120.660496"/>
<trkpt lat="24.143600" lon="120.660201"/>
<trkpt lat="24.143839" lon="120.660202"/>
<trkpt lat="24.144321" lon="120.660202"/>
<trkpt lat="24.144685" lon="120.660202"/>
<trkpt lat="24.144891" lon="120.660202"/>
<trkpt lat="24.145103" lon="120.660202"/>
<trkpt lat="24.145541" lon="120.660201"/>
<trkpt lat="24.146028" lon="120.660201"/>
<trkpt lat="24.146296" lon="120.660201"/>
<trkpt lat="24.146705" lon="120.660203"/>
<trkpt lat="24.147308" lon="120.660199"/>
<trkpt lat="24.147308" lon="120.659518"/>
<trkpt lat="24.147308" lon="120.658830"/>
<trkpt lat="24.147868" lon="120.658830"/>
<trkpt lat="24.147867" lon="120.658322"/>
<trkpt lat="24.147868" lon="120.657832"/>
<trkpt lat="24.147871" lon="120.657518"/>
<trkpt lat="24.147852" lon="120.657381"/>
<trkpt lat="24.147807" lon="120.657262"/>
<trkpt lat="24.147781" lon="120.657201"/>
<trkpt lat="24.147779" lon="120.656807"/>
<trkpt lat="24.147781" lon="120.656762"/>
<trkpt lat="24.147254" lon="120.656763"/>
<trkpt lat="24.147262" lon="120.655232"/>
<trkpt lat="24.147240" lon="120.655142"/>
<trkpt lat="24.147765" lon="120.655142"/>
<trkpt lat="24.148298" lon="120.655119"/>
<trkpt lat="24.148824" lon="120.655114"/>
<trkpt lat="24.148838" lon="120.653966"/>
<trkpt lat="24.149437" lon="120.653915"/>
<trkpt lat="24.149631" lon="120.653899"/>
<trkpt lat="24.149938" lon="120.653875"/>
<trkpt lat="24.149939" lon="120.653020"/>
<trkpt lat="24.149939" lon="120.652770"/>
<trkpt lat="24.149939" lon="120.652749"/>
<trkpt lat="24.149940" lon="120.652579"/>
<trkpt lat="24.149940" lon="120.652227"/>
<trkpt lat="24.149941" lon="120.651403"/>
<trkpt lat="24.148837" lon="120.651364"/>
<trkpt lat="24.148836" lon="120.650631"/>
<trkpt lat="24.148840" lon="120.649837"/>
<trkpt lat="24.147741" lon="120.649855"/>
<trkpt lat="24.147741" lon="120.648751"/>
<trkpt lat="24.146769" lon="120.648762"/>
<trkpt lat="24.146101" lon="120.648771"/>
<trkpt lat="24.146082" lon="120.648771"/>
<trkpt lat="24.145566" lon="120.648782"/>
<trkpt lat="24.145562" lon="120.649875"/>
<trkpt lat="24.146105" lon="120.649867"/>
<trkpt lat="24.146101" lon="120.648771"/>
<trkpt lat="24.146769" lon="120.648762"/>
<trkpt lat="24.147741" lon="120.648751"/>
<trkpt lat="24.147741" lon="120.648270"/>
<trkpt lat="24.147741" lon="120.647808"/>
<trkpt lat="24.147741" lon="120.647399"/>
<trkpt lat="24.147740" lon="120.646865"/>
<trkpt lat="24.146792" lon="120.646847"/>
<trkpt lat="24.146793" lon="120.646625"/>
<trkpt lat="24.147741" lon="120.646634"/>
<trkpt lat="24.147749" lon="120.645434"/>
<trkpt lat="24.147761" lon="120.643843"/>
<trkpt lat="24.146833" lon="120.643849"/>
<trkpt lat="24.146179" lon="120.643706"/>
<trkpt lat="24.145479" lon="120.643552"/>
<trkpt lat="24.144802" lon="120.643376"/>
<trkpt lat="24.144392" lon="120.643265"/>
<trkpt lat="24.144118" lon="120.643193"/>
<trkpt lat="24.144021" lon="120.643168"/>
<trkpt lat="24.143012" lon="120.642923"/>
<trkpt lat="24.142919" lon="120.643578"/>
<trkpt lat="24.142824" lon="120.644415"/>
<trkpt lat="24.142729" lon="120.645274"/>
<trkpt lat="24.142716" lon="120.645358"/>
<trkpt lat="24.142681" lon="120.645824"/>
<trkpt lat="24.142627" lon="120.646302"/>
<trkpt lat="24.142594" lon="120.646591"/>
<trkpt lat="24.140937" lon="120.646592"/>
<trkpt lat="24.141035" lon="120.645422"/>
<trkpt lat="24.141555" lon="120.645702"/>
<trkpt lat="24.142028" lon="120.645955"/>
<trkpt lat="24.142127" lon="120.646009"/>
<trkpt lat="24.142321" lon="120.646112"/>
<trkpt lat="24.142442" lon="120.646183"/>
<trkpt lat="24.142627" lon="120.646302"/>
<trkpt lat="24.142681" lon="120.645824"/>
<trkpt lat="24.142716" lon="120.645358"/>
<trkpt lat="24.142729" lon="120.645274"/>
<trkpt lat="24.142824" lon="120.644415"/>
<trkpt lat="24.143322" lon="120.644471"/>
<trkpt lat="24.143383" lon="120.643764"/>
<trkpt lat="24.143376" lon="120.643694"/>
<trkpt lat="24.143327" lon="120.643627"/>
<trkpt lat="24.142919" lon="120.643578"/>
<trkpt lat="24.143012" lon="120.642923"/>
<trkpt lat="24.143260" lon="120.640744"/>
<trkpt lat="24.142554" lon="120.640747"/>
<trkpt lat="24.141905" lon="120.640841"/>
<trkpt lat="24.141390" lon="120.640828"/>
<trkpt lat="24.141481" lon="120.640564"/>
<trkpt lat="24.141397" lon="120.640478"/>
<trkpt lat="24.140918" lon="120.640328"/>
<trkpt lat="24.140818" lon="120.640627"/>
<trkpt lat="24.140687" lon="120.641012"/>
<trkpt lat="24.140646" lon="120.641136"/>
<trkpt lat="24.140202" lon="120.640938"/>
<trkpt lat="24.140144" lon="120.640985"/>
<trkpt lat="24.139979" lon="120.641458"/>
<trkpt lat="24.139914" lon="120.641389"/>
<trkpt lat="24.139861" lon="120.641386"/>
<trkpt lat="24.139504" lon="120.641368"/>
<trkpt lat="24.139320" lon="120.641319"/>
<trkpt lat="24.139096" lon="120.641328"/>
<trkpt lat="24.138843" lon="120.641492"/>
<trkpt lat="24.138813" lon="120.641570"/>
<trkpt lat="24.138670" lon="120.641524"/>
<trkpt lat="24.138544" lon="120.641485"/>
<trkpt lat="24.138419" lon="120.641454"/>
<trkpt lat="24.138160" lon="120.641452"/>
<trkpt lat="24.138154" lon="120.641616"/>
<trkpt lat="24.138261" lon="120.641877"/>
<trkpt lat="24.138259" lon="120.641976"/>
<trkpt lat="24.138242" lon="120.642376"/>
<trkpt lat="24.138306" lon="120.642384"/>
<trkpt lat="24.138355" lon="120.642397"/>
<trkpt lat="24.138383" lon="120.642408"/>
<trkpt lat="24.138396" lon="120.642426"/>
<trkpt lat="24.138442" lon="120.642438"/>
<trkpt lat="24.138442" lon="120.642479"/>
<trkpt lat="24.138192" lon="120.643928"/>
<trkpt lat="24.138024" lon="120.643892"/>
<trkpt lat="24.137864" lon="120.643858"/>
<trkpt lat="24.137732" lon="120.643863"/>
<trkpt lat="24.137576" lon="120.643869"/>
<trkpt lat="24.137601" lon="120.643045"/>
<trkpt lat="24.137109" lon="120.643044"/>
<trkpt lat="24.136588" lon="120.643041"/>
<trkpt lat="24.136022" lon="120.643040"/>
<trkpt lat="24.135454" lon="120.643039"/>
<trkpt lat="24.135416" lon="120.643951"/>
<trkpt lat="24.134785" lon="120.643975"/>
<trkpt lat="24.134757" lon="120.644676"/>
<trkpt lat="24.134692" lon="120.644679"/>
<trkpt lat="24.134082" lon="120.644675"/>
<trkpt lat="24.134071" lon="120.645484"/>
</trkseg></trk>
</gpx>