<?xml version="1.0" encoding="UTF-8"?>
<gpx version="1.1" creator="catrun" xmlns="http://www.topografix.com/GPX/1/1">
<metadata><name>南屯區 貓咪肉球 圖形路跑路線</name></metadata>
<wpt lat="24.135757" lon="120.644666"><name>向心兒童公園</name><desc>地標</desc></wpt>
<wpt lat="24.134495" lon="120.644274"><name>南屯區公所4樓禮堂</name><desc>地標</desc></wpt>
<wpt lat="24.132723" lon="120.647387"><name>南苑公園</name><desc>地標</desc></wpt>
<trk><name>南屯區 貓咪肉球 圖形路跑路線</name><trkseg>
<trkpt lat="24.138192" lon="120.643928"/>
<trkpt lat="24.138024" lon="120.643892"/>
<trkpt lat="24.137864" lon="120.643858"/>
<trkpt lat="24.137732" lon="120.643863"/>
<trkpt lat="24.137576" lon="120.643869"/>
<trkpt lat="24.137070" lon="120.643888"/>
<trkpt lat="24.136545" lon="120.643908"/>
<trkpt lat="24.136004" lon="120.643929"/>
<trkpt lat="24.135981" lon="120.645080"/>
<trkpt lat="24.135955" lon="120.645697"/>
<trkpt lat="24.135343" lon="120.645676"/>
<trkpt lat="24.134728" lon="120.645657"/>
<trkpt lat="24.134712" lon="120.646201"/>
<trkpt lat="24.134708" lon="120.646219"/>
<trkpt lat="24.134655" lon="120.646220"/>
<trkpt lat="24.134673" lon="120.646380"/>
<trkpt lat="24.134681" lon="120.646604"/>
<trkpt lat="24.133352" lon="120.646584"/>
<trkpt lat="24.133350" lon="120.646823"/>
<trkpt lat="24.133344" lon="120.647304"/>
<trkpt lat="24.133911" lon="120.647312"/>
<trkpt lat="24.133970" lon="120.647310"/>
<trkpt lat="24.134010" lon="120.647331"/>
<trkpt lat="24.134035" lon="120.647361"/>
<trkpt lat="24.134051" lon="120.647423"/>
<trkpt lat="24.134016" lon="120.648350"/>
<trkpt lat="24.134011" lon="120.649138"/>
<trkpt lat="24.133957" lon="120.649203"/>
<trkpt lat="24.133342" lon="120.649192"/>
<trkpt lat="24.133337" lon="120.649977"/>
<trkpt lat="24.133330" lon="120.650717"/>
<trkpt lat="24.133933" lon="120.650722"/>
<trkpt lat="24.133977" lon="120.650755"/>
<trkpt lat="24.134000" lon="120.650798"/>
<trkpt lat="24.133999" lon="120.651319"/>
<trkpt lat="24.133987" lon="120.652281"/>
<trkpt lat="24.133963" lon="120.652339"/>
<trkpt lat="24.133924" lon="120.652377"/>
<trkpt lat="24.133317" lon="120.652405"/>
<trkpt lat="24.133308" lon="120.653029"/>
<trkpt lat="24.133405" lon="120.653027"/>
<trkpt lat="24.133418" lon="120.653039"/>
<trkpt lat="24.134801" lon="120.652971"/>
<trkpt lat="24.134826" lon="120.652937"/>
<trkpt lat="24.134827" lon="120.653059"/>
<trkpt lat="24.134828" lon="120.653167"/>
<trkpt lat="24.134951" lon="120.653164"/>
<trkpt lat="24.135080" lon="120.653160"/>
<trkpt lat="24.135077" lon="120.653048"/>
<trkpt lat="24.135276" lon="120.653038"/>
<trkpt lat="24.135634" lon="120.653039"/>
<trkpt lat="24.135595" lon="120.653165"/>
<trkpt lat="24.135710" lon="120.653153"/>
<trkpt lat="24.135863" lon="120.653144"/>
<trkpt lat="24.135885" lon="120.653037"/>
<trkpt lat="24.136042" lon="120.653033"/>
<trkpt lat="24.136678" lon="120.653029"/>
<trkpt lat="24.136675" lon="120.653812"/>
<trkpt lat="24.136674" lon="120.654587"/>
<trkpt lat="24.136658" lon="120.654660"/>
<trkpt lat="24.136566" lon="120.655070"/>
<trkpt lat="24.136552" lon="120.655141"/>
<trkpt lat="24.137116" lon="120.655141"/>
<trkpt lat="24.137615" lon="120.655140"/>
<trkpt lat="24.137883" lon="120.655141"/>
<trkpt lat="24.138158" lon="120.655141"/>
<trkpt lat="24.138432" lon="120.655142"/>
<trkpt lat="24.138739" lon="120.655141"/>
<trkpt lat="24.139027" lon="120.655141"/>
<trkpt lat="24.140040" lon="120.655132"/>
<trkpt lat="24.140143" lon="120.655130"/>
<trkpt lat="24.140211" lon="120.655131"/>
<trkpt lat="24.140295" lon="120.655142"/>
<trkpt lat="24.140405" lon="120.655214"/>
<trkpt lat="24.140737" lon="120.655541"/>
<trkpt lat="24.141129" lon="120.655917"/>
<trkpt lat="24.141245" lon="120.655951"/>
<trkpt lat="24.141245" lon="120.656654"/>
<trkpt lat="24.141251" lon="120.657253"/>
<trkpt lat="24.141559" lon="120.657254"/>
<trkpt lat="24.141563" lon="120.655958"/>
<trkpt lat="24.141908" lon="120.655959"/>
<trkpt lat="24.142196" lon="120.655991"/>
<trkpt lat="24.142366" lon="120.656040"/>
<trkpt lat="24.142499" lon="120.656093"/>
<trkpt lat="24.142676" lon="120.656221"/>
<trkpt lat="24.142814" lon="120.656355"/>
<trkpt lat="24.142949" lon="120.656535"/>
<trkpt lat="24.142979" lon="120.656441"/>
<trkpt lat="24.143174" lon="120.656211"/>
<trkpt lat="24.143217" lon="120.656140"/>
<trkpt lat="24.143239" lon="120.656012"/>
<trkpt lat="24.143244" lon="120.655128"/>
<trkpt lat="24.143225" lon="120.655052"/>
<trkpt lat="24.143231" lon="120.654589"/>
<trkpt lat="24.143228" lon="120.653978"/>
<trkpt lat="24.142645" lon="120.653979"/>
<trkpt lat="24.142645" lon="120.653013"/>
<trkpt lat="24.141843" lon="120.653013"/>
<trkpt lat="24.141843" lon="120.653981"/>
<trkpt lat="24.142220" lon="120.653980"/>
<trkpt lat="24.142314" lon="120.653979"/>
<trkpt lat="24.142645" lon="120.653979"/>
<trkpt lat="24.143228" lon="120.653978"/>
<trkpt lat="24.143827" lon="120.653974"/>
<trkpt lat="24.144323" lon="120.653975"/>
<trkpt lat="24.144355" lon="120.653976"/>
<trkpt lat="24.144956" lon="120.653974"/>
<trkpt lat="24.144967" lon="120.653017"/>
<trkpt lat="24.145440" lon="120.653014"/>
<trkpt lat="24.145442" lon="120.652147"/>
<trkpt lat="24.145814" lon="120.652154"/>
<trkpt lat="24.145816" lon="120.651306"/>
<trkpt lat="24.145251" lon="120.651309"/>
<trkpt lat="24.145249" lon="120.650627"/>
<trkpt lat="24.144941" lon="120.650626"/>
<trkpt lat="24.144938" lon="120.649876"/>
<trkpt lat="24.145253" lon="120.649874"/>
<trkpt lat="24.145562" lon="120.649875"/>
<trkpt lat="24.146105" lon="120.649867"/>
<trkpt lat="24.146101" lon="120.648771"/>
<trkpt lat="24.146769" lon="120.648762"/>
<trkpt lat="24.146774" lon="120.648280"/>
<trkpt lat="24.146777" lon="120.648052"/>
<trkpt lat="24.146780" lon="120.647804"/>
<trkpt lat="24.146792" lon="120.646847"/>
<trkpt lat="24.146793" lon="120.646625"/>
<trkpt lat="24.146415" lon="120.646197"/>
<trkpt lat="24.146396" lon="120.646220"/>
<trkpt lat="24.146316" lon="120.646289"/>
<trkpt lat="24.146237" lon="120.646321"/>
<trkpt lat="24.146128" lon="120.646322"/>
<trkpt lat="24.145995" lon="120.646295"/>
<trkpt lat="24.145874" lon="120.646239"/>
<trkpt lat="24.145817" lon="120.646267"/>
<trkpt lat="24.145775" lon="120.646294"/>
<trkpt lat="24.145740" lon="120.646321"/>
<trkpt lat="24.145667" lon="120.646285"/>
<trkpt lat="24.145641" lon="120.646230"/>
<trkpt lat="24.145597" lon="120.646161"/>
<trkpt lat="24.145576" lon="120.646068"/>
<trkpt lat="24.145557" lon="120.646002"/>
<trkpt lat="24.145531" lon="120.645930"/>
<trkpt lat="24.145468" lon="120.645867"/>
<trkpt lat="24.145348" lon="120.645851"/>
<trkpt lat="24.145273" lon="120.645916"/>
<trkpt lat="24.145074" lon="120.646034"/>
<trkpt lat="24.144991" lon="120.646046"/>
<trkpt lat="24.144900" lon="120.646041"/>
<trkpt lat="24.144859" lon="120.646059"/>
<trkpt lat="24.144749" lon="120.646066"/>
<trkpt lat="24.144682" lon="120.646043"/>
<trkpt lat="24.144629" lon="120.646007"/>
<trkpt lat="24.144632" lon="120.646057"/>
<trkpt lat="24.144619" lon="120.646107"/>
<trkpt lat="24.144606" lon="120.646132"/>
<trkpt lat="24.144569" lon="120.646196"/>
<trkpt lat="24.144527" lon="120.646257"/>
<trkpt lat="24.144501" lon="120.646282"/>
<trkpt lat="24.144470" lon="120.646297"/>
<trkpt lat="24.144440" lon="120.646308"/>
<trkpt lat="24.144405" lon="120.646313"/>
<trkpt lat="24.144370" lon="120.646317"/>
<trkpt lat="24.144331" lon="120.646313"/>
<trkpt lat="24.144299" lon="120.646301"/>
<trkpt lat="24.144270" lon="120.646269"/>
<trkpt lat="24.144256" lon="120.646247"/>
<trkpt lat="24.143812" lon="120.646598"/>
<trkpt lat="24.143751" lon="120.646599"/>
<trkpt lat="24.142594" lon="120.646591"/>
<trkpt lat="24.142606" lon="120.646841"/>
<trkpt lat="24.142745" lon="120.646846"/>
<trkpt lat="24.143791" lon="120.646837"/>
<trkpt lat="24.143751" lon="120.646599"/>
<trkpt lat="24.143812" lon="120.646598"/>
<trkpt lat="24.144256" lon="120.646247"/>
<trkpt lat="24.144245" lon="120.646228"/>
<trkpt lat="24.144232" lon="120.646183"/>
<trkpt lat="24.144226" lon="120.646141"/>
<trkpt lat="24.144237" lon="120.646100"/>
<trkpt lat="24.144254" lon="120.646060"/>
<trkpt lat="24.144282" lon="120.646018"/>
<trkpt lat="24.144316" lon="120.645983"/>
<trkpt lat="24.144343" lon="120.645954"/>
<trkpt lat="24.144368" lon="120.645936"/>
<trkpt lat="24.144400" lon="120.645922"/>
<trkpt lat="24.144433" lon="120.645913"/>
<trkpt lat="24.144463" lon="120.645903"/>
<trkpt lat="24.144492" lon="120.645898"/>
<trkpt lat="24.144525" lon="120.645894"/>
<trkpt lat="24.144563" lon="120.645916"/>
<trkpt lat="24.144596" lon="120.645946"/>
<trkpt lat="24.144616" lon="120.645977"/>
<trkpt lat="24.144629" lon="120.646007"/>
<trkpt lat="24.144682" lon="120.646043"/>
<trkpt lat="24.144749" lon="120.646066"/>
<trkpt lat="24.144859" lon="120.646059"/>
<trkpt lat="24.144900" lon="120.646041"/>
<trkpt lat="24.144807" lon="120.646018"/>
<trkpt lat="24.144714" lon="120.645962"/>
<trkpt lat="24.144687" lon="120.645926"/>
<trkpt lat="24.144670" lon="120.645872"/>
<trkpt lat="24.144666" lon="120.645813"/>
<trkpt lat="24.144666" lon="120.645736"/>
<trkpt lat="24.144655" lon="120.645621"/>
<trkpt lat="24.144644" lon="120.645575"/>
<trkpt lat="24.144619" lon="120.645540"/>
<trkpt lat="24.144574" lon="120.645485"/>
<trkpt lat="24.144498" lon="120.645439"/>
<trkpt lat="24.144411" lon="120.645434"/>
<trkpt lat="24.144337" lon="120.645440"/>
<trkpt lat="24.144291" lon="120.645457"/>
<trkpt lat="24.144251" lon="120.645494"/>
<trkpt lat="24.144196" lon="120.645510"/>
<trkpt lat="24.144210" lon="120.645359"/>
<trkpt lat="24.144277" lon="120.645374"/>
<trkpt lat="24.144401" lon="120.645354"/>
<trkpt lat="24.144418" lon="120.645311"/>
<trkpt lat="24.144451" lon="120.645269"/>
<trkpt lat="24.144480" lon="120.645255"/>
<trkpt lat="24.144508" lon="120.645231"/>
<trkpt lat="24.144546" lon="120.645196"/>
<trkpt lat="24.144587" lon="120.645155"/>
<trkpt lat="24.144633" lon="120.645036"/>
<trkpt lat="24.144674" lon="120.644964"/>
<trkpt lat="24.144736" lon="120.644885"/>
<trkpt lat="24.144781" lon="120.644839"/>
<trkpt lat="24.144820" lon="120.644789"/>
<trkpt lat="24.144851" lon="120.644735"/>
<trkpt lat="24.144885" lon="120.644687"/>
<trkpt lat="24.144905" lon="120.644591"/>
<trkpt lat="24.144912" lon="120.644540"/>
<trkpt lat="24.144919" lon="120.644486"/>
<trkpt lat="24.144936" lon="120.644460"/>
<trkpt lat="24.144977" lon="120.644418"/>
<trkpt lat="24.145040" lon="120.644397"/>
<trkpt lat="24.145030" lon="120.644372"/>
<trkpt lat="24.145028" lon="120.644346"/>
<trkpt lat="24.145034" lon="120.644320"/>
<trkpt lat="24.145040" lon="120.644303"/>
<trkpt lat="24.144938" lon="120.644217"/>
<trkpt lat="24.144935" lon="120.644224"/>
<trkpt lat="24.144915" lon="120.644242"/>
<trkpt lat="24.144902" lon="120.644244"/>
<trkpt lat="24.144890" lon="120.644242"/>
<trkpt lat="24.144878" lon="120.644236"/>
<trkpt lat="24.144864" lon="120.644212"/>
<trkpt lat="24.144862" lon="120.644198"/>
<trkpt lat="24.144866" lon="120.644184"/>
<trkpt lat="24.144873" lon="120.644171"/>
<trkpt lat="24.144847" lon="120.644147"/>
<trkpt lat="24.144851" lon="120.644134"/>
<trkpt lat="24.144851" lon="120.644121"/>
<trkpt lat="24.144846" lon="120.644108"/>
<trkpt lat="24.144839" lon="120.644097"/>
<trkpt lat="24.144828" lon="120.644089"/>
<trkpt lat="24.144816" lon="120.644085"/>
<trkpt lat="24.144804" lon="120.644086"/>
<trkpt lat="24.144792" lon="120.644091"/>
<trkpt lat="24.144782" lon="120.644099"/>
<trkpt lat="24.144749" lon="120.644073"/>
<trkpt lat="24.144754" lon="120.644061"/>
<trkpt lat="24.144756" lon="120.644047"/>
<trkpt lat="24.144754" lon="120.644034"/>
<trkpt lat="24.144748" lon="120.644022"/>
<trkpt lat="24.144740" lon="120.644014"/>
<trkpt lat="24.144731" lon="120.644008"/>
<trkpt lat="24.144720" lon="120.644006"/>
<trkpt lat="24.144613" lon="120.643929"/>
<trkpt lat="24.144582" lon="120.643942"/>
<trkpt lat="24.144552" lon="120.643930"/>
<trkpt lat="24.144531" lon="120.643905"/>
<trkpt lat="24.144504" lon="120.643893"/>
<trkpt lat="24.144489" lon="120.643877"/>
<trkpt lat="24.144472" lon="120.643846"/>
<trkpt lat="24.144423" lon="120.643824"/>
<trkpt lat="24.144394" lon="120.643797"/>
<trkpt lat="24.144379" lon="120.643763"/>
<trkpt lat="24.144319" lon="120.643717"/>
<trkpt lat="24.144280" lon="120.643685"/>
<trkpt lat="24.144273" lon="120.643628"/>
<trkpt lat="24.144286" lon="120.643592"/>
<trkpt lat="24.144203" lon="120.643505"/>
<trkpt lat="24.144091" lon="120.643494"/>
<trkpt lat="24.144118" lon="120.643193"/>
<trkpt lat="24.144021" lon="120.643168"/>
<trkpt lat="24.143012" lon="120.642923"/>
<trkpt lat="24.141941" lon="120.642659"/>
<trkpt lat="24.141872" lon="120.642858"/>
<trkpt lat="24.141763" lon="120.642805"/>
<trkpt lat="24.141608" lon="120.642785"/>
<trkpt lat="24.141513" lon="120.642774"/>
<trkpt lat="24.141330" lon="120.642749"/>
<trkpt lat="24.141424" lon="120.642458"/>
<trkpt lat="24.140915" lon="120.642269"/>
<trkpt lat="24.140812" lon="120.642219"/>
<trkpt lat="24.140607" lon="120.642826"/>
<trkpt lat="24.140482" lon="120.642753"/>
<trkpt lat="24.140389" lon="120.642726"/>
<trkpt lat="24.140292" lon="120.642716"/>
<trkpt lat="24.140109" lon="120.642723"/>
<trkpt lat="24.140012" lon="120.643012"/>
<trkpt lat="24.139845" lon="120.643505"/>
<trkpt lat="24.139647" lon="120.644092"/>
<trkpt lat="24.139480" lon="120.644587"/>
<trkpt lat="24.138810" lon="120.644206"/>
<trkpt lat="24.138306" lon="120.643965"/>
<trkpt lat="24.138192" lon="120.643928"/>
</trkseg></trk>
</gpx>