<?xml version="1.0" encoding="UTF-8"?>
<gpx version="1.1" creator="catrun" xmlns="http://www.topografix.com/GPX/1/1">
<metadata><name>南屯區 手繪蹲坐貓（原稿描圖） 圖形路跑路線</name></metadata>
<wpt lat="24.138181" lon="120.635909"><name>文昌兒童公園</name><desc>地標</desc></wpt>
<wpt lat="24.140548" lon="120.640874"><name>惠德兒童公園</name><desc>地標</desc></wpt>
<wpt lat="24.142184" lon="120.640333"><name>犁頭公園</name><desc>地標</desc></wpt>
<trk><name>南屯區 手繪蹲坐貓（原稿描圖） 圖形路跑路線</name><trkseg>
<trkpt lat="24.134236" lon="120.636287"/>
<trkpt lat="24.134320" lon="120.636318"/>
<trkpt lat="24.134344" lon="120.636233"/>
<trkpt lat="24.134735" lon="120.635119"/>
<trkpt lat="24.134753" lon="120.635069"/>
<trkpt lat="24.134837" lon="120.635100"/>
<trkpt lat="24.135975" lon="120.635520"/>
<trkpt lat="24.136035" lon="120.635524"/>
<trkpt lat="24.136054" lon="120.635452"/>
<trkpt lat="24.136195" lon="120.634938"/>
<trkpt lat="24.136270" lon="120.634961"/>
<trkpt lat="24.136612" lon="120.635075"/>
<trkpt lat="24.136448" lon="120.635655"/>
<trkpt lat="24.136291" lon="120.636211"/>
<trkpt lat="24.136453" lon="120.636273"/>
<trkpt lat="24.137234" lon="120.636534"/>
<trkpt lat="24.137699" lon="120.636694"/>
<trkpt lat="24.138239" lon="120.636879"/>
<trkpt lat="24.138109" lon="120.637346"/>
<trkpt lat="24.138073" lon="120.637478"/>
<trkpt lat="24.138060" lon="120.637538"/>
<trkpt lat="24.138101" lon="120.637548"/>
<trkpt lat="24.138180" lon="120.637554"/>
<trkpt lat="24.138475" lon="120.637678"/>
<trkpt lat="24.138816" lon="120.637812"/>
<trkpt lat="24.138922" lon="120.637853"/>
<trkpt lat="24.138949" lon="120.637864"/>
<trkpt lat="24.139300" lon="120.638002"/>
<trkpt lat="24.139521" lon="120.638098"/>
<trkpt lat="24.139645" lon="120.638166"/>
<trkpt lat="24.139745" lon="120.638237"/>
<trkpt lat="24.139753" lon="120.638246"/>
<trkpt lat="24.139803" lon="120.638287"/>
<trkpt lat="24.139487" lon="120.638776"/>
<trkpt lat="24.139928" lon="120.639024"/>
<trkpt lat="24.140075" lon="120.638853"/>
<trkpt lat="24.140093" lon="120.638837"/>
<trkpt lat="24.140202" lon="120.639018"/>
<trkpt lat="24.140243" lon="120.639057"/>
<trkpt lat="24.140299" lon="120.639081"/>
<trkpt lat="24.140476" lon="120.639061"/>
<trkpt lat="24.140636" lon="120.639049"/>
<trkpt lat="24.140634" lon="120.639383"/>
<trkpt lat="24.140611" lon="120.639597"/>
<trkpt lat="24.140408" lon="120.640165"/>
<trkpt lat="24.140918" lon="120.640328"/>
<trkpt lat="24.141397" lon="120.640478"/>
<trkpt lat="24.141481" lon="120.640564"/>
<trkpt lat="24.141624" lon="120.640624"/>
<trkpt lat="24.141994" lon="120.640681"/>
<trkpt lat="24.142606" lon="120.640613"/>
<trkpt lat="24.142554" lon="120.640747"/>
<trkpt lat="24.143260" lon="120.640744"/>
<trkpt lat="24.144082" lon="120.640740"/>
<trkpt lat="24.144230" lon="120.640739"/>
<trkpt lat="24.144339" lon="120.640739"/>
<trkpt lat="24.144319" lon="120.640972"/>
<trkpt lat="24.144215" lon="120.642163"/>
<trkpt lat="24.144273" lon="120.642168"/>
<trkpt lat="24.144354" lon="120.642176"/>
<trkpt lat="24.144329" lon="120.642482"/>
<trkpt lat="24.144253" lon="120.642475"/>
<trkpt lat="24.144189" lon="120.642469"/>
<trkpt lat="24.144178" lon="120.642593"/>
<trkpt lat="24.144812" lon="120.642605"/>
<trkpt lat="24.145495" lon="120.642618"/>
<trkpt lat="24.146186" lon="120.642632"/>
<trkpt lat="24.146850" lon="120.642638"/>
<trkpt lat="24.147399" lon="120.642645"/>
<trkpt lat="24.147532" lon="120.642647"/>
<trkpt lat="24.147814" lon="120.642650"/>
<trkpt lat="24.147804" lon="120.641893"/>
<trkpt lat="24.147803" lon="120.641861"/>
<trkpt lat="24.147802" lon="120.641740"/>
<trkpt lat="24.147802" lon="120.641696"/>
<trkpt lat="24.148273" lon="120.641694"/>
<trkpt lat="24.148765" lon="120.641691"/>
<trkpt lat="24.148760" lon="120.640742"/>
<trkpt lat="24.148760" lon="120.640623"/>
<trkpt lat="24.148764" lon="120.640146"/>
<trkpt lat="24.148755" lon="120.639853"/>
<trkpt lat="24.149969" lon="120.639857"/>
<trkpt lat="24.150045" lon="120.639210"/>
<trkpt lat="24.150658" lon="120.639192"/>
<trkpt lat="24.151295" lon="120.639172"/>
<trkpt lat="24.151183" lon="120.640615"/>
<trkpt lat="24.151290" lon="120.640616"/>
<trkpt lat="24.153688" lon="120.640611"/>
<trkpt lat="24.153688" lon="120.640741"/>
<trkpt lat="24.153674" lon="120.641664"/>
<trkpt lat="24.153660" lon="120.642628"/>
<trkpt lat="24.152995" lon="120.642642"/>
<trkpt lat="24.152978" lon="120.643847"/>
<trkpt lat="24.153642" lon="120.643856"/>
<trkpt lat="24.153629" lon="120.644518"/>
<trkpt lat="24.153627" lon="120.644690"/>
<trkpt lat="24.153624" lon="120.645359"/>
<trkpt lat="24.153938" lon="120.645385"/>
<trkpt lat="24.154626" lon="120.645409"/>
<trkpt lat="24.154614" lon="120.646703"/>
<trkpt lat="24.155250" lon="120.646701"/>
<trkpt lat="24.155213" lon="120.646638"/>
<trkpt lat="24.155249" lon="120.646604"/>
<trkpt lat="24.155342" lon="120.646604"/>
<trkpt lat="24.155441" lon="120.646606"/>
<trkpt lat="24.155576" lon="120.646607"/>
<trkpt lat="24.155560" lon="120.646700"/>
<trkpt lat="24.155560" lon="120.646924"/>
<trkpt lat="24.155608" lon="120.646992"/>
<trkpt lat="24.155608" lon="120.647011"/>
<trkpt lat="24.155608" lon="120.647522"/>
<trkpt lat="24.155609" lon="120.647775"/>
<trkpt lat="24.155097" lon="120.647773"/>
<trkpt lat="24.155105" lon="120.648688"/>
<trkpt lat="24.154613" lon="120.648712"/>
<trkpt lat="24.154145" lon="120.648741"/>
<trkpt lat="24.153729" lon="120.648744"/>
<trkpt lat="24.153621" lon="120.648745"/>
<trkpt lat="24.153519" lon="120.648745"/>
<trkpt lat="24.152956" lon="120.648748"/>
<trkpt lat="24.152957" lon="120.649315"/>
<trkpt lat="24.152956" lon="120.649789"/>
<trkpt lat="24.152339" lon="120.649795"/>
<trkpt lat="24.151602" lon="120.649801"/>
<trkpt lat="24.150877" lon="120.649808"/>
<trkpt lat="24.150782" lon="120.649809"/>
<trkpt lat="24.149943" lon="120.649823"/>
<trkpt lat="24.149942" lon="120.650632"/>
<trkpt lat="24.148836" lon="120.650631"/>
<trkpt lat="24.148181" lon="120.650632"/>
<trkpt lat="24.147741" lon="120.650633"/>
<trkpt lat="24.146747" lon="120.650633"/>
<trkpt lat="24.146740" lon="120.651302"/>
<trkpt lat="24.146298" lon="120.651304"/>
<trkpt lat="24.145816" lon="120.651306"/>
<trkpt lat="24.145251" lon="120.651309"/>
<trkpt lat="24.144952" lon="120.651310"/>
<trkpt lat="24.144959" lon="120.652134"/>
<trkpt lat="24.144411" lon="120.652140"/>
<trkpt lat="24.143827" lon="120.652137"/>
<trkpt lat="24.143829" lon="120.652543"/>
<trkpt lat="24.143829" lon="120.653014"/>
<trkpt lat="24.142998" lon="120.653013"/>
<trkpt lat="24.142645" lon="120.653013"/>
<trkpt lat="24.142645" lon="120.653979"/>
<trkpt lat="24.142314" lon="120.653979"/>
<trkpt lat="24.142220" lon="120.653980"/>
<trkpt lat="24.141843" lon="120.653981"/>
<trkpt lat="24.141468" lon="120.653982"/>
<trkpt lat="24.141449" lon="120.653982"/>
<trkpt lat="24.140971" lon="120.653983"/>
<trkpt lat="24.140971" lon="120.654054"/>
<trkpt lat="24.140541" lon="120.654663"/>
<trkpt lat="24.140452" lon="120.654586"/>
<trkpt lat="24.140364" lon="120.654579"/>
<trkpt lat="24.140234" lon="120.654579"/>
<trkpt lat="24.140142" lon="120.654579"/>
<trkpt lat="24.140037" lon="120.654582"/>
<trkpt lat="24.139909" lon="120.654582"/>
<trkpt lat="24.138988" lon="120.654580"/>
<trkpt lat="24.138917" lon="120.654580"/>
<trkpt lat="24.138836" lon="120.654581"/>
<trkpt lat="24.138434" lon="120.654582"/>
<trkpt lat="24.138433" lon="120.654679"/>
<trkpt lat="24.138432" lon="120.655034"/>
<trkpt lat="24.138432" lon="120.655142"/>
<trkpt lat="24.138158" lon="120.655141"/>
<trkpt lat="24.137883" lon="120.655141"/>
<trkpt lat="24.137615" lon="120.655140"/>
<trkpt lat="24.137116" lon="120.655141"/>
<trkpt lat="24.136552" lon="120.655141"/>
<trkpt lat="24.135946" lon="120.655144"/>
<trkpt lat="24.135220" lon="120.655141"/>
<trkpt lat="24.135253" lon="120.655076"/>
<trkpt lat="24.135251" lon="120.655058"/>
<trkpt lat="24.135116" lon="120.655062"/>
<trkpt lat="24.134969" lon="120.655067"/>
<trkpt lat="24.134968" lon="120.655053"/>
<trkpt lat="24.134957" lon="120.654689"/>
<trkpt lat="24.134861" lon="120.654661"/>
<trkpt lat="24.134861" lon="120.654644"/>
<trkpt lat="24.134862" lon="120.654590"/>
<trkpt lat="24.133380" lon="120.654586"/>
<trkpt lat="24.133382" lon="120.654505"/>
<trkpt lat="24.133299" lon="120.654506"/>
<trkpt lat="24.133301" lon="120.654061"/>
<trkpt lat="24.133306" lon="120.653208"/>
<trkpt lat="24.133224" lon="120.653209"/>
<trkpt lat="24.133223" lon="120.653122"/>
<trkpt lat="24.132668" lon="120.653128"/>
<trkpt lat="24.131996" lon="120.653145"/>
<trkpt lat="24.131378" lon="120.653168"/>
<trkpt lat="24.130836" lon="120.653192"/>
<trkpt lat="24.130823" lon="120.653378"/>
<trkpt lat="24.130825" lon="120.653427"/>
<trkpt lat="24.130838" lon="120.653488"/>
<trkpt lat="24.130864" lon="120.653539"/>
<trkpt lat="24.130871" lon="120.653604"/>
<trkpt lat="24.130869" lon="120.653689"/>
<trkpt lat="24.130849" lon="120.653736"/>
<trkpt lat="24.130864" lon="120.653797"/>
<trkpt lat="24.130888" lon="120.653864"/>
<trkpt lat="24.130901" lon="120.653947"/>
<trkpt lat="24.130906" lon="120.654014"/>
<trkpt lat="24.130906" lon="120.654114"/>
<trkpt lat="24.130897" lon="120.654193"/>
<trkpt lat="24.130864" lon="120.654281"/>
<trkpt lat="24.130779" lon="120.654309"/>
<trkpt lat="24.130732" lon="120.654309"/>
<trkpt lat="24.130676" lon="120.654291"/>
<trkpt lat="24.130590" lon="120.654283"/>
<trkpt lat="24.130469" lon="120.654322"/>
<trkpt lat="24.130324" lon="120.654254"/>
<trkpt lat="24.130094" lon="120.654265"/>
<trkpt lat="24.129937" lon="120.654198"/>
<trkpt lat="24.129872" lon="120.654320"/>
<trkpt lat="24.129724" lon="120.654491"/>
<trkpt lat="24.129622" lon="120.654585"/>
<trkpt lat="24.129287" lon="120.654585"/>
<trkpt lat="24.129143" lon="120.654502"/>
<trkpt lat="24.129050" lon="120.654473"/>
<trkpt lat="24.129071" lon="120.654527"/>
<trkpt lat="24.129113" lon="120.654610"/>
<trkpt lat="24.129149" lon="120.654667"/>
<trkpt lat="24.129275" lon="120.655008"/>
<trkpt lat="24.129352" lon="120.655020"/>
<trkpt lat="24.129422" lon="120.655223"/>
<trkpt lat="24.129314" lon="120.655277"/>
<trkpt lat="24.129285" lon="120.655292"/>
<trkpt lat="24.128896" lon="120.655488"/>
<trkpt lat="24.128630" lon="120.655619"/>
<trkpt lat="24.128601" lon="120.655633"/>
<trkpt lat="24.128356" lon="120.655755"/>
<trkpt lat="24.128279" lon="120.655794"/>
<trkpt lat="24.128446" lon="120.656221"/>
<trkpt lat="24.128481" lon="120.656270"/>
<trkpt lat="24.128607" lon="120.656559"/>
<trkpt lat="24.128612" lon="120.656600"/>
<trkpt lat="24.128511" lon="120.656836"/>
<trkpt lat="24.128475" lon="120.656954"/>
<trkpt lat="24.128427" lon="120.657321"/>
<trkpt lat="24.128171" lon="120.657321"/>
<trkpt lat="24.128099" lon="120.657318"/>
<trkpt lat="24.128097" lon="120.657650"/>
<trkpt lat="24.127808" lon="120.657797"/>
<trkpt lat="24.127502" lon="120.657953"/>
<trkpt lat="24.127724" lon="120.658447"/>
<trkpt lat="24.127589" lon="120.658440"/>
<trkpt lat="24.127490" lon="120.658466"/>
<trkpt lat="24.126889" lon="120.658763"/>
<trkpt lat="24.126590" lon="120.658908"/>
<trkpt lat="24.126009" lon="120.659219"/>
<trkpt lat="24.126140" lon="120.659518"/>
<trkpt lat="24.126250" lon="120.659633"/>
<trkpt lat="24.126368" lon="120.659884"/>
<trkpt lat="24.126382" lon="120.659923"/>
<trkpt lat="24.126283" lon="120.659976"/>
<trkpt lat="24.126180" lon="120.660022"/>
<trkpt lat="24.126121" lon="120.660050"/>
<trkpt lat="24.125902" lon="120.660159"/>
<trkpt lat="24.126306" lon="120.661089"/>
<trkpt lat="24.126121" lon="120.661191"/>
<trkpt lat="24.125703" lon="120.661180"/>
<trkpt lat="24.125702" lon="120.661514"/>
<trkpt lat="24.125700" lon="120.661839"/>
<trkpt lat="24.125714" lon="120.662230"/>
<trkpt lat="24.125099" lon="120.662221"/>
<trkpt lat="24.125113" lon="120.662380"/>
<trkpt lat="24.125187" lon="120.662704"/>
<trkpt lat="24.125373" lon="120.663315"/>
<trkpt lat="24.125183" lon="120.663173"/>
<trkpt lat="24.125020" lon="120.663238"/>
<trkpt lat="24.124878" lon="120.663279"/>
<trkpt lat="24.124772" lon="120.663312"/>
<trkpt lat="24.124637" lon="120.663360"/>
<trkpt lat="24.124560" lon="120.663396"/>
<trkpt lat="24.124465" lon="120.663580"/>
<trkpt lat="24.123801" lon="120.663084"/>
<trkpt lat="24.124195" lon="120.662456"/>
<trkpt lat="24.123497" lon="120.661941"/>
<trkpt lat="24.123818" lon="120.661447"/>
<trkpt lat="24.123809" lon="120.660491"/>
<trkpt lat="24.123779" lon="120.660401"/>
<trkpt lat="24.123759" lon="120.660330"/>
<trkpt lat="24.124193" lon="120.660115"/>
<trkpt lat="24.124325" lon="120.660001"/>
<trkpt lat="24.124396" lon="120.659970"/>
<trkpt lat="24.124626" lon="120.659854"/>
<trkpt lat="24.124693" lon="120.659817"/>
<trkpt lat="24.124560" lon="120.659514"/>
<trkpt lat="24.124209" lon="120.658712"/>
<trkpt lat="24.124859" lon="120.658023"/>
<trkpt lat="24.124630" lon="120.657627"/>
<trkpt lat="24.125067" lon="120.657395"/>
<trkpt lat="24.126222" lon="120.656822"/>
<trkpt lat="24.126308" lon="120.656780"/>
<trkpt lat="24.126186" lon="120.656237"/>
<trkpt lat="24.126077" lon="120.655760"/>
<trkpt lat="24.126071" lon="120.655746"/>
<trkpt lat="24.126847" lon="120.655366"/>
<trkpt lat="24.127624" lon="120.654978"/>
<trkpt lat="24.127593" lon="120.654920"/>
<trkpt lat="24.127662" lon="120.654883"/>
<trkpt lat="24.127716" lon="120.654856"/>
<trkpt lat="24.127818" lon="120.654801"/>
<trkpt lat="24.127703" lon="120.654621"/>
<trkpt lat="24.127455" lon="120.654336"/>
<trkpt lat="24.127299" lon="120.654132"/>
<trkpt lat="24.126966" lon="120.653700"/>
<trkpt lat="24.126791" lon="120.653476"/>
<trkpt lat="24.126783" lon="120.653465"/>
<trkpt lat="24.126739" lon="120.653453"/>
<trkpt lat="24.126730" lon="120.653442"/>
<trkpt lat="24.126651" lon="120.653346"/>
<trkpt lat="24.126677" lon="120.653345"/>
<trkpt lat="24.127257" lon="120.653323"/>
<trkpt lat="24.127408" lon="120.653324"/>
<trkpt lat="24.127939" lon="120.653301"/>
<trkpt lat="24.127355" lon="120.651352"/>
<trkpt lat="24.127125" lon="120.650611"/>
<trkpt lat="24.127650" lon="120.650278"/>
<trkpt lat="24.127725" lon="120.650231"/>
<trkpt lat="24.127823" lon="120.650204"/>
<trkpt lat="24.127922" lon="120.650194"/>
<trkpt lat="24.128499" lon="120.650136"/>
<trkpt lat="24.129501" lon="120.650012"/>
<trkpt lat="24.129515" lon="120.649125"/>
<trkpt lat="24.129513" lon="120.648254"/>
<trkpt lat="24.129521" lon="120.647254"/>
<trkpt lat="24.129521" lon="120.647212"/>
<trkpt lat="24.129524" lon="120.647148"/>
<trkpt lat="24.129524" lon="120.646506"/>
<trkpt lat="24.129524" lon="120.646281"/>
<trkpt lat="24.129527" lon="120.645393"/>
<trkpt lat="24.129528" lon="120.645081"/>
<trkpt lat="24.130159" lon="120.645085"/>
<trkpt lat="24.130339" lon="120.645080"/>
<trkpt lat="24.130685" lon="120.645084"/>
<trkpt lat="24.130683" lon="120.644914"/>
<trkpt lat="24.130689" lon="120.644838"/>
<trkpt lat="24.131071" lon="120.644831"/>
<trkpt lat="24.131071" lon="120.644612"/>
<trkpt lat="24.131070" lon="120.644408"/>
<trkpt lat="24.130693" lon="120.644401"/>
<trkpt lat="24.130695" lon="120.644210"/>
<trkpt lat="24.130689" lon="120.643945"/>
<trkpt lat="24.130786" lon="120.643947"/>
<trkpt lat="24.130792" lon="120.643821"/>
<trkpt lat="24.130795" lon="120.643740"/>
<trkpt lat="24.130793" lon="120.643558"/>
<trkpt lat="24.130791" lon="120.643436"/>
<trkpt lat="24.130920" lon="120.643326"/>
<trkpt lat="24.130976" lon="120.643314"/>
<trkpt lat="24.131033" lon="120.643300"/>
<trkpt lat="24.131076" lon="120.643293"/>
<trkpt lat="24.131133" lon="120.643297"/>
<trkpt lat="24.131163" lon="120.643289"/>
<trkpt lat="24.131309" lon="120.643122"/>
<trkpt lat="24.131219" lon="120.643017"/>
<trkpt lat="24.131405" lon="120.642812"/>
<trkpt lat="24.131332" lon="120.642692"/>
<trkpt lat="24.131346" lon="120.642275"/>
<trkpt lat="24.131382" lon="120.642208"/>
<trkpt lat="24.131368" lon="120.642026"/>
<trkpt lat="24.131552" lon="120.642049"/>
<trkpt lat="24.131691" lon="120.642045"/>
<trkpt lat="24.131799" lon="120.642085"/>
<trkpt lat="24.131914" lon="120.642150"/>
<trkpt lat="24.131967" lon="120.642253"/>
<trkpt lat="24.132066" lon="120.642257"/>
<trkpt lat="24.132067" lon="120.641980"/>
<trkpt lat="24.132074" lon="120.641387"/>
<trkpt lat="24.132074" lon="120.640662"/>
<trkpt lat="24.132777" lon="120.640683"/>
<trkpt lat="24.133403" lon="120.640703"/>
<trkpt lat="24.133409" lon="120.640321"/>
<trkpt lat="24.133428" lon="120.639965"/>
<trkpt lat="24.133459" lon="120.639629"/>
<trkpt lat="24.133509" lon="120.639299"/>
<trkpt lat="24.133669" lon="120.638639"/>
<trkpt lat="24.133689" lon="120.638573"/>
<trkpt lat="24.133735" lon="120.638404"/>
<trkpt lat="24.133750" lon="120.638350"/>
<trkpt lat="24.134091" lon="120.638477"/>
<trkpt lat="24.135094" lon="120.638849"/>
<trkpt lat="24.135284" lon="120.638251"/>
<trkpt lat="24.134792" lon="120.637945"/>
<trkpt lat="24.133996" lon="120.637477"/>
<trkpt lat="24.134157" lon="120.636904"/>
<trkpt lat="24.134320" lon="120.636318"/>
<trkpt lat="24.134236" lon="120.636287"/>
</trkseg></trk>
</gpx>