<?xml version="1.0" encoding="UTF-8"?>
<gpx version="1.1" creator="catrun" xmlns="http://www.topografix.com/GPX/1/1">
<metadata><name>北區 手繪蹲坐貓（原稿描圖） 圖形路跑路線</name></metadata>
<wpt lat="24.142131" lon="120.675533"><name>林烈堂別墅</name><desc>地標</desc></wpt>
<wpt lat="24.143552" lon="120.677578"><name>柳川水岸步道</name><desc>地標</desc></wpt>
<wpt lat="24.143894" lon="120.679524"><name>臺中市立圖書館中區分館</name><desc>地標</desc></wpt>
<trk><name>北區 手繪蹲坐貓（原稿描圖） 圖形路跑路線</name><trkseg>
<trkpt lat="24.141215" lon="120.678324"/>
<trkpt lat="24.140949" lon="120.678042"/>
<trkpt lat="24.141220" lon="120.677735"/>
<trkpt lat="24.141883" lon="120.676987"/>
<trkpt lat="24.141928" lon="120.677026"/>
<trkpt lat="24.141976" lon="120.677050"/>
<trkpt lat="24.142008" lon="120.677007"/>
<trkpt lat="24.142060" lon="120.677058"/>
<trkpt lat="24.142312" lon="120.677272"/>
<trkpt lat="24.142592" lon="120.677440"/>
<trkpt lat="24.142678" lon="120.677490"/>
<trkpt lat="24.142750" lon="120.677533"/>
<trkpt lat="24.142849" lon="120.677570"/>
<trkpt lat="24.142918" lon="120.677505"/>
<trkpt lat="24.142964" lon="120.677494"/>
<trkpt lat="24.143217" lon="120.677584"/>
<trkpt lat="24.143250" lon="120.677543"/>
<trkpt lat="24.143287" lon="120.677537"/>
<trkpt lat="24.143289" lon="120.677603"/>
<trkpt lat="24.143285" lon="120.677638"/>
<trkpt lat="24.143574" lon="120.677751"/>
<trkpt lat="24.143719" lon="120.677811"/>
<trkpt lat="24.143758" lon="120.677848"/>
<trkpt lat="24.143785" lon="120.677822"/>
<trkpt lat="24.143960" lon="120.677624"/>
<trkpt lat="24.143976" lon="120.677577"/>
<trkpt lat="24.143975" lon="120.677636"/>
<trkpt lat="24.144025" lon="120.677708"/>
<trkpt lat="24.144112" lon="120.677832"/>
<trkpt lat="24.144179" lon="120.677756"/>
<trkpt lat="24.144440" lon="120.678026"/>
<trkpt lat="24.144708" lon="120.678312"/>
<trkpt lat="24.144782" lon="120.678225"/>
<trkpt lat="24.144835" lon="120.678281"/>
<trkpt lat="24.144849" lon="120.678268"/>
<trkpt lat="24.145221" lon="120.677845"/>
<trkpt lat="24.145576" lon="120.678207"/>
<trkpt lat="24.146053" lon="120.677669"/>
<trkpt lat="24.146452" lon="120.678060"/>
<trkpt lat="24.146801" lon="120.677844"/>
<trkpt lat="24.147133" lon="120.677568"/>
<trkpt lat="24.147258" lon="120.677494"/>
<trkpt lat="24.147525" lon="120.677422"/>
<trkpt lat="24.147703" lon="120.677403"/>
<trkpt lat="24.147933" lon="120.677418"/>
<trkpt lat="24.148173" lon="120.677496"/>
<trkpt lat="24.148289" lon="120.677565"/>
<trkpt lat="24.148629" lon="120.677183"/>
<trkpt lat="24.148903" lon="120.676880"/>
<trkpt lat="24.148757" lon="120.676724"/>
<trkpt lat="24.148673" lon="120.676639"/>
<trkpt lat="24.148524" lon="120.676482"/>
<trkpt lat="24.148285" lon="120.676764"/>
<trkpt lat="24.148034" lon="120.677055"/>
<trkpt lat="24.147627" lon="120.676640"/>
<trkpt lat="24.147685" lon="120.676579"/>
<trkpt lat="24.147812" lon="120.676422"/>
<trkpt lat="24.148112" lon="120.676085"/>
<trkpt lat="24.147776" lon="120.675703"/>
<trkpt lat="24.147422" lon="120.675340"/>
<trkpt lat="24.147836" lon="120.674836"/>
<trkpt lat="24.148303" lon="120.674275"/>
<trkpt lat="24.148366" lon="120.674200"/>
<trkpt lat="24.149090" lon="120.674946"/>
<trkpt lat="24.149296" lon="120.674719"/>
<trkpt lat="24.149424" lon="120.674572"/>
<trkpt lat="24.149748" lon="120.674221"/>
<trkpt lat="24.150206" lon="120.674698"/>
<trkpt lat="24.150791" lon="120.675310"/>
<trkpt lat="24.150935" lon="120.675423"/>
<trkpt lat="24.151964" lon="120.676542"/>
<trkpt lat="24.152190" lon="120.676787"/>
<trkpt lat="24.152178" lon="120.677223"/>
<trkpt lat="24.152531" lon="120.677228"/>
<trkpt lat="24.152683" lon="120.677230"/>
<trkpt lat="24.152814" lon="120.677346"/>
<trkpt lat="24.152838" lon="120.677556"/>
<trkpt lat="24.152248" lon="120.677813"/>
<trkpt lat="24.151636" lon="120.678117"/>
<trkpt lat="24.151525" lon="120.678175"/>
<trkpt lat="24.150941" lon="120.678477"/>
<trkpt lat="24.151010" lon="120.678661"/>
<trkpt lat="24.150841" lon="120.678887"/>
<trkpt lat="24.150672" lon="120.679153"/>
<trkpt lat="24.150680" lon="120.679203"/>
<trkpt lat="24.150530" lon="120.679260"/>
<trkpt lat="24.150315" lon="120.679267"/>
<trkpt lat="24.149988" lon="120.678989"/>
<trkpt lat="24.149943" lon="120.679061"/>
<trkpt lat="24.149836" lon="120.679217"/>
<trkpt lat="24.149782" lon="120.679287"/>
<trkpt lat="24.150361" lon="120.679753"/>
<trkpt lat="24.150112" lon="120.680380"/>
<trkpt lat="24.150081" lon="120.680476"/>
<trkpt lat="24.149852" lon="120.681172"/>
<trkpt lat="24.149342" lon="120.680958"/>
<trkpt lat="24.149195" lon="120.680900"/>
<trkpt lat="24.148916" lon="120.681685"/>
<trkpt lat="24.148685" lon="120.682367"/>
<trkpt lat="24.148310" lon="120.683439"/>
<trkpt lat="24.148273" lon="120.683541"/>
<trkpt lat="24.148822" lon="120.683772"/>
<trkpt lat="24.149025" lon="120.683857"/>
<trkpt lat="24.148922" lon="120.684184"/>
<trkpt lat="24.148535" lon="120.684020"/>
<trkpt lat="24.148158" lon="120.683858"/>
<trkpt lat="24.148055" lon="120.684145"/>
<trkpt lat="24.147937" lon="120.684470"/>
<trkpt lat="24.147707" lon="120.684374"/>
<trkpt lat="24.147616" lon="120.684336"/>
<trkpt lat="24.147399" lon="120.684245"/>
<trkpt lat="24.147125" lon="120.684998"/>
<trkpt lat="24.147034" lon="120.685245"/>
<trkpt lat="24.147575" lon="120.685472"/>
<trkpt lat="24.147233" lon="120.686403"/>
<trkpt lat="24.146534" lon="120.686086"/>
<trkpt lat="24.146412" lon="120.686050"/>
<trkpt lat="24.146294" lon="120.686042"/>
<trkpt lat="24.146168" lon="120.686055"/>
<trkpt lat="24.146173" lon="120.685957"/>
<trkpt lat="24.146059" lon="120.685962"/>
<trkpt lat="24.145281" lon="120.685690"/>
<trkpt lat="24.145341" lon="120.685191"/>
<trkpt lat="24.145333" lon="120.685173"/>
<trkpt lat="24.145249" lon="120.685011"/>
<trkpt lat="24.145217" lon="120.684916"/>
<trkpt lat="24.144923" lon="120.684941"/>
<trkpt lat="24.144813" lon="120.684869"/>
<trkpt lat="24.144722" lon="120.684811"/>
<trkpt lat="24.144622" lon="120.684924"/>
<trkpt lat="24.144608" lon="120.685215"/>
<trkpt lat="24.144443" lon="120.685835"/>
<trkpt lat="24.144423" lon="120.686006"/>
<trkpt lat="24.144578" lon="120.686057"/>
<trkpt lat="24.144508" lon="120.686262"/>
<trkpt lat="24.144429" lon="120.686237"/>
<trkpt lat="24.144009" lon="120.686114"/>
<trkpt lat="24.143865" lon="120.686063"/>
<trkpt lat="24.143664" lon="120.685991"/>
<trkpt lat="24.143648" lon="120.686082"/>
<trkpt lat="24.143610" lon="120.686247"/>
<trkpt lat="24.143490" lon="120.687092"/>
<trkpt lat="24.143613" lon="120.687118"/>
<trkpt lat="24.144001" lon="120.687268"/>
<trkpt lat="24.143972" lon="120.687357"/>
<trkpt lat="24.143834" lon="120.687640"/>
<trkpt lat="24.143726" lon="120.687807"/>
<trkpt lat="24.143683" lon="120.687944"/>
<trkpt lat="24.143353" lon="120.687921"/>
<trkpt lat="24.143351" lon="120.687935"/>
<trkpt lat="24.143322" lon="120.688213"/>
<trkpt lat="24.143292" lon="120.688514"/>
<trkpt lat="24.143270" lon="120.688773"/>
<trkpt lat="24.143408" lon="120.688772"/>
<trkpt lat="24.143528" lon="120.688771"/>
<trkpt lat="24.143497" lon="120.689240"/>
<trkpt lat="24.143487" lon="120.689594"/>
<trkpt lat="24.143692" lon="120.689599"/>
<trkpt lat="24.143658" lon="120.690045"/>
<trkpt lat="24.143652" lon="120.690085"/>
<trkpt lat="24.143599" lon="120.690445"/>
<trkpt lat="24.143882" lon="120.690470"/>
<trkpt lat="24.143921" lon="120.690398"/>
<trkpt lat="24.144259" lon="120.690428"/>
<trkpt lat="24.144222" lon="120.690936"/>
<trkpt lat="24.144186" lon="120.691379"/>
<trkpt lat="24.144179" lon="120.691453"/>
<trkpt lat="24.144155" lon="120.691746"/>
<trkpt lat="24.144153" lon="120.691798"/>
<trkpt lat="24.144112" lon="120.692468"/>
<trkpt lat="24.143867" lon="120.692467"/>
<trkpt lat="24.143785" lon="120.692467"/>
<trkpt lat="24.143625" lon="120.692465"/>
<trkpt lat="24.143476" lon="120.692466"/>
<trkpt lat="24.143141" lon="120.692465"/>
<trkpt lat="24.143059" lon="120.692465"/>
<trkpt lat="24.143095" lon="120.691791"/>
<trkpt lat="24.143128" lon="120.691184"/>
<trkpt lat="24.143147" lon="120.690835"/>
<trkpt lat="24.143175" lon="120.690365"/>
<trkpt lat="24.143221" lon="120.689587"/>
<trkpt lat="24.143234" lon="120.689221"/>
<trkpt lat="24.143269" lon="120.688797"/>
<trkpt lat="24.142925" lon="120.688780"/>
<trkpt lat="24.142965" lon="120.688188"/>
<trkpt lat="24.142983" lon="120.687927"/>
<trkpt lat="24.143004" lon="120.687633"/>
<trkpt lat="24.142279" lon="120.687599"/>
<trkpt lat="24.142308" lon="120.686930"/>
<trkpt lat="24.142332" lon="120.686887"/>
<trkpt lat="24.142383" lon="120.686861"/>
<trkpt lat="24.143061" lon="120.686864"/>
<trkpt lat="24.143105" lon="120.686106"/>
<trkpt lat="24.143172" lon="120.685896"/>
<trkpt lat="24.142988" lon="120.685898"/>
<trkpt lat="24.142999" lon="120.685730"/>
<trkpt lat="24.143187" lon="120.685726"/>
<trkpt lat="24.143203" lon="120.685484"/>
<trkpt lat="24.143196" lon="120.685438"/>
<trkpt lat="24.143186" lon="120.685403"/>
<trkpt lat="24.143271" lon="120.685331"/>
<trkpt lat="24.143305" lon="120.685295"/>
<trkpt lat="24.143474" lon="120.685121"/>
<trkpt lat="24.143581" lon="120.684980"/>
<trkpt lat="24.143400" lon="120.684935"/>
<trkpt lat="24.142943" lon="120.684685"/>
<trkpt lat="24.142862" lon="120.684723"/>
<trkpt lat="24.142792" lon="120.684723"/>
<trkpt lat="24.142748" lon="120.684663"/>
<trkpt lat="24.142722" lon="120.684663"/>
<trkpt lat="24.142701" lon="120.684609"/>
<trkpt lat="24.142566" lon="120.684486"/>
<trkpt lat="24.142529" lon="120.684474"/>
<trkpt lat="24.142268" lon="120.684426"/>
<trkpt lat="24.141884" lon="120.684034"/>
<trkpt lat="24.141835" lon="120.683985"/>
<trkpt lat="24.141518" lon="120.683661"/>
<trkpt lat="24.142220" lon="120.682856"/>
<trkpt lat="24.141867" lon="120.682491"/>
<trkpt lat="24.141507" lon="120.682117"/>
<trkpt lat="24.141834" lon="120.681742"/>
<trkpt lat="24.142181" lon="120.681363"/>
<trkpt lat="24.141814" lon="120.680972"/>
<trkpt lat="24.141562" lon="120.680700"/>
<trkpt lat="24.141609" lon="120.680644"/>
<trkpt lat="24.141539" lon="120.680572"/>
<trkpt lat="24.141711" lon="120.680372"/>
<trkpt lat="24.141770" lon="120.680306"/>
<trkpt lat="24.141905" lon="120.680149"/>
<trkpt lat="24.141958" lon="120.680090"/>
<trkpt lat="24.142118" lon="120.679907"/>
<trkpt lat="24.142333" lon="120.679658"/>
<trkpt lat="24.142270" lon="120.679592"/>
<trkpt lat="24.142286" lon="120.679574"/>
<trkpt lat="24.142283" lon="120.679528"/>
<trkpt lat="24.142271" lon="120.679518"/>
<trkpt lat="24.142329" lon="120.679452"/>
<trkpt lat="24.142050" lon="120.679175"/>
<trkpt lat="24.142109" lon="120.679083"/>
<trkpt lat="24.142198" lon="120.678993"/>
<trkpt lat="24.141934" lon="120.678720"/>
<trkpt lat="24.141823" lon="120.678775"/>
<trkpt lat="24.141672" lon="120.678787"/>
<trkpt lat="24.141494" lon="120.678602"/>
<trkpt lat="24.141215" lon="120.678324"/>
</trkseg></trk>
</gpx>