<?xml version="1.0" encoding="UTF-8"?>
<gpx version="1.1" creator="catrun" xmlns="http://www.topografix.com/GPX/1/1">
<metadata><name>清水區 手繪蹲坐貓（原稿描圖） 圖形路跑路線</name></metadata>
<wpt lat="24.264664" lon="120.537092"><name>頂魚寮公園</name><desc>地標</desc></wpt>
<wpt lat="24.266150" lon="120.532946"><name>地景公園</name><desc>地標</desc></wpt>
<wpt lat="24.265302" lon="120.545944"><name>槺榔運動公園</name><desc>地標</desc></wpt>
<trk><name>清水區 手繪蹲坐貓（原稿描圖） 圖形路跑路線</name><trkseg>
<trkpt lat="24.261406" lon="120.537744"/>
<trkpt lat="24.261588" lon="120.537245"/>
<trkpt lat="24.261270" lon="120.537111"/>
<trkpt lat="24.261289" lon="120.537041"/>
<trkpt lat="24.261616" lon="120.537175"/>
<trkpt lat="24.262358" lon="120.537476"/>
<trkpt lat="24.262452" lon="120.537219"/>
<trkpt lat="24.262751" lon="120.536405"/>
<trkpt lat="24.262878" lon="120.536059"/>
<trkpt lat="24.263041" lon="120.535613"/>
<trkpt lat="24.263183" lon="120.535227"/>
<trkpt lat="24.263300" lon="120.535278"/>
<trkpt lat="24.263357" lon="120.535304"/>
<trkpt lat="24.263365" lon="120.535307"/>
<trkpt lat="24.263365" lon="120.535313"/>
<trkpt lat="24.263370" lon="120.535313"/>
<trkpt lat="24.263376" lon="120.535314"/>
<trkpt lat="24.263673" lon="120.535440"/>
<trkpt lat="24.263773" lon="120.535483"/>
<trkpt lat="24.263897" lon="120.535535"/>
<trkpt lat="24.263885" lon="120.535570"/>
<trkpt lat="24.263981" lon="120.535611"/>
<trkpt lat="24.264450" lon="120.535810"/>
<trkpt lat="24.264456" lon="120.535791"/>
<trkpt lat="24.264462" lon="120.535775"/>
<trkpt lat="24.264464" lon="120.535776"/>
<trkpt lat="24.264475" lon="120.535781"/>
<trkpt lat="24.264518" lon="120.535799"/>
<trkpt lat="24.264557" lon="120.535755"/>
<trkpt lat="24.264581" lon="120.535686"/>
<trkpt lat="24.265273" lon="120.533747"/>
<trkpt lat="24.265299" lon="120.533673"/>
<trkpt lat="24.265371" lon="120.533704"/>
<trkpt lat="24.265349" lon="120.533766"/>
<trkpt lat="24.265737" lon="120.533930"/>
<trkpt lat="24.265738" lon="120.533930"/>
<trkpt lat="24.265876" lon="120.533989"/>
<trkpt lat="24.265898" lon="120.533927"/>
<trkpt lat="24.265944" lon="120.533799"/>
<trkpt lat="24.265966" lon="120.533737"/>
<trkpt lat="24.266321" lon="120.533887"/>
<trkpt lat="24.266327" lon="120.533889"/>
<trkpt lat="24.266332" lon="120.533889"/>
<trkpt lat="24.266335" lon="120.533888"/>
<trkpt lat="24.266311" lon="120.533954"/>
<trkpt lat="24.266370" lon="120.533979"/>
<trkpt lat="24.266452" lon="120.534014"/>
<trkpt lat="24.266474" lon="120.533952"/>
<trkpt lat="24.266460" lon="120.533946"/>
<trkpt lat="24.266454" lon="120.533943"/>
<trkpt lat="24.266450" lon="120.533938"/>
<trkpt lat="24.266447" lon="120.533933"/>
<trkpt lat="24.266445" lon="120.533927"/>
<trkpt lat="24.266445" lon="120.533920"/>
<trkpt lat="24.266447" lon="120.533914"/>
<trkpt lat="24.266610" lon="120.533460"/>
<trkpt lat="24.266974" lon="120.532449"/>
<trkpt lat="24.266977" lon="120.532443"/>
<trkpt lat="24.266981" lon="120.532439"/>
<trkpt lat="24.266986" lon="120.532435"/>
<trkpt lat="24.266991" lon="120.532433"/>
<trkpt lat="24.266997" lon="120.532433"/>
<trkpt lat="24.267003" lon="120.532435"/>
<trkpt lat="24.267566" lon="120.532674"/>
<trkpt lat="24.268125" lon="120.532911"/>
<trkpt lat="24.268131" lon="120.532914"/>
<trkpt lat="24.268135" lon="120.532918"/>
<trkpt lat="24.268138" lon="120.532924"/>
<trkpt lat="24.268139" lon="120.532930"/>
<trkpt lat="24.268140" lon="120.532936"/>
<trkpt lat="24.268139" lon="120.532938"/>
<trkpt lat="24.268196" lon="120.532962"/>
<trkpt lat="24.268315" lon="120.533012"/>
<trkpt lat="24.268125" lon="120.533547"/>
<trkpt lat="24.268062" lon="120.533726"/>
<trkpt lat="24.268177" lon="120.533775"/>
<trkpt lat="24.268200" lon="120.533713"/>
<trkpt lat="24.268197" lon="120.533709"/>
<trkpt lat="24.268194" lon="120.533703"/>
<trkpt lat="24.268190" lon="120.533697"/>
<trkpt lat="24.268187" lon="120.533691"/>
<trkpt lat="24.268184" lon="120.533684"/>
<trkpt lat="24.268182" lon="120.533678"/>
<trkpt lat="24.268180" lon="120.533671"/>
<trkpt lat="24.268178" lon="120.533664"/>
<trkpt lat="24.268176" lon="120.533657"/>
<trkpt lat="24.268175" lon="120.533650"/>
<trkpt lat="24.268174" lon="120.533642"/>
<trkpt lat="24.268173" lon="120.533635"/>
<trkpt lat="24.268173" lon="120.533628"/>
<trkpt lat="24.268173" lon="120.533621"/>
<trkpt lat="24.268173" lon="120.533614"/>
<trkpt lat="24.268174" lon="120.533606"/>
<trkpt lat="24.268175" lon="120.533599"/>
<trkpt lat="24.268176" lon="120.533592"/>
<trkpt lat="24.268178" lon="120.533585"/>
<trkpt lat="24.268180" lon="120.533578"/>
<trkpt lat="24.268182" lon="120.533571"/>
<trkpt lat="24.268214" lon="120.533481"/>
<trkpt lat="24.268237" lon="120.533416"/>
<trkpt lat="24.268295" lon="120.533251"/>
<trkpt lat="24.268370" lon="120.533041"/>
<trkpt lat="24.268372" lon="120.533036"/>
<trkpt lat="24.268372" lon="120.533035"/>
<trkpt lat="24.268376" lon="120.533030"/>
<trkpt lat="24.268382" lon="120.533027"/>
<trkpt lat="24.268387" lon="120.533025"/>
<trkpt lat="24.268393" lon="120.533025"/>
<trkpt lat="24.268399" lon="120.533027"/>
<trkpt lat="24.268594" lon="120.533109"/>
<trkpt lat="24.268893" lon="120.533236"/>
<trkpt lat="24.268966" lon="120.533267"/>
<trkpt lat="24.269022" lon="120.533291"/>
<trkpt lat="24.269144" lon="120.533343"/>
<trkpt lat="24.269179" lon="120.533357"/>
<trkpt lat="24.269214" lon="120.533372"/>
<trkpt lat="24.269415" lon="120.533457"/>
<trkpt lat="24.269499" lon="120.533493"/>
<trkpt lat="24.269542" lon="120.533511"/>
<trkpt lat="24.270100" lon="120.533747"/>
<trkpt lat="24.270105" lon="120.533750"/>
<trkpt lat="24.270109" lon="120.533755"/>
<trkpt lat="24.270112" lon="120.533761"/>
<trkpt lat="24.270114" lon="120.533767"/>
<trkpt lat="24.270114" lon="120.533773"/>
<trkpt lat="24.270112" lon="120.533780"/>
<trkpt lat="24.269876" lon="120.534421"/>
<trkpt lat="24.269873" lon="120.534427"/>
<trkpt lat="24.269869" lon="120.534431"/>
<trkpt lat="24.269864" lon="120.534434"/>
<trkpt lat="24.269858" lon="120.534436"/>
<trkpt lat="24.269852" lon="120.534436"/>
<trkpt lat="24.269846" lon="120.534435"/>
<trkpt lat="24.269844" lon="120.534434"/>
<trkpt lat="24.269829" lon="120.534475"/>
<trkpt lat="24.269799" lon="120.534557"/>
<trkpt lat="24.269783" lon="120.534598"/>
<trkpt lat="24.269785" lon="120.534599"/>
<trkpt lat="24.269790" lon="120.534602"/>
<trkpt lat="24.269795" lon="120.534607"/>
<trkpt lat="24.269798" lon="120.534612"/>
<trkpt lat="24.269800" lon="120.534618"/>
<trkpt lat="24.269800" lon="120.534625"/>
<trkpt lat="24.269798" lon="120.534631"/>
<trkpt lat="24.269688" lon="120.534930"/>
<trkpt lat="24.269576" lon="120.535232"/>
<trkpt lat="24.269573" lon="120.535238"/>
<trkpt lat="24.269569" lon="120.535242"/>
<trkpt lat="24.269567" lon="120.535244"/>
<trkpt lat="24.269541" lon="120.535314"/>
<trkpt lat="24.269494" lon="120.535442"/>
<trkpt lat="24.269467" lon="120.535514"/>
<trkpt lat="24.269468" lon="120.535516"/>
<trkpt lat="24.269468" lon="120.535523"/>
<trkpt lat="24.269467" lon="120.535529"/>
<trkpt lat="24.269324" lon="120.535916"/>
<trkpt lat="24.269182" lon="120.536301"/>
<trkpt lat="24.269179" lon="120.536307"/>
<trkpt lat="24.269175" lon="120.536311"/>
<trkpt lat="24.269170" lon="120.536315"/>
<trkpt lat="24.269152" lon="120.536362"/>
<trkpt lat="24.269122" lon="120.536445"/>
<trkpt lat="24.269104" lon="120.536492"/>
<trkpt lat="24.269101" lon="120.536487"/>
<trkpt lat="24.269096" lon="120.536482"/>
<trkpt lat="24.269091" lon="120.536479"/>
<trkpt lat="24.268408" lon="120.536189"/>
<trkpt lat="24.268240" lon="120.536118"/>
<trkpt lat="24.268237" lon="120.536128"/>
<trkpt lat="24.268230" lon="120.536146"/>
<trkpt lat="24.268398" lon="120.536217"/>
<trkpt lat="24.269071" lon="120.536502"/>
<trkpt lat="24.268900" lon="120.536964"/>
<trkpt lat="24.268730" lon="120.537426"/>
<trkpt lat="24.268067" lon="120.537145"/>
<trkpt lat="24.267900" lon="120.537074"/>
<trkpt lat="24.267893" lon="120.537092"/>
<trkpt lat="24.267888" lon="120.537108"/>
<trkpt lat="24.268055" lon="120.537179"/>
<trkpt lat="24.268728" lon="120.537465"/>
<trkpt lat="24.268733" lon="120.537466"/>
<trkpt lat="24.268739" lon="120.537466"/>
<trkpt lat="24.268745" lon="120.537465"/>
<trkpt lat="24.268749" lon="120.537474"/>
<trkpt lat="24.268729" lon="120.537526"/>
<trkpt lat="24.268710" lon="120.537579"/>
<trkpt lat="24.268701" lon="120.537583"/>
<trkpt lat="24.268703" lon="120.537589"/>
<trkpt lat="24.268703" lon="120.537596"/>
<trkpt lat="24.268701" lon="120.537602"/>
<trkpt lat="24.268527" lon="120.538075"/>
<trkpt lat="24.268354" lon="120.538542"/>
<trkpt lat="24.268351" lon="120.538548"/>
<trkpt lat="24.268347" lon="120.538552"/>
<trkpt lat="24.268342" lon="120.538556"/>
<trkpt lat="24.268337" lon="120.538557"/>
<trkpt lat="24.268331" lon="120.538558"/>
<trkpt lat="24.268325" lon="120.538556"/>
<trkpt lat="24.268310" lon="120.538597"/>
<trkpt lat="24.268279" lon="120.538679"/>
<trkpt lat="24.268264" lon="120.538720"/>
<trkpt lat="24.268269" lon="120.538723"/>
<trkpt lat="24.268273" lon="120.538728"/>
<trkpt lat="24.268276" lon="120.538733"/>
<trkpt lat="24.268278" lon="120.538740"/>
<trkpt lat="24.268278" lon="120.538746"/>
<trkpt lat="24.268277" lon="120.538752"/>
<trkpt lat="24.268107" lon="120.539212"/>
<trkpt lat="24.267934" lon="120.539681"/>
<trkpt lat="24.267931" lon="120.539687"/>
<trkpt lat="24.267927" lon="120.539692"/>
<trkpt lat="24.267922" lon="120.539695"/>
<trkpt lat="24.267921" lon="120.539695"/>
<trkpt lat="24.267897" lon="120.539761"/>
<trkpt lat="24.267853" lon="120.539879"/>
<trkpt lat="24.267908" lon="120.539902"/>
<trkpt lat="24.267967" lon="120.539927"/>
<trkpt lat="24.267944" lon="120.539990"/>
<trkpt lat="24.267944" lon="120.539990"/>
<trkpt lat="24.267938" lon="120.539991"/>
<trkpt lat="24.267933" lon="120.539995"/>
<trkpt lat="24.267929" lon="120.539999"/>
<trkpt lat="24.267926" lon="120.540005"/>
<trkpt lat="24.267888" lon="120.540109"/>
<trkpt lat="24.267867" lon="120.540165"/>
<trkpt lat="24.267847" lon="120.540218"/>
<trkpt lat="24.267834" lon="120.540255"/>
<trkpt lat="24.267820" lon="120.540292"/>
<trkpt lat="24.267806" lon="120.540329"/>
<trkpt lat="24.267793" lon="120.540366"/>
<trkpt lat="24.267779" lon="120.540402"/>
<trkpt lat="24.267763" lon="120.540447"/>
<trkpt lat="24.267750" lon="120.540483"/>
<trkpt lat="24.267736" lon="120.540520"/>
<trkpt lat="24.267723" lon="120.540556"/>
<trkpt lat="24.267707" lon="120.540599"/>
<trkpt lat="24.267671" lon="120.540695"/>
<trkpt lat="24.267670" lon="120.540701"/>
<trkpt lat="24.267670" lon="120.540707"/>
<trkpt lat="24.267672" lon="120.540714"/>
<trkpt lat="24.267675" lon="120.540719"/>
<trkpt lat="24.267658" lon="120.540763"/>
<trkpt lat="24.267628" lon="120.540846"/>
<trkpt lat="24.267569" lon="120.540821"/>
<trkpt lat="24.267550" lon="120.540871"/>
<trkpt lat="24.267272" lon="120.541624"/>
<trkpt lat="24.267242" lon="120.541707"/>
<trkpt lat="24.267179" lon="120.541680"/>
<trkpt lat="24.266856" lon="120.541543"/>
<trkpt lat="24.265503" lon="120.540968"/>
<trkpt lat="24.265482" lon="120.541027"/>
<trkpt lat="24.265487" lon="120.541025"/>
<trkpt lat="24.265493" lon="120.541025"/>
<trkpt lat="24.265499" lon="120.541027"/>
<trkpt lat="24.266131" lon="120.541296"/>
<trkpt lat="24.266461" lon="120.541436"/>
<trkpt lat="24.266768" lon="120.541566"/>
<trkpt lat="24.266773" lon="120.541569"/>
<trkpt lat="24.266777" lon="120.541574"/>
<trkpt lat="24.266780" lon="120.541579"/>
<trkpt lat="24.266782" lon="120.541585"/>
<trkpt lat="24.266782" lon="120.541592"/>
<trkpt lat="24.266781" lon="120.541598"/>
<trkpt lat="24.266551" lon="120.542259"/>
<trkpt lat="24.266424" lon="120.542626"/>
<trkpt lat="24.266307" lon="120.542964"/>
<trkpt lat="24.266304" lon="120.542970"/>
<trkpt lat="24.266301" lon="120.542976"/>
<trkpt lat="24.266297" lon="120.542981"/>
<trkpt lat="24.266293" lon="120.542986"/>
<trkpt lat="24.266288" lon="120.542991"/>
<trkpt lat="24.266282" lon="120.542994"/>
<trkpt lat="24.266277" lon="120.542997"/>
<trkpt lat="24.266270" lon="120.542999"/>
<trkpt lat="24.266264" lon="120.543000"/>
<trkpt lat="24.266258" lon="120.543000"/>
<trkpt lat="24.266252" lon="120.543000"/>
<trkpt lat="24.266245" lon="120.542999"/>
<trkpt lat="24.266239" lon="120.542997"/>
<trkpt lat="24.266154" lon="120.542960"/>
<trkpt lat="24.265816" lon="120.542814"/>
<trkpt lat="24.265757" lon="120.542789"/>
<trkpt lat="24.265644" lon="120.542741"/>
<trkpt lat="24.265472" lon="120.542666"/>
<trkpt lat="24.265407" lon="120.542639"/>
<trkpt lat="24.265345" lon="120.542612"/>
<trkpt lat="24.265303" lon="120.542594"/>
<trkpt lat="24.265223" lon="120.542559"/>
<trkpt lat="24.265217" lon="120.542557"/>
<trkpt lat="24.265210" lon="120.542554"/>
<trkpt lat="24.265204" lon="120.542551"/>
<trkpt lat="24.265198" lon="120.542547"/>
<trkpt lat="24.265192" lon="120.542544"/>
<trkpt lat="24.265186" lon="120.542540"/>
<trkpt lat="24.265180" lon="120.542537"/>
<trkpt lat="24.265175" lon="120.542533"/>
<trkpt lat="24.265169" lon="120.542529"/>
<trkpt lat="24.265163" lon="120.542524"/>
<trkpt lat="24.265158" lon="120.542520"/>
<trkpt lat="24.265153" lon="120.542516"/>
<trkpt lat="24.265147" lon="120.542511"/>
<trkpt lat="24.265142" lon="120.542506"/>
<trkpt lat="24.265137" lon="120.542501"/>
<trkpt lat="24.265132" lon="120.542496"/>
<trkpt lat="24.265127" lon="120.542491"/>
<trkpt lat="24.265123" lon="120.542486"/>
<trkpt lat="24.265118" lon="120.542480"/>
<trkpt lat="24.265113" lon="120.542475"/>
<trkpt lat="24.265109" lon="120.542469"/>
<trkpt lat="24.265105" lon="120.542464"/>
<trkpt lat="24.265101" lon="120.542458"/>
<trkpt lat="24.265097" lon="120.542452"/>
<trkpt lat="24.265093" lon="120.542446"/>
<trkpt lat="24.265089" lon="120.542440"/>
<trkpt lat="24.265086" lon="120.542433"/>
<trkpt lat="24.265082" lon="120.542427"/>
<trkpt lat="24.265079" lon="120.542421"/>
<trkpt lat="24.265076" lon="120.542414"/>
<trkpt lat="24.265073" lon="120.542407"/>
<trkpt lat="24.265070" lon="120.542401"/>
<trkpt lat="24.265067" lon="120.542394"/>
<trkpt lat="24.265065" lon="120.542387"/>
<trkpt lat="24.265062" lon="120.542380"/>
<trkpt lat="24.265062" lon="120.542378"/>
<trkpt lat="24.264941" lon="120.542326"/>
<trkpt lat="24.264895" lon="120.542306"/>
<trkpt lat="24.264869" lon="120.542295"/>
<trkpt lat="24.264823" lon="120.542275"/>
<trkpt lat="24.264762" lon="120.542444"/>
<trkpt lat="24.264663" lon="120.542719"/>
<trkpt lat="24.262587" lon="120.541826"/>
<trkpt lat="24.262812" lon="120.542700"/>
<trkpt lat="24.263238" lon="120.542866"/>
<trkpt lat="24.263773" lon="120.543087"/>
<trkpt lat="24.263219" lon="120.544311"/>
<trkpt lat="24.263372" lon="120.544906"/>
<trkpt lat="24.263624" lon="120.545034"/>
<trkpt lat="24.263689" lon="120.545102"/>
<trkpt lat="24.263811" lon="120.545173"/>
<trkpt lat="24.263827" lon="120.545182"/>
<trkpt lat="24.263849" lon="120.545124"/>
<trkpt lat="24.263990" lon="120.544751"/>
<trkpt lat="24.263994" lon="120.544742"/>
<trkpt lat="24.263999" lon="120.544735"/>
<trkpt lat="24.264005" lon="120.544729"/>
<trkpt lat="24.264012" lon="120.544724"/>
<trkpt lat="24.264020" lon="120.544720"/>
<trkpt lat="24.264028" lon="120.544718"/>
<trkpt lat="24.264036" lon="120.544717"/>
<trkpt lat="24.264045" lon="120.544719"/>
<trkpt lat="24.264053" lon="120.544721"/>
<trkpt lat="24.264167" lon="120.544770"/>
<trkpt lat="24.264389" lon="120.544865"/>
<trkpt lat="24.264430" lon="120.544883"/>
<trkpt lat="24.264570" lon="120.544943"/>
<trkpt lat="24.264581" lon="120.544948"/>
<trkpt lat="24.264718" lon="120.545007"/>
<trkpt lat="24.264868" lon="120.545071"/>
<trkpt lat="24.264950" lon="120.545107"/>
<trkpt lat="24.264761" lon="120.545666"/>
<trkpt lat="24.264741" lon="120.545721"/>
<trkpt lat="24.265361" lon="120.546091"/>
<trkpt lat="24.265949" lon="120.546452"/>
<trkpt lat="24.265988" lon="120.546475"/>
<trkpt lat="24.265964" lon="120.546537"/>
<trkpt lat="24.265868" lon="120.546791"/>
<trkpt lat="24.265839" lon="120.546898"/>
<trkpt lat="24.265827" lon="120.546943"/>
<trkpt lat="24.265747" lon="120.547298"/>
<trkpt lat="24.265739" lon="120.547332"/>
<trkpt lat="24.265732" lon="120.547367"/>
<trkpt lat="24.265618" lon="120.547862"/>
<trkpt lat="24.265585" lon="120.547850"/>
<trkpt lat="24.265494" lon="120.547811"/>
<trkpt lat="24.264924" lon="120.547572"/>
<trkpt lat="24.264835" lon="120.547531"/>
<trkpt lat="24.264868" lon="120.547437"/>
<trkpt lat="24.264988" lon="120.547131"/>
<trkpt lat="24.265215" lon="120.546623"/>
<trkpt lat="24.265732" lon="120.546853"/>
<trkpt lat="24.265839" lon="120.546898"/>
<trkpt lat="24.265868" lon="120.546791"/>
<trkpt lat="24.265964" lon="120.546537"/>
<trkpt lat="24.265988" lon="120.546475"/>
<trkpt lat="24.265949" lon="120.546452"/>
<trkpt lat="24.265361" lon="120.546091"/>
<trkpt lat="24.264741" lon="120.545721"/>
<trkpt lat="24.264761" lon="120.545666"/>
<trkpt lat="24.264950" lon="120.545107"/>
<trkpt lat="24.264868" lon="120.545071"/>
<trkpt lat="24.264718" lon="120.545007"/>
<trkpt lat="24.264581" lon="120.544948"/>
<trkpt lat="24.264570" lon="120.544943"/>
<trkpt lat="24.264430" lon="120.544883"/>
<trkpt lat="24.264389" lon="120.544865"/>
<trkpt lat="24.264167" lon="120.544770"/>
<trkpt lat="24.264053" lon="120.544721"/>
<trkpt lat="24.264045" lon="120.544719"/>
<trkpt lat="24.264036" lon="120.544717"/>
<trkpt lat="24.264028" lon="120.544718"/>
<trkpt lat="24.264020" lon="120.544720"/>
<trkpt lat="24.264012" lon="120.544724"/>
<trkpt lat="24.264005" lon="120.544729"/>
<trkpt lat="24.263999" lon="120.544735"/>
<trkpt lat="24.263994" lon="120.544742"/>
<trkpt lat="24.263990" lon="120.544751"/>
<trkpt lat="24.263849" lon="120.545124"/>
<trkpt lat="24.263827" lon="120.545182"/>
<trkpt lat="24.263811" lon="120.545173"/>
<trkpt lat="24.263689" lon="120.545102"/>
<trkpt lat="24.263624" lon="120.545034"/>
<trkpt lat="24.263372" lon="120.544906"/>
<trkpt lat="24.263219" lon="120.544311"/>
<trkpt lat="24.263125" lon="120.543929"/>
<trkpt lat="24.262998" lon="120.543451"/>
<trkpt lat="24.262812" lon="120.542700"/>
<trkpt lat="24.262587" lon="120.541826"/>
<trkpt lat="24.262678" lon="120.541548"/>
<trkpt lat="24.262996" lon="120.541685"/>
<trkpt lat="24.263032" lon="120.541586"/>
<trkpt lat="24.262947" lon="120.541550"/>
<trkpt lat="24.262945" lon="120.541551"/>
<trkpt lat="24.262940" lon="120.541555"/>
<trkpt lat="24.262934" lon="120.541559"/>
<trkpt lat="24.262928" lon="120.541561"/>
<trkpt lat="24.262922" lon="120.541562"/>
<trkpt lat="24.262915" lon="120.541563"/>
<trkpt lat="24.262909" lon="120.541563"/>
<trkpt lat="24.262902" lon="120.541562"/>
<trkpt lat="24.262896" lon="120.541559"/>
<trkpt lat="24.262630" lon="120.541445"/>
<trkpt lat="24.262431" lon="120.541359"/>
<trkpt lat="24.262425" lon="120.541357"/>
<trkpt lat="24.262419" lon="120.541353"/>
<trkpt lat="24.262413" lon="120.541350"/>
<trkpt lat="24.262407" lon="120.541347"/>
<trkpt lat="24.262401" lon="120.541343"/>
<trkpt lat="24.262395" lon="120.541340"/>
<trkpt lat="24.262390" lon="120.541336"/>
<trkpt lat="24.262384" lon="120.541332"/>
<trkpt lat="24.262379" lon="120.541327"/>
<trkpt lat="24.262373" lon="120.541323"/>
<trkpt lat="24.262368" lon="120.541318"/>
<trkpt lat="24.262363" lon="120.541314"/>
<trkpt lat="24.262358" lon="120.541309"/>
<trkpt lat="24.262353" lon="120.541304"/>
<trkpt lat="24.262348" lon="120.541298"/>
<trkpt lat="24.262344" lon="120.541293"/>
<trkpt lat="24.262339" lon="120.541288"/>
<trkpt lat="24.262335" lon="120.541282"/>
<trkpt lat="24.262331" lon="120.541276"/>
<trkpt lat="24.262327" lon="120.541270"/>
<trkpt lat="24.262323" lon="120.541264"/>
<trkpt lat="24.262319" lon="120.541258"/>
<trkpt lat="24.262316" lon="120.541252"/>
<trkpt lat="24.262312" lon="120.541246"/>
<trkpt lat="24.262309" lon="120.541239"/>
<trkpt lat="24.262306" lon="120.541233"/>
<trkpt lat="24.262303" lon="120.541226"/>
<trkpt lat="24.262301" lon="120.541219"/>
<trkpt lat="24.262298" lon="120.541212"/>
<trkpt lat="24.262296" lon="120.541205"/>
<trkpt lat="24.262294" lon="120.541198"/>
<trkpt lat="24.262292" lon="120.541191"/>
<trkpt lat="24.262291" lon="120.541190"/>
<trkpt lat="24.262290" lon="120.541184"/>
<trkpt lat="24.262289" lon="120.541177"/>
<trkpt lat="24.262287" lon="120.541170"/>
<trkpt lat="24.262286" lon="120.541163"/>
<trkpt lat="24.262285" lon="120.541156"/>
<trkpt lat="24.262284" lon="120.541148"/>
<trkpt lat="24.262283" lon="120.541141"/>
<trkpt lat="24.262283" lon="120.541134"/>
<trkpt lat="24.262283" lon="120.541126"/>
<trkpt lat="24.262283" lon="120.541119"/>
<trkpt lat="24.262283" lon="120.541112"/>
<trkpt lat="24.262283" lon="120.541104"/>
<trkpt lat="24.262284" lon="120.541097"/>
<trkpt lat="24.262285" lon="120.541090"/>
<trkpt lat="24.262286" lon="120.541082"/>
<trkpt lat="24.262287" lon="120.541075"/>
<trkpt lat="24.262288" lon="120.541068"/>
<trkpt lat="24.262289" lon="120.541061"/>
<trkpt lat="24.262291" lon="120.541054"/>
<trkpt lat="24.262293" lon="120.541047"/>
<trkpt lat="24.262295" lon="120.541040"/>
<trkpt lat="24.262297" lon="120.541033"/>
<trkpt lat="24.262300" lon="120.541026"/>
<trkpt lat="24.262457" lon="120.540598"/>
<trkpt lat="24.262518" lon="120.540430"/>
<trkpt lat="24.262541" lon="120.540369"/>
<trkpt lat="24.262575" lon="120.540276"/>
<trkpt lat="24.262639" lon="120.540100"/>
<trkpt lat="24.262656" lon="120.540054"/>
<trkpt lat="24.262722" lon="120.539873"/>
<trkpt lat="24.262725" lon="120.539868"/>
<trkpt lat="24.262729" lon="120.539863"/>
<trkpt lat="24.262689" lon="120.539846"/>
<trkpt lat="24.262613" lon="120.539814"/>
<trkpt lat="24.262580" lon="120.539800"/>
<trkpt lat="24.262572" lon="120.539796"/>
<trkpt lat="24.262571" lon="120.539790"/>
<trkpt lat="24.262568" lon="120.539785"/>
<trkpt lat="24.262563" lon="120.539780"/>
<trkpt lat="24.262558" lon="120.539777"/>
<trkpt lat="24.262205" lon="120.539627"/>
<trkpt lat="24.261849" lon="120.539476"/>
<trkpt lat="24.261844" lon="120.539474"/>
<trkpt lat="24.261838" lon="120.539475"/>
<trkpt lat="24.261832" lon="120.539476"/>
<trkpt lat="24.261827" lon="120.539480"/>
<trkpt lat="24.261823" lon="120.539484"/>
<trkpt lat="24.261820" lon="120.539490"/>
<trkpt lat="24.261820" lon="120.539491"/>
<trkpt lat="24.261809" lon="120.539486"/>
<trkpt lat="24.261764" lon="120.539466"/>
<trkpt lat="24.261791" lon="120.539390"/>
<trkpt lat="24.261818" lon="120.539317"/>
<trkpt lat="24.261874" lon="120.539348"/>
<trkpt lat="24.261874" lon="120.539345"/>
<trkpt lat="24.261875" lon="120.539339"/>
<trkpt lat="24.261918" lon="120.539224"/>
<trkpt lat="24.261987" lon="120.539035"/>
<trkpt lat="24.262010" lon="120.538972"/>
<trkpt lat="24.262037" lon="120.538899"/>
<trkpt lat="24.262063" lon="120.538827"/>
<trkpt lat="24.262090" lon="120.538755"/>
<trkpt lat="24.262106" lon="120.538710"/>
<trkpt lat="24.262122" lon="120.538666"/>
<trkpt lat="24.262139" lon="120.538621"/>
<trkpt lat="24.262155" lon="120.538576"/>
<trkpt lat="24.262172" lon="120.538532"/>
<trkpt lat="24.262188" lon="120.538487"/>
<trkpt lat="24.262204" lon="120.538442"/>
<trkpt lat="24.262259" lon="120.538295"/>
<trkpt lat="24.262397" lon="120.537917"/>
<trkpt lat="24.262400" lon="120.537910"/>
<trkpt lat="24.262402" lon="120.537904"/>
<trkpt lat="24.262405" lon="120.537897"/>
<trkpt lat="24.262408" lon="120.537891"/>
<trkpt lat="24.262412" lon="120.537884"/>
<trkpt lat="24.262415" lon="120.537878"/>
<trkpt lat="24.262418" lon="120.537872"/>
<trkpt lat="24.262422" lon="120.537866"/>
<trkpt lat="24.262426" lon="120.537860"/>
<trkpt lat="24.262430" lon="120.537854"/>
<trkpt lat="24.262434" lon="120.537849"/>
<trkpt lat="24.262439" lon="120.537843"/>
<trkpt lat="24.262439" lon="120.537843"/>
<trkpt lat="24.262370" lon="120.537813"/>
<trkpt lat="24.262324" lon="120.537793"/>
<trkpt lat="24.262317" lon="120.537811"/>
<trkpt lat="24.262292" lon="120.537800"/>
<trkpt lat="24.262298" lon="120.537782"/>
<trkpt lat="24.262253" lon="120.537762"/>
<trkpt lat="24.262331" lon="120.537549"/>
<trkpt lat="24.261894" lon="120.537374"/>
<trkpt lat="24.261588" lon="120.537245"/>
<trkpt lat="24.261406" lon="120.537744"/>
</trkseg></trk>
</gpx>