<?xml version="1.0" encoding="UTF-8"?>
<gpx version="1.1" creator="catrun" xmlns="http://www.topografix.com/GPX/1/1">
<metadata><name>沙鹿區 手繪蹲坐貓（原稿描圖） 圖形路跑路線</name></metadata>
<trk><name>沙鹿區 手繪蹲坐貓（原稿描圖） 圖形路跑路線</name><trkseg>
<trkpt lat="24.250895" lon="120.554037"/>
<trkpt lat="24.251039" lon="120.553572"/>
<trkpt lat="24.251098" lon="120.553600"/>
<trkpt lat="24.251692" lon="120.553837"/>
<trkpt lat="24.251780" lon="120.553878"/>
<trkpt lat="24.251855" lon="120.553712"/>
<trkpt lat="24.252656" lon="120.553926"/>
<trkpt lat="24.254185" lon="120.554331"/>
<trkpt lat="24.254061" lon="120.554956"/>
<trkpt lat="24.255199" lon="120.555428"/>
<trkpt lat="24.255579" lon="120.555542"/>
<trkpt lat="24.255970" lon="120.555494"/>
<trkpt lat="24.256230" lon="120.555400"/>
<trkpt lat="24.256464" lon="120.555239"/>
<trkpt lat="24.256725" lon="120.554995"/>
<trkpt lat="24.257406" lon="120.555179"/>
<trkpt lat="24.258061" lon="120.555366"/>
<trkpt lat="24.258384" lon="120.554441"/>
<trkpt lat="24.258660" lon="120.554548"/>
<trkpt lat="24.258427" lon="120.555459"/>
<trkpt lat="24.258982" lon="120.555616"/>
<trkpt lat="24.259423" lon="120.553633"/>
<trkpt lat="24.258729" lon="120.553332"/>
<trkpt lat="24.258779" lon="120.553223"/>
<trkpt lat="24.259442" lon="120.553518"/>
<trkpt lat="24.259875" lon="120.553724"/>
<trkpt lat="24.259839" lon="120.553821"/>
<trkpt lat="24.259570" lon="120.554532"/>
<trkpt lat="24.259803" lon="120.554634"/>
<trkpt lat="24.260402" lon="120.554888"/>
<trkpt lat="24.260871" lon="120.555096"/>
<trkpt lat="24.261222" lon="120.555261"/>
<trkpt lat="24.261813" lon="120.555491"/>
<trkpt lat="24.261712" lon="120.555790"/>
<trkpt lat="24.261524" lon="120.556282"/>
<trkpt lat="24.261928" lon="120.556396"/>
<trkpt lat="24.262128" lon="120.556451"/>
<trkpt lat="24.261841" lon="120.557225"/>
<trkpt lat="24.262483" lon="120.557480"/>
<trkpt lat="24.262073" lon="120.558652"/>
<trkpt lat="24.262049" lon="120.558815"/>
<trkpt lat="24.261467" lon="120.558562"/>
<trkpt lat="24.260884" lon="120.558313"/>
<trkpt lat="24.260801" lon="120.558603"/>
<trkpt lat="24.260354" lon="120.558509"/>
<trkpt lat="24.259477" lon="120.558265"/>
<trkpt lat="24.259332" lon="120.558819"/>
<trkpt lat="24.259280" lon="120.558829"/>
<trkpt lat="24.259190" lon="120.558813"/>
<trkpt lat="24.259151" lon="120.558802"/>
<trkpt lat="24.258774" lon="120.558615"/>
<trkpt lat="24.258752" lon="120.558582"/>
<trkpt lat="24.258764" lon="120.558507"/>
<trkpt lat="24.258806" lon="120.558384"/>
<trkpt lat="24.258850" lon="120.558271"/>
<trkpt lat="24.258877" lon="120.558133"/>
<trkpt lat="24.258435" lon="120.557999"/>
<trkpt lat="24.258199" lon="120.559101"/>
<trkpt lat="24.258174" lon="120.559231"/>
<trkpt lat="24.257984" lon="120.560007"/>
<trkpt lat="24.257915" lon="120.560379"/>
<trkpt lat="24.257925" lon="120.560718"/>
<trkpt lat="24.258011" lon="120.561343"/>
<trkpt lat="24.257940" lon="120.561504"/>
<trkpt lat="24.257486" lon="120.561277"/>
<trkpt lat="24.256861" lon="120.560985"/>
<trkpt lat="24.256696" lon="120.560914"/>
<trkpt lat="24.256562" lon="120.561405"/>
<trkpt lat="24.256553" lon="120.561497"/>
<trkpt lat="24.256594" lon="120.561543"/>
<trkpt lat="24.257718" lon="120.562097"/>
<trkpt lat="24.257469" lon="120.562720"/>
<trkpt lat="24.257430" lon="120.562822"/>
<trkpt lat="24.255799" lon="120.562104"/>
<trkpt lat="24.255741" lon="120.562300"/>
<trkpt lat="24.255650" lon="120.562282"/>
<trkpt lat="24.255511" lon="120.562244"/>
<trkpt lat="24.254225" lon="120.561926"/>
<trkpt lat="24.254117" lon="120.562240"/>
<trkpt lat="24.254063" lon="120.562401"/>
<trkpt lat="24.253960" lon="120.562592"/>
<trkpt lat="24.253833" lon="120.562704"/>
<trkpt lat="24.253644" lon="120.562766"/>
<trkpt lat="24.253460" lon="120.562769"/>
<trkpt lat="24.252711" lon="120.562471"/>
<trkpt lat="24.252400" lon="120.562318"/>
<trkpt lat="24.252113" lon="120.562192"/>
<trkpt lat="24.251981" lon="120.562532"/>
<trkpt lat="24.251908" lon="120.562509"/>
<trkpt lat="24.251799" lon="120.562489"/>
<trkpt lat="24.251761" lon="120.562504"/>
<trkpt lat="24.251713" lon="120.562570"/>
<trkpt lat="24.251259" lon="120.563387"/>
<trkpt lat="24.251205" lon="120.563492"/>
<trkpt lat="24.251082" lon="120.563652"/>
<trkpt lat="24.250798" lon="120.564303"/>
<trkpt lat="24.250664" lon="120.564596"/>
<trkpt lat="24.250744" lon="120.564754"/>
<trkpt lat="24.250896" lon="120.564969"/>
<trkpt lat="24.250796" lon="120.565360"/>
<trkpt lat="24.250490" lon="120.566014"/>
<trkpt lat="24.250438" lon="120.566120"/>
<trkpt lat="24.250920" lon="120.566390"/>
<trkpt lat="24.250600" lon="120.567347"/>
<trkpt lat="24.250411" lon="120.567759"/>
<trkpt lat="24.250491" lon="120.567803"/>
<trkpt lat="24.250409" lon="120.568036"/>
<trkpt lat="24.250255" lon="120.568474"/>
<trkpt lat="24.250170" lon="120.568732"/>
<trkpt lat="24.250063" lon="120.568725"/>
<trkpt lat="24.249872" lon="120.568604"/>
<trkpt lat="24.249702" lon="120.568462"/>
<trkpt lat="24.249305" lon="120.568215"/>
<trkpt lat="24.249137" lon="120.568085"/>
<trkpt lat="24.249339" lon="120.567572"/>
<trkpt lat="24.249418" lon="120.567477"/>
<trkpt lat="24.249495" lon="120.567514"/>
<trkpt lat="24.249587" lon="120.567452"/>
<trkpt lat="24.249850" lon="120.566923"/>
<trkpt lat="24.249636" lon="120.566805"/>
<trkpt lat="24.249742" lon="120.566599"/>
<trkpt lat="24.249907" lon="120.566084"/>
<trkpt lat="24.249931" lon="120.566002"/>
<trkpt lat="24.250004" lon="120.565859"/>
<trkpt lat="24.250053" lon="120.565745"/>
<trkpt lat="24.250068" lon="120.565691"/>
<trkpt lat="24.250064" lon="120.565428"/>
<trkpt lat="24.250217" lon="120.564980"/>
<trkpt lat="24.250443" lon="120.565165"/>
<trkpt lat="24.250664" lon="120.564596"/>
<trkpt lat="24.250798" lon="120.564303"/>
<trkpt lat="24.251082" lon="120.563652"/>
<trkpt lat="24.251205" lon="120.563492"/>
<trkpt lat="24.251259" lon="120.563387"/>
<trkpt lat="24.251713" lon="120.562570"/>
<trkpt lat="24.251761" lon="120.562504"/>
<trkpt lat="24.251799" lon="120.562489"/>
<trkpt lat="24.251908" lon="120.562509"/>
<trkpt lat="24.251981" lon="120.562532"/>
<trkpt lat="24.252113" lon="120.562192"/>
<trkpt lat="24.250325" lon="120.561309"/>
<trkpt lat="24.250374" lon="120.561160"/>
<trkpt lat="24.250465" lon="120.560892"/>
<trkpt lat="24.250601" lon="120.560545"/>
<trkpt lat="24.250830" lon="120.559922"/>
<trkpt lat="24.250876" lon="120.559789"/>
<trkpt lat="24.251128" lon="120.559134"/>
<trkpt lat="24.250547" lon="120.558881"/>
<trkpt lat="24.250710" lon="120.558452"/>
<trkpt lat="24.250954" lon="120.557832"/>
<trkpt lat="24.250283" lon="120.557493"/>
<trkpt lat="24.250711" lon="120.556354"/>
<trkpt lat="24.250868" lon="120.555953"/>
<trkpt lat="24.250926" lon="120.555830"/>
<trkpt lat="24.251051" lon="120.555550"/>
<trkpt lat="24.251780" lon="120.553878"/>
<trkpt lat="24.251692" lon="120.553837"/>
<trkpt lat="24.251098" lon="120.553600"/>
<trkpt lat="24.251039" lon="120.553572"/>
<trkpt lat="24.250895" lon="120.554037"/>
</trkseg></trk>
</gpx>