<?xml version="1.0" encoding="UTF-8"?>
<gpx version="1.1" creator="catrun" xmlns="http://www.topografix.com/GPX/1/1">
<metadata><name>神岡區 手繪蹲坐貓（原稿描圖） 圖形路跑路線</name></metadata>
<wpt lat="24.249141" lon="120.697725"><name>岸裡文物館</name><desc>地標</desc></wpt>
<wpt lat="24.250949" lon="120.707436"><name>怡然園</name><desc>地標</desc></wpt>
<wpt lat="24.249991" lon="120.707783"><name>幸福方程式</name><desc>地標</desc></wpt>
<trk><name>神岡區 手繪蹲坐貓（原稿描圖） 圖形路跑路線</name><trkseg>
<trkpt lat="24.244240" lon="120.697670"/>
<trkpt lat="24.244640" lon="120.697894"/>
<trkpt lat="24.244697" lon="120.697707"/>
<trkpt lat="24.244830" lon="120.696750"/>
<trkpt lat="24.244839" lon="120.696649"/>
<trkpt lat="24.244979" lon="120.696153"/>
<trkpt lat="24.245008" lon="120.695878"/>
<trkpt lat="24.245022" lon="120.695747"/>
<trkpt lat="24.245031" lon="120.695666"/>
<trkpt lat="24.245045" lon="120.695456"/>
<trkpt lat="24.245601" lon="120.695622"/>
<trkpt lat="24.245726" lon="120.695243"/>
<trkpt lat="24.245818" lon="120.694947"/>
<trkpt lat="24.245748" lon="120.694763"/>
<trkpt lat="24.245778" lon="120.694633"/>
<trkpt lat="24.245924" lon="120.694376"/>
<trkpt lat="24.246054" lon="120.694419"/>
<trkpt lat="24.246249" lon="120.694554"/>
<trkpt lat="24.246554" lon="120.694778"/>
<trkpt lat="24.246817" lon="120.694971"/>
<trkpt lat="24.246904" lon="120.695071"/>
<trkpt lat="24.246971" lon="120.695136"/>
<trkpt lat="24.247147" lon="120.695274"/>
<trkpt lat="24.247518" lon="120.695523"/>
<trkpt lat="24.247703" lon="120.695654"/>
<trkpt lat="24.247873" lon="120.695760"/>
<trkpt lat="24.248372" lon="120.696098"/>
<trkpt lat="24.248504" lon="120.696179"/>
<trkpt lat="24.248482" lon="120.695817"/>
<trkpt lat="24.248475" lon="120.695443"/>
<trkpt lat="24.248594" lon="120.695282"/>
<trkpt lat="24.248815" lon="120.694933"/>
<trkpt lat="24.249080" lon="120.694623"/>
<trkpt lat="24.249299" lon="120.694367"/>
<trkpt lat="24.249454" lon="120.694172"/>
<trkpt lat="24.250352" lon="120.693046"/>
<trkpt lat="24.251088" lon="120.692188"/>
<trkpt lat="24.251622" lon="120.691698"/>
<trkpt lat="24.251961" lon="120.691440"/>
<trkpt lat="24.252378" lon="120.691258"/>
<trkpt lat="24.252702" lon="120.691187"/>
<trkpt lat="24.253284" lon="120.691104"/>
<trkpt lat="24.254294" lon="120.691153"/>
<trkpt lat="24.255098" lon="120.691238"/>
<trkpt lat="24.255240" lon="120.691248"/>
<trkpt lat="24.254426" lon="120.691903"/>
<trkpt lat="24.254273" lon="120.692090"/>
<trkpt lat="24.254156" lon="120.692314"/>
<trkpt lat="24.254118" lon="120.692563"/>
<trkpt lat="24.254100" lon="120.692580"/>
<trkpt lat="24.253937" lon="120.693261"/>
<trkpt lat="24.253885" lon="120.693445"/>
<trkpt lat="24.253849" lon="120.693531"/>
<trkpt lat="24.253753" lon="120.693715"/>
<trkpt lat="24.253867" lon="120.693830"/>
<trkpt lat="24.254002" lon="120.694064"/>
<trkpt lat="24.254192" lon="120.694401"/>
<trkpt lat="24.254218" lon="120.694487"/>
<trkpt lat="24.254190" lon="120.694638"/>
<trkpt lat="24.253874" lon="120.694911"/>
<trkpt lat="24.253489" lon="120.695139"/>
<trkpt lat="24.253461" lon="120.695131"/>
<trkpt lat="24.253299" lon="120.694884"/>
<trkpt lat="24.253267" lon="120.694904"/>
<trkpt lat="24.252932" lon="120.695182"/>
<trkpt lat="24.252891" lon="120.695219"/>
<trkpt lat="24.252750" lon="120.695867"/>
<trkpt lat="24.252554" lon="120.696337"/>
<trkpt lat="24.253163" lon="120.696567"/>
<trkpt lat="24.253581" lon="120.696593"/>
<trkpt lat="24.254168" lon="120.696668"/>
<trkpt lat="24.254028" lon="120.696748"/>
<trkpt lat="24.253782" lon="120.696962"/>
<trkpt lat="24.253577" lon="120.697214"/>
<trkpt lat="24.253360" lon="120.697592"/>
<trkpt lat="24.252947" lon="120.697389"/>
<trkpt lat="24.252609" lon="120.698123"/>
<trkpt lat="24.253036" lon="120.698343"/>
<trkpt lat="24.252995" lon="120.698539"/>
<trkpt lat="24.252925" lon="120.698858"/>
<trkpt lat="24.252880" lon="120.699079"/>
<trkpt lat="24.252862" lon="120.699168"/>
<trkpt lat="24.252831" lon="120.699321"/>
<trkpt lat="24.252759" lon="120.699674"/>
<trkpt lat="24.252747" lon="120.699759"/>
<trkpt lat="24.252661" lon="120.700353"/>
<trkpt lat="24.252409" lon="120.700323"/>
<trkpt lat="24.252135" lon="120.700326"/>
<trkpt lat="24.252070" lon="120.700355"/>
<trkpt lat="24.252021" lon="120.700465"/>
<trkpt lat="24.252130" lon="120.700476"/>
<trkpt lat="24.252081" lon="120.700739"/>
<trkpt lat="24.252023" lon="120.700914"/>
<trkpt lat="24.251988" lon="120.701061"/>
<trkpt lat="24.251952" lon="120.701338"/>
<trkpt lat="24.251358" lon="120.701330"/>
<trkpt lat="24.251424" lon="120.701630"/>
<trkpt lat="24.251458" lon="120.701886"/>
<trkpt lat="24.251460" lon="120.702618"/>
<trkpt lat="24.251509" lon="120.702938"/>
<trkpt lat="24.251562" lon="120.703119"/>
<trkpt lat="24.251483" lon="120.703096"/>
<trkpt lat="24.251354" lon="120.703075"/>
<trkpt lat="24.250593" lon="120.703083"/>
<trkpt lat="24.250405" lon="120.703086"/>
<trkpt lat="24.250239" lon="120.703091"/>
<trkpt lat="24.249940" lon="120.703099"/>
<trkpt lat="24.249616" lon="120.703102"/>
<trkpt lat="24.249487" lon="120.703102"/>
<trkpt lat="24.249502" lon="120.703349"/>
<trkpt lat="24.249635" lon="120.703353"/>
<trkpt lat="24.250431" lon="120.703308"/>
<trkpt lat="24.251375" lon="120.703311"/>
<trkpt lat="24.251504" lon="120.703289"/>
<trkpt lat="24.251640" lon="120.703274"/>
<trkpt lat="24.251469" lon="120.703246"/>
<trkpt lat="24.251075" lon="120.703247"/>
<trkpt lat="24.249122" lon="120.703268"/>
<trkpt lat="24.246998" lon="120.703271"/>
<trkpt lat="24.246781" lon="120.703282"/>
<trkpt lat="24.246639" lon="120.703321"/>
<trkpt lat="24.246754" lon="120.703356"/>
<trkpt lat="24.247500" lon="120.703354"/>
<trkpt lat="24.247674" lon="120.704629"/>
<trkpt lat="24.248060" lon="120.704617"/>
<trkpt lat="24.248701" lon="120.704601"/>
<trkpt lat="24.248806" lon="120.705341"/>
<trkpt lat="24.249773" lon="120.705296"/>
<trkpt lat="24.249865" lon="120.705932"/>
<trkpt lat="24.249865" lon="120.705938"/>
<trkpt lat="24.249896" lon="120.706182"/>
<trkpt lat="24.249379" lon="120.706261"/>
<trkpt lat="24.249572" lon="120.707467"/>
<trkpt lat="24.249574" lon="120.707477"/>
<trkpt lat="24.250062" lon="120.707396"/>
<trkpt lat="24.250116" lon="120.707803"/>
<trkpt lat="24.250242" lon="120.708754"/>
<trkpt lat="24.250246" lon="120.708776"/>
<trkpt lat="24.250264" lon="120.708866"/>
<trkpt lat="24.250338" lon="120.709032"/>
<trkpt lat="24.250357" lon="120.709169"/>
<trkpt lat="24.249576" lon="120.709283"/>
<trkpt lat="24.249561" lon="120.709144"/>
<trkpt lat="24.250338" lon="120.709032"/>
<trkpt lat="24.250264" lon="120.708866"/>
<trkpt lat="24.250246" lon="120.708776"/>
<trkpt lat="24.250116" lon="120.708713"/>
<trkpt lat="24.249974" lon="120.708668"/>
<trkpt lat="24.249787" lon="120.708559"/>
<trkpt lat="24.249626" lon="120.708516"/>
<trkpt lat="24.249501" lon="120.708455"/>
<trkpt lat="24.249351" lon="120.708259"/>
<trkpt lat="24.249234" lon="120.708042"/>
<trkpt lat="24.249174" lon="120.707918"/>
<trkpt lat="24.249107" lon="120.707912"/>
<trkpt lat="24.248958" lon="120.707915"/>
<trkpt lat="24.248817" lon="120.707893"/>
<trkpt lat="24.248736" lon="120.707806"/>
<trkpt lat="24.248558" lon="120.707710"/>
<trkpt lat="24.248440" lon="120.707647"/>
<trkpt lat="24.248392" lon="120.707573"/>
<trkpt lat="24.248676" lon="120.706711"/>
<trkpt lat="24.248876" lon="120.706750"/>
<trkpt lat="24.248813" lon="120.706324"/>
<trkpt lat="24.248518" lon="120.706366"/>
<trkpt lat="24.248403" lon="120.706401"/>
<trkpt lat="24.248302" lon="120.706430"/>
<trkpt lat="24.247849" lon="120.706081"/>
<trkpt lat="24.247678" lon="120.706085"/>
<trkpt lat="24.247517" lon="120.705950"/>
<trkpt lat="24.247359" lon="120.705782"/>
<trkpt lat="24.247290" lon="120.705584"/>
<trkpt lat="24.247114" lon="120.704864"/>
<trkpt lat="24.247068" lon="120.704757"/>
<trkpt lat="24.246576" lon="120.704782"/>
<trkpt lat="24.246473" lon="120.704887"/>
<trkpt lat="24.246409" lon="120.704391"/>
<trkpt lat="24.246386" lon="120.704072"/>
<trkpt lat="24.246392" lon="120.703976"/>
<trkpt lat="24.246639" lon="120.703321"/>
<trkpt lat="24.246643" lon="120.703166"/>
<trkpt lat="24.246755" lon="120.702848"/>
<trkpt lat="24.246808" lon="120.702560"/>
<trkpt lat="24.246813" lon="120.702163"/>
<trkpt lat="24.246787" lon="120.702009"/>
<trkpt lat="24.246739" lon="120.701686"/>
<trkpt lat="24.246687" lon="120.701379"/>
<trkpt lat="24.246642" lon="120.701242"/>
<trkpt lat="24.246251" lon="120.700900"/>
<trkpt lat="24.245743" lon="120.700444"/>
<trkpt lat="24.246031" lon="120.699989"/>
<trkpt lat="24.245950" lon="120.699970"/>
<trkpt lat="24.245838" lon="120.699964"/>
<trkpt lat="24.245317" lon="120.699690"/>
<trkpt lat="24.244738" lon="120.699353"/>
<trkpt lat="24.244840" lon="120.699128"/>
<trkpt lat="24.245231" lon="120.698217"/>
<trkpt lat="24.244818" lon="120.697998"/>
<trkpt lat="24.244740" lon="120.698090"/>
<trkpt lat="24.244599" lon="120.698082"/>
<trkpt lat="24.244486" lon="120.698040"/>
<trkpt lat="24.244200" lon="120.698031"/>
<trkpt lat="24.244140" lon="120.698012"/>
<trkpt lat="24.244104" lon="120.697984"/>
<trkpt lat="24.244240" lon="120.697670"/>
</trkseg></trk>
</gpx>