<?xml version="1.0" encoding="UTF-8"?>
<gpx version="1.1" creator="catrun" xmlns="http://www.topografix.com/GPX/1/1">
<metadata><name>石岡區 手繪蹲坐貓（原稿描圖） 圖形路跑路線</name></metadata>
<wpt lat="24.276361" lon="120.777967"><name>0蛋月臺</name><desc>地標</desc></wpt>
<wpt lat="24.276790" lon="120.776965"><name>石岡車站斷層月臺(地震遺址)</name><desc>地標</desc></wpt>
<wpt lat="24.275578" lon="120.776539"><name>儲存糧食局公糧庫房第9號</name><desc>地標</desc></wpt>
<trk><name>石岡區 手繪蹲坐貓（原稿描圖） 圖形路跑路線</name><trkseg>
<trkpt lat="24.270263" lon="120.779462"/>
<trkpt lat="24.270324" lon="120.779292"/>
<trkpt lat="24.270304" lon="120.778950"/>
<trkpt lat="24.270499" lon="120.778502"/>
<trkpt lat="24.270646" lon="120.778216"/>
<trkpt lat="24.270801" lon="120.778019"/>
<trkpt lat="24.270845" lon="120.777981"/>
<trkpt lat="24.270972" lon="120.777901"/>
<trkpt lat="24.271050" lon="120.777695"/>
<trkpt lat="24.271097" lon="120.777578"/>
<trkpt lat="24.271182" lon="120.777214"/>
<trkpt lat="24.271274" lon="120.776833"/>
<trkpt lat="24.271263" lon="120.776626"/>
<trkpt lat="24.271708" lon="120.776461"/>
<trkpt lat="24.271811" lon="120.776585"/>
<trkpt lat="24.272046" lon="120.776585"/>
<trkpt lat="24.272197" lon="120.776639"/>
<trkpt lat="24.272448" lon="120.775993"/>
<trkpt lat="24.272564" lon="120.776093"/>
<trkpt lat="24.272969" lon="120.776525"/>
<trkpt lat="24.273073" lon="120.776608"/>
<trkpt lat="24.273560" lon="120.776911"/>
<trkpt lat="24.273976" lon="120.777074"/>
<trkpt lat="24.274213" lon="120.777093"/>
<trkpt lat="24.274109" lon="120.777787"/>
<trkpt lat="24.274099" lon="120.777907"/>
<trkpt lat="24.274071" lon="120.778248"/>
<trkpt lat="24.274058" lon="120.778679"/>
<trkpt lat="24.274158" lon="120.778690"/>
<trkpt lat="24.274576" lon="120.778707"/>
<trkpt lat="24.274623" lon="120.778731"/>
<trkpt lat="24.274664" lon="120.778393"/>
<trkpt lat="24.274687" lon="120.778218"/>
<trkpt lat="24.274720" lon="120.777971"/>
<trkpt lat="24.274772" lon="120.777978"/>
<trkpt lat="24.275192" lon="120.778030"/>
<trkpt lat="24.275245" lon="120.778036"/>
<trkpt lat="24.275293" lon="120.778043"/>
<trkpt lat="24.275662" lon="120.778089"/>
<trkpt lat="24.275811" lon="120.778108"/>
<trkpt lat="24.275869" lon="120.778116"/>
<trkpt lat="24.275856" lon="120.778482"/>
<trkpt lat="24.276051" lon="120.778031"/>
<trkpt lat="24.276171" lon="120.777803"/>
<trkpt lat="24.276291" lon="120.777508"/>
<trkpt lat="24.276409" lon="120.777211"/>
<trkpt lat="24.276426" lon="120.777154"/>
<trkpt lat="24.276430" lon="120.777141"/>
<trkpt lat="24.276447" lon="120.777079"/>
<trkpt lat="24.276564" lon="120.776552"/>
<trkpt lat="24.276607" lon="120.776245"/>
<trkpt lat="24.276622" lon="120.776144"/>
<trkpt lat="24.276629" lon="120.776098"/>
<trkpt lat="24.276514" lon="120.776078"/>
<trkpt lat="24.276151" lon="120.776029"/>
<trkpt lat="24.276090" lon="120.776021"/>
<trkpt lat="24.276097" lon="120.775973"/>
<trkpt lat="24.276117" lon="120.775420"/>
<trkpt lat="24.276117" lon="120.775305"/>
<trkpt lat="24.276117" lon="120.775190"/>
<trkpt lat="24.276121" lon="120.774972"/>
<trkpt lat="24.276119" lon="120.774940"/>
<trkpt lat="24.276127" lon="120.774844"/>
<trkpt lat="24.276154" lon="120.774773"/>
<trkpt lat="24.276222" lon="120.774681"/>
<trkpt lat="24.276361" lon="120.774509"/>
<trkpt lat="24.276409" lon="120.774440"/>
<trkpt lat="24.276467" lon="120.774515"/>
<trkpt lat="24.276703" lon="120.774753"/>
<trkpt lat="24.276843" lon="120.774841"/>
<trkpt lat="24.276998" lon="120.774901"/>
<trkpt lat="24.277131" lon="120.774952"/>
<trkpt lat="24.277261" lon="120.775047"/>
<trkpt lat="24.277358" lon="120.775138"/>
<trkpt lat="24.277418" lon="120.775168"/>
<trkpt lat="24.277546" lon="120.775103"/>
<trkpt lat="24.277618" lon="120.775076"/>
<trkpt lat="24.277651" lon="120.775084"/>
<trkpt lat="24.277145" lon="120.776310"/>
<trkpt lat="24.277130" lon="120.776332"/>
<trkpt lat="24.277100" lon="120.776395"/>
<trkpt lat="24.277123" lon="120.776390"/>
<trkpt lat="24.277065" lon="120.776546"/>
<trkpt lat="24.277056" lon="120.776542"/>
<trkpt lat="24.277036" lon="120.776629"/>
<trkpt lat="24.277200" lon="120.776722"/>
<trkpt lat="24.277208" lon="120.776747"/>
<trkpt lat="24.277239" lon="120.776790"/>
<trkpt lat="24.277495" lon="120.776961"/>
<trkpt lat="24.277522" lon="120.776978"/>
<trkpt lat="24.277678" lon="120.777067"/>
<trkpt lat="24.278098" lon="120.777307"/>
<trkpt lat="24.278218" lon="120.777372"/>
<trkpt lat="24.278304" lon="120.777461"/>
<trkpt lat="24.278371" lon="120.777584"/>
<trkpt lat="24.278481" lon="120.777586"/>
<trkpt lat="24.278518" lon="120.777596"/>
<trkpt lat="24.278617" lon="120.777621"/>
<trkpt lat="24.278991" lon="120.777768"/>
<trkpt lat="24.279639" lon="120.778013"/>
<trkpt lat="24.280489" lon="120.778358"/>
<trkpt lat="24.280406" lon="120.777909"/>
<trkpt lat="24.280374" lon="120.777599"/>
<trkpt lat="24.280243" lon="120.777242"/>
<trkpt lat="24.280257" lon="120.776821"/>
<trkpt lat="24.280202" lon="120.776580"/>
<trkpt lat="24.280202" lon="120.776510"/>
<trkpt lat="24.280235" lon="120.776488"/>
<trkpt lat="24.280324" lon="120.776514"/>
<trkpt lat="24.280525" lon="120.776626"/>
<trkpt lat="24.280692" lon="120.776662"/>
<trkpt lat="24.280794" lon="120.776663"/>
<trkpt lat="24.280705" lon="120.776827"/>
<trkpt lat="24.280689" lon="120.776862"/>
<trkpt lat="24.280681" lon="120.776890"/>
<trkpt lat="24.280675" lon="120.776920"/>
<trkpt lat="24.280665" lon="120.777130"/>
<trkpt lat="24.280643" lon="120.777163"/>
<trkpt lat="24.280614" lon="120.777186"/>
<trkpt lat="24.280243" lon="120.777242"/>
<trkpt lat="24.280374" lon="120.777599"/>
<trkpt lat="24.280406" lon="120.777909"/>
<trkpt lat="24.280489" lon="120.778358"/>
<trkpt lat="24.279639" lon="120.778013"/>
<trkpt lat="24.278991" lon="120.777768"/>
<trkpt lat="24.278940" lon="120.778058"/>
<trkpt lat="24.278907" lon="120.778212"/>
<trkpt lat="24.278901" lon="120.778344"/>
<trkpt lat="24.278902" lon="120.778444"/>
<trkpt lat="24.278930" lon="120.778559"/>
<trkpt lat="24.279083" lon="120.779129"/>
<trkpt lat="24.279120" lon="120.779210"/>
<trkpt lat="24.279138" lon="120.779285"/>
<trkpt lat="24.279159" lon="120.779483"/>
<trkpt lat="24.279168" lon="120.779911"/>
<trkpt lat="24.279173" lon="120.780089"/>
<trkpt lat="24.279201" lon="120.780191"/>
<trkpt lat="24.279231" lon="120.780293"/>
<trkpt lat="24.279245" lon="120.780454"/>
<trkpt lat="24.279233" lon="120.780670"/>
<trkpt lat="24.279136" lon="120.780684"/>
<trkpt lat="24.278986" lon="120.780694"/>
<trkpt lat="24.278749" lon="120.780661"/>
<trkpt lat="24.278355" lon="120.780800"/>
<trkpt lat="24.278353" lon="120.781536"/>
<trkpt lat="24.278333" lon="120.781589"/>
<trkpt lat="24.278270" lon="120.781695"/>
<trkpt lat="24.278235" lon="120.781846"/>
<trkpt lat="24.278076" lon="120.782479"/>
<trkpt lat="24.277971" lon="120.782762"/>
<trkpt lat="24.277862" lon="120.783052"/>
<trkpt lat="24.277839" lon="120.783173"/>
<trkpt lat="24.277741" lon="120.783467"/>
<trkpt lat="24.277699" lon="120.783536"/>
<trkpt lat="24.277665" lon="120.783557"/>
<trkpt lat="24.277607" lon="120.783539"/>
<trkpt lat="24.277467" lon="120.783457"/>
<trkpt lat="24.277436" lon="120.783460"/>
<trkpt lat="24.277382" lon="120.783484"/>
<trkpt lat="24.277334" lon="120.783509"/>
<trkpt lat="24.277293" lon="120.783513"/>
<trkpt lat="24.277251" lon="120.783494"/>
<trkpt lat="24.277063" lon="120.783420"/>
<trkpt lat="24.276986" lon="120.783401"/>
<trkpt lat="24.276942" lon="120.783394"/>
<trkpt lat="24.276868" lon="120.783423"/>
<trkpt lat="24.276795" lon="120.783472"/>
<trkpt lat="24.276748" lon="120.783520"/>
<trkpt lat="24.276707" lon="120.783537"/>
<trkpt lat="24.276664" lon="120.783536"/>
<trkpt lat="24.276637" lon="120.783508"/>
<trkpt lat="24.276605" lon="120.783425"/>
<trkpt lat="24.276577" lon="120.783325"/>
<trkpt lat="24.276461" lon="120.783257"/>
<trkpt lat="24.276156" lon="120.783202"/>
<trkpt lat="24.276148" lon="120.783318"/>
<trkpt lat="24.276124" lon="120.783445"/>
<trkpt lat="24.276057" lon="120.783812"/>
<trkpt lat="24.275890" lon="120.784569"/>
<trkpt lat="24.275835" lon="120.784747"/>
<trkpt lat="24.275819" lon="120.784811"/>
<trkpt lat="24.275719" lon="120.785223"/>
<trkpt lat="24.275485" lon="120.785910"/>
<trkpt lat="24.275314" lon="120.786423"/>
<trkpt lat="24.274643" lon="120.786258"/>
<trkpt lat="24.274586" lon="120.786246"/>
<trkpt lat="24.274570" lon="120.786622"/>
<trkpt lat="24.274591" lon="120.786659"/>
<trkpt lat="24.274606" lon="120.786700"/>
<trkpt lat="24.274612" lon="120.786731"/>
<trkpt lat="24.274613" lon="120.786765"/>
<trkpt lat="24.274530" lon="120.787762"/>
<trkpt lat="24.274516" lon="120.787866"/>
<trkpt lat="24.274497" lon="120.787956"/>
<trkpt lat="24.274483" lon="120.787992"/>
<trkpt lat="24.274467" lon="120.788015"/>
<trkpt lat="24.274080" lon="120.788505"/>
<trkpt lat="24.273850" lon="120.788816"/>
<trkpt lat="24.273721" lon="120.789038"/>
<trkpt lat="24.273689" lon="120.789061"/>
<trkpt lat="24.273661" lon="120.789089"/>
<trkpt lat="24.273637" lon="120.789128"/>
<trkpt lat="24.273626" lon="120.789173"/>
<trkpt lat="24.273621" lon="120.789222"/>
<trkpt lat="24.273622" lon="120.789266"/>
<trkpt lat="24.273608" lon="120.789298"/>
<trkpt lat="24.273063" lon="120.789041"/>
<trkpt lat="24.272964" lon="120.789285"/>
<trkpt lat="24.272698" lon="120.789139"/>
<trkpt lat="24.272735" lon="120.788917"/>
<trkpt lat="24.272812" lon="120.788634"/>
<trkpt lat="24.272834" lon="120.788586"/>
<trkpt lat="24.273160" lon="120.788736"/>
<trkpt lat="24.273179" lon="120.788848"/>
<trkpt lat="24.273707" lon="120.789101"/>
<trkpt lat="24.273717" lon="120.789078"/>
<trkpt lat="24.273772" lon="120.789104"/>
<trkpt lat="24.273874" lon="120.789152"/>
<trkpt lat="24.273883" lon="120.789125"/>
<trkpt lat="24.274081" lon="120.788570"/>
<trkpt lat="24.274175" lon="120.788596"/>
<trkpt lat="24.274171" lon="120.788665"/>
<trkpt lat="24.274254" lon="120.788696"/>
<trkpt lat="24.274265" lon="120.788758"/>
<trkpt lat="24.274381" lon="120.788855"/>
<trkpt lat="24.274145" lon="120.791443"/>
<trkpt lat="24.274251" lon="120.791494"/>
<trkpt lat="24.274329" lon="120.791932"/>
<trkpt lat="24.274273" lon="120.792549"/>
<trkpt lat="24.274183" lon="120.792569"/>
<trkpt lat="24.274062" lon="120.792536"/>
<trkpt lat="24.273966" lon="120.792507"/>
<trkpt lat="24.273731" lon="120.792443"/>
<trkpt lat="24.273709" lon="120.792208"/>
<trkpt lat="24.273653" lon="120.792038"/>
<trkpt lat="24.273561" lon="120.791927"/>
<trkpt lat="24.273383" lon="120.791867"/>
<trkpt lat="24.273196" lon="120.791769"/>
<trkpt lat="24.273037" lon="120.791720"/>
<trkpt lat="24.273026" lon="120.791717"/>
<trkpt lat="24.272861" lon="120.791623"/>
<trkpt lat="24.272854" lon="120.791619"/>
<trkpt lat="24.272952" lon="120.791414"/>
<trkpt lat="24.272924" lon="120.791400"/>
<trkpt lat="24.272899" lon="120.791386"/>
<trkpt lat="24.272807" lon="120.791335"/>
<trkpt lat="24.272743" lon="120.791299"/>
<trkpt lat="24.272749" lon="120.791300"/>
<trkpt lat="24.272780" lon="120.791277"/>
<trkpt lat="24.272799" lon="120.791233"/>
<trkpt lat="24.272864" lon="120.791086"/>
<trkpt lat="24.272876" lon="120.791058"/>
<trkpt lat="24.272888" lon="120.791030"/>
<trkpt lat="24.273060" lon="120.790637"/>
<trkpt lat="24.273183" lon="120.790355"/>
<trkpt lat="24.273244" lon="120.790216"/>
<trkpt lat="24.273332" lon="120.790015"/>
<trkpt lat="24.273380" lon="120.789905"/>
<trkpt lat="24.273445" lon="120.789763"/>
<trkpt lat="24.273482" lon="120.789667"/>
<trkpt lat="24.273486" lon="120.789657"/>
<trkpt lat="24.273501" lon="120.789619"/>
<trkpt lat="24.273504" lon="120.789611"/>
<trkpt lat="24.273507" lon="120.789602"/>
<trkpt lat="24.273511" lon="120.789592"/>
<trkpt lat="24.273519" lon="120.789557"/>
<trkpt lat="24.273488" lon="120.789541"/>
<trkpt lat="24.272979" lon="120.789294"/>
<trkpt lat="24.272964" lon="120.789285"/>
<trkpt lat="24.272698" lon="120.789139"/>
<trkpt lat="24.272663" lon="120.789120"/>
<trkpt lat="24.272296" lon="120.788924"/>
<trkpt lat="24.272291" lon="120.788904"/>
<trkpt lat="24.272277" lon="120.788852"/>
<trkpt lat="24.272260" lon="120.788552"/>
<trkpt lat="24.272262" lon="120.788106"/>
<trkpt lat="24.272271" lon="120.788005"/>
<trkpt lat="24.272293" lon="120.787895"/>
<trkpt lat="24.272317" lon="120.787827"/>
<trkpt lat="24.272423" lon="120.787609"/>
<trkpt lat="24.272462" lon="120.787556"/>
<trkpt lat="24.272386" lon="120.787576"/>
<trkpt lat="24.272233" lon="120.787610"/>
<trkpt lat="24.272069" lon="120.787585"/>
<trkpt lat="24.271964" lon="120.787513"/>
<trkpt lat="24.271868" lon="120.787476"/>
<trkpt lat="24.271797" lon="120.787411"/>
<trkpt lat="24.271723" lon="120.787392"/>
<trkpt lat="24.271644" lon="120.787432"/>
<trkpt lat="24.271587" lon="120.787488"/>
<trkpt lat="24.271511" lon="120.787526"/>
<trkpt lat="24.271457" lon="120.787513"/>
<trkpt lat="24.271396" lon="120.787476"/>
<trkpt lat="24.271406" lon="120.787420"/>
<trkpt lat="24.271460" lon="120.787022"/>
<trkpt lat="24.271253" lon="120.786715"/>
<trkpt lat="24.271205" lon="120.786615"/>
<trkpt lat="24.271199" lon="120.786500"/>
<trkpt lat="24.271284" lon="120.786090"/>
<trkpt lat="24.271355" lon="120.785922"/>
<trkpt lat="24.271476" lon="120.785762"/>
<trkpt lat="24.271535" lon="120.785653"/>
<trkpt lat="24.271610" lon="120.785512"/>
<trkpt lat="24.271658" lon="120.785288"/>
<trkpt lat="24.271596" lon="120.785157"/>
<trkpt lat="24.271598" lon="120.785089"/>
<trkpt lat="24.271757" lon="120.784788"/>
<trkpt lat="24.271768" lon="120.784707"/>
<trkpt lat="24.271715" lon="120.784542"/>
<trkpt lat="24.271722" lon="120.784456"/>
<trkpt lat="24.271621" lon="120.784368"/>
<trkpt lat="24.271367" lon="120.784161"/>
<trkpt lat="24.271001" lon="120.783980"/>
<trkpt lat="24.270825" lon="120.784008"/>
<trkpt lat="24.270733" lon="120.783924"/>
<trkpt lat="24.270780" lon="120.783713"/>
<trkpt lat="24.270664" lon="120.783100"/>
<trkpt lat="24.270624" lon="120.782729"/>
<trkpt lat="24.270567" lon="120.782480"/>
<trkpt lat="24.270687" lon="120.782468"/>
<trkpt lat="24.270749" lon="120.782385"/>
<trkpt lat="24.270856" lon="120.782193"/>
<trkpt lat="24.270969" lon="120.781921"/>
<trkpt lat="24.271015" lon="120.781593"/>
<trkpt lat="24.271023" lon="120.781439"/>
<trkpt lat="24.271029" lon="120.781241"/>
<trkpt lat="24.270992" lon="120.781013"/>
<trkpt lat="24.270926" lon="120.780825"/>
<trkpt lat="24.270872" lon="120.780723"/>
<trkpt lat="24.270820" lon="120.780639"/>
<trkpt lat="24.270761" lon="120.780527"/>
<trkpt lat="24.270742" lon="120.780428"/>
<trkpt lat="24.270723" lon="120.780206"/>
<trkpt lat="24.270590" lon="120.780267"/>
<trkpt lat="24.270354" lon="120.780235"/>
<trkpt lat="24.270320" lon="120.780338"/>
<trkpt lat="24.270280" lon="120.780372"/>
<trkpt lat="24.270216" lon="120.780277"/>
<trkpt lat="24.270221" lon="120.779913"/>
<trkpt lat="24.270235" lon="120.779691"/>
<trkpt lat="24.270263" lon="120.779462"/>
</trkseg></trk>
</gpx>