<?xml version="1.0" encoding="UTF-8"?>
<gpx version="1.1" creator="catrun" xmlns="http://www.topografix.com/GPX/1/1">
<metadata><name>南區 貓臉（正面） 圖形路跑路線</name></metadata>
<wpt lat="24.139739" lon="120.682450"><name>台灣太陽餅博物館</name><desc>地標</desc></wpt>
<wpt lat="24.141885" lon="120.684278"><name>創造：為了未來重新融合</name><desc>地標</desc></wpt>
<wpt lat="24.141800" lon="120.684353"><name>無限</name><desc>地標</desc></wpt>
<trk><name>南區 貓臉（正面） 圖形路跑路線</name><trkseg>
<trkpt lat="24.140802" lon="120.682929"/>
<trkpt lat="24.140420" lon="120.683358"/>
<trkpt lat="24.140079" lon="120.683761"/>
<trkpt lat="24.140421" lon="120.684115"/>
<trkpt lat="24.140652" lon="120.684341"/>
<trkpt lat="24.140794" lon="120.684488"/>
<trkpt lat="24.140984" lon="120.684673"/>
<trkpt lat="24.141144" lon="120.684842"/>
<trkpt lat="24.141502" lon="120.685255"/>
<trkpt lat="24.141517" lon="120.685684"/>
<trkpt lat="24.141520" lon="120.685767"/>
<trkpt lat="24.141524" lon="120.685921"/>
<trkpt lat="24.141565" lon="120.686100"/>
<trkpt lat="24.141541" lon="120.686877"/>
<trkpt lat="24.141529" lon="120.687337"/>
<trkpt lat="24.141518" lon="120.687570"/>
<trkpt lat="24.142279" lon="120.687599"/>
<trkpt lat="24.142235" lon="120.689233"/>
<trkpt lat="24.142778" lon="120.689239"/>
<trkpt lat="24.142893" lon="120.689245"/>
<trkpt lat="24.143015" lon="120.689198"/>
<trkpt lat="24.143234" lon="120.689221"/>
<trkpt lat="24.143380" lon="120.689232"/>
<trkpt lat="24.143497" lon="120.689240"/>
<trkpt lat="24.143487" lon="120.689594"/>
<trkpt lat="24.143692" lon="120.689599"/>
<trkpt lat="24.143976" lon="120.689592"/>
<trkpt lat="24.144319" lon="120.689577"/>
<trkpt lat="24.144285" lon="120.690052"/>
<trkpt lat="24.144259" lon="120.690428"/>
<trkpt lat="24.144222" lon="120.690936"/>
<trkpt lat="24.144568" lon="120.690966"/>
<trkpt lat="24.144558" lon="120.691255"/>
<trkpt lat="24.144525" lon="120.691311"/>
<trkpt lat="24.144486" lon="120.691327"/>
<trkpt lat="24.144438" lon="120.691341"/>
<trkpt lat="24.144373" lon="120.691357"/>
<trkpt lat="24.144292" lon="120.691377"/>
<trkpt lat="24.144186" lon="120.691379"/>
<trkpt lat="24.144179" lon="120.691453"/>
<trkpt lat="24.144155" lon="120.691746"/>
<trkpt lat="24.144005" lon="120.691737"/>
<trkpt lat="24.143983" lon="120.691747"/>
<trkpt lat="24.143938" lon="120.691812"/>
<trkpt lat="24.143804" lon="120.691810"/>
<trkpt lat="24.143683" lon="120.691808"/>
<trkpt lat="24.143635" lon="120.691807"/>
<trkpt lat="24.143495" lon="120.691803"/>
<trkpt lat="24.143095" lon="120.691791"/>
<trkpt lat="24.142757" lon="120.691781"/>
<trkpt lat="24.142728" lon="120.692292"/>
<trkpt lat="24.142745" lon="120.692463"/>
<trkpt lat="24.142547" lon="120.692437"/>
<trkpt lat="24.142366" lon="120.692437"/>
<trkpt lat="24.142117" lon="120.692434"/>
<trkpt lat="24.141890" lon="120.692433"/>
<trkpt lat="24.141778" lon="120.692432"/>
<trkpt lat="24.141634" lon="120.692432"/>
<trkpt lat="24.141133" lon="120.692443"/>
<trkpt lat="24.140810" lon="120.692448"/>
<trkpt lat="24.140672" lon="120.692452"/>
<trkpt lat="24.140523" lon="120.692453"/>
<trkpt lat="24.140261" lon="120.692449"/>
<trkpt lat="24.140083" lon="120.692442"/>
<trkpt lat="24.139911" lon="120.692443"/>
<trkpt lat="24.139604" lon="120.692445"/>
<trkpt lat="24.139578" lon="120.692322"/>
<trkpt lat="24.139510" lon="120.692232"/>
<trkpt lat="24.139474" lon="120.692193"/>
<trkpt lat="24.139378" lon="120.692236"/>
<trkpt lat="24.139307" lon="120.692275"/>
<trkpt lat="24.139280" lon="120.692290"/>
<trkpt lat="24.139223" lon="120.692316"/>
<trkpt lat="24.139202" lon="120.692338"/>
<trkpt lat="24.139142" lon="120.692344"/>
<trkpt lat="24.138913" lon="120.692369"/>
<trkpt lat="24.138860" lon="120.692356"/>
<trkpt lat="24.138830" lon="120.692395"/>
<trkpt lat="24.138822" lon="120.692406"/>
<trkpt lat="24.138774" lon="120.692425"/>
<trkpt lat="24.138714" lon="120.692442"/>
<trkpt lat="24.138712" lon="120.692452"/>
<trkpt lat="24.138706" lon="120.692464"/>
<trkpt lat="24.138701" lon="120.692472"/>
<trkpt lat="24.138695" lon="120.692475"/>
<trkpt lat="24.138683" lon="120.692481"/>
<trkpt lat="24.138670" lon="120.692484"/>
<trkpt lat="24.138663" lon="120.692487"/>
<trkpt lat="24.138638" lon="120.692494"/>
<trkpt lat="24.138552" lon="120.692518"/>
<trkpt lat="24.138548" lon="120.692497"/>
<trkpt lat="24.138323" lon="120.692535"/>
<trkpt lat="24.138318" lon="120.692561"/>
<trkpt lat="24.138179" lon="120.692587"/>
<trkpt lat="24.138168" lon="120.692565"/>
<trkpt lat="24.137861" lon="120.692613"/>
<trkpt lat="24.137853" lon="120.692629"/>
<trkpt lat="24.137848" lon="120.692646"/>
<trkpt lat="24.137592" lon="120.692678"/>
<trkpt lat="24.137583" lon="120.692656"/>
<trkpt lat="24.137571" lon="120.692651"/>
<trkpt lat="24.137127" lon="120.692700"/>
<trkpt lat="24.137130" lon="120.692726"/>
<trkpt lat="24.136992" lon="120.692735"/>
<trkpt lat="24.136922" lon="120.692740"/>
<trkpt lat="24.136907" lon="120.692821"/>
<trkpt lat="24.136910" lon="120.692925"/>
<trkpt lat="24.136858" lon="120.692926"/>
<trkpt lat="24.136837" lon="120.692931"/>
<trkpt lat="24.136830" lon="120.693578"/>
<trkpt lat="24.136795" lon="120.693572"/>
<trkpt lat="24.136816" lon="120.694128"/>
<trkpt lat="24.136776" lon="120.694135"/>
<trkpt lat="24.136745" lon="120.694160"/>
<trkpt lat="24.136724" lon="120.694192"/>
<trkpt lat="24.136718" lon="120.694217"/>
<trkpt lat="24.136723" lon="120.694277"/>
<trkpt lat="24.136823" lon="120.694276"/>
<trkpt lat="24.136844" lon="120.694273"/>
<trkpt lat="24.136854" lon="120.694264"/>
<trkpt lat="24.136857" lon="120.694341"/>
<trkpt lat="24.135498" lon="120.694371"/>
<trkpt lat="24.135520" lon="120.695076"/>
<trkpt lat="24.135119" lon="120.695067"/>
<trkpt lat="24.134989" lon="120.695068"/>
<trkpt lat="24.134893" lon="120.695069"/>
<trkpt lat="24.134896" lon="120.695271"/>
<trkpt lat="24.134915" lon="120.695871"/>
<trkpt lat="24.134866" lon="120.696008"/>
<trkpt lat="24.135015" lon="120.696112"/>
<trkpt lat="24.135399" lon="120.696298"/>
<trkpt lat="24.135722" lon="120.696420"/>
<trkpt lat="24.135699" lon="120.696491"/>
<trkpt lat="24.135617" lon="120.696643"/>
<trkpt lat="24.135547" lon="120.696699"/>
<trkpt lat="24.135427" lon="120.696855"/>
<trkpt lat="24.135121" lon="120.697168"/>
<trkpt lat="24.134500" lon="120.697177"/>
<trkpt lat="24.133713" lon="120.697187"/>
<trkpt lat="24.133139" lon="120.697196"/>
<trkpt lat="24.132003" lon="120.697185"/>
<trkpt lat="24.130911" lon="120.697178"/>
<trkpt lat="24.130651" lon="120.697174"/>
<trkpt lat="24.130069" lon="120.697176"/>
<trkpt lat="24.129624" lon="120.697171"/>
<trkpt lat="24.129632" lon="120.697886"/>
<trkpt lat="24.129628" lon="120.698212"/>
<trkpt lat="24.128893" lon="120.698219"/>
<trkpt lat="24.127961" lon="120.698229"/>
<trkpt lat="24.127959" lon="120.698895"/>
<trkpt lat="24.127714" lon="120.698839"/>
<trkpt lat="24.127254" lon="120.698746"/>
<trkpt lat="24.126259" lon="120.698542"/>
<trkpt lat="24.125595" lon="120.698404"/>
<trkpt lat="24.125314" lon="120.698361"/>
<trkpt lat="24.125149" lon="120.698335"/>
<trkpt lat="24.125078" lon="120.698197"/>
<trkpt lat="24.125069" lon="120.697104"/>
<trkpt lat="24.124843" lon="120.697089"/>
<trkpt lat="24.124699" lon="120.697093"/>
<trkpt lat="24.124620" lon="120.696947"/>
<trkpt lat="24.124377" lon="120.696488"/>
<trkpt lat="24.124231" lon="120.695998"/>
<trkpt lat="24.123817" lon="120.696146"/>
<trkpt lat="24.123395" lon="120.694756"/>
<trkpt lat="24.123283" lon="120.694786"/>
<trkpt lat="24.122976" lon="120.694800"/>
<trkpt lat="24.122740" lon="120.694871"/>
<trkpt lat="24.122432" lon="120.694995"/>
<trkpt lat="24.122357" lon="120.695073"/>
<trkpt lat="24.122277" lon="120.695066"/>
<trkpt lat="24.122199" lon="120.695060"/>
<trkpt lat="24.122117" lon="120.695051"/>
<trkpt lat="24.121696" lon="120.694642"/>
<trkpt lat="24.121312" lon="120.694716"/>
<trkpt lat="24.121244" lon="120.694357"/>
<trkpt lat="24.121267" lon="120.694154"/>
<trkpt lat="24.121136" lon="120.694067"/>
<trkpt lat="24.121120" lon="120.694056"/>
<trkpt lat="24.120939" lon="120.693933"/>
<trkpt lat="24.120999" lon="120.693769"/>
<trkpt lat="24.120417" lon="120.693774"/>
<trkpt lat="24.120051" lon="120.693756"/>
<trkpt lat="24.119770" lon="120.693781"/>
<trkpt lat="24.119745" lon="120.693207"/>
<trkpt lat="24.119476" lon="120.693206"/>
<trkpt lat="24.118799" lon="120.693212"/>
<trkpt lat="24.118783" lon="120.692458"/>
<trkpt lat="24.118203" lon="120.692407"/>
<trkpt lat="24.118256" lon="120.691863"/>
<trkpt lat="24.118275" lon="120.691624"/>
<trkpt lat="24.118285" lon="120.691498"/>
<trkpt lat="24.118304" lon="120.691161"/>
<trkpt lat="24.118318" lon="120.690915"/>
<trkpt lat="24.118345" lon="120.690569"/>
<trkpt lat="24.118370" lon="120.690224"/>
<trkpt lat="24.118375" lon="120.690066"/>
<trkpt lat="24.118379" lon="120.689866"/>
<trkpt lat="24.118411" lon="120.689429"/>
<trkpt lat="24.117775" lon="120.689480"/>
<trkpt lat="24.117540" lon="120.689500"/>
<trkpt lat="24.117421" lon="120.689515"/>
<trkpt lat="24.116505" lon="120.689595"/>
<trkpt lat="24.116450" lon="120.688947"/>
<trkpt lat="24.116445" lon="120.688786"/>
<trkpt lat="24.116430" lon="120.688532"/>
<trkpt lat="24.116419" lon="120.688412"/>
<trkpt lat="24.116238" lon="120.687838"/>
<trkpt lat="24.116222" lon="120.687770"/>
<trkpt lat="24.116117" lon="120.687489"/>
<trkpt lat="24.116019" lon="120.687191"/>
<trkpt lat="24.115926" lon="120.687060"/>
<trkpt lat="24.115285" lon="120.687121"/>
<trkpt lat="24.115277" lon="120.686820"/>
<trkpt lat="24.115261" lon="120.686182"/>
<trkpt lat="24.115266" lon="120.685834"/>
<trkpt lat="24.115843" lon="120.685255"/>
<trkpt lat="24.115982" lon="120.685098"/>
<trkpt lat="24.116149" lon="120.684912"/>
<trkpt lat="24.116713" lon="120.684322"/>
<trkpt lat="24.116766" lon="120.684205"/>
<trkpt lat="24.116436" lon="120.684095"/>
<trkpt lat="24.116198" lon="120.683997"/>
<trkpt lat="24.116039" lon="120.683946"/>
<trkpt lat="24.115892" lon="120.683908"/>
<trkpt lat="24.115657" lon="120.683901"/>
<trkpt lat="24.115208" lon="120.683910"/>
<trkpt lat="24.115152" lon="120.682644"/>
<trkpt lat="24.115118" lon="120.682029"/>
<trkpt lat="24.115106" lon="120.681506"/>
<trkpt lat="24.115080" lon="120.681110"/>
<trkpt lat="24.115623" lon="120.681073"/>
<trkpt lat="24.115575" lon="120.681005"/>
<trkpt lat="24.115440" lon="120.680812"/>
<trkpt lat="24.115150" lon="120.680439"/>
<trkpt lat="24.115056" lon="120.680320"/>
<trkpt lat="24.115038" lon="120.680270"/>
<trkpt lat="24.115030" lon="120.680064"/>
<trkpt lat="24.115017" lon="120.679794"/>
<trkpt lat="24.114997" lon="120.679440"/>
<trkpt lat="24.114990" lon="120.679313"/>
<trkpt lat="24.114983" lon="120.679192"/>
<trkpt lat="24.114976" lon="120.679049"/>
<trkpt lat="24.115052" lon="120.679054"/>
<trkpt lat="24.115054" lon="120.678656"/>
<trkpt lat="24.115053" lon="120.678572"/>
<trkpt lat="24.115052" lon="120.678516"/>
<trkpt lat="24.115122" lon="120.678471"/>
<trkpt lat="24.115749" lon="120.678440"/>
<trkpt lat="24.115822" lon="120.678543"/>
<trkpt lat="24.115860" lon="120.678554"/>
<trkpt lat="24.115854" lon="120.678109"/>
<trkpt lat="24.115849" lon="120.677994"/>
<trkpt lat="24.115827" lon="120.677556"/>
<trkpt lat="24.115814" lon="120.677271"/>
<trkpt lat="24.115802" lon="120.676994"/>
<trkpt lat="24.115772" lon="120.676133"/>
<trkpt lat="24.116321" lon="120.676106"/>
<trkpt lat="24.116510" lon="120.676091"/>
<trkpt lat="24.116838" lon="120.676071"/>
<trkpt lat="24.116855" lon="120.676054"/>
<trkpt lat="24.116872" lon="120.676031"/>
<trkpt lat="24.116880" lon="120.676003"/>
<trkpt lat="24.116882" lon="120.675966"/>
<trkpt lat="24.116438" lon="120.674373"/>
<trkpt lat="24.116533" lon="120.674349"/>
<trkpt lat="24.117019" lon="120.674164"/>
<trkpt lat="24.116884" lon="120.673860"/>
<trkpt lat="24.116632" lon="120.673291"/>
<trkpt lat="24.116810" lon="120.673186"/>
<trkpt lat="24.116875" lon="120.673113"/>
<trkpt lat="24.116968" lon="120.673062"/>
<trkpt lat="24.117029" lon="120.673012"/>
<trkpt lat="24.117127" lon="120.672965"/>
<trkpt lat="24.117158" lon="120.672946"/>
<trkpt lat="24.117192" lon="120.672881"/>
<trkpt lat="24.117048" lon="120.672372"/>
<trkpt lat="24.116983" lon="120.672254"/>
<trkpt lat="24.116720" lon="120.671785"/>
<trkpt lat="24.117296" lon="120.671777"/>
<trkpt lat="24.117712" lon="120.671787"/>
<trkpt lat="24.118071" lon="120.671787"/>
<trkpt lat="24.118664" lon="120.671805"/>
<trkpt lat="24.119041" lon="120.671813"/>
<trkpt lat="24.119146" lon="120.671964"/>
<trkpt lat="24.119339" lon="120.671964"/>
<trkpt lat="24.119338" lon="120.671881"/>
<trkpt lat="24.119335" lon="120.671852"/>
<trkpt lat="24.119480" lon="120.671827"/>
<trkpt lat="24.119622" lon="120.671741"/>
<trkpt lat="24.119949" lon="120.671732"/>
<trkpt lat="24.120039" lon="120.671745"/>
<trkpt lat="24.120172" lon="120.671806"/>
<trkpt lat="24.120700" lon="120.671809"/>
<trkpt lat="24.120666" lon="120.671753"/>
<trkpt lat="24.120661" lon="120.671712"/>
<trkpt lat="24.120661" lon="120.671489"/>
<trkpt lat="24.120660" lon="120.671399"/>
<trkpt lat="24.120675" lon="120.670088"/>
<trkpt lat="24.121032" lon="120.670084"/>
<trkpt lat="24.121426" lon="120.670086"/>
<trkpt lat="24.121771" lon="120.670089"/>
<trkpt lat="24.122350" lon="120.670094"/>
<trkpt lat="24.122358" lon="120.670000"/>
<trkpt lat="24.122347" lon="120.669265"/>
<trkpt lat="24.123007" lon="120.669266"/>
<trkpt lat="24.123014" lon="120.668992"/>
<trkpt lat="24.123240" lon="120.668995"/>
<trkpt lat="24.123356" lon="120.668999"/>
<trkpt lat="24.123432" lon="120.668986"/>
<trkpt lat="24.123632" lon="120.668948"/>
<trkpt lat="24.123629" lon="120.668598"/>
<trkpt lat="24.124189" lon="120.668597"/>
<trkpt lat="24.124249" lon="120.668580"/>
<trkpt lat="24.124349" lon="120.668500"/>
<trkpt lat="24.124561" lon="120.668277"/>
<trkpt lat="24.125063" lon="120.667830"/>
<trkpt lat="24.125147" lon="120.667749"/>
<trkpt lat="24.125413" lon="120.667507"/>
<trkpt lat="24.125659" lon="120.667283"/>
<trkpt lat="24.125823" lon="120.667116"/>
<trkpt lat="24.125955" lon="120.667290"/>
<trkpt lat="24.126262" lon="120.667110"/>
<trkpt lat="24.126274" lon="120.667143"/>
<trkpt lat="24.126835" lon="120.666696"/>
<trkpt lat="24.127079" lon="120.667275"/>
<trkpt lat="24.127705" lon="120.666966"/>
<trkpt lat="24.127972" lon="120.667609"/>
<trkpt lat="24.128023" lon="120.667552"/>
<trkpt lat="24.128128" lon="120.667489"/>
<trkpt lat="24.128376" lon="120.667363"/>
<trkpt lat="24.128587" lon="120.667264"/>
<trkpt lat="24.128879" lon="120.667220"/>
<trkpt lat="24.129094" lon="120.667104"/>
<trkpt lat="24.129137" lon="120.667090"/>
<trkpt lat="24.129248" lon="120.667056"/>
<trkpt lat="24.129314" lon="120.667026"/>
<trkpt lat="24.129592" lon="120.666966"/>
<trkpt lat="24.129808" lon="120.666965"/>
<trkpt lat="24.129997" lon="120.667038"/>
<trkpt lat="24.130157" lon="120.667121"/>
<trkpt lat="24.130567" lon="120.667456"/>
<trkpt lat="24.130660" lon="120.667533"/>
<trkpt lat="24.130697" lon="120.667563"/>
<trkpt lat="24.130726" lon="120.667587"/>
<trkpt lat="24.130919" lon="120.667748"/>
<trkpt lat="24.131010" lon="120.667813"/>
<trkpt lat="24.131586" lon="120.667557"/>
<trkpt lat="24.131676" lon="120.667518"/>
<trkpt lat="24.132157" lon="120.667258"/>
<trkpt lat="24.132107" lon="120.668027"/>
<trkpt lat="24.132732" lon="120.668082"/>
<trkpt lat="24.132959" lon="120.668101"/>
<trkpt lat="24.133122" lon="120.668112"/>
<trkpt lat="24.133159" lon="120.668077"/>
<trkpt lat="24.133381" lon="120.667818"/>
<trkpt lat="24.133881" lon="120.667240"/>
<trkpt lat="24.133935" lon="120.667131"/>
<trkpt lat="24.133967" lon="120.667187"/>
<trkpt lat="24.134354" lon="120.667590"/>
<trkpt lat="24.134694" lon="120.667943"/>
<trkpt lat="24.134985" lon="120.668248"/>
<trkpt lat="24.135209" lon="120.668485"/>
<trkpt lat="24.135312" lon="120.668588"/>
<trkpt lat="24.135699" lon="120.668990"/>
<trkpt lat="24.135431" lon="120.669302"/>
<trkpt lat="24.135354" lon="120.669394"/>
<trkpt lat="24.135333" lon="120.669430"/>
<trkpt lat="24.135332" lon="120.669457"/>
<trkpt lat="24.135356" lon="120.669486"/>
<trkpt lat="24.135670" lon="120.669804"/>
<trkpt lat="24.136056" lon="120.669358"/>
<trkpt lat="24.136415" lon="120.669727"/>
<trkpt lat="24.136773" lon="120.670096"/>
<trkpt lat="24.137127" lon="120.670464"/>
<trkpt lat="24.137413" lon="120.670759"/>
<trkpt lat="24.137370" lon="120.670808"/>
<trkpt lat="24.137469" lon="120.670911"/>
<trkpt lat="24.137150" lon="120.671273"/>
<trkpt lat="24.136731" lon="120.671746"/>
<trkpt lat="24.136840" lon="120.671863"/>
<trkpt lat="24.136797" lon="120.671922"/>
<trkpt lat="24.137079" lon="120.672212"/>
<trkpt lat="24.137114" lon="120.672241"/>
<trkpt lat="24.137441" lon="120.672573"/>
<trkpt lat="24.137698" lon="120.672281"/>
<trkpt lat="24.137747" lon="120.672224"/>
<trkpt lat="24.138461" lon="120.672973"/>
<trkpt lat="24.139175" lon="120.673708"/>
<trkpt lat="24.139695" lon="120.673110"/>
<trkpt lat="24.140146" lon="120.672596"/>
<trkpt lat="24.140201" lon="120.672658"/>
<trkpt lat="24.140279" lon="120.672565"/>
<trkpt lat="24.140332" lon="120.672514"/>
<trkpt lat="24.140347" lon="120.672478"/>
<trkpt lat="24.140412" lon="120.672641"/>
<trkpt lat="24.140469" lon="120.672848"/>
<trkpt lat="24.140550" lon="120.673092"/>
<trkpt lat="24.140599" lon="120.673281"/>
<trkpt lat="24.140618" lon="120.673360"/>
<trkpt lat="24.140659" lon="120.673362"/>
<trkpt lat="24.140896" lon="120.673100"/>
<trkpt lat="24.140905" lon="120.673091"/>
<trkpt lat="24.140905" lon="120.673068"/>
<trkpt lat="24.140910" lon="120.673024"/>
<trkpt lat="24.140967" lon="120.672966"/>
<trkpt lat="24.141057" lon="120.672879"/>
<trkpt lat="24.141100" lon="120.673003"/>
<trkpt lat="24.141329" lon="120.672756"/>
<trkpt lat="24.142048" lon="120.673504"/>
<trkpt lat="24.142392" lon="120.673118"/>
<trkpt lat="24.142831" lon="120.673570"/>
<trkpt lat="24.143146" lon="120.673900"/>
<trkpt lat="24.143200" lon="120.673838"/>
<trkpt lat="24.143220" lon="120.673816"/>
<trkpt lat="24.143315" lon="120.673915"/>
<trkpt lat="24.143364" lon="120.673857"/>
<trkpt lat="24.143671" lon="120.674169"/>
<trkpt lat="24.144023" lon="120.674517"/>
<trkpt lat="24.144395" lon="120.674907"/>
<trkpt lat="24.144174" lon="120.675158"/>
<trkpt lat="24.144001" lon="120.675364"/>
<trkpt lat="24.143925" lon="120.675454"/>
<trkpt lat="24.143217" lon="120.676203"/>
<trkpt lat="24.143332" lon="120.676332"/>
<trkpt lat="24.143266" lon="120.676451"/>
<trkpt lat="24.143189" lon="120.676659"/>
<trkpt lat="24.143087" lon="120.676989"/>
<trkpt lat="24.143062" lon="120.677041"/>
<trkpt lat="24.143023" lon="120.677025"/>
<trkpt lat="24.142990" lon="120.677092"/>
<trkpt lat="24.142990" lon="120.677118"/>
<trkpt lat="24.142990" lon="120.677162"/>
<trkpt lat="24.142796" lon="120.677380"/>
<trkpt lat="24.142734" lon="120.677421"/>
<trkpt lat="24.142678" lon="120.677490"/>
<trkpt lat="24.142631" lon="120.677552"/>
<trkpt lat="24.142704" lon="120.677587"/>
<trkpt lat="24.142496" lon="120.677832"/>
<trkpt lat="24.142303" lon="120.678055"/>
<trkpt lat="24.141672" lon="120.678787"/>
<trkpt lat="24.141514" lon="120.678960"/>
<trkpt lat="24.141202" lon="120.679322"/>
<trkpt lat="24.141022" lon="120.679533"/>
<trkpt lat="24.140743" lon="120.679866"/>
<trkpt lat="24.141134" lon="120.680265"/>
<trkpt lat="24.140810" lon="120.680640"/>
<trkpt lat="24.140941" lon="120.680791"/>
<trkpt lat="24.141148" lon="120.681020"/>
<trkpt lat="24.141482" lon="120.681361"/>
<trkpt lat="24.141834" lon="120.681742"/>
<trkpt lat="24.141507" lon="120.682117"/>
<trkpt lat="24.140802" lon="120.682929"/>
</trkseg></trk>
</gpx>