<?xml version="1.0" encoding="UTF-8"?>
<gpx version="1.1" creator="catrun" xmlns="http://www.topografix.com/GPX/1/1">
<metadata><name>南區 蜷睡貓咪 圖形路跑路線</name></metadata>
<wpt lat="24.134112" lon="120.668238"><name>藍興公園</name><desc>地標</desc></wpt>
<wpt lat="24.134977" lon="120.667267"><name>樂群公園</name><desc>地標</desc></wpt>
<wpt lat="24.136052" lon="120.666164"><name>上公館公園</name><desc>地標</desc></wpt>
<trk><name>南區 蜷睡貓咪 圖形路跑路線</name><trkseg>
<trkpt lat="24.133147" lon="120.665954"/>
<trkpt lat="24.133311" lon="120.666122"/>
<trkpt lat="24.133611" lon="120.666427"/>
<trkpt lat="24.133664" lon="120.666507"/>
<trkpt lat="24.133822" lon="120.666884"/>
<trkpt lat="24.133935" lon="120.667131"/>
<trkpt lat="24.133967" lon="120.667187"/>
<trkpt lat="24.134354" lon="120.667590"/>
<trkpt lat="24.134924" lon="120.666939"/>
<trkpt lat="24.135278" lon="120.666549"/>
<trkpt lat="24.135607" lon="120.666904"/>
<trkpt lat="24.135901" lon="120.667203"/>
<trkpt lat="24.136194" lon="120.667468"/>
<trkpt lat="24.136250" lon="120.667520"/>
<trkpt lat="24.136304" lon="120.667455"/>
<trkpt lat="24.136373" lon="120.667532"/>
<trkpt lat="24.136369" lon="120.667515"/>
<trkpt lat="24.136377" lon="120.667498"/>
<trkpt lat="24.136563" lon="120.667280"/>
<trkpt lat="24.136573" lon="120.667273"/>
<trkpt lat="24.136581" lon="120.667268"/>
<trkpt lat="24.136605" lon="120.667287"/>
<trkpt lat="24.136666" lon="120.667215"/>
<trkpt lat="24.137037" lon="120.667583"/>
<trkpt lat="24.137857" lon="120.668433"/>
<trkpt lat="24.137912" lon="120.668490"/>
<trkpt lat="24.138051" lon="120.668626"/>
<trkpt lat="24.138100" lon="120.668676"/>
<trkpt lat="24.138555" lon="120.669155"/>
<trkpt lat="24.138688" lon="120.669297"/>
<trkpt lat="24.138634" lon="120.669369"/>
<trkpt lat="24.138638" lon="120.669408"/>
<trkpt lat="24.138634" lon="120.669428"/>
<trkpt lat="24.138468" lon="120.669619"/>
<trkpt lat="24.138420" lon="120.669631"/>
<trkpt lat="24.138506" lon="120.669726"/>
<trkpt lat="24.138594" lon="120.669803"/>
<trkpt lat="24.138736" lon="120.669962"/>
<trkpt lat="24.139196" lon="120.670432"/>
<trkpt lat="24.139209" lon="120.670444"/>
<trkpt lat="24.139254" lon="120.670486"/>
<trkpt lat="24.139305" lon="120.670535"/>
<trkpt lat="24.139440" lon="120.670675"/>
<trkpt lat="24.139775" lon="120.671097"/>
<trkpt lat="24.139846" lon="120.671218"/>
<trkpt lat="24.139906" lon="120.671295"/>
<trkpt lat="24.139959" lon="120.671357"/>
<trkpt lat="24.139961" lon="120.671373"/>
<trkpt lat="24.139990" lon="120.671416"/>
<trkpt lat="24.140030" lon="120.671470"/>
<trkpt lat="24.140054" lon="120.671550"/>
<trkpt lat="24.140086" lon="120.671633"/>
<trkpt lat="24.140146" lon="120.671737"/>
<trkpt lat="24.140163" lon="120.671763"/>
<trkpt lat="24.140165" lon="120.671792"/>
<trkpt lat="24.140197" lon="120.671841"/>
<trkpt lat="24.140212" lon="120.671890"/>
<trkpt lat="24.140211" lon="120.671928"/>
<trkpt lat="24.140236" lon="120.672036"/>
<trkpt lat="24.140301" lon="120.672236"/>
<trkpt lat="24.140307" lon="120.672274"/>
<trkpt lat="24.140303" lon="120.672325"/>
<trkpt lat="24.140318" lon="120.672395"/>
<trkpt lat="24.140249" lon="120.672470"/>
<trkpt lat="24.140146" lon="120.672596"/>
<trkpt lat="24.139695" lon="120.673110"/>
<trkpt lat="24.139902" lon="120.673327"/>
<trkpt lat="24.140076" lon="120.673512"/>
<trkpt lat="24.140393" lon="120.673842"/>
<trkpt lat="24.140313" lon="120.673947"/>
<trkpt lat="24.139587" lon="120.674797"/>
<trkpt lat="24.138756" lon="120.675749"/>
<trkpt lat="24.139010" lon="120.676014"/>
<trkpt lat="24.139327" lon="120.676344"/>
<trkpt lat="24.139657" lon="120.676682"/>
<trkpt lat="24.139894" lon="120.676930"/>
<trkpt lat="24.140085" lon="120.677129"/>
<trkpt lat="24.140123" lon="120.677168"/>
<trkpt lat="24.140048" lon="120.677257"/>
<trkpt lat="24.140048" lon="120.677276"/>
<trkpt lat="24.140128" lon="120.677359"/>
<trkpt lat="24.140211" lon="120.677446"/>
<trkpt lat="24.140236" lon="120.677447"/>
<trkpt lat="24.140309" lon="120.677362"/>
<trkpt lat="24.140319" lon="120.677372"/>
<trkpt lat="24.140434" lon="120.677491"/>
<trkpt lat="24.140608" lon="120.677670"/>
<trkpt lat="24.140949" lon="120.678042"/>
<trkpt lat="24.140593" lon="120.678458"/>
<trkpt lat="24.140463" lon="120.678607"/>
<trkpt lat="24.140126" lon="120.678229"/>
<trkpt lat="24.139724" lon="120.677824"/>
<trkpt lat="24.139698" lon="120.677858"/>
<trkpt lat="24.139320" lon="120.678289"/>
<trkpt lat="24.139312" lon="120.678298"/>
<trkpt lat="24.139279" lon="120.678344"/>
<trkpt lat="24.139252" lon="120.678384"/>
<trkpt lat="24.139243" lon="120.678393"/>
<trkpt lat="24.139138" lon="120.678513"/>
<trkpt lat="24.139000" lon="120.678671"/>
<trkpt lat="24.138671" lon="120.679056"/>
<trkpt lat="24.138750" lon="120.679138"/>
<trkpt lat="24.138747" lon="120.679167"/>
<trkpt lat="24.138700" lon="120.679223"/>
<trkpt lat="24.138935" lon="120.679464"/>
<trkpt lat="24.139349" lon="120.679888"/>
<trkpt lat="24.139112" lon="120.680166"/>
<trkpt lat="24.139553" lon="120.680661"/>
<trkpt lat="24.139106" lon="120.681191"/>
<trkpt lat="24.139351" lon="120.681460"/>
<trkpt lat="24.139003" lon="120.681853"/>
<trkpt lat="24.138637" lon="120.682272"/>
<trkpt lat="24.138335" lon="120.681931"/>
<trkpt lat="24.138294" lon="120.681900"/>
<trkpt lat="24.138258" lon="120.681863"/>
<trkpt lat="24.137936" lon="120.681515"/>
<trkpt lat="24.137571" lon="120.681152"/>
<trkpt lat="24.137500" lon="120.681077"/>
<trkpt lat="24.137277" lon="120.680842"/>
<trkpt lat="24.137262" lon="120.680827"/>
<trkpt lat="24.137185" lon="120.680749"/>
<trkpt lat="24.137106" lon="120.680669"/>
<trkpt lat="24.136793" lon="120.680350"/>
<trkpt lat="24.136458" lon="120.680736"/>
<trkpt lat="24.136122" lon="120.681119"/>
<trkpt lat="24.136219" lon="120.681223"/>
<trkpt lat="24.136238" lon="120.681243"/>
<trkpt lat="24.136080" lon="120.681402"/>
<trkpt lat="24.135574" lon="120.681639"/>
<trkpt lat="24.135722" lon="120.681993"/>
<trkpt lat="24.135759" lon="120.682068"/>
<trkpt lat="24.135784" lon="120.682103"/>
<trkpt lat="24.135697" lon="120.682151"/>
<trkpt lat="24.135595" lon="120.682203"/>
<trkpt lat="24.135670" lon="120.682341"/>
<trkpt lat="24.135357" lon="120.682503"/>
<trkpt lat="24.134888" lon="120.682725"/>
<trkpt lat="24.134780" lon="120.682778"/>
<trkpt lat="24.134568" lon="120.682885"/>
<trkpt lat="24.134617" lon="120.683003"/>
<trkpt lat="24.134602" lon="120.683048"/>
<trkpt lat="24.134535" lon="120.683081"/>
<trkpt lat="24.134468" lon="120.683114"/>
<trkpt lat="24.134626" lon="120.683500"/>
<trkpt lat="24.134490" lon="120.683566"/>
<trkpt lat="24.134011" lon="120.683808"/>
<trkpt lat="24.133426" lon="120.684108"/>
<trkpt lat="24.132824" lon="120.684392"/>
<trkpt lat="24.132230" lon="120.684695"/>
<trkpt lat="24.132149" lon="120.684497"/>
<trkpt lat="24.132098" lon="120.684371"/>
<trkpt lat="24.132073" lon="120.684312"/>
<trkpt lat="24.132130" lon="120.684284"/>
<trkpt lat="24.132140" lon="120.684252"/>
<trkpt lat="24.132082" lon="120.684127"/>
<trkpt lat="24.132008" lon="120.684164"/>
<trkpt lat="24.131925" lon="120.684205"/>
<trkpt lat="24.131412" lon="120.684460"/>
<trkpt lat="24.130874" lon="120.684728"/>
<trkpt lat="24.130806" lon="120.684576"/>
<trkpt lat="24.130708" lon="120.684624"/>
<trkpt lat="24.130621" lon="120.684667"/>
<trkpt lat="24.130689" lon="120.684819"/>
<trkpt lat="24.130430" lon="120.684945"/>
<trkpt lat="24.130333" lon="120.684992"/>
<trkpt lat="24.130261" lon="120.685026"/>
<trkpt lat="24.130197" lon="120.685066"/>
<trkpt lat="24.130082" lon="120.685133"/>
<trkpt lat="24.130053" lon="120.685146"/>
<trkpt lat="24.130024" lon="120.685157"/>
<trkpt lat="24.129992" lon="120.685165"/>
<trkpt lat="24.129956" lon="120.685166"/>
<trkpt lat="24.129929" lon="120.685160"/>
<trkpt lat="24.129701" lon="120.685090"/>
<trkpt lat="24.129766" lon="120.685243"/>
<trkpt lat="24.129617" lon="120.685210"/>
<trkpt lat="24.129516" lon="120.685186"/>
<trkpt lat="24.129405" lon="120.685154"/>
<trkpt lat="24.129385" lon="120.685130"/>
<trkpt lat="24.129317" lon="120.684977"/>
<trkpt lat="24.129011" lon="120.684894"/>
<trkpt lat="24.128904" lon="120.684865"/>
<trkpt lat="24.128853" lon="120.684851"/>
<trkpt lat="24.128480" lon="120.684752"/>
<trkpt lat="24.128006" lon="120.684625"/>
<trkpt lat="24.127770" lon="120.684562"/>
<trkpt lat="24.127707" lon="120.684545"/>
<trkpt lat="24.127663" lon="120.684534"/>
<trkpt lat="24.127362" lon="120.684455"/>
<trkpt lat="24.126622" lon="120.684263"/>
<trkpt lat="24.126495" lon="120.684231"/>
<trkpt lat="24.126383" lon="120.684204"/>
<trkpt lat="24.126283" lon="120.684121"/>
<trkpt lat="24.126227" lon="120.684075"/>
<trkpt lat="24.125878" lon="120.683982"/>
<trkpt lat="24.125642" lon="120.683932"/>
<trkpt lat="24.124968" lon="120.683749"/>
<trkpt lat="24.124919" lon="120.683736"/>
<trkpt lat="24.124873" lon="120.683723"/>
<trkpt lat="24.124570" lon="120.683641"/>
<trkpt lat="24.124553" lon="120.683636"/>
<trkpt lat="24.124403" lon="120.683608"/>
<trkpt lat="24.124358" lon="120.683604"/>
<trkpt lat="24.124326" lon="120.683604"/>
<trkpt lat="24.124280" lon="120.683613"/>
<trkpt lat="24.124281" lon="120.683527"/>
<trkpt lat="24.124273" lon="120.683524"/>
<trkpt lat="24.124227" lon="120.683546"/>
<trkpt lat="24.124032" lon="120.683641"/>
<trkpt lat="24.123924" lon="120.683695"/>
<trkpt lat="24.123837" lon="120.683737"/>
<trkpt lat="24.123821" lon="120.682561"/>
<trkpt lat="24.123754" lon="120.682561"/>
<trkpt lat="24.123459" lon="120.682559"/>
<trkpt lat="24.123240" lon="120.682561"/>
<trkpt lat="24.123005" lon="120.682559"/>
<trkpt lat="24.122335" lon="120.682555"/>
<trkpt lat="24.122331" lon="120.681883"/>
<trkpt lat="24.122330" lon="120.681826"/>
<trkpt lat="24.122333" lon="120.681100"/>
<trkpt lat="24.121864" lon="120.681100"/>
<trkpt lat="24.121748" lon="120.681100"/>
<trkpt lat="24.121422" lon="120.681100"/>
<trkpt lat="24.121345" lon="120.681099"/>
<trkpt lat="24.120962" lon="120.681100"/>
<trkpt lat="24.120584" lon="120.681100"/>
<trkpt lat="24.120584" lon="120.680714"/>
<trkpt lat="24.120580" lon="120.680248"/>
<trkpt lat="24.120201" lon="120.680246"/>
<trkpt lat="24.119855" lon="120.680246"/>
<trkpt lat="24.119131" lon="120.680251"/>
<trkpt lat="24.119131" lon="120.679773"/>
<trkpt lat="24.119130" lon="120.679505"/>
<trkpt lat="24.119204" lon="120.679504"/>
<trkpt lat="24.119250" lon="120.679482"/>
<trkpt lat="24.119258" lon="120.679464"/>
<trkpt lat="24.119258" lon="120.679401"/>
<trkpt lat="24.119258" lon="120.679302"/>
<trkpt lat="24.119258" lon="120.679232"/>
<trkpt lat="24.119251" lon="120.679221"/>
<trkpt lat="24.119214" lon="120.679184"/>
<trkpt lat="24.119131" lon="120.679183"/>
<trkpt lat="24.119132" lon="120.678895"/>
<trkpt lat="24.119186" lon="120.678829"/>
<trkpt lat="24.119186" lon="120.677581"/>
<trkpt lat="24.119189" lon="120.673500"/>
<trkpt lat="24.119188" lon="120.673206"/>
<trkpt lat="24.119179" lon="120.672271"/>
<trkpt lat="24.119180" lon="120.672212"/>
<trkpt lat="24.119177" lon="120.672115"/>
<trkpt lat="24.119146" lon="120.671964"/>
<trkpt lat="24.119339" lon="120.671964"/>
<trkpt lat="24.119338" lon="120.671881"/>
<trkpt lat="24.119335" lon="120.671852"/>
<trkpt lat="24.119480" lon="120.671827"/>
<trkpt lat="24.119622" lon="120.671741"/>
<trkpt lat="24.119949" lon="120.671732"/>
<trkpt lat="24.120039" lon="120.671745"/>
<trkpt lat="24.120172" lon="120.671806"/>
<trkpt lat="24.120700" lon="120.671809"/>
<trkpt lat="24.120666" lon="120.671753"/>
<trkpt lat="24.120661" lon="120.671712"/>
<trkpt lat="24.120661" lon="120.671489"/>
<trkpt lat="24.120660" lon="120.671399"/>
<trkpt lat="24.120675" lon="120.670088"/>
<trkpt lat="24.120590" lon="120.670084"/>
<trkpt lat="24.120007" lon="120.670083"/>
<trkpt lat="24.119690" lon="120.670086"/>
<trkpt lat="24.119137" lon="120.670092"/>
<trkpt lat="24.119139" lon="120.669994"/>
<trkpt lat="24.119141" lon="120.668644"/>
<trkpt lat="24.119141" lon="120.668559"/>
<trkpt lat="24.119055" lon="120.668538"/>
<trkpt lat="24.118966" lon="120.668521"/>
<trkpt lat="24.118965" lon="120.668415"/>
<trkpt lat="24.118971" lon="120.668270"/>
<trkpt lat="24.118969" lon="120.667040"/>
<trkpt lat="24.118969" lon="120.666817"/>
<trkpt lat="24.119057" lon="120.666818"/>
<trkpt lat="24.119141" lon="120.666820"/>
<trkpt lat="24.120002" lon="120.666825"/>
<trkpt lat="24.120370" lon="120.666829"/>
<trkpt lat="24.120724" lon="120.666831"/>
<trkpt lat="24.121152" lon="120.666828"/>
<trkpt lat="24.121570" lon="120.666824"/>
<trkpt lat="24.121574" lon="120.666157"/>
<trkpt lat="24.121597" lon="120.666087"/>
<trkpt lat="24.121756" lon="120.665969"/>
<trkpt lat="24.122096" lon="120.665759"/>
<trkpt lat="24.122067" lon="120.665665"/>
<trkpt lat="24.122085" lon="120.665584"/>
<trkpt lat="24.122167" lon="120.665315"/>
<trkpt lat="24.121997" lon="120.665102"/>
<trkpt lat="24.122155" lon="120.664953"/>
<trkpt lat="24.122240" lon="120.664873"/>
<trkpt lat="24.122522" lon="120.664607"/>
<trkpt lat="24.122598" lon="120.664546"/>
<trkpt lat="24.122859" lon="120.664299"/>
<trkpt lat="24.123093" lon="120.664078"/>
<trkpt lat="24.123364" lon="120.663796"/>
<trkpt lat="24.123769" lon="120.663166"/>
<trkpt lat="24.123801" lon="120.663084"/>
<trkpt lat="24.124195" lon="120.662456"/>
<trkpt lat="24.125183" lon="120.663173"/>
<trkpt lat="24.125373" lon="120.663315"/>
<trkpt lat="24.125588" lon="120.663205"/>
<trkpt lat="24.125861" lon="120.663099"/>
<trkpt lat="24.126527" lon="120.662868"/>
<trkpt lat="24.126997" lon="120.662691"/>
<trkpt lat="24.127369" lon="120.662565"/>
<trkpt lat="24.127408" lon="120.662550"/>
<trkpt lat="24.127458" lon="120.662533"/>
<trkpt lat="24.127450" lon="120.662513"/>
<trkpt lat="24.127296" lon="120.662140"/>
<trkpt lat="24.127355" lon="120.662099"/>
<trkpt lat="24.127387" lon="120.662049"/>
<trkpt lat="24.128011" lon="120.662050"/>
<trkpt lat="24.128017" lon="120.662343"/>
<trkpt lat="24.128361" lon="120.662229"/>
<trkpt lat="24.128745" lon="120.662079"/>
<trkpt lat="24.129076" lon="120.662047"/>
<trkpt lat="24.129394" lon="120.662014"/>
<trkpt lat="24.129610" lon="120.661996"/>
<trkpt lat="24.129619" lon="120.663136"/>
<trkpt lat="24.129398" lon="120.663132"/>
<trkpt lat="24.129392" lon="120.663257"/>
<trkpt lat="24.129384" lon="120.663714"/>
<trkpt lat="24.129077" lon="120.663709"/>
<trkpt lat="24.128750" lon="120.663707"/>
<trkpt lat="24.128631" lon="120.663706"/>
<trkpt lat="24.128353" lon="120.663704"/>
<trkpt lat="24.127990" lon="120.663702"/>
<trkpt lat="24.127941" lon="120.663702"/>
<trkpt lat="24.127466" lon="120.662553"/>
<trkpt lat="24.127458" lon="120.662533"/>
<trkpt lat="24.127408" lon="120.662550"/>
<trkpt lat="24.127369" lon="120.662565"/>
<trkpt lat="24.126997" lon="120.662691"/>
<trkpt lat="24.127026" lon="120.662761"/>
<trkpt lat="24.127271" lon="120.663365"/>
<trkpt lat="24.127810" lon="120.664606"/>
<trkpt lat="24.127417" lon="120.664832"/>
<trkpt lat="24.126887" lon="120.665630"/>
<trkpt lat="24.127069" lon="120.665839"/>
<trkpt lat="24.127012" lon="120.665895"/>
<trkpt lat="24.127068" lon="120.665961"/>
<trkpt lat="24.126717" lon="120.666251"/>
<trkpt lat="24.126660" lon="120.666305"/>
<trkpt lat="24.126121" lon="120.666814"/>
<trkpt lat="24.125823" lon="120.667116"/>
<trkpt lat="24.125659" lon="120.667283"/>
<trkpt lat="24.125413" lon="120.667507"/>
<trkpt lat="24.125147" lon="120.667749"/>
<trkpt lat="24.125063" lon="120.667830"/>
<trkpt lat="24.124561" lon="120.668277"/>
<trkpt lat="24.124349" lon="120.668500"/>
<trkpt lat="24.124249" lon="120.668580"/>
<trkpt lat="24.124260" lon="120.669155"/>
<trkpt lat="24.124428" lon="120.669421"/>
<trkpt lat="24.124572" lon="120.669745"/>
<trkpt lat="24.124703" lon="120.669995"/>
<trkpt lat="24.124741" lon="120.670082"/>
<trkpt lat="24.124881" lon="120.670474"/>
<trkpt lat="24.124916" lon="120.670583"/>
<trkpt lat="24.124976" lon="120.670839"/>
<trkpt lat="24.125034" lon="120.671283"/>
<trkpt lat="24.125042" lon="120.671563"/>
<trkpt lat="24.124501" lon="120.671562"/>
<trkpt lat="24.124504" lon="120.672025"/>
<trkpt lat="24.124500" lon="120.672913"/>
<trkpt lat="24.124539" lon="120.672931"/>
<trkpt lat="24.124549" lon="120.672955"/>
<trkpt lat="24.124550" lon="120.672986"/>
<trkpt lat="24.124659" lon="120.673019"/>
<trkpt lat="24.124965" lon="120.673111"/>
<trkpt lat="24.125253" lon="120.673278"/>
<trkpt lat="24.125459" lon="120.673342"/>
<trkpt lat="24.125654" lon="120.673387"/>
<trkpt lat="24.125946" lon="120.673526"/>
<trkpt lat="24.125991" lon="120.673568"/>
<trkpt lat="24.125993" lon="120.673614"/>
<trkpt lat="24.126266" lon="120.673607"/>
<trkpt lat="24.126392" lon="120.673610"/>
<trkpt lat="24.126476" lon="120.673765"/>
<trkpt lat="24.126465" lon="120.674433"/>
<trkpt lat="24.126461" lon="120.675186"/>
<trkpt lat="24.126770" lon="120.675175"/>
<trkpt lat="24.127191" lon="120.674965"/>
<trkpt lat="24.127585" lon="120.674749"/>
<trkpt lat="24.127990" lon="120.674553"/>
<trkpt lat="24.128199" lon="120.674544"/>
<trkpt lat="24.128514" lon="120.674623"/>
<trkpt lat="24.128863" lon="120.675463"/>
<trkpt lat="24.129244" lon="120.675279"/>
<trkpt lat="24.129656" lon="120.675072"/>
<trkpt lat="24.130227" lon="120.674787"/>
<trkpt lat="24.130850" lon="120.674475"/>
<trkpt lat="24.130913" lon="120.674444"/>
<trkpt lat="24.131309" lon="120.674246"/>
<trkpt lat="24.131573" lon="120.674111"/>
<trkpt lat="24.131721" lon="120.674035"/>
<trkpt lat="24.131499" lon="120.673513"/>
<trkpt lat="24.131268" lon="120.672922"/>
<trkpt lat="24.131546" lon="120.672783"/>
<trkpt lat="24.131605" lon="120.672748"/>
<trkpt lat="24.131672" lon="120.672702"/>
<trkpt lat="24.131749" lon="120.672646"/>
<trkpt lat="24.131794" lon="120.672598"/>
<trkpt lat="24.131847" lon="120.672541"/>
<trkpt lat="24.131921" lon="120.672484"/>
<trkpt lat="24.132037" lon="120.672352"/>
<trkpt lat="24.132525" lon="120.671802"/>
<trkpt lat="24.132655" lon="120.671648"/>
<trkpt lat="24.133130" lon="120.671096"/>
<trkpt lat="24.132512" lon="120.670445"/>
<trkpt lat="24.132275" lon="120.670424"/>
<trkpt lat="24.131936" lon="120.670393"/>
<trkpt lat="24.131535" lon="120.670401"/>
<trkpt lat="24.131481" lon="120.670396"/>
<trkpt lat="24.131445" lon="120.670377"/>
<trkpt lat="24.131413" lon="120.670347"/>
<trkpt lat="24.131373" lon="120.670274"/>
<trkpt lat="24.130950" lon="120.669326"/>
<trkpt lat="24.130716" lon="120.668747"/>
<trkpt lat="24.130458" lon="120.668106"/>
<trkpt lat="24.131010" lon="120.667813"/>
<trkpt lat="24.131586" lon="120.667557"/>
<trkpt lat="24.131676" lon="120.667518"/>
<trkpt lat="24.132157" lon="120.667258"/>
<trkpt lat="24.132162" lon="120.667163"/>
<trkpt lat="24.132164" lon="120.666851"/>
<trkpt lat="24.132167" lon="120.666482"/>
<trkpt lat="24.132167" lon="120.666386"/>
<trkpt lat="24.132165" lon="120.665632"/>
<trkpt lat="24.132702" lon="120.665632"/>
<trkpt lat="24.132824" lon="120.665623"/>
<trkpt lat="24.133130" lon="120.665927"/>
<trkpt lat="24.133147" lon="120.665954"/>
</trkseg></trk>
</gpx>