<?xml version="1.0" encoding="UTF-8"?>
<gpx version="1.1" creator="catrun" xmlns="http://www.topografix.com/GPX/1/1">
<metadata><name>南區 蹲坐貓咪（側面） 圖形路跑路線</name></metadata>
<wpt lat="24.134112" lon="120.668238"><name>藍興公園</name><desc>地標</desc></wpt>
<wpt lat="24.134977" lon="120.667267"><name>樂群公園</name><desc>地標</desc></wpt>
<wpt lat="24.136052" lon="120.666164"><name>上公館公園</name><desc>地標</desc></wpt>
<trk><name>南區 蹲坐貓咪（側面） 圖形路跑路線</name><trkseg>
<trkpt lat="24.132157" lon="120.667258"/>
<trkpt lat="24.132593" lon="120.667033"/>
<trkpt lat="24.133147" lon="120.666766"/>
<trkpt lat="24.133317" lon="120.666680"/>
<trkpt lat="24.133402" lon="120.666760"/>
<trkpt lat="24.133483" lon="120.666820"/>
<trkpt lat="24.133713" lon="120.666928"/>
<trkpt lat="24.133742" lon="120.666928"/>
<trkpt lat="24.133822" lon="120.666884"/>
<trkpt lat="24.133935" lon="120.667131"/>
<trkpt lat="24.133967" lon="120.667187"/>
<trkpt lat="24.134354" lon="120.667590"/>
<trkpt lat="24.134694" lon="120.667943"/>
<trkpt lat="24.134985" lon="120.668248"/>
<trkpt lat="24.135433" lon="120.667729"/>
<trkpt lat="24.135901" lon="120.667203"/>
<trkpt lat="24.136194" lon="120.667468"/>
<trkpt lat="24.136250" lon="120.667520"/>
<trkpt lat="24.136304" lon="120.667579"/>
<trkpt lat="24.136627" lon="120.667926"/>
<trkpt lat="24.136978" lon="120.668305"/>
<trkpt lat="24.137337" lon="120.668670"/>
<trkpt lat="24.137654" lon="120.668986"/>
<trkpt lat="24.137709" lon="120.668918"/>
<trkpt lat="24.137739" lon="120.668896"/>
<trkpt lat="24.137936" lon="120.668676"/>
<trkpt lat="24.137945" lon="120.668668"/>
<trkpt lat="24.137981" lon="120.668708"/>
<trkpt lat="24.138026" lon="120.668756"/>
<trkpt lat="24.138034" lon="120.668757"/>
<trkpt lat="24.138090" lon="120.668816"/>
<trkpt lat="24.138634" lon="120.669369"/>
<trkpt lat="24.138748" lon="120.669447"/>
<trkpt lat="24.138876" lon="120.669541"/>
<trkpt lat="24.138942" lon="120.669618"/>
<trkpt lat="24.139002" lon="120.669690"/>
<trkpt lat="24.139036" lon="120.669743"/>
<trkpt lat="24.139130" lon="120.669779"/>
<trkpt lat="24.139184" lon="120.669836"/>
<trkpt lat="24.139206" lon="120.669879"/>
<trkpt lat="24.139229" lon="120.669920"/>
<trkpt lat="24.139327" lon="120.670015"/>
<trkpt lat="24.139405" lon="120.670098"/>
<trkpt lat="24.139422" lon="120.670096"/>
<trkpt lat="24.139452" lon="120.670113"/>
<trkpt lat="24.139458" lon="120.670124"/>
<trkpt lat="24.139501" lon="120.670169"/>
<trkpt lat="24.139553" lon="120.670226"/>
<trkpt lat="24.139560" lon="120.670264"/>
<trkpt lat="24.139657" lon="120.670374"/>
<trkpt lat="24.139807" lon="120.670537"/>
<trkpt lat="24.139951" lon="120.670752"/>
<trkpt lat="24.140092" lon="120.670954"/>
<trkpt lat="24.140089" lon="120.670974"/>
<trkpt lat="24.140071" lon="120.671008"/>
<trkpt lat="24.139895" lon="120.671211"/>
<trkpt lat="24.139876" lon="120.671224"/>
<trkpt lat="24.139846" lon="120.671218"/>
<trkpt lat="24.139906" lon="120.671295"/>
<trkpt lat="24.139959" lon="120.671357"/>
<trkpt lat="24.139961" lon="120.671373"/>
<trkpt lat="24.139990" lon="120.671416"/>
<trkpt lat="24.140030" lon="120.671470"/>
<trkpt lat="24.140054" lon="120.671550"/>
<trkpt lat="24.140086" lon="120.671633"/>
<trkpt lat="24.140146" lon="120.671737"/>
<trkpt lat="24.140163" lon="120.671763"/>
<trkpt lat="24.140165" lon="120.671792"/>
<trkpt lat="24.140197" lon="120.671841"/>
<trkpt lat="24.140212" lon="120.671890"/>
<trkpt lat="24.140211" lon="120.671928"/>
<trkpt lat="24.140236" lon="120.672036"/>
<trkpt lat="24.140301" lon="120.672236"/>
<trkpt lat="24.140307" lon="120.672274"/>
<trkpt lat="24.140303" lon="120.672325"/>
<trkpt lat="24.140318" lon="120.672395"/>
<trkpt lat="24.140379" lon="120.672329"/>
<trkpt lat="24.140546" lon="120.672137"/>
<trkpt lat="24.140680" lon="120.671984"/>
<trkpt lat="24.140744" lon="120.672094"/>
<trkpt lat="24.140826" lon="120.672193"/>
<trkpt lat="24.141329" lon="120.672756"/>
<trkpt lat="24.141673" lon="120.672370"/>
<trkpt lat="24.142392" lon="120.673118"/>
<trkpt lat="24.142048" lon="120.673504"/>
<trkpt lat="24.141713" lon="120.673923"/>
<trkpt lat="24.141350" lon="120.674339"/>
<trkpt lat="24.141028" lon="120.673227"/>
<trkpt lat="24.140971" lon="120.673302"/>
<trkpt lat="24.140948" lon="120.673311"/>
<trkpt lat="24.140716" lon="120.673561"/>
<trkpt lat="24.140697" lon="120.673583"/>
<trkpt lat="24.140659" lon="120.673500"/>
<trkpt lat="24.140579" lon="120.673597"/>
<trkpt lat="24.140437" lon="120.673759"/>
<trkpt lat="24.140393" lon="120.673842"/>
<trkpt lat="24.140526" lon="120.673973"/>
<trkpt lat="24.140707" lon="120.674085"/>
<trkpt lat="24.141245" lon="120.675771"/>
<trkpt lat="24.141324" lon="120.675977"/>
<trkpt lat="24.141215" lon="120.676117"/>
<trkpt lat="24.141280" lon="120.676204"/>
<trkpt lat="24.141369" lon="120.676141"/>
<trkpt lat="24.141479" lon="120.676346"/>
<trkpt lat="24.141506" lon="120.676394"/>
<trkpt lat="24.141602" lon="120.676548"/>
<trkpt lat="24.141873" lon="120.676864"/>
<trkpt lat="24.141932" lon="120.676933"/>
<trkpt lat="24.142008" lon="120.677007"/>
<trkpt lat="24.142060" lon="120.677058"/>
<trkpt lat="24.142312" lon="120.677272"/>
<trkpt lat="24.142592" lon="120.677440"/>
<trkpt lat="24.142678" lon="120.677490"/>
<trkpt lat="24.142750" lon="120.677533"/>
<trkpt lat="24.142849" lon="120.677570"/>
<trkpt lat="24.142805" lon="120.677606"/>
<trkpt lat="24.142747" lon="120.677611"/>
<trkpt lat="24.142704" lon="120.677587"/>
<trkpt lat="24.142496" lon="120.677832"/>
<trkpt lat="24.142303" lon="120.678055"/>
<trkpt lat="24.141672" lon="120.678787"/>
<trkpt lat="24.141514" lon="120.678960"/>
<trkpt lat="24.141202" lon="120.679322"/>
<trkpt lat="24.141022" lon="120.679533"/>
<trkpt lat="24.140743" lon="120.679866"/>
<trkpt lat="24.140022" lon="120.679132"/>
<trkpt lat="24.139694" lon="120.679486"/>
<trkpt lat="24.139349" lon="120.679888"/>
<trkpt lat="24.138935" lon="120.679464"/>
<trkpt lat="24.138700" lon="120.679223"/>
<trkpt lat="24.138640" lon="120.679293"/>
<trkpt lat="24.138625" lon="120.679293"/>
<trkpt lat="24.138540" lon="120.679207"/>
<trkpt lat="24.138499" lon="120.679252"/>
<trkpt lat="24.138448" lon="120.679311"/>
<trkpt lat="24.138374" lon="120.679397"/>
<trkpt lat="24.138273" lon="120.679522"/>
<trkpt lat="24.137999" lon="120.679844"/>
<trkpt lat="24.138072" lon="120.679921"/>
<trkpt lat="24.138074" lon="120.679944"/>
<trkpt lat="24.137997" lon="120.680040"/>
<trkpt lat="24.137939" lon="120.680110"/>
<trkpt lat="24.137903" lon="120.680110"/>
<trkpt lat="24.137829" lon="120.680035"/>
<trkpt lat="24.137525" lon="120.680360"/>
<trkpt lat="24.137137" lon="120.679956"/>
<trkpt lat="24.136793" lon="120.680350"/>
<trkpt lat="24.136458" lon="120.680736"/>
<trkpt lat="24.136122" lon="120.681119"/>
<trkpt lat="24.136219" lon="120.681223"/>
<trkpt lat="24.136238" lon="120.681243"/>
<trkpt lat="24.136080" lon="120.681402"/>
<trkpt lat="24.135574" lon="120.681639"/>
<trkpt lat="24.135722" lon="120.681993"/>
<trkpt lat="24.135759" lon="120.682068"/>
<trkpt lat="24.135784" lon="120.682103"/>
<trkpt lat="24.135697" lon="120.682151"/>
<trkpt lat="24.135595" lon="120.682203"/>
<trkpt lat="24.135670" lon="120.682341"/>
<trkpt lat="24.135357" lon="120.682503"/>
<trkpt lat="24.134888" lon="120.682725"/>
<trkpt lat="24.135115" lon="120.683259"/>
<trkpt lat="24.135147" lon="120.683242"/>
<trkpt lat="24.135352" lon="120.683731"/>
<trkpt lat="24.134905" lon="120.683972"/>
<trkpt lat="24.134826" lon="120.684004"/>
<trkpt lat="24.134227" lon="120.684290"/>
<trkpt lat="24.134092" lon="120.684357"/>
<trkpt lat="24.133636" lon="120.684577"/>
<trkpt lat="24.133851" lon="120.685106"/>
<trkpt lat="24.134038" lon="120.685569"/>
<trkpt lat="24.133450" lon="120.685867"/>
<trkpt lat="24.132856" lon="120.686160"/>
<trkpt lat="24.132239" lon="120.686448"/>
<trkpt lat="24.131615" lon="120.686759"/>
<trkpt lat="24.131821" lon="120.687262"/>
<trkpt lat="24.131393" lon="120.687468"/>
<trkpt lat="24.130704" lon="120.687801"/>
<trkpt lat="24.130912" lon="120.688305"/>
<trkpt lat="24.130841" lon="120.688366"/>
<trkpt lat="24.130768" lon="120.688512"/>
<trkpt lat="24.130748" lon="120.688533"/>
<trkpt lat="24.130722" lon="120.688567"/>
<trkpt lat="24.130306" lon="120.688828"/>
<trkpt lat="24.129637" lon="120.688847"/>
<trkpt lat="24.129301" lon="120.688850"/>
<trkpt lat="24.128926" lon="120.688832"/>
<trkpt lat="24.128301" lon="120.688828"/>
<trkpt lat="24.127654" lon="120.688830"/>
<trkpt lat="24.127026" lon="120.688830"/>
<trkpt lat="24.127018" lon="120.689341"/>
<trkpt lat="24.127010" lon="120.689809"/>
<trkpt lat="24.127009" lon="120.690123"/>
<trkpt lat="24.127008" lon="120.690215"/>
<trkpt lat="24.127009" lon="120.690320"/>
<trkpt lat="24.127021" lon="120.691063"/>
<trkpt lat="24.127021" lon="120.691672"/>
<trkpt lat="24.126349" lon="120.691669"/>
<trkpt lat="24.126348" lon="120.692666"/>
<trkpt lat="24.126351" lon="120.692770"/>
<trkpt lat="24.126705" lon="120.693216"/>
<trkpt lat="24.126665" lon="120.693353"/>
<trkpt lat="24.126642" lon="120.693427"/>
<trkpt lat="24.126636" lon="120.693456"/>
<trkpt lat="24.126605" lon="120.693571"/>
<trkpt lat="24.126560" lon="120.693802"/>
<trkpt lat="24.126538" lon="120.693912"/>
<trkpt lat="24.125889" lon="120.693882"/>
<trkpt lat="24.125726" lon="120.693907"/>
<trkpt lat="24.125553" lon="120.694001"/>
<trkpt lat="24.125600" lon="120.694194"/>
<trkpt lat="24.125667" lon="120.694470"/>
<trkpt lat="24.125752" lon="120.694865"/>
<trkpt lat="24.125841" lon="120.694862"/>
<trkpt lat="24.126357" lon="120.694925"/>
<trkpt lat="24.126379" lon="120.694738"/>
<trkpt lat="24.126383" lon="120.694692"/>
<trkpt lat="24.126481" lon="120.694196"/>
<trkpt lat="24.126538" lon="120.693912"/>
<trkpt lat="24.126560" lon="120.693802"/>
<trkpt lat="24.126446" lon="120.693781"/>
<trkpt lat="24.126407" lon="120.693734"/>
<trkpt lat="24.125951" lon="120.693151"/>
<trkpt lat="24.126188" lon="120.693045"/>
<trkpt lat="24.126321" lon="120.693203"/>
<trkpt lat="24.126321" lon="120.693072"/>
<trkpt lat="24.124840" lon="120.691216"/>
<trkpt lat="24.124759" lon="120.691112"/>
<trkpt lat="24.124736" lon="120.690985"/>
<trkpt lat="24.124734" lon="120.690536"/>
<trkpt lat="24.124740" lon="120.690497"/>
<trkpt lat="24.124808" lon="120.690450"/>
<trkpt lat="24.124663" lon="120.690443"/>
<trkpt lat="24.124609" lon="120.690441"/>
<trkpt lat="24.124612" lon="120.690315"/>
<trkpt lat="24.124614" lon="120.690218"/>
<trkpt lat="24.124431" lon="120.690217"/>
<trkpt lat="24.124083" lon="120.690216"/>
<trkpt lat="24.123356" lon="120.690213"/>
<trkpt lat="24.122734" lon="120.690229"/>
<trkpt lat="24.122526" lon="120.690231"/>
<trkpt lat="24.122399" lon="120.690229"/>
<trkpt lat="24.122099" lon="120.690214"/>
<trkpt lat="24.121542" lon="120.690188"/>
<trkpt lat="24.121249" lon="120.690151"/>
<trkpt lat="24.121115" lon="120.690134"/>
<trkpt lat="24.121031" lon="120.690095"/>
<trkpt lat="24.120959" lon="120.690061"/>
<trkpt lat="24.120827" lon="120.689994"/>
<trkpt lat="24.120646" lon="120.689866"/>
<trkpt lat="24.120495" lon="120.689739"/>
<trkpt lat="24.120369" lon="120.689598"/>
<trkpt lat="24.119908" lon="120.688962"/>
<trkpt lat="24.119957" lon="120.688924"/>
<trkpt lat="24.119950" lon="120.688832"/>
<trkpt lat="24.119893" lon="120.688756"/>
<trkpt lat="24.119850" lon="120.688698"/>
<trkpt lat="24.119780" lon="120.688684"/>
<trkpt lat="24.119729" lon="120.688718"/>
<trkpt lat="24.119665" lon="120.688762"/>
<trkpt lat="24.119600" lon="120.688806"/>
<trkpt lat="24.119601" lon="120.688882"/>
<trkpt lat="24.119647" lon="120.688946"/>
<trkpt lat="24.119622" lon="120.688963"/>
<trkpt lat="24.119548" lon="120.689014"/>
<trkpt lat="24.119448" lon="120.689080"/>
<trkpt lat="24.119430" lon="120.689093"/>
<trkpt lat="24.119357" lon="120.689143"/>
<trkpt lat="24.119218" lon="120.689024"/>
<trkpt lat="24.119059" lon="120.688885"/>
<trkpt lat="24.118830" lon="120.688645"/>
<trkpt lat="24.118206" lon="120.687947"/>
<trkpt lat="24.118077" lon="120.687797"/>
<trkpt lat="24.117934" lon="120.687615"/>
<trkpt lat="24.117784" lon="120.687418"/>
<trkpt lat="24.117576" lon="120.687073"/>
<trkpt lat="24.117376" lon="120.686695"/>
<trkpt lat="24.117013" lon="120.686933"/>
<trkpt lat="24.116493" lon="120.687273"/>
<trkpt lat="24.116117" lon="120.687489"/>
<trkpt lat="24.115924" lon="120.687572"/>
<trkpt lat="24.115822" lon="120.687620"/>
<trkpt lat="24.115285" lon="120.687625"/>
<trkpt lat="24.115284" lon="120.687424"/>
<trkpt lat="24.115285" lon="120.687121"/>
<trkpt lat="24.115277" lon="120.686820"/>
<trkpt lat="24.115261" lon="120.686182"/>
<trkpt lat="24.115266" lon="120.685834"/>
<trkpt lat="24.115843" lon="120.685255"/>
<trkpt lat="24.115982" lon="120.685098"/>
<trkpt lat="24.116149" lon="120.684912"/>
<trkpt lat="24.116713" lon="120.684322"/>
<trkpt lat="24.116766" lon="120.684205"/>
<trkpt lat="24.116436" lon="120.684095"/>
<trkpt lat="24.116198" lon="120.683997"/>
<trkpt lat="24.116332" lon="120.682841"/>
<trkpt lat="24.116407" lon="120.682501"/>
<trkpt lat="24.116456" lon="120.682195"/>
<trkpt lat="24.116479" lon="120.681994"/>
<trkpt lat="24.116308" lon="120.681789"/>
<trkpt lat="24.116098" lon="120.681614"/>
<trkpt lat="24.116345" lon="120.681425"/>
<trkpt lat="24.116378" lon="120.681240"/>
<trkpt lat="24.116413" lon="120.681086"/>
<trkpt lat="24.116423" lon="120.680895"/>
<trkpt lat="24.116391" lon="120.680580"/>
<trkpt lat="24.116346" lon="120.680141"/>
<trkpt lat="24.116450" lon="120.680117"/>
<trkpt lat="24.116522" lon="120.680104"/>
<trkpt lat="24.116589" lon="120.680098"/>
<trkpt lat="24.116622" lon="120.680057"/>
<trkpt lat="24.116622" lon="120.680022"/>
<trkpt lat="24.116620" lon="120.679650"/>
<trkpt lat="24.116612" lon="120.679601"/>
<trkpt lat="24.116588" lon="120.679471"/>
<trkpt lat="24.116489" lon="120.679463"/>
<trkpt lat="24.116498" lon="120.679364"/>
<trkpt lat="24.116505" lon="120.679276"/>
<trkpt lat="24.116528" lon="120.679186"/>
<trkpt lat="24.116563" lon="120.679185"/>
<trkpt lat="24.116556" lon="120.679058"/>
<trkpt lat="24.116649" lon="120.679057"/>
<trkpt lat="24.116591" lon="120.678048"/>
<trkpt lat="24.116590" lon="120.678019"/>
<trkpt lat="24.116552" lon="120.678019"/>
<trkpt lat="24.116543" lon="120.677786"/>
<trkpt lat="24.116528" lon="120.677297"/>
<trkpt lat="24.116476" lon="120.677296"/>
<trkpt lat="24.116445" lon="120.676646"/>
<trkpt lat="24.116510" lon="120.676091"/>
<trkpt lat="24.116838" lon="120.676071"/>
<trkpt lat="24.116855" lon="120.676054"/>
<trkpt lat="24.116872" lon="120.676031"/>
<trkpt lat="24.116880" lon="120.676003"/>
<trkpt lat="24.116882" lon="120.675966"/>
<trkpt lat="24.116438" lon="120.674373"/>
<trkpt lat="24.116533" lon="120.674349"/>
<trkpt lat="24.117019" lon="120.674164"/>
<trkpt lat="24.116884" lon="120.673860"/>
<trkpt lat="24.116632" lon="120.673291"/>
<trkpt lat="24.116810" lon="120.673186"/>
<trkpt lat="24.116875" lon="120.673113"/>
<trkpt lat="24.116968" lon="120.673062"/>
<trkpt lat="24.117029" lon="120.673012"/>
<trkpt lat="24.117127" lon="120.672965"/>
<trkpt lat="24.117158" lon="120.672946"/>
<trkpt lat="24.117192" lon="120.672881"/>
<trkpt lat="24.117048" lon="120.672372"/>
<trkpt lat="24.116983" lon="120.672254"/>
<trkpt lat="24.116725" lon="120.672444"/>
<trkpt lat="24.116526" lon="120.672083"/>
<trkpt lat="24.116357" lon="120.671786"/>
<trkpt lat="24.115849" lon="120.671788"/>
<trkpt lat="24.115855" lon="120.671685"/>
<trkpt lat="24.115810" lon="120.671625"/>
<trkpt lat="24.115500" lon="120.671201"/>
<trkpt lat="24.115377" lon="120.671035"/>
<trkpt lat="24.115383" lon="120.670980"/>
<trkpt lat="24.115283" lon="120.670944"/>
<trkpt lat="24.115056" lon="120.670815"/>
<trkpt lat="24.114800" lon="120.670736"/>
<trkpt lat="24.114799" lon="120.670410"/>
<trkpt lat="24.115058" lon="120.670072"/>
<trkpt lat="24.116166" lon="120.670079"/>
<trkpt lat="24.117152" lon="120.670084"/>
<trkpt lat="24.117153" lon="120.669996"/>
<trkpt lat="24.117157" lon="120.669634"/>
<trkpt lat="24.117165" lon="120.669473"/>
<trkpt lat="24.117166" lon="120.668989"/>
<trkpt lat="24.117174" lon="120.668642"/>
<trkpt lat="24.117950" lon="120.668631"/>
<trkpt lat="24.118222" lon="120.668627"/>
<trkpt lat="24.118711" lon="120.668634"/>
<trkpt lat="24.119057" lon="120.668639"/>
<trkpt lat="24.119141" lon="120.668644"/>
<trkpt lat="24.119141" lon="120.668559"/>
<trkpt lat="24.119249" lon="120.668569"/>
<trkpt lat="24.119252" lon="120.669852"/>
<trkpt lat="24.120613" lon="120.669848"/>
<trkpt lat="24.120676" lon="120.670002"/>
<trkpt lat="24.122358" lon="120.670000"/>
<trkpt lat="24.122347" lon="120.669265"/>
<trkpt lat="24.123007" lon="120.669266"/>
<trkpt lat="24.123014" lon="120.668992"/>
<trkpt lat="24.123240" lon="120.668995"/>
<trkpt lat="24.123356" lon="120.668999"/>
<trkpt lat="24.123432" lon="120.668986"/>
<trkpt lat="24.123632" lon="120.668948"/>
<trkpt lat="24.123865" lon="120.668960"/>
<trkpt lat="24.124034" lon="120.669003"/>
<trkpt lat="24.124260" lon="120.669155"/>
<trkpt lat="24.124428" lon="120.669421"/>
<trkpt lat="24.124572" lon="120.669745"/>
<trkpt lat="24.124712" lon="120.669610"/>
<trkpt lat="24.124809" lon="120.669574"/>
<trkpt lat="24.124944" lon="120.669572"/>
<trkpt lat="24.125165" lon="120.669547"/>
<trkpt lat="24.125329" lon="120.669558"/>
<trkpt lat="24.125326" lon="120.669289"/>
<trkpt lat="24.125370" lon="120.669211"/>
<trkpt lat="24.125401" lon="120.669168"/>
<trkpt lat="24.125550" lon="120.669032"/>
<trkpt lat="24.125845" lon="120.668772"/>
<trkpt lat="24.125965" lon="120.668794"/>
<trkpt lat="24.126348" lon="120.668407"/>
<trkpt lat="24.126764" lon="120.668203"/>
<trkpt lat="24.127056" lon="120.668081"/>
<trkpt lat="24.127362" lon="120.667919"/>
<trkpt lat="24.127972" lon="120.667609"/>
<trkpt lat="24.128023" lon="120.667552"/>
<trkpt lat="24.128299" lon="120.668203"/>
<trkpt lat="24.128708" lon="120.667981"/>
<trkpt lat="24.129127" lon="120.667764"/>
<trkpt lat="24.128879" lon="120.667220"/>
<trkpt lat="24.129094" lon="120.667104"/>
<trkpt lat="24.129137" lon="120.667090"/>
<trkpt lat="24.129248" lon="120.667056"/>
<trkpt lat="24.129314" lon="120.667026"/>
<trkpt lat="24.129592" lon="120.666966"/>
<trkpt lat="24.129808" lon="120.666965"/>
<trkpt lat="24.129997" lon="120.667038"/>
<trkpt lat="24.130157" lon="120.667121"/>
<trkpt lat="24.130567" lon="120.667456"/>
<trkpt lat="24.130660" lon="120.667533"/>
<trkpt lat="24.130697" lon="120.667563"/>
<trkpt lat="24.130726" lon="120.667587"/>
<trkpt lat="24.130919" lon="120.667748"/>
<trkpt lat="24.131010" lon="120.667813"/>
<trkpt lat="24.131586" lon="120.667557"/>
<trkpt lat="24.131676" lon="120.667518"/>
<trkpt lat="24.132157" lon="120.667258"/>
</trkseg></trk>
</gpx>