<?xml version="1.0" encoding="UTF-8"?>
<gpx version="1.1" creator="catrun" xmlns="http://www.topografix.com/GPX/1/1">
<metadata><name>南區 貓臉（正面） 圖形路跑路線</name></metadata>
<wpt lat="24.135478" lon="120.683467"><name>27號倉庫</name><desc>地標</desc></wpt>
<wpt lat="24.135649" lon="120.683800"><name>26號倉庫</name><desc>地標</desc></wpt>
<wpt lat="24.135729" lon="120.683990"><name>25號倉庫</name><desc>地標</desc></wpt>
<trk><name>南區 貓臉（正面） 圖形路跑路線</name><trkseg>
<trkpt lat="24.134618" lon="120.682379"/>
<trkpt lat="24.134705" lon="120.682586"/>
<trkpt lat="24.134780" lon="120.682778"/>
<trkpt lat="24.134888" lon="120.682725"/>
<trkpt lat="24.135115" lon="120.683259"/>
<trkpt lat="24.135147" lon="120.683242"/>
<trkpt lat="24.135352" lon="120.683731"/>
<trkpt lat="24.135557" lon="120.684251"/>
<trkpt lat="24.135595" lon="120.684232"/>
<trkpt lat="24.135715" lon="120.684526"/>
<trkpt lat="24.135237" lon="120.684764"/>
<trkpt lat="24.135307" lon="120.684919"/>
<trkpt lat="24.135585" lon="120.685591"/>
<trkpt lat="24.135721" lon="120.685915"/>
<trkpt lat="24.135649" lon="120.685950"/>
<trkpt lat="24.135043" lon="120.686243"/>
<trkpt lat="24.134924" lon="120.686306"/>
<trkpt lat="24.134458" lon="120.686536"/>
<trkpt lat="24.133860" lon="120.686836"/>
<trkpt lat="24.133778" lon="120.686878"/>
<trkpt lat="24.133699" lon="120.686906"/>
<trkpt lat="24.133257" lon="120.687143"/>
<trkpt lat="24.133458" lon="120.687607"/>
<trkpt lat="24.133667" lon="120.688099"/>
<trkpt lat="24.133061" lon="120.688404"/>
<trkpt lat="24.132427" lon="120.688713"/>
<trkpt lat="24.132626" lon="120.689188"/>
<trkpt lat="24.132387" lon="120.689305"/>
<trkpt lat="24.132065" lon="120.689473"/>
<trkpt lat="24.131870" lon="120.688990"/>
<trkpt lat="24.131437" lon="120.689209"/>
<trkpt lat="24.131304" lon="120.689238"/>
<trkpt lat="24.131202" lon="120.689228"/>
<trkpt lat="24.131086" lon="120.689226"/>
<trkpt lat="24.130561" lon="120.689477"/>
<trkpt lat="24.130254" lon="120.689632"/>
<trkpt lat="24.129618" lon="120.689646"/>
<trkpt lat="24.129608" lon="120.690136"/>
<trkpt lat="24.129570" lon="120.690136"/>
<trkpt lat="24.129572" lon="120.690223"/>
<trkpt lat="24.128923" lon="120.690215"/>
<trkpt lat="24.128924" lon="120.689615"/>
<trkpt lat="24.128926" lon="120.688832"/>
<trkpt lat="24.128301" lon="120.688828"/>
<trkpt lat="24.127654" lon="120.688830"/>
<trkpt lat="24.127655" lon="120.688639"/>
<trkpt lat="24.126373" lon="120.688616"/>
<trkpt lat="24.126068" lon="120.688617"/>
<trkpt lat="24.125079" lon="120.688619"/>
<trkpt lat="24.125055" lon="120.688365"/>
<trkpt lat="24.125045" lon="120.688334"/>
<trkpt lat="24.125055" lon="120.688283"/>
<trkpt lat="24.125068" lon="120.688227"/>
<trkpt lat="24.125101" lon="120.688214"/>
<trkpt lat="24.125147" lon="120.688171"/>
<trkpt lat="24.125194" lon="120.688099"/>
<trkpt lat="24.125202" lon="120.688019"/>
<trkpt lat="24.125206" lon="120.687949"/>
<trkpt lat="24.125193" lon="120.687867"/>
<trkpt lat="24.125171" lon="120.687800"/>
<trkpt lat="24.125150" lon="120.687752"/>
<trkpt lat="24.125124" lon="120.687702"/>
<trkpt lat="24.125086" lon="120.687661"/>
<trkpt lat="24.125038" lon="120.687579"/>
<trkpt lat="24.125000" lon="120.687523"/>
<trkpt lat="24.124931" lon="120.687497"/>
<trkpt lat="24.124856" lon="120.687461"/>
<trkpt lat="24.124772" lon="120.687404"/>
<trkpt lat="24.124736" lon="120.687361"/>
<trkpt lat="24.124723" lon="120.687344"/>
<trkpt lat="24.124688" lon="120.687273"/>
<trkpt lat="24.124680" lon="120.687234"/>
<trkpt lat="24.124677" lon="120.687175"/>
<trkpt lat="24.124675" lon="120.687137"/>
<trkpt lat="24.124693" lon="120.687062"/>
<trkpt lat="24.124704" lon="120.687023"/>
<trkpt lat="24.124695" lon="120.686939"/>
<trkpt lat="24.124687" lon="120.686896"/>
<trkpt lat="24.124677" lon="120.686813"/>
<trkpt lat="24.124661" lon="120.686765"/>
<trkpt lat="24.124656" lon="120.686708"/>
<trkpt lat="24.124641" lon="120.686676"/>
<trkpt lat="24.124572" lon="120.686644"/>
<trkpt lat="24.124481" lon="120.686585"/>
<trkpt lat="24.124450" lon="120.686513"/>
<trkpt lat="24.124437" lon="120.686381"/>
<trkpt lat="24.124466" lon="120.686282"/>
<trkpt lat="24.124422" lon="120.686138"/>
<trkpt lat="24.124377" lon="120.686041"/>
<trkpt lat="24.124382" lon="120.685974"/>
<trkpt lat="24.124310" lon="120.685876"/>
<trkpt lat="24.124306" lon="120.685862"/>
<trkpt lat="24.124305" lon="120.685795"/>
<trkpt lat="24.124283" lon="120.684984"/>
<trkpt lat="24.124234" lon="120.684984"/>
<trkpt lat="24.123980" lon="120.684986"/>
<trkpt lat="24.123722" lon="120.684987"/>
<trkpt lat="24.123455" lon="120.684986"/>
<trkpt lat="24.123453" lon="120.684747"/>
<trkpt lat="24.123445" lon="120.684634"/>
<trkpt lat="24.123445" lon="120.684499"/>
<trkpt lat="24.123445" lon="120.684458"/>
<trkpt lat="24.123450" lon="120.684330"/>
<trkpt lat="24.123450" lon="120.684194"/>
<trkpt lat="24.123691" lon="120.684196"/>
<trkpt lat="24.123691" lon="120.684077"/>
<trkpt lat="24.123725" lon="120.684077"/>
<trkpt lat="24.123726" lon="120.683967"/>
<trkpt lat="24.123691" lon="120.683985"/>
<trkpt lat="24.123691" lon="120.683894"/>
<trkpt lat="24.123691" lon="120.683809"/>
<trkpt lat="24.123727" lon="120.683791"/>
<trkpt lat="24.123731" lon="120.683346"/>
<trkpt lat="24.123754" lon="120.682561"/>
<trkpt lat="24.123821" lon="120.682561"/>
<trkpt lat="24.123817" lon="120.681101"/>
<trkpt lat="24.123771" lon="120.681101"/>
<trkpt lat="24.123746" lon="120.680182"/>
<trkpt lat="24.123747" lon="120.679499"/>
<trkpt lat="24.123921" lon="120.679499"/>
<trkpt lat="24.124054" lon="120.679500"/>
<trkpt lat="24.124215" lon="120.679501"/>
<trkpt lat="24.124297" lon="120.679501"/>
<trkpt lat="24.124295" lon="120.679406"/>
<trkpt lat="24.124294" lon="120.679299"/>
<trkpt lat="24.124919" lon="120.679291"/>
<trkpt lat="24.124919" lon="120.679189"/>
<trkpt lat="24.124918" lon="120.678818"/>
<trkpt lat="24.124918" lon="120.678693"/>
<trkpt lat="24.124962" lon="120.678695"/>
<trkpt lat="24.125064" lon="120.678697"/>
<trkpt lat="24.125075" lon="120.678697"/>
<trkpt lat="24.125075" lon="120.678678"/>
<trkpt lat="24.125327" lon="120.678677"/>
<trkpt lat="24.125325" lon="120.678426"/>
<trkpt lat="24.125311" lon="120.677708"/>
<trkpt lat="24.125655" lon="120.677709"/>
<trkpt lat="24.125654" lon="120.677355"/>
<trkpt lat="24.125816" lon="120.677357"/>
<trkpt lat="24.125990" lon="120.677355"/>
<trkpt lat="24.126386" lon="120.677354"/>
<trkpt lat="24.126391" lon="120.676905"/>
<trkpt lat="24.126389" lon="120.676428"/>
<trkpt lat="24.126471" lon="120.676428"/>
<trkpt lat="24.126579" lon="120.676427"/>
<trkpt lat="24.126578" lon="120.676377"/>
<trkpt lat="24.126578" lon="120.676317"/>
<trkpt lat="24.127231" lon="120.676321"/>
<trkpt lat="24.127227" lon="120.676312"/>
<trkpt lat="24.127165" lon="120.676156"/>
<trkpt lat="24.127149" lon="120.676126"/>
<trkpt lat="24.127123" lon="120.676055"/>
<trkpt lat="24.127672" lon="120.676062"/>
<trkpt lat="24.128441" lon="120.675680"/>
<trkpt lat="24.128863" lon="120.675463"/>
<trkpt lat="24.129244" lon="120.675279"/>
<trkpt lat="24.129656" lon="120.675072"/>
<trkpt lat="24.129904" lon="120.675679"/>
<trkpt lat="24.130098" lon="120.676155"/>
<trkpt lat="24.130847" lon="120.675771"/>
<trkpt lat="24.131062" lon="120.676320"/>
<trkpt lat="24.131521" lon="120.676072"/>
<trkpt lat="24.131703" lon="120.676506"/>
<trkpt lat="24.131770" lon="120.676473"/>
<trkpt lat="24.131832" lon="120.676443"/>
<trkpt lat="24.131885" lon="120.676462"/>
<trkpt lat="24.131937" lon="120.676576"/>
<trkpt lat="24.131982" lon="120.676673"/>
<trkpt lat="24.132325" lon="120.676491"/>
<trkpt lat="24.132711" lon="120.677413"/>
<trkpt lat="24.132680" lon="120.677427"/>
<trkpt lat="24.132894" lon="120.677944"/>
<trkpt lat="24.133284" lon="120.677743"/>
<trkpt lat="24.133487" lon="120.678285"/>
<trkpt lat="24.133585" lon="120.678239"/>
<trkpt lat="24.133850" lon="120.678106"/>
<trkpt lat="24.133955" lon="120.678054"/>
<trkpt lat="24.134047" lon="120.678004"/>
<trkpt lat="24.134152" lon="120.677916"/>
<trkpt lat="24.134315" lon="120.677729"/>
<trkpt lat="24.134637" lon="120.677360"/>
<trkpt lat="24.135004" lon="120.676937"/>
<trkpt lat="24.135549" lon="120.677499"/>
<trkpt lat="24.135754" lon="120.677711"/>
<trkpt lat="24.135973" lon="120.677938"/>
<trkpt lat="24.136371" lon="120.678352"/>
<trkpt lat="24.136431" lon="120.678421"/>
<trkpt lat="24.135722" lon="120.679239"/>
<trkpt lat="24.135404" lon="120.679595"/>
<trkpt lat="24.135150" lon="120.679880"/>
<trkpt lat="24.134943" lon="120.680087"/>
<trkpt lat="24.134859" lon="120.680158"/>
<trkpt lat="24.134476" lon="120.680347"/>
<trkpt lat="24.134433" lon="120.680371"/>
<trkpt lat="24.134303" lon="120.680435"/>
<trkpt lat="24.134280" lon="120.680446"/>
<trkpt lat="24.134496" lon="120.680937"/>
<trkpt lat="24.134529" lon="120.681010"/>
<trkpt lat="24.134751" lon="120.681542"/>
<trkpt lat="24.134889" lon="120.681832"/>
<trkpt lat="24.134488" lon="120.682060"/>
<trkpt lat="24.134618" lon="120.682379"/>
</trkseg></trk>
</gpx>