<?xml version="1.0" encoding="UTF-8"?>
<gpx version="1.1" creator="catrun" xmlns="http://www.topografix.com/GPX/1/1">
<metadata><name>南區 手繪蹲坐貓（原稿描圖） 圖形路跑路線</name></metadata>
<wpt lat="24.127328" lon="120.664306"><name>文林公園</name><desc>地標</desc></wpt>
<wpt lat="24.128505" lon="120.664274"><name>民興公園</name><desc>地標</desc></wpt>
<wpt lat="24.133082" lon="120.662870"><name>美術園道 F段</name><desc>地標</desc></wpt>
<trk><name>南區 手繪蹲坐貓（原稿描圖） 圖形路跑路線</name><trkseg>
<trkpt lat="24.123373" lon="120.666381"/>
<trkpt lat="24.123693" lon="120.666083"/>
<trkpt lat="24.123462" lon="120.665795"/>
<trkpt lat="24.123417" lon="120.665742"/>
<trkpt lat="24.123488" lon="120.665677"/>
<trkpt lat="24.123620" lon="120.665533"/>
<trkpt lat="24.123965" lon="120.665182"/>
<trkpt lat="24.124116" lon="120.665018"/>
<trkpt lat="24.124276" lon="120.664843"/>
<trkpt lat="24.124479" lon="120.664600"/>
<trkpt lat="24.124809" lon="120.664075"/>
<trkpt lat="24.124902" lon="120.664003"/>
<trkpt lat="24.124934" lon="120.663931"/>
<trkpt lat="24.124465" lon="120.663580"/>
<trkpt lat="24.124560" lon="120.663396"/>
<trkpt lat="24.124637" lon="120.663360"/>
<trkpt lat="24.124772" lon="120.663312"/>
<trkpt lat="24.124878" lon="120.663279"/>
<trkpt lat="24.125020" lon="120.663238"/>
<trkpt lat="24.125183" lon="120.663173"/>
<trkpt lat="24.125373" lon="120.663315"/>
<trkpt lat="24.125835" lon="120.663664"/>
<trkpt lat="24.125881" lon="120.663594"/>
<trkpt lat="24.125910" lon="120.663573"/>
<trkpt lat="24.125976" lon="120.663531"/>
<trkpt lat="24.126098" lon="120.663491"/>
<trkpt lat="24.126380" lon="120.663383"/>
<trkpt lat="24.126691" lon="120.663263"/>
<trkpt lat="24.126527" lon="120.662868"/>
<trkpt lat="24.126997" lon="120.662691"/>
<trkpt lat="24.127369" lon="120.662565"/>
<trkpt lat="24.127408" lon="120.662550"/>
<trkpt lat="24.127458" lon="120.662533"/>
<trkpt lat="24.127466" lon="120.662553"/>
<trkpt lat="24.127941" lon="120.663702"/>
<trkpt lat="24.127990" lon="120.663702"/>
<trkpt lat="24.128353" lon="120.663704"/>
<trkpt lat="24.128631" lon="120.663706"/>
<trkpt lat="24.128750" lon="120.663707"/>
<trkpt lat="24.129077" lon="120.663709"/>
<trkpt lat="24.129384" lon="120.663714"/>
<trkpt lat="24.129623" lon="120.663713"/>
<trkpt lat="24.130005" lon="120.663725"/>
<trkpt lat="24.130092" lon="120.663716"/>
<trkpt lat="24.130530" lon="120.663719"/>
<trkpt lat="24.130647" lon="120.663719"/>
<trkpt lat="24.131069" lon="120.663722"/>
<trkpt lat="24.131327" lon="120.663724"/>
<trkpt lat="24.131712" lon="120.663726"/>
<trkpt lat="24.132061" lon="120.663726"/>
<trkpt lat="24.132062" lon="120.663654"/>
<trkpt lat="24.132170" lon="120.663656"/>
<trkpt lat="24.132248" lon="120.663657"/>
<trkpt lat="24.132251" lon="120.663422"/>
<trkpt lat="24.132253" lon="120.663313"/>
<trkpt lat="24.132245" lon="120.663298"/>
<trkpt lat="24.132248" lon="120.663229"/>
<trkpt lat="24.132254" lon="120.662862"/>
<trkpt lat="24.132268" lon="120.662836"/>
<trkpt lat="24.132300" lon="120.662834"/>
<trkpt lat="24.132333" lon="120.662784"/>
<trkpt lat="24.132630" lon="120.663096"/>
<trkpt lat="24.132898" lon="120.663077"/>
<trkpt lat="24.133876" lon="120.663075"/>
<trkpt lat="24.133876" lon="120.662997"/>
<trkpt lat="24.133959" lon="120.662997"/>
<trkpt lat="24.133972" lon="120.662997"/>
<trkpt lat="24.133973" lon="120.662872"/>
<trkpt lat="24.134242" lon="120.662873"/>
<trkpt lat="24.134531" lon="120.662874"/>
<trkpt lat="24.134772" lon="120.662875"/>
<trkpt lat="24.134774" lon="120.662715"/>
<trkpt lat="24.135075" lon="120.662716"/>
<trkpt lat="24.135075" lon="120.662704"/>
<trkpt lat="24.135076" lon="120.662648"/>
<trkpt lat="24.135076" lon="120.662595"/>
<trkpt lat="24.135079" lon="120.662576"/>
<trkpt lat="24.135093" lon="120.662577"/>
<trkpt lat="24.135147" lon="120.662578"/>
<trkpt lat="24.135147" lon="120.662498"/>
<trkpt lat="24.135147" lon="120.662177"/>
<trkpt lat="24.135147" lon="120.662121"/>
<trkpt lat="24.135148" lon="120.661801"/>
<trkpt lat="24.135237" lon="120.661800"/>
<trkpt lat="24.135240" lon="120.661804"/>
<trkpt lat="24.135249" lon="120.661815"/>
<trkpt lat="24.135256" lon="120.661815"/>
<trkpt lat="24.135511" lon="120.661814"/>
<trkpt lat="24.135548" lon="120.661814"/>
<trkpt lat="24.135587" lon="120.661814"/>
<trkpt lat="24.135627" lon="120.661813"/>
<trkpt lat="24.135662" lon="120.661813"/>
<trkpt lat="24.135700" lon="120.661813"/>
<trkpt lat="24.135739" lon="120.661813"/>
<trkpt lat="24.135778" lon="120.661813"/>
<trkpt lat="24.135864" lon="120.661813"/>
<trkpt lat="24.135902" lon="120.661813"/>
<trkpt lat="24.135943" lon="120.661813"/>
<trkpt lat="24.136038" lon="120.661812"/>
<trkpt lat="24.136127" lon="120.661812"/>
<trkpt lat="24.136176" lon="120.661812"/>
<trkpt lat="24.136218" lon="120.661812"/>
<trkpt lat="24.136260" lon="120.661812"/>
<trkpt lat="24.136301" lon="120.661812"/>
<trkpt lat="24.136340" lon="120.661812"/>
<trkpt lat="24.136390" lon="120.661811"/>
<trkpt lat="24.136406" lon="120.661826"/>
<trkpt lat="24.136443" lon="120.661863"/>
<trkpt lat="24.136453" lon="120.661849"/>
<trkpt lat="24.136552" lon="120.661847"/>
<trkpt lat="24.136660" lon="120.661846"/>
<trkpt lat="24.136673" lon="120.661845"/>
<trkpt lat="24.136696" lon="120.661818"/>
<trkpt lat="24.136696" lon="120.661803"/>
<trkpt lat="24.136697" lon="120.661692"/>
<trkpt lat="24.136698" lon="120.661605"/>
<trkpt lat="24.136699" lon="120.661591"/>
<trkpt lat="24.136859" lon="120.661591"/>
<trkpt lat="24.136906" lon="120.661590"/>
<trkpt lat="24.136955" lon="120.661591"/>
<trkpt lat="24.136980" lon="120.661591"/>
<trkpt lat="24.136980" lon="120.661404"/>
<trkpt lat="24.136974" lon="120.660188"/>
<trkpt lat="24.136663" lon="120.660188"/>
<trkpt lat="24.136664" lon="120.660123"/>
<trkpt lat="24.136553" lon="120.660123"/>
<trkpt lat="24.136553" lon="120.659779"/>
<trkpt lat="24.136554" lon="120.659520"/>
<trkpt lat="24.136554" lon="120.658831"/>
<trkpt lat="24.136554" lon="120.657986"/>
<trkpt lat="24.136554" lon="120.657849"/>
<trkpt lat="24.136555" lon="120.657500"/>
<trkpt lat="24.136672" lon="120.657499"/>
<trkpt lat="24.136697" lon="120.657364"/>
<trkpt lat="24.136694" lon="120.657253"/>
<trkpt lat="24.137075" lon="120.657254"/>
<trkpt lat="24.137075" lon="120.656751"/>
<trkpt lat="24.137075" lon="120.656719"/>
<trkpt lat="24.137075" lon="120.656233"/>
<trkpt lat="24.137110" lon="120.656233"/>
<trkpt lat="24.137495" lon="120.656234"/>
<trkpt lat="24.137614" lon="120.656233"/>
<trkpt lat="24.137882" lon="120.656234"/>
<trkpt lat="24.137969" lon="120.656234"/>
<trkpt lat="24.138158" lon="120.656234"/>
<trkpt lat="24.138427" lon="120.656233"/>
<trkpt lat="24.138428" lon="120.656057"/>
<trkpt lat="24.138734" lon="120.656058"/>
<trkpt lat="24.139022" lon="120.656059"/>
<trkpt lat="24.139015" lon="120.657256"/>
<trkpt lat="24.139288" lon="120.657256"/>
<trkpt lat="24.139716" lon="120.657256"/>
<trkpt lat="24.139822" lon="120.657147"/>
<trkpt lat="24.139908" lon="120.657080"/>
<trkpt lat="24.139986" lon="120.656986"/>
<trkpt lat="24.140059" lon="120.656851"/>
<trkpt lat="24.140056" lon="120.657263"/>
<trkpt lat="24.140152" lon="120.657262"/>
<trkpt lat="24.140576" lon="120.657269"/>
<trkpt lat="24.141251" lon="120.657253"/>
<trkpt lat="24.141559" lon="120.657254"/>
<trkpt lat="24.141558" lon="120.657357"/>
<trkpt lat="24.141560" lon="120.658833"/>
<trkpt lat="24.142054" lon="120.658833"/>
<trkpt lat="24.142465" lon="120.658833"/>
<trkpt lat="24.142947" lon="120.658832"/>
<trkpt lat="24.143380" lon="120.658832"/>
<trkpt lat="24.143845" lon="120.658832"/>
<trkpt lat="24.144317" lon="120.658832"/>
<trkpt lat="24.144319" lon="120.659476"/>
<trkpt lat="24.144685" lon="120.659477"/>
<trkpt lat="24.144685" lon="120.660202"/>
<trkpt lat="24.144891" lon="120.660202"/>
<trkpt lat="24.144886" lon="120.660873"/>
<trkpt lat="24.144891" lon="120.661110"/>
<trkpt lat="24.144876" lon="120.661229"/>
<trkpt lat="24.144701" lon="120.661452"/>
<trkpt lat="24.144702" lon="120.661693"/>
<trkpt lat="24.144602" lon="120.661693"/>
<trkpt lat="24.144328" lon="120.661692"/>
<trkpt lat="24.144326" lon="120.662172"/>
<trkpt lat="24.144595" lon="120.662175"/>
<trkpt lat="24.144594" lon="120.662564"/>
<trkpt lat="24.144326" lon="120.662560"/>
<trkpt lat="24.144324" lon="120.663118"/>
<trkpt lat="24.144324" lon="120.663171"/>
<trkpt lat="24.144324" lon="120.664302"/>
<trkpt lat="24.144324" lon="120.664356"/>
<trkpt lat="24.144325" lon="120.664396"/>
<trkpt lat="24.144325" lon="120.664426"/>
<trkpt lat="24.144326" lon="120.664520"/>
<trkpt lat="24.144328" lon="120.664730"/>
<trkpt lat="24.143815" lon="120.664734"/>
<trkpt lat="24.143810" lon="120.664768"/>
<trkpt lat="24.143795" lon="120.664799"/>
<trkpt lat="24.143771" lon="120.664821"/>
<trkpt lat="24.143742" lon="120.664834"/>
<trkpt lat="24.143711" lon="120.664835"/>
<trkpt lat="24.143681" lon="120.664825"/>
<trkpt lat="24.143656" lon="120.664805"/>
<trkpt lat="24.143638" lon="120.664776"/>
<trkpt lat="24.143630" lon="120.664743"/>
<trkpt lat="24.143128" lon="120.664736"/>
<trkpt lat="24.143118" lon="120.664698"/>
<trkpt lat="24.143099" lon="120.664668"/>
<trkpt lat="24.143072" lon="120.664646"/>
<trkpt lat="24.143041" lon="120.664635"/>
<trkpt lat="24.143008" lon="120.664633"/>
<trkpt lat="24.142976" lon="120.664644"/>
<trkpt lat="24.142949" lon="120.664664"/>
<trkpt lat="24.142929" lon="120.664692"/>
<trkpt lat="24.142917" lon="120.664726"/>
<trkpt lat="24.142792" lon="120.664726"/>
<trkpt lat="24.142729" lon="120.664679"/>
<trkpt lat="24.142670" lon="120.664638"/>
<trkpt lat="24.142612" lon="120.664597"/>
<trkpt lat="24.142533" lon="120.664604"/>
<trkpt lat="24.142461" lon="120.664618"/>
<trkpt lat="24.142488" lon="120.664677"/>
<trkpt lat="24.142374" lon="120.664740"/>
<trkpt lat="24.142346" lon="120.664677"/>
<trkpt lat="24.141929" lon="120.664918"/>
<trkpt lat="24.141937" lon="120.664963"/>
<trkpt lat="24.141932" lon="120.665008"/>
<trkpt lat="24.141915" lon="120.665050"/>
<trkpt lat="24.141886" lon="120.665084"/>
<trkpt lat="24.142125" lon="120.665452"/>
<trkpt lat="24.141998" lon="120.665544"/>
<trkpt lat="24.141888" lon="120.665668"/>
<trkpt lat="24.141611" lon="120.665980"/>
<trkpt lat="24.141361" lon="120.666266"/>
<trkpt lat="24.141142" lon="120.666535"/>
<trkpt lat="24.141186" lon="120.666581"/>
<trkpt lat="24.141251" lon="120.666649"/>
<trkpt lat="24.141331" lon="120.666734"/>
<trkpt lat="24.141423" lon="120.666630"/>
<trkpt lat="24.141483" lon="120.666557"/>
<trkpt lat="24.141747" lon="120.666827"/>
<trkpt lat="24.142166" lon="120.666359"/>
<trkpt lat="24.142279" lon="120.666533"/>
<trkpt lat="24.142445" lon="120.666790"/>
<trkpt lat="24.142327" lon="120.666923"/>
<trkpt lat="24.142213" lon="120.667060"/>
<trkpt lat="24.142107" lon="120.667202"/>
<trkpt lat="24.142035" lon="120.667292"/>
<trkpt lat="24.141869" lon="120.667477"/>
<trkpt lat="24.141802" lon="120.667545"/>
<trkpt lat="24.141549" lon="120.667839"/>
<trkpt lat="24.141324" lon="120.668095"/>
<trkpt lat="24.140887" lon="120.668586"/>
<trkpt lat="24.141255" lon="120.668969"/>
<trkpt lat="24.141038" lon="120.669213"/>
<trkpt lat="24.140816" lon="120.669469"/>
<trkpt lat="24.140375" lon="120.669965"/>
<trkpt lat="24.139908" lon="120.670520"/>
<trkpt lat="24.140163" lon="120.670879"/>
<trkpt lat="24.140213" lon="120.670946"/>
<trkpt lat="24.140117" lon="120.671056"/>
<trkpt lat="24.139939" lon="120.671258"/>
<trkpt lat="24.139906" lon="120.671295"/>
<trkpt lat="24.139959" lon="120.671357"/>
<trkpt lat="24.139993" lon="120.671315"/>
<trkpt lat="24.140167" lon="120.671110"/>
<trkpt lat="24.140190" lon="120.671084"/>
<trkpt lat="24.140204" lon="120.671086"/>
<trkpt lat="24.140232" lon="120.671130"/>
<trkpt lat="24.140244" lon="120.671161"/>
<trkpt lat="24.140270" lon="120.671216"/>
<trkpt lat="24.140279" lon="120.671229"/>
<trkpt lat="24.140312" lon="120.671273"/>
<trkpt lat="24.140413" lon="120.671494"/>
<trkpt lat="24.140484" lon="120.671637"/>
<trkpt lat="24.140497" lon="120.671699"/>
<trkpt lat="24.140514" lon="120.671770"/>
<trkpt lat="24.140550" lon="120.671855"/>
<trkpt lat="24.140533" lon="120.671950"/>
<trkpt lat="24.140530" lon="120.671964"/>
<trkpt lat="24.140535" lon="120.672039"/>
<trkpt lat="24.140523" lon="120.672061"/>
<trkpt lat="24.140351" lon="120.672247"/>
<trkpt lat="24.140326" lon="120.672267"/>
<trkpt lat="24.140307" lon="120.672274"/>
<trkpt lat="24.140303" lon="120.672325"/>
<trkpt lat="24.140318" lon="120.672395"/>
<trkpt lat="24.140347" lon="120.672478"/>
<trkpt lat="24.140412" lon="120.672641"/>
<trkpt lat="24.140469" lon="120.672848"/>
<trkpt lat="24.140550" lon="120.673092"/>
<trkpt lat="24.140599" lon="120.673281"/>
<trkpt lat="24.140618" lon="120.673360"/>
<trkpt lat="24.140659" lon="120.673500"/>
<trkpt lat="24.140579" lon="120.673597"/>
<trkpt lat="24.140437" lon="120.673759"/>
<trkpt lat="24.140393" lon="120.673842"/>
<trkpt lat="24.140313" lon="120.673947"/>
<trkpt lat="24.139587" lon="120.674797"/>
<trkpt lat="24.138756" lon="120.675749"/>
<trkpt lat="24.138376" lon="120.676197"/>
<trkpt lat="24.138311" lon="120.676270"/>
<trkpt lat="24.137805" lon="120.676846"/>
<trkpt lat="24.138307" lon="120.677342"/>
<trkpt lat="24.138315" lon="120.677359"/>
<trkpt lat="24.138318" lon="120.677379"/>
<trkpt lat="24.137650" lon="120.678134"/>
<trkpt lat="24.137168" lon="120.677617"/>
<trkpt lat="24.136551" lon="120.678289"/>
<trkpt lat="24.136431" lon="120.678421"/>
<trkpt lat="24.135722" lon="120.679239"/>
<trkpt lat="24.135404" lon="120.679595"/>
<trkpt lat="24.135150" lon="120.679880"/>
<trkpt lat="24.134943" lon="120.680087"/>
<trkpt lat="24.134859" lon="120.680158"/>
<trkpt lat="24.134476" lon="120.680347"/>
<trkpt lat="24.134331" lon="120.680022"/>
<trkpt lat="24.134032" lon="120.679281"/>
<trkpt lat="24.133979" lon="120.679303"/>
<trkpt lat="24.133862" lon="120.679363"/>
<trkpt lat="24.133834" lon="120.679377"/>
<trkpt lat="24.133537" lon="120.679520"/>
<trkpt lat="24.133115" lon="120.679719"/>
<trkpt lat="24.133063" lon="120.679769"/>
<trkpt lat="24.132658" lon="120.679974"/>
<trkpt lat="24.132428" lon="120.680092"/>
<trkpt lat="24.132204" lon="120.680205"/>
<trkpt lat="24.131931" lon="120.680344"/>
<trkpt lat="24.131865" lon="120.680378"/>
<trkpt lat="24.130652" lon="120.680973"/>
<trkpt lat="24.130449" lon="120.680470"/>
<trkpt lat="24.129866" lon="120.680771"/>
<trkpt lat="24.130064" lon="120.681259"/>
<trkpt lat="24.130281" lon="120.681757"/>
<trkpt lat="24.130500" lon="120.682316"/>
<trkpt lat="24.130265" lon="120.682440"/>
<trkpt lat="24.129875" lon="120.682641"/>
<trkpt lat="24.130102" lon="120.683180"/>
<trkpt lat="24.130324" lon="120.683711"/>
<trkpt lat="24.130453" lon="120.684005"/>
<trkpt lat="24.130542" lon="120.684229"/>
<trkpt lat="24.130580" lon="120.684340"/>
<trkpt lat="24.130708" lon="120.684624"/>
<trkpt lat="24.130773" lon="120.684778"/>
<trkpt lat="24.130833" lon="120.684922"/>
<trkpt lat="24.131020" lon="120.685370"/>
<trkpt lat="24.131206" lon="120.685782"/>
<trkpt lat="24.131615" lon="120.686759"/>
<trkpt lat="24.131821" lon="120.687262"/>
<trkpt lat="24.132015" lon="120.687750"/>
<trkpt lat="24.132224" lon="120.688240"/>
<trkpt lat="24.132354" lon="120.688542"/>
<trkpt lat="24.132427" lon="120.688713"/>
<trkpt lat="24.131870" lon="120.688990"/>
<trkpt lat="24.132065" lon="120.689473"/>
<trkpt lat="24.132283" lon="120.689970"/>
<trkpt lat="24.132517" lon="120.690558"/>
<trkpt lat="24.132679" lon="120.690488"/>
<trkpt lat="24.132715" lon="120.690950"/>
<trkpt lat="24.132746" lon="120.691358"/>
<trkpt lat="24.132771" lon="120.691667"/>
<trkpt lat="24.132801" lon="120.691791"/>
<trkpt lat="24.132831" lon="120.691881"/>
<trkpt lat="24.132820" lon="120.692041"/>
<trkpt lat="24.132841" lon="120.692403"/>
<trkpt lat="24.132847" lon="120.692564"/>
<trkpt lat="24.132841" lon="120.692666"/>
<trkpt lat="24.132784" lon="120.692749"/>
<trkpt lat="24.132865" lon="120.692972"/>
<trkpt lat="24.132776" lon="120.693015"/>
<trkpt lat="24.132701" lon="120.693051"/>
<trkpt lat="24.132702" lon="120.693138"/>
<trkpt lat="24.132706" lon="120.693204"/>
<trkpt lat="24.132833" lon="120.693241"/>
<trkpt lat="24.132841" lon="120.693353"/>
<trkpt lat="24.132851" lon="120.693511"/>
<trkpt lat="24.132869" lon="120.693790"/>
<trkpt lat="24.132900" lon="120.694289"/>
<trkpt lat="24.132043" lon="120.694439"/>
<trkpt lat="24.131118" lon="120.694550"/>
<trkpt lat="24.130909" lon="120.694579"/>
<trkpt lat="24.130554" lon="120.694630"/>
<trkpt lat="24.130299" lon="120.694649"/>
<trkpt lat="24.130302" lon="120.694354"/>
<trkpt lat="24.130300" lon="120.693994"/>
<trkpt lat="24.130602" lon="120.693988"/>
<trkpt lat="24.130599" lon="120.693672"/>
<trkpt lat="24.130599" lon="120.693149"/>
<trkpt lat="24.130297" lon="120.693148"/>
<trkpt lat="24.130290" lon="120.692949"/>
<trkpt lat="24.130301" lon="120.691674"/>
<trkpt lat="24.130317" lon="120.690326"/>
<trkpt lat="24.130318" lon="120.690216"/>
<trkpt lat="24.129740" lon="120.690222"/>
<trkpt lat="24.129739" lon="120.690139"/>
<trkpt lat="24.129608" lon="120.690136"/>
<trkpt lat="24.129618" lon="120.689646"/>
<trkpt lat="24.129637" lon="120.688847"/>
<trkpt lat="24.129635" lon="120.688648"/>
<trkpt lat="24.128922" lon="120.688639"/>
<trkpt lat="24.128928" lon="120.688566"/>
<trkpt lat="24.128929" lon="120.687957"/>
<trkpt lat="24.128926" lon="120.687334"/>
<trkpt lat="24.128919" lon="120.686587"/>
<trkpt lat="24.128918" lon="120.685837"/>
<trkpt lat="24.128924" lon="120.685433"/>
<trkpt lat="24.128923" lon="120.685009"/>
<trkpt lat="24.128860" lon="120.684995"/>
<trkpt lat="24.128829" lon="120.684966"/>
<trkpt lat="24.128853" lon="120.684851"/>
<trkpt lat="24.128480" lon="120.684752"/>
<trkpt lat="24.128006" lon="120.684625"/>
<trkpt lat="24.127770" lon="120.684562"/>
<trkpt lat="24.127707" lon="120.684545"/>
<trkpt lat="24.127782" lon="120.684186"/>
<trkpt lat="24.127890" lon="120.683616"/>
<trkpt lat="24.127894" lon="120.683595"/>
<trkpt lat="24.127726" lon="120.683166"/>
<trkpt lat="24.127698" lon="120.683094"/>
<trkpt lat="24.127449" lon="120.682569"/>
<trkpt lat="24.127470" lon="120.681103"/>
<trkpt lat="24.127109" lon="120.681103"/>
<trkpt lat="24.126762" lon="120.681103"/>
<trkpt lat="24.126375" lon="120.681102"/>
<trkpt lat="24.126376" lon="120.680245"/>
<trkpt lat="24.126389" lon="120.679926"/>
<trkpt lat="24.126392" lon="120.679598"/>
<trkpt lat="24.126390" lon="120.679484"/>
<trkpt lat="24.126389" lon="120.679380"/>
<trkpt lat="24.126386" lon="120.679274"/>
<trkpt lat="24.126385" lon="120.679153"/>
<trkpt lat="24.126382" lon="120.678946"/>
<trkpt lat="24.126384" lon="120.678424"/>
<trkpt lat="24.126518" lon="120.678393"/>
<trkpt lat="24.126621" lon="120.678378"/>
<trkpt lat="24.126390" lon="120.677721"/>
<trkpt lat="24.126388" lon="120.677628"/>
<trkpt lat="24.126386" lon="120.677354"/>
<trkpt lat="24.126391" lon="120.676905"/>
<trkpt lat="24.126389" lon="120.676428"/>
<trkpt lat="24.126282" lon="120.676429"/>
<trkpt lat="24.126282" lon="120.676382"/>
<trkpt lat="24.126282" lon="120.676319"/>
<trkpt lat="24.126282" lon="120.676303"/>
<trkpt lat="24.126281" lon="120.676151"/>
<trkpt lat="24.126281" lon="120.676122"/>
<trkpt lat="24.125654" lon="120.676131"/>
<trkpt lat="24.125652" lon="120.676067"/>
<trkpt lat="24.125654" lon="120.675178"/>
<trkpt lat="24.125654" lon="120.674690"/>
<trkpt lat="24.125654" lon="120.674092"/>
<trkpt lat="24.125654" lon="120.673614"/>
<trkpt lat="24.125654" lon="120.673387"/>
<trkpt lat="24.125654" lon="120.672822"/>
<trkpt lat="24.125653" lon="120.672430"/>
<trkpt lat="24.125653" lon="120.672028"/>
<trkpt lat="24.125653" lon="120.671561"/>
<trkpt lat="24.125042" lon="120.671563"/>
<trkpt lat="24.125034" lon="120.671283"/>
<trkpt lat="24.124976" lon="120.670839"/>
<trkpt lat="24.124916" lon="120.670583"/>
<trkpt lat="24.124881" lon="120.670474"/>
<trkpt lat="24.124741" lon="120.670082"/>
<trkpt lat="24.124703" lon="120.669995"/>
<trkpt lat="24.124572" lon="120.669745"/>
<trkpt lat="24.124712" lon="120.669610"/>
<trkpt lat="24.124809" lon="120.669574"/>
<trkpt lat="24.124944" lon="120.669572"/>
<trkpt lat="24.125165" lon="120.669547"/>
<trkpt lat="24.125329" lon="120.669558"/>
<trkpt lat="24.125326" lon="120.669289"/>
<trkpt lat="24.125370" lon="120.669211"/>
<trkpt lat="24.125401" lon="120.669168"/>
<trkpt lat="24.125550" lon="120.669032"/>
<trkpt lat="24.125845" lon="120.668772"/>
<trkpt lat="24.125063" lon="120.667830"/>
<trkpt lat="24.125147" lon="120.667749"/>
<trkpt lat="24.124879" lon="120.667419"/>
<trkpt lat="24.124320" lon="120.666732"/>
<trkpt lat="24.124287" lon="120.666762"/>
<trkpt lat="24.124246" lon="120.666799"/>
<trkpt lat="24.123739" lon="120.667293"/>
<trkpt lat="24.123081" lon="120.666456"/>
<trkpt lat="24.123033" lon="120.666394"/>
<trkpt lat="24.123125" lon="120.666420"/>
<trkpt lat="24.123285" lon="120.666424"/>
<trkpt lat="24.123373" lon="120.666381"/>
</trkseg></trk>
</gpx>