<?xml version="1.0" encoding="UTF-8"?>
<gpx version="1.1" creator="catrun" xmlns="http://www.topografix.com/GPX/1/1">
<metadata><name>南區 貓咪肉球 圖形路跑路線</name></metadata>
<wpt lat="24.115393" lon="120.671355"><name>積善公園</name><desc>地標</desc></wpt>
<wpt lat="24.112313" lon="120.673733"><name>公六公園</name><desc>地標</desc></wpt>
<wpt lat="24.109627" lon="120.687592"><name>大里公園</name><desc>地標</desc></wpt>
<trk><name>南區 貓咪肉球 圖形路跑路線</name><trkseg>
<trkpt lat="24.117296" lon="120.671777"/>
<trkpt lat="24.116720" lon="120.671785"/>
<trkpt lat="24.116663" lon="120.671784"/>
<trkpt lat="24.116357" lon="120.671786"/>
<trkpt lat="24.115849" lon="120.671788"/>
<trkpt lat="24.114880" lon="120.671768"/>
<trkpt lat="24.114895" lon="120.672136"/>
<trkpt lat="24.114899" lon="120.672240"/>
<trkpt lat="24.114879" lon="120.672302"/>
<trkpt lat="24.114742" lon="120.672295"/>
<trkpt lat="24.114173" lon="120.672325"/>
<trkpt lat="24.113830" lon="120.672347"/>
<trkpt lat="24.113480" lon="120.672370"/>
<trkpt lat="24.112762" lon="120.672417"/>
<trkpt lat="24.112756" lon="120.672692"/>
<trkpt lat="24.112764" lon="120.672998"/>
<trkpt lat="24.112767" lon="120.673384"/>
<trkpt lat="24.112672" lon="120.673390"/>
<trkpt lat="24.112685" lon="120.673737"/>
<trkpt lat="24.112687" lon="120.673925"/>
<trkpt lat="24.112694" lon="120.673987"/>
<trkpt lat="24.112699" lon="120.674091"/>
<trkpt lat="24.112779" lon="120.674093"/>
<trkpt lat="24.112778" lon="120.674525"/>
<trkpt lat="24.112057" lon="120.674593"/>
<trkpt lat="24.112042" lon="120.674679"/>
<trkpt lat="24.112051" lon="120.675270"/>
<trkpt lat="24.112053" lon="120.675582"/>
<trkpt lat="24.111567" lon="120.675600"/>
<trkpt lat="24.111521" lon="120.675603"/>
<trkpt lat="24.111286" lon="120.675620"/>
<trkpt lat="24.110836" lon="120.675645"/>
<trkpt lat="24.110839" lon="120.676475"/>
<trkpt lat="24.110835" lon="120.677299"/>
<trkpt lat="24.110451" lon="120.677318"/>
<trkpt lat="24.110099" lon="120.677335"/>
<trkpt lat="24.110094" lon="120.677662"/>
<trkpt lat="24.110092" lon="120.677766"/>
<trkpt lat="24.110088" lon="120.678028"/>
<trkpt lat="24.110077" lon="120.678745"/>
<trkpt lat="24.109338" lon="120.678995"/>
<trkpt lat="24.109334" lon="120.679607"/>
<trkpt lat="24.109431" lon="120.679606"/>
<trkpt lat="24.109439" lon="120.679726"/>
<trkpt lat="24.109445" lon="120.679808"/>
<trkpt lat="24.109456" lon="120.679846"/>
<trkpt lat="24.109487" lon="120.679948"/>
<trkpt lat="24.109474" lon="120.679993"/>
<trkpt lat="24.109361" lon="120.680027"/>
<trkpt lat="24.109371" lon="120.680098"/>
<trkpt lat="24.109503" lon="120.680558"/>
<trkpt lat="24.109529" lon="120.680635"/>
<trkpt lat="24.109692" lon="120.681131"/>
<trkpt lat="24.109597" lon="120.681161"/>
<trkpt lat="24.109670" lon="120.681400"/>
<trkpt lat="24.109744" lon="120.681645"/>
<trkpt lat="24.109784" lon="120.681780"/>
<trkpt lat="24.109792" lon="120.681823"/>
<trkpt lat="24.109790" lon="120.681837"/>
<trkpt lat="24.109789" lon="120.681842"/>
<trkpt lat="24.109800" lon="120.681891"/>
<trkpt lat="24.109809" lon="120.681930"/>
<trkpt lat="24.109823" lon="120.681948"/>
<trkpt lat="24.109835" lon="120.682005"/>
<trkpt lat="24.109846" lon="120.682058"/>
<trkpt lat="24.109900" lon="120.682308"/>
<trkpt lat="24.110013" lon="120.682912"/>
<trkpt lat="24.110031" lon="120.683007"/>
<trkpt lat="24.110159" lon="120.683686"/>
<trkpt lat="24.110143" lon="120.683741"/>
<trkpt lat="24.110109" lon="120.683762"/>
<trkpt lat="24.109759" lon="120.683759"/>
<trkpt lat="24.109264" lon="120.683787"/>
<trkpt lat="24.108911" lon="120.683805"/>
<trkpt lat="24.108715" lon="120.683821"/>
<trkpt lat="24.108581" lon="120.683862"/>
<trkpt lat="24.108511" lon="120.683886"/>
<trkpt lat="24.108512" lon="120.683976"/>
<trkpt lat="24.108781" lon="120.683921"/>
<trkpt lat="24.109064" lon="120.683881"/>
<trkpt lat="24.109354" lon="120.683861"/>
<trkpt lat="24.109477" lon="120.683860"/>
<trkpt lat="24.109646" lon="120.683858"/>
<trkpt lat="24.109665" lon="120.684469"/>
<trkpt lat="24.109690" lon="120.684992"/>
<trkpt lat="24.110334" lon="120.684964"/>
<trkpt lat="24.110341" lon="120.685111"/>
<trkpt lat="24.110373" lon="120.686199"/>
<trkpt lat="24.110234" lon="120.687664"/>
<trkpt lat="24.110773" lon="120.688104"/>
<trkpt lat="24.111292" lon="120.688528"/>
<trkpt lat="24.111481" lon="120.688746"/>
<trkpt lat="24.111502" lon="120.688770"/>
<trkpt lat="24.111588" lon="120.688857"/>
<trkpt lat="24.111621" lon="120.688887"/>
<trkpt lat="24.111437" lon="120.689320"/>
<trkpt lat="24.111299" lon="120.689683"/>
<trkpt lat="24.111294" lon="120.689788"/>
<trkpt lat="24.111273" lon="120.689994"/>
<trkpt lat="24.111560" lon="120.689986"/>
<trkpt lat="24.111793" lon="120.689977"/>
<trkpt lat="24.112637" lon="120.689918"/>
<trkpt lat="24.112838" lon="120.689903"/>
<trkpt lat="24.113020" lon="120.690086"/>
<trkpt lat="24.113359" lon="120.690334"/>
<trkpt lat="24.113703" lon="120.690651"/>
<trkpt lat="24.114198" lon="120.691067"/>
<trkpt lat="24.114625" lon="120.691423"/>
<trkpt lat="24.115110" lon="120.691845"/>
<trkpt lat="24.115323" lon="120.692032"/>
<trkpt lat="24.115522" lon="120.692207"/>
<trkpt lat="24.116061" lon="120.692260"/>
<trkpt lat="24.116474" lon="120.692294"/>
<trkpt lat="24.116815" lon="120.692311"/>
<trkpt lat="24.117076" lon="120.692329"/>
<trkpt lat="24.117652" lon="120.692376"/>
<trkpt lat="24.118203" lon="120.692407"/>
<trkpt lat="24.118783" lon="120.692458"/>
<trkpt lat="24.118799" lon="120.693212"/>
<trkpt lat="24.119476" lon="120.693206"/>
<trkpt lat="24.119483" lon="120.693795"/>
<trkpt lat="24.119770" lon="120.693781"/>
<trkpt lat="24.120051" lon="120.693756"/>
<trkpt lat="24.120417" lon="120.693774"/>
<trkpt lat="24.120999" lon="120.693769"/>
<trkpt lat="24.120939" lon="120.693933"/>
<trkpt lat="24.121120" lon="120.694056"/>
<trkpt lat="24.121136" lon="120.694067"/>
<trkpt lat="24.121267" lon="120.694154"/>
<trkpt lat="24.121447" lon="120.694309"/>
<trkpt lat="24.121513" lon="120.694410"/>
<trkpt lat="24.121696" lon="120.694642"/>
<trkpt lat="24.122117" lon="120.695051"/>
<trkpt lat="24.122199" lon="120.695060"/>
<trkpt lat="24.122277" lon="120.695066"/>
<trkpt lat="24.122357" lon="120.695073"/>
<trkpt lat="24.122432" lon="120.694995"/>
<trkpt lat="24.122740" lon="120.694871"/>
<trkpt lat="24.122976" lon="120.694800"/>
<trkpt lat="24.123283" lon="120.694786"/>
<trkpt lat="24.123395" lon="120.694756"/>
<trkpt lat="24.123817" lon="120.696146"/>
<trkpt lat="24.124231" lon="120.695998"/>
<trkpt lat="24.123809" lon="120.694600"/>
<trkpt lat="24.124075" lon="120.694499"/>
<trkpt lat="24.124261" lon="120.694414"/>
<trkpt lat="24.124303" lon="120.694391"/>
<trkpt lat="24.124484" lon="120.694289"/>
<trkpt lat="24.124762" lon="120.694266"/>
<trkpt lat="24.124796" lon="120.694425"/>
<trkpt lat="24.124849" lon="120.694727"/>
<trkpt lat="24.125139" lon="120.695394"/>
<trkpt lat="24.125483" lon="120.695148"/>
<trkpt lat="24.125688" lon="120.694989"/>
<trkpt lat="24.125737" lon="120.694925"/>
<trkpt lat="24.125752" lon="120.694865"/>
<trkpt lat="24.125841" lon="120.694862"/>
<trkpt lat="24.126357" lon="120.694925"/>
<trkpt lat="24.126379" lon="120.694738"/>
<trkpt lat="24.126383" lon="120.694692"/>
<trkpt lat="24.126481" lon="120.694196"/>
<trkpt lat="24.126538" lon="120.693912"/>
<trkpt lat="24.126560" lon="120.693802"/>
<trkpt lat="24.126605" lon="120.693571"/>
<trkpt lat="24.126636" lon="120.693456"/>
<trkpt lat="24.126678" lon="120.693516"/>
<trkpt lat="24.126712" lon="120.693518"/>
<trkpt lat="24.126758" lon="120.693511"/>
<trkpt lat="24.126787" lon="120.693499"/>
<trkpt lat="24.126819" lon="120.693485"/>
<trkpt lat="24.126822" lon="120.693442"/>
<trkpt lat="24.126822" lon="120.693402"/>
<trkpt lat="24.126794" lon="120.693335"/>
<trkpt lat="24.126705" lon="120.693216"/>
<trkpt lat="24.126717" lon="120.693196"/>
<trkpt lat="24.126762" lon="120.693147"/>
<trkpt lat="24.126870" lon="120.693149"/>
<trkpt lat="24.126978" lon="120.693145"/>
<trkpt lat="24.127023" lon="120.693145"/>
<trkpt lat="24.127660" lon="120.693148"/>
<trkpt lat="24.127656" lon="120.692947"/>
<trkpt lat="24.127659" lon="120.692433"/>
<trkpt lat="24.127655" lon="120.691675"/>
<trkpt lat="24.127648" lon="120.690639"/>
<trkpt lat="24.127645" lon="120.690479"/>
<trkpt lat="24.127618" lon="120.690478"/>
<trkpt lat="24.127617" lon="120.690321"/>
<trkpt lat="24.127616" lon="120.690217"/>
<trkpt lat="24.127105" lon="120.690215"/>
<trkpt lat="24.127104" lon="120.690120"/>
<trkpt lat="24.127009" lon="120.690123"/>
<trkpt lat="24.127010" lon="120.689809"/>
<trkpt lat="24.127018" lon="120.689341"/>
<trkpt lat="24.127026" lon="120.688830"/>
<trkpt lat="24.126376" lon="120.688833"/>
<trkpt lat="24.126044" lon="120.688844"/>
<trkpt lat="24.125119" lon="120.688840"/>
<trkpt lat="24.125103" lon="120.689066"/>
<trkpt lat="24.125096" lon="120.689210"/>
<trkpt lat="24.125100" lon="120.689376"/>
<trkpt lat="24.125129" lon="120.689451"/>
<trkpt lat="24.125088" lon="120.689508"/>
<trkpt lat="24.125077" lon="120.689556"/>
<trkpt lat="24.125070" lon="120.689608"/>
<trkpt lat="24.125051" lon="120.689656"/>
<trkpt lat="24.125047" lon="120.689723"/>
<trkpt lat="24.125054" lon="120.689773"/>
<trkpt lat="24.125016" lon="120.689821"/>
<trkpt lat="24.125005" lon="120.689896"/>
<trkpt lat="24.124967" lon="120.689967"/>
<trkpt lat="24.124962" lon="120.690045"/>
<trkpt lat="24.124965" lon="120.690199"/>
<trkpt lat="24.125098" lon="120.690198"/>
<trkpt lat="24.125098" lon="120.690228"/>
<trkpt lat="24.125100" lon="120.690317"/>
<trkpt lat="24.125646" lon="120.690318"/>
<trkpt lat="24.125986" lon="120.690318"/>
<trkpt lat="24.126365" lon="120.690314"/>
<trkpt lat="24.127009" lon="120.690320"/>
<trkpt lat="24.127105" lon="120.690320"/>
<trkpt lat="24.127617" lon="120.690321"/>
<trkpt lat="24.127618" lon="120.690478"/>
<trkpt lat="24.127645" lon="120.690479"/>
<trkpt lat="24.127715" lon="120.690479"/>
<trkpt lat="24.127716" lon="120.690323"/>
<trkpt lat="24.128887" lon="120.690342"/>
<trkpt lat="24.128922" lon="120.690342"/>
<trkpt lat="24.129574" lon="120.690340"/>
<trkpt lat="24.129610" lon="120.690340"/>
<trkpt lat="24.129742" lon="120.690337"/>
<trkpt lat="24.129740" lon="120.690222"/>
<trkpt lat="24.129739" lon="120.690139"/>
<trkpt lat="24.129608" lon="120.690136"/>
<trkpt lat="24.129618" lon="120.689646"/>
<trkpt lat="24.130254" lon="120.689632"/>
<trkpt lat="24.130561" lon="120.689477"/>
<trkpt lat="24.131086" lon="120.689226"/>
<trkpt lat="24.131202" lon="120.689228"/>
<trkpt lat="24.131304" lon="120.689238"/>
<trkpt lat="24.131437" lon="120.689209"/>
<trkpt lat="24.131870" lon="120.688990"/>
<trkpt lat="24.132427" lon="120.688713"/>
<trkpt lat="24.132354" lon="120.688542"/>
<trkpt lat="24.132224" lon="120.688240"/>
<trkpt lat="24.132015" lon="120.687750"/>
<trkpt lat="24.132650" lon="120.687438"/>
<trkpt lat="24.132453" lon="120.686943"/>
<trkpt lat="24.133050" lon="120.686637"/>
<trkpt lat="24.132856" lon="120.686160"/>
<trkpt lat="24.132230" lon="120.684695"/>
<trkpt lat="24.132149" lon="120.684497"/>
<trkpt lat="24.132098" lon="120.684371"/>
<trkpt lat="24.132073" lon="120.684312"/>
<trkpt lat="24.132008" lon="120.684164"/>
<trkpt lat="24.131947" lon="120.684022"/>
<trkpt lat="24.131926" lon="120.683975"/>
<trkpt lat="24.131775" lon="120.683612"/>
<trkpt lat="24.131176" lon="120.683896"/>
<trkpt lat="24.130959" lon="120.683386"/>
<trkpt lat="24.130324" lon="120.683711"/>
<trkpt lat="24.130102" lon="120.683180"/>
<trkpt lat="24.129875" lon="120.682641"/>
<trkpt lat="24.129320" lon="120.682921"/>
<trkpt lat="24.129089" lon="120.682338"/>
<trkpt lat="24.128561" lon="120.682606"/>
<trkpt lat="24.128796" lon="120.683185"/>
<trkpt lat="24.129008" lon="120.683724"/>
<trkpt lat="24.129553" lon="120.683459"/>
<trkpt lat="24.130102" lon="120.683180"/>
<trkpt lat="24.130727" lon="120.682858"/>
<trkpt lat="24.131329" lon="120.682561"/>
<trkpt lat="24.131095" lon="120.682030"/>
<trkpt lat="24.131532" lon="120.681844"/>
<trkpt lat="24.131763" lon="120.681732"/>
<trkpt lat="24.132153" lon="120.681543"/>
<trkpt lat="24.132388" lon="120.681429"/>
<trkpt lat="24.132864" lon="120.681181"/>
<trkpt lat="24.133106" lon="120.681055"/>
<trkpt lat="24.132937" lon="120.680653"/>
<trkpt lat="24.133251" lon="120.680500"/>
<trkpt lat="24.133412" lon="120.680895"/>
<trkpt lat="24.133515" lon="120.680846"/>
<trkpt lat="24.133063" lon="120.679769"/>
<trkpt lat="24.133115" lon="120.679719"/>
<trkpt lat="24.132946" lon="120.679298"/>
<trkpt lat="24.132891" lon="120.679182"/>
<trkpt lat="24.132874" lon="120.679149"/>
<trkpt lat="24.132687" lon="120.678686"/>
<trkpt lat="24.132474" lon="120.678168"/>
<trkpt lat="24.132894" lon="120.677944"/>
<trkpt lat="24.132680" lon="120.677427"/>
<trkpt lat="24.132245" lon="120.677637"/>
<trkpt lat="24.132097" lon="120.677285"/>
<trkpt lat="24.131899" lon="120.676780"/>
<trkpt lat="24.131952" lon="120.676726"/>
<trkpt lat="24.131982" lon="120.676673"/>
<trkpt lat="24.131937" lon="120.676576"/>
<trkpt lat="24.131885" lon="120.676462"/>
<trkpt lat="24.131832" lon="120.676443"/>
<trkpt lat="24.131770" lon="120.676473"/>
<trkpt lat="24.131703" lon="120.676506"/>
<trkpt lat="24.131521" lon="120.676072"/>
<trkpt lat="24.131062" lon="120.676320"/>
<trkpt lat="24.130847" lon="120.675771"/>
<trkpt lat="24.131303" lon="120.675540"/>
<trkpt lat="24.131102" lon="120.675079"/>
<trkpt lat="24.130482" lon="120.675372"/>
<trkpt lat="24.130227" lon="120.674787"/>
<trkpt lat="24.129656" lon="120.675072"/>
<trkpt lat="24.129244" lon="120.675279"/>
<trkpt lat="24.128863" lon="120.675463"/>
<trkpt lat="24.128441" lon="120.675680"/>
<trkpt lat="24.127672" lon="120.676062"/>
<trkpt lat="24.127123" lon="120.676055"/>
<trkpt lat="24.127149" lon="120.676126"/>
<trkpt lat="24.126577" lon="120.676120"/>
<trkpt lat="24.126472" lon="120.676121"/>
<trkpt lat="24.126388" lon="120.676121"/>
<trkpt lat="24.126281" lon="120.676122"/>
<trkpt lat="24.126281" lon="120.676151"/>
<trkpt lat="24.126282" lon="120.676303"/>
<trkpt lat="24.126282" lon="120.676319"/>
<trkpt lat="24.125654" lon="120.676323"/>
<trkpt lat="24.124928" lon="120.676318"/>
<trkpt lat="24.124928" lon="120.676377"/>
<trkpt lat="24.124928" lon="120.676802"/>
<trkpt lat="24.125159" lon="120.676799"/>
<trkpt lat="24.125653" lon="120.676791"/>
<trkpt lat="24.125655" lon="120.676387"/>
<trkpt lat="24.125654" lon="120.676323"/>
<trkpt lat="24.126282" lon="120.676319"/>
<trkpt lat="24.126282" lon="120.676382"/>
<trkpt lat="24.126282" lon="120.676429"/>
<trkpt lat="24.126389" lon="120.676428"/>
<trkpt lat="24.126471" lon="120.676428"/>
<trkpt lat="24.126579" lon="120.676427"/>
<trkpt lat="24.126578" lon="120.676377"/>
<trkpt lat="24.126578" lon="120.676317"/>
<trkpt lat="24.127231" lon="120.676321"/>
<trkpt lat="24.127227" lon="120.676312"/>
<trkpt lat="24.127165" lon="120.676156"/>
<trkpt lat="24.127149" lon="120.676126"/>
<trkpt lat="24.127123" lon="120.676055"/>
<trkpt lat="24.126770" lon="120.675175"/>
<trkpt lat="24.127191" lon="120.674965"/>
<trkpt lat="24.127585" lon="120.674749"/>
<trkpt lat="24.127990" lon="120.674553"/>
<trkpt lat="24.128199" lon="120.674544"/>
<trkpt lat="24.128514" lon="120.674623"/>
<trkpt lat="24.128863" lon="120.675463"/>
<trkpt lat="24.129244" lon="120.675279"/>
<trkpt lat="24.129007" lon="120.674733"/>
<trkpt lat="24.128768" lon="120.674161"/>
<trkpt lat="24.129180" lon="120.673975"/>
<trkpt lat="24.129016" lon="120.673589"/>
<trkpt lat="24.128859" lon="120.673207"/>
<trkpt lat="24.128592" lon="120.672538"/>
<trkpt lat="24.128896" lon="120.672398"/>
<trkpt lat="24.129187" lon="120.672248"/>
<trkpt lat="24.128730" lon="120.671160"/>
<trkpt lat="24.129323" lon="120.670844"/>
<trkpt lat="24.129137" lon="120.670420"/>
<trkpt lat="24.128487" lon="120.670753"/>
<trkpt lat="24.127962" lon="120.671007"/>
<trkpt lat="24.127884" lon="120.670831"/>
<trkpt lat="24.127810" lon="120.670783"/>
<trkpt lat="24.127795" lon="120.670721"/>
<trkpt lat="24.127773" lon="120.670669"/>
<trkpt lat="24.127745" lon="120.670625"/>
<trkpt lat="24.127710" lon="120.670582"/>
<trkpt lat="24.127669" lon="120.670544"/>
<trkpt lat="24.127616" lon="120.670514"/>
<trkpt lat="24.127560" lon="120.670485"/>
<trkpt lat="24.127531" lon="120.670476"/>
<trkpt lat="24.127501" lon="120.670473"/>
<trkpt lat="24.127472" lon="120.670473"/>
<trkpt lat="24.127442" lon="120.670478"/>
<trkpt lat="24.127385" lon="120.670412"/>
<trkpt lat="24.127368" lon="120.670379"/>
<trkpt lat="24.127236" lon="120.670034"/>
<trkpt lat="24.127122" lon="120.669721"/>
<trkpt lat="24.126795" lon="120.669874"/>
<trkpt lat="24.126599" lon="120.669984"/>
<trkpt lat="24.126471" lon="120.670044"/>
<trkpt lat="24.126464" lon="120.670002"/>
<trkpt lat="24.126449" lon="120.669942"/>
<trkpt lat="24.126381" lon="120.669965"/>
<trkpt lat="24.126327" lon="120.669521"/>
<trkpt lat="24.126217" lon="120.669691"/>
<trkpt lat="24.126084" lon="120.669870"/>
<trkpt lat="24.125940" lon="120.669987"/>
<trkpt lat="24.125334" lon="120.669988"/>
<trkpt lat="24.125329" lon="120.669558"/>
<trkpt lat="24.125165" lon="120.669547"/>
<trkpt lat="24.124944" lon="120.669572"/>
<trkpt lat="24.124809" lon="120.669574"/>
<trkpt lat="24.124712" lon="120.669610"/>
<trkpt lat="24.124572" lon="120.669745"/>
<trkpt lat="24.124703" lon="120.669995"/>
<trkpt lat="24.124741" lon="120.670082"/>
<trkpt lat="24.124482" lon="120.670090"/>
<trkpt lat="24.123641" lon="120.670083"/>
<trkpt lat="24.123305" lon="120.670088"/>
<trkpt lat="24.122920" lon="120.670092"/>
<trkpt lat="24.122350" lon="120.670094"/>
<trkpt lat="24.121771" lon="120.670089"/>
<trkpt lat="24.121781" lon="120.670779"/>
<trkpt lat="24.121423" lon="120.670770"/>
<trkpt lat="24.121408" lon="120.671387"/>
<trkpt lat="24.121039" lon="120.671388"/>
<trkpt lat="24.120660" lon="120.671399"/>
<trkpt lat="24.120588" lon="120.671402"/>
<trkpt lat="24.120201" lon="120.671399"/>
<trkpt lat="24.119132" lon="120.671396"/>
<trkpt lat="24.119113" lon="120.671397"/>
<trkpt lat="24.119059" lon="120.671396"/>
<trkpt lat="24.119057" lon="120.671769"/>
<trkpt lat="24.119041" lon="120.671813"/>
<trkpt lat="24.118664" lon="120.671805"/>
<trkpt lat="24.118071" lon="120.671787"/>
<trkpt lat="24.117712" lon="120.671787"/>
<trkpt lat="24.117296" lon="120.671777"/>
</trkseg></trk>
</gpx>