<?xml version="1.0" encoding="UTF-8"?>
<gpx version="1.1" creator="catrun" xmlns="http://www.topografix.com/GPX/1/1">
<metadata><name>南區 蹲坐貓咪（側面） 圖形路跑路線</name></metadata>
<wpt lat="24.139551" lon="120.675650"><name>國立臺中科技大學中護健康學院</name><desc>地標</desc></wpt>
<wpt lat="24.139579" lon="120.672939"><name>臺中文學館</name><desc>地標</desc></wpt>
<wpt lat="24.139675" lon="120.672278"><name>台中文學公園</name><desc>地標</desc></wpt>
<trk><name>南區 蹲坐貓咪（側面） 圖形路跑路線</name><trkseg>
<trkpt lat="24.138866" lon="120.674061"/>
<trkpt lat="24.139228" lon="120.674432"/>
<trkpt lat="24.139587" lon="120.674797"/>
<trkpt lat="24.140313" lon="120.673947"/>
<trkpt lat="24.140393" lon="120.673842"/>
<trkpt lat="24.140437" lon="120.673759"/>
<trkpt lat="24.140579" lon="120.673597"/>
<trkpt lat="24.140659" lon="120.673500"/>
<trkpt lat="24.140697" lon="120.673583"/>
<trkpt lat="24.140668" lon="120.673621"/>
<trkpt lat="24.140720" lon="120.673839"/>
<trkpt lat="24.140799" lon="120.674059"/>
<trkpt lat="24.140850" lon="120.674203"/>
<trkpt lat="24.140921" lon="120.674443"/>
<trkpt lat="24.141013" lon="120.674693"/>
<trkpt lat="24.141101" lon="120.674975"/>
<trkpt lat="24.141154" lon="120.675126"/>
<trkpt lat="24.141155" lon="120.675275"/>
<trkpt lat="24.141270" lon="120.675529"/>
<trkpt lat="24.141285" lon="120.675678"/>
<trkpt lat="24.141319" lon="120.675743"/>
<trkpt lat="24.141350" lon="120.675747"/>
<trkpt lat="24.141372" lon="120.675719"/>
<trkpt lat="24.141569" lon="120.675489"/>
<trkpt lat="24.141599" lon="120.675445"/>
<trkpt lat="24.141654" lon="120.675390"/>
<trkpt lat="24.141752" lon="120.675283"/>
<trkpt lat="24.141794" lon="120.675285"/>
<trkpt lat="24.141866" lon="120.675365"/>
<trkpt lat="24.142085" lon="120.675130"/>
<trkpt lat="24.142134" lon="120.675078"/>
<trkpt lat="24.142228" lon="120.675175"/>
<trkpt lat="24.142507" lon="120.675461"/>
<trkpt lat="24.142878" lon="120.675839"/>
<trkpt lat="24.143217" lon="120.676203"/>
<trkpt lat="24.143332" lon="120.676332"/>
<trkpt lat="24.143575" lon="120.676565"/>
<trkpt lat="24.143785" lon="120.676313"/>
<trkpt lat="24.144184" lon="120.676718"/>
<trkpt lat="24.144221" lon="120.676754"/>
<trkpt lat="24.144528" lon="120.677124"/>
<trkpt lat="24.144576" lon="120.677069"/>
<trkpt lat="24.144634" lon="120.677129"/>
<trkpt lat="24.144638" lon="120.677186"/>
<trkpt lat="24.144614" lon="120.677216"/>
<trkpt lat="24.144889" lon="120.677511"/>
<trkpt lat="24.145221" lon="120.677845"/>
<trkpt lat="24.144849" lon="120.678268"/>
<trkpt lat="24.144835" lon="120.678281"/>
<trkpt lat="24.144782" lon="120.678225"/>
<trkpt lat="24.144708" lon="120.678312"/>
<trkpt lat="24.144440" lon="120.678026"/>
<trkpt lat="24.144179" lon="120.677756"/>
<trkpt lat="24.144112" lon="120.677832"/>
<trkpt lat="24.144025" lon="120.677708"/>
<trkpt lat="24.143975" lon="120.677636"/>
<trkpt lat="24.143976" lon="120.677577"/>
<trkpt lat="24.143960" lon="120.677624"/>
<trkpt lat="24.143785" lon="120.677822"/>
<trkpt lat="24.143758" lon="120.677848"/>
<trkpt lat="24.143698" lon="120.677918"/>
<trkpt lat="24.143745" lon="120.678027"/>
<trkpt lat="24.143750" lon="120.678217"/>
<trkpt lat="24.143641" lon="120.678346"/>
<trkpt lat="24.143396" lon="120.678620"/>
<trkpt lat="24.143358" lon="120.678612"/>
<trkpt lat="24.143391" lon="120.678647"/>
<trkpt lat="24.143349" lon="120.678689"/>
<trkpt lat="24.143588" lon="120.678931"/>
<trkpt lat="24.143950" lon="120.679293"/>
<trkpt lat="24.144299" lon="120.679675"/>
<trkpt lat="24.144422" lon="120.679804"/>
<trkpt lat="24.144665" lon="120.680036"/>
<trkpt lat="24.144274" lon="120.680499"/>
<trkpt lat="24.143892" lon="120.680934"/>
<trkpt lat="24.143815" lon="120.681022"/>
<trkpt lat="24.143768" lon="120.681076"/>
<trkpt lat="24.143536" lon="120.681347"/>
<trkpt lat="24.143180" lon="120.680992"/>
<trkpt lat="24.142804" lon="120.680629"/>
<trkpt lat="24.142452" lon="120.681033"/>
<trkpt lat="24.142181" lon="120.681363"/>
<trkpt lat="24.141834" lon="120.681742"/>
<trkpt lat="24.141507" lon="120.682117"/>
<trkpt lat="24.140802" lon="120.682929"/>
<trkpt lat="24.140420" lon="120.683358"/>
<trkpt lat="24.140079" lon="120.683761"/>
<trkpt lat="24.140421" lon="120.684115"/>
<trkpt lat="24.140090" lon="120.684492"/>
<trkpt lat="24.139759" lon="120.684887"/>
<trkpt lat="24.139999" lon="120.685138"/>
<trkpt lat="24.139703" lon="120.685492"/>
<trkpt lat="24.139614" lon="120.685301"/>
<trkpt lat="24.139610" lon="120.685304"/>
<trkpt lat="24.139508" lon="120.685370"/>
<trkpt lat="24.139504" lon="120.685372"/>
<trkpt lat="24.139183" lon="120.685563"/>
<trkpt lat="24.139135" lon="120.685591"/>
<trkpt lat="24.139043" lon="120.685693"/>
<trkpt lat="24.139022" lon="120.686056"/>
<trkpt lat="24.138897" lon="120.686005"/>
<trkpt lat="24.138835" lon="120.685963"/>
<trkpt lat="24.138425" lon="120.685635"/>
<trkpt lat="24.138373" lon="120.685699"/>
<trkpt lat="24.138244" lon="120.685867"/>
<trkpt lat="24.138091" lon="120.686064"/>
<trkpt lat="24.138052" lon="120.686114"/>
<trkpt lat="24.138070" lon="120.686371"/>
<trkpt lat="24.137876" lon="120.686483"/>
<trkpt lat="24.137839" lon="120.686504"/>
<trkpt lat="24.137789" lon="120.686571"/>
<trkpt lat="24.137646" lon="120.686643"/>
<trkpt lat="24.137444" lon="120.686746"/>
<trkpt lat="24.137421" lon="120.686758"/>
<trkpt lat="24.137404" lon="120.686767"/>
<trkpt lat="24.136900" lon="120.687023"/>
<trkpt lat="24.136806" lon="120.687063"/>
<trkpt lat="24.136593" lon="120.686569"/>
<trkpt lat="24.136652" lon="120.686537"/>
<trkpt lat="24.136686" lon="120.686635"/>
<trkpt lat="24.136733" lon="120.686679"/>
<trkpt lat="24.137044" lon="120.687440"/>
<trkpt lat="24.137045" lon="120.687495"/>
<trkpt lat="24.137096" lon="120.687624"/>
<trkpt lat="24.137028" lon="120.687602"/>
<trkpt lat="24.136980" lon="120.687601"/>
<trkpt lat="24.136968" lon="120.687602"/>
<trkpt lat="24.136935" lon="120.687603"/>
<trkpt lat="24.136598" lon="120.687772"/>
<trkpt lat="24.136537" lon="120.687747"/>
<trkpt lat="24.136489" lon="120.687758"/>
<trkpt lat="24.136428" lon="120.687792"/>
<trkpt lat="24.136347" lon="120.687839"/>
<trkpt lat="24.136392" lon="120.687936"/>
<trkpt lat="24.136427" lon="120.688029"/>
<trkpt lat="24.136480" lon="120.688056"/>
<trkpt lat="24.136502" lon="120.688100"/>
<trkpt lat="24.136713" lon="120.688596"/>
<trkpt lat="24.136753" lon="120.688686"/>
<trkpt lat="24.136888" lon="120.689011"/>
<trkpt lat="24.136905" lon="120.689125"/>
<trkpt lat="24.136922" lon="120.689170"/>
<trkpt lat="24.136602" lon="120.689492"/>
<trkpt lat="24.136461" lon="120.689623"/>
<trkpt lat="24.136269" lon="120.689817"/>
<trkpt lat="24.136100" lon="120.689954"/>
<trkpt lat="24.135947" lon="120.690063"/>
<trkpt lat="24.135604" lon="120.689273"/>
<trkpt lat="24.135560" lon="120.689169"/>
<trkpt lat="24.135475" lon="120.688969"/>
<trkpt lat="24.135274" lon="120.688477"/>
<trkpt lat="24.135553" lon="120.688342"/>
<trkpt lat="24.135335" lon="120.687777"/>
<trkpt lat="24.135393" lon="120.687651"/>
<trkpt lat="24.135252" lon="120.687310"/>
<trkpt lat="24.134856" lon="120.687506"/>
<trkpt lat="24.134258" lon="120.687810"/>
<trkpt lat="24.134180" lon="120.687843"/>
<trkpt lat="24.133946" lon="120.687273"/>
<trkpt lat="24.133778" lon="120.686878"/>
<trkpt lat="24.133699" lon="120.686906"/>
<trkpt lat="24.133257" lon="120.687143"/>
<trkpt lat="24.133050" lon="120.686637"/>
<trkpt lat="24.132856" lon="120.686160"/>
<trkpt lat="24.132239" lon="120.686448"/>
<trkpt lat="24.131615" lon="120.686759"/>
<trkpt lat="24.131206" lon="120.685782"/>
<trkpt lat="24.131020" lon="120.685370"/>
<trkpt lat="24.130000" lon="120.685862"/>
<trkpt lat="24.129982" lon="120.685411"/>
<trkpt lat="24.130024" lon="120.685157"/>
<trkpt lat="24.129992" lon="120.685165"/>
<trkpt lat="24.129956" lon="120.685166"/>
<trkpt lat="24.129929" lon="120.685160"/>
<trkpt lat="24.129701" lon="120.685090"/>
<trkpt lat="24.129634" lon="120.684930"/>
<trkpt lat="24.129590" lon="120.684914"/>
<trkpt lat="24.129567" lon="120.684867"/>
<trkpt lat="24.129461" lon="120.684838"/>
<trkpt lat="24.129353" lon="120.684578"/>
<trkpt lat="24.129209" lon="120.684237"/>
<trkpt lat="24.129770" lon="120.683964"/>
<trkpt lat="24.130324" lon="120.683711"/>
<trkpt lat="24.130102" lon="120.683180"/>
<trkpt lat="24.129875" lon="120.682641"/>
<trkpt lat="24.130265" lon="120.682440"/>
<trkpt lat="24.130500" lon="120.682316"/>
<trkpt lat="24.130281" lon="120.681757"/>
<trkpt lat="24.130064" lon="120.681259"/>
<trkpt lat="24.129866" lon="120.680771"/>
<trkpt lat="24.130449" lon="120.680470"/>
<trkpt lat="24.130225" lon="120.679916"/>
<trkpt lat="24.130619" lon="120.679737"/>
<trkpt lat="24.130175" lon="120.678663"/>
<trkpt lat="24.130471" lon="120.678515"/>
<trkpt lat="24.130969" lon="120.678263"/>
<trkpt lat="24.130620" lon="120.677402"/>
<trkpt lat="24.130561" lon="120.677433"/>
<trkpt lat="24.130524" lon="120.677343"/>
<trkpt lat="24.130486" lon="120.677253"/>
<trkpt lat="24.130546" lon="120.677224"/>
<trkpt lat="24.130496" lon="120.677105"/>
<trkpt lat="24.130098" lon="120.676155"/>
<trkpt lat="24.130847" lon="120.675771"/>
<trkpt lat="24.131303" lon="120.675540"/>
<trkpt lat="24.131359" lon="120.675520"/>
<trkpt lat="24.131564" lon="120.676015"/>
<trkpt lat="24.131965" lon="120.675820"/>
<trkpt lat="24.132240" lon="120.675675"/>
<trkpt lat="24.132382" lon="120.675600"/>
<trkpt lat="24.132585" lon="120.676074"/>
<trkpt lat="24.132666" lon="120.676031"/>
<trkpt lat="24.132679" lon="120.676037"/>
<trkpt lat="24.132693" lon="120.676042"/>
<trkpt lat="24.132706" lon="120.676043"/>
<trkpt lat="24.132927" lon="120.675883"/>
<trkpt lat="24.132944" lon="120.675863"/>
<trkpt lat="24.132947" lon="120.675847"/>
<trkpt lat="24.132949" lon="120.675840"/>
<trkpt lat="24.132940" lon="120.675789"/>
<trkpt lat="24.132990" lon="120.675757"/>
<trkpt lat="24.133071" lon="120.675705"/>
<trkpt lat="24.133151" lon="120.675654"/>
<trkpt lat="24.133182" lon="120.675618"/>
<trkpt lat="24.133193" lon="120.675605"/>
<trkpt lat="24.133213" lon="120.675597"/>
<trkpt lat="24.133348" lon="120.675441"/>
<trkpt lat="24.133433" lon="120.675532"/>
<trkpt lat="24.133534" lon="120.675419"/>
<trkpt lat="24.133615" lon="120.675321"/>
<trkpt lat="24.133809" lon="120.675104"/>
<trkpt lat="24.134079" lon="120.674805"/>
<trkpt lat="24.134221" lon="120.674646"/>
<trkpt lat="24.134425" lon="120.674412"/>
<trkpt lat="24.134680" lon="120.674682"/>
<trkpt lat="24.134811" lon="120.674816"/>
<trkpt lat="24.135110" lon="120.675117"/>
<trkpt lat="24.135232" lon="120.675234"/>
<trkpt lat="24.135585" lon="120.675602"/>
<trkpt lat="24.135817" lon="120.675828"/>
<trkpt lat="24.135905" lon="120.675903"/>
<trkpt lat="24.135955" lon="120.675840"/>
<trkpt lat="24.136058" lon="120.675721"/>
<trkpt lat="24.136197" lon="120.675558"/>
<trkpt lat="24.136376" lon="120.675349"/>
<trkpt lat="24.136861" lon="120.674793"/>
<trkpt lat="24.136891" lon="120.674759"/>
<trkpt lat="24.137327" lon="120.674272"/>
<trkpt lat="24.137342" lon="120.674287"/>
<trkpt lat="24.137370" lon="120.674316"/>
<trkpt lat="24.137682" lon="120.674635"/>
<trkpt lat="24.138046" lon="120.674997"/>
<trkpt lat="24.138866" lon="120.674061"/>
</trkseg></trk>
</gpx>