<?xml version="1.0" encoding="UTF-8"?>
<gpx version="1.1" creator="catrun" xmlns="http://www.topografix.com/GPX/1/1">
<metadata><name>南區 手繪蹲坐貓（原稿描圖） 圖形路跑路線</name></metadata>
<wpt lat="24.127813" lon="120.669060"><name>司法為民</name><desc>地標</desc></wpt>
<wpt lat="24.128964" lon="120.667028"><name>同心橋</name><desc>地標</desc></wpt>
<wpt lat="24.134977" lon="120.667267"><name>樂群公園</name><desc>地標</desc></wpt>
<trk><name>南區 手繪蹲坐貓（原稿描圖） 圖形路跑路線</name><trkseg>
<trkpt lat="24.124272" lon="120.667931"/>
<trkpt lat="24.123739" lon="120.667293"/>
<trkpt lat="24.124246" lon="120.666799"/>
<trkpt lat="24.124287" lon="120.666762"/>
<trkpt lat="24.124320" lon="120.666732"/>
<trkpt lat="24.124601" lon="120.666481"/>
<trkpt lat="24.124847" lon="120.666261"/>
<trkpt lat="24.125054" lon="120.666522"/>
<trkpt lat="24.125251" lon="120.666769"/>
<trkpt lat="24.125374" lon="120.666925"/>
<trkpt lat="24.125429" lon="120.666994"/>
<trkpt lat="24.125659" lon="120.667283"/>
<trkpt lat="24.125823" lon="120.667116"/>
<trkpt lat="24.125955" lon="120.667290"/>
<trkpt lat="24.126262" lon="120.667110"/>
<trkpt lat="24.126274" lon="120.667143"/>
<trkpt lat="24.126835" lon="120.666696"/>
<trkpt lat="24.127079" lon="120.667275"/>
<trkpt lat="24.127362" lon="120.667919"/>
<trkpt lat="24.127972" lon="120.667609"/>
<trkpt lat="24.128023" lon="120.667552"/>
<trkpt lat="24.128299" lon="120.668203"/>
<trkpt lat="24.128708" lon="120.667981"/>
<trkpt lat="24.129127" lon="120.667764"/>
<trkpt lat="24.129427" lon="120.668513"/>
<trkpt lat="24.129483" lon="120.668613"/>
<trkpt lat="24.129833" lon="120.668429"/>
<trkpt lat="24.129918" lon="120.668383"/>
<trkpt lat="24.130458" lon="120.668106"/>
<trkpt lat="24.131010" lon="120.667813"/>
<trkpt lat="24.131586" lon="120.667557"/>
<trkpt lat="24.131676" lon="120.667518"/>
<trkpt lat="24.131630" lon="120.667397"/>
<trkpt lat="24.131329" lon="120.666694"/>
<trkpt lat="24.131706" lon="120.666506"/>
<trkpt lat="24.131680" lon="120.666420"/>
<trkpt lat="24.131650" lon="120.666325"/>
<trkpt lat="24.131638" lon="120.666158"/>
<trkpt lat="24.131627" lon="120.665932"/>
<trkpt lat="24.131571" lon="120.665764"/>
<trkpt lat="24.131853" lon="120.665625"/>
<trkpt lat="24.131677" lon="120.665202"/>
<trkpt lat="24.131875" lon="120.665095"/>
<trkpt lat="24.132163" lon="120.665089"/>
<trkpt lat="24.132283" lon="120.665083"/>
<trkpt lat="24.132844" lon="120.665085"/>
<trkpt lat="24.132843" lon="120.665516"/>
<trkpt lat="24.132824" lon="120.665623"/>
<trkpt lat="24.133130" lon="120.665927"/>
<trkpt lat="24.133478" lon="120.665515"/>
<trkpt lat="24.133868" lon="120.665077"/>
<trkpt lat="24.134213" lon="120.665443"/>
<trkpt lat="24.134556" lon="120.665799"/>
<trkpt lat="24.134439" lon="120.665858"/>
<trkpt lat="24.134528" lon="120.665980"/>
<trkpt lat="24.134583" lon="120.666066"/>
<trkpt lat="24.134418" lon="120.666140"/>
<trkpt lat="24.134480" lon="120.666284"/>
<trkpt lat="24.134558" lon="120.666501"/>
<trkpt lat="24.134540" lon="120.666832"/>
<trkpt lat="24.134622" lon="120.666895"/>
<trkpt lat="24.134924" lon="120.666939"/>
<trkpt lat="24.135278" lon="120.666549"/>
<trkpt lat="24.135607" lon="120.666904"/>
<trkpt lat="24.135901" lon="120.667203"/>
<trkpt lat="24.136194" lon="120.667468"/>
<trkpt lat="24.136250" lon="120.667520"/>
<trkpt lat="24.136304" lon="120.667579"/>
<trkpt lat="24.136627" lon="120.667926"/>
<trkpt lat="24.136151" lon="120.668473"/>
<trkpt lat="24.135699" lon="120.668990"/>
<trkpt lat="24.135431" lon="120.669302"/>
<trkpt lat="24.135268" lon="120.669301"/>
<trkpt lat="24.135158" lon="120.669320"/>
<trkpt lat="24.135060" lon="120.669346"/>
<trkpt lat="24.135071" lon="120.669389"/>
<trkpt lat="24.135158" lon="120.669637"/>
<trkpt lat="24.134879" lon="120.669933"/>
<trkpt lat="24.134489" lon="120.669532"/>
<trkpt lat="24.134087" lon="120.669989"/>
<trkpt lat="24.133661" lon="120.670479"/>
<trkpt lat="24.133130" lon="120.671096"/>
<trkpt lat="24.132655" lon="120.671648"/>
<trkpt lat="24.132525" lon="120.671802"/>
<trkpt lat="24.132037" lon="120.672352"/>
<trkpt lat="24.131921" lon="120.672484"/>
<trkpt lat="24.131847" lon="120.672541"/>
<trkpt lat="24.131794" lon="120.672598"/>
<trkpt lat="24.131749" lon="120.672646"/>
<trkpt lat="24.131672" lon="120.672702"/>
<trkpt lat="24.131605" lon="120.672748"/>
<trkpt lat="24.131546" lon="120.672783"/>
<trkpt lat="24.131268" lon="120.672922"/>
<trkpt lat="24.131499" lon="120.673513"/>
<trkpt lat="24.131721" lon="120.674035"/>
<trkpt lat="24.131573" lon="120.674111"/>
<trkpt lat="24.131309" lon="120.674246"/>
<trkpt lat="24.130913" lon="120.674444"/>
<trkpt lat="24.130850" lon="120.674475"/>
<trkpt lat="24.130227" lon="120.674787"/>
<trkpt lat="24.129656" lon="120.675072"/>
<trkpt lat="24.129904" lon="120.675679"/>
<trkpt lat="24.130098" lon="120.676155"/>
<trkpt lat="24.129691" lon="120.676360"/>
<trkpt lat="24.129300" lon="120.676549"/>
<trkpt lat="24.128903" lon="120.676746"/>
<trkpt lat="24.128856" lon="120.676769"/>
<trkpt lat="24.128827" lon="120.676698"/>
<trkpt lat="24.128705" lon="120.676395"/>
<trkpt lat="24.128620" lon="120.676273"/>
<trkpt lat="24.128537" lon="120.676199"/>
<trkpt lat="24.128459" lon="120.676167"/>
<trkpt lat="24.128369" lon="120.676145"/>
<trkpt lat="24.127889" lon="120.676133"/>
<trkpt lat="24.127757" lon="120.676132"/>
<trkpt lat="24.127149" lon="120.676126"/>
<trkpt lat="24.126577" lon="120.676120"/>
<trkpt lat="24.126472" lon="120.676121"/>
<trkpt lat="24.126388" lon="120.676121"/>
<trkpt lat="24.126281" lon="120.676122"/>
<trkpt lat="24.125654" lon="120.676131"/>
<trkpt lat="24.125654" lon="120.676158"/>
<trkpt lat="24.125654" lon="120.676297"/>
<trkpt lat="24.125654" lon="120.676323"/>
<trkpt lat="24.125655" lon="120.676387"/>
<trkpt lat="24.125653" lon="120.676791"/>
<trkpt lat="24.125159" lon="120.676799"/>
<trkpt lat="24.124928" lon="120.676802"/>
<trkpt lat="24.124918" lon="120.677714"/>
<trkpt lat="24.125311" lon="120.677708"/>
<trkpt lat="24.125325" lon="120.678426"/>
<trkpt lat="24.125327" lon="120.678677"/>
<trkpt lat="24.125655" lon="120.678669"/>
<trkpt lat="24.125655" lon="120.679191"/>
<trkpt lat="24.125655" lon="120.679286"/>
<trkpt lat="24.125787" lon="120.679286"/>
<trkpt lat="24.126280" lon="120.679284"/>
<trkpt lat="24.126282" lon="120.679388"/>
<trkpt lat="24.126283" lon="120.679493"/>
<trkpt lat="24.126390" lon="120.679484"/>
<trkpt lat="24.126392" lon="120.679598"/>
<trkpt lat="24.126389" lon="120.679926"/>
<trkpt lat="24.126376" lon="120.680245"/>
<trkpt lat="24.126375" lon="120.681102"/>
<trkpt lat="24.125627" lon="120.681102"/>
<trkpt lat="24.124902" lon="120.681101"/>
<trkpt lat="24.124901" lon="120.681833"/>
<trkpt lat="24.125244" lon="120.681835"/>
<trkpt lat="24.125636" lon="120.681821"/>
<trkpt lat="24.125642" lon="120.682565"/>
<trkpt lat="24.125334" lon="120.682565"/>
<trkpt lat="24.124916" lon="120.682564"/>
<trkpt lat="24.124916" lon="120.683074"/>
<trkpt lat="24.124227" lon="120.683091"/>
<trkpt lat="24.124227" lon="120.683546"/>
<trkpt lat="24.124032" lon="120.683641"/>
<trkpt lat="24.123924" lon="120.683695"/>
<trkpt lat="24.123924" lon="120.683463"/>
<trkpt lat="24.123925" lon="120.683175"/>
<trkpt lat="24.123913" lon="120.682561"/>
<trkpt lat="24.123821" lon="120.682561"/>
<trkpt lat="24.123754" lon="120.682561"/>
<trkpt lat="24.123762" lon="120.681864"/>
<trkpt lat="24.123771" lon="120.681101"/>
<trkpt lat="24.123817" lon="120.681101"/>
<trkpt lat="24.123904" lon="120.681101"/>
<trkpt lat="24.123926" lon="120.680175"/>
<trkpt lat="24.123921" lon="120.679499"/>
<trkpt lat="24.123747" lon="120.679499"/>
<trkpt lat="24.123710" lon="120.679499"/>
<trkpt lat="24.123724" lon="120.679455"/>
<trkpt lat="24.123741" lon="120.679410"/>
<trkpt lat="24.123767" lon="120.679344"/>
<trkpt lat="24.123786" lon="120.679300"/>
<trkpt lat="24.123808" lon="120.679162"/>
<trkpt lat="24.123819" lon="120.679074"/>
<trkpt lat="24.123831" lon="120.678978"/>
<trkpt lat="24.123852" lon="120.678248"/>
<trkpt lat="24.123831" lon="120.677948"/>
<trkpt lat="24.123852" lon="120.677583"/>
<trkpt lat="24.123852" lon="120.675927"/>
<trkpt lat="24.123852" lon="120.675616"/>
<trkpt lat="24.123852" lon="120.675523"/>
<trkpt lat="24.123852" lon="120.675459"/>
<trkpt lat="24.123917" lon="120.675330"/>
<trkpt lat="24.123914" lon="120.675298"/>
<trkpt lat="24.123913" lon="120.675213"/>
<trkpt lat="24.123911" lon="120.675069"/>
<trkpt lat="24.123919" lon="120.674952"/>
<trkpt lat="24.123925" lon="120.674876"/>
<trkpt lat="24.124095" lon="120.674825"/>
<trkpt lat="24.124161" lon="120.674829"/>
<trkpt lat="24.124235" lon="120.674920"/>
<trkpt lat="24.124208" lon="120.674601"/>
<trkpt lat="24.124205" lon="120.674357"/>
<trkpt lat="24.124197" lon="120.673856"/>
<trkpt lat="24.124194" lon="120.673023"/>
<trkpt lat="24.124254" lon="120.673023"/>
<trkpt lat="24.124424" lon="120.673023"/>
<trkpt lat="24.124441" lon="120.673023"/>
<trkpt lat="24.124441" lon="120.672966"/>
<trkpt lat="24.124441" lon="120.672915"/>
<trkpt lat="24.124500" lon="120.672913"/>
<trkpt lat="24.124504" lon="120.672025"/>
<trkpt lat="24.124501" lon="120.671562"/>
<trkpt lat="24.124495" lon="120.671400"/>
<trkpt lat="24.123634" lon="120.671393"/>
<trkpt lat="24.123639" lon="120.670375"/>
<trkpt lat="24.123641" lon="120.670083"/>
<trkpt lat="24.124482" lon="120.670090"/>
<trkpt lat="24.124741" lon="120.670082"/>
<trkpt lat="24.124703" lon="120.669995"/>
<trkpt lat="24.124572" lon="120.669745"/>
<trkpt lat="24.124428" lon="120.669421"/>
<trkpt lat="24.124260" lon="120.669155"/>
<trkpt lat="24.124249" lon="120.668580"/>
<trkpt lat="24.124349" lon="120.668500"/>
<trkpt lat="24.124561" lon="120.668277"/>
<trkpt lat="24.124272" lon="120.667931"/>
</trkseg></trk>
</gpx>