<?xml version="1.0" encoding="UTF-8"?>
<gpx version="1.1" creator="catrun" xmlns="http://www.topografix.com/GPX/1/1">
<metadata><name>南區 蜷睡貓咪 圖形路跑路線</name></metadata>
<wpt lat="24.140525" lon="120.662798"><name>展</name><desc>地標</desc></wpt>
<wpt lat="24.140690" lon="120.662409"><name>元</name><desc>地標</desc></wpt>
<wpt lat="24.140529" lon="120.662591"><name>龍嘯太虛</name><desc>地標</desc></wpt>
<trk><name>南區 蜷睡貓咪 圖形路跑路線</name><trkseg>
<trkpt lat="24.138962" lon="120.661693"/>
<trkpt lat="24.139274" lon="120.661693"/>
<trkpt lat="24.139452" lon="120.661693"/>
<trkpt lat="24.139480" lon="120.661693"/>
<trkpt lat="24.139609" lon="120.661693"/>
<trkpt lat="24.140051" lon="120.661693"/>
<trkpt lat="24.140143" lon="120.661693"/>
<trkpt lat="24.140142" lon="120.662161"/>
<trkpt lat="24.140502" lon="120.662161"/>
<trkpt lat="24.140915" lon="120.662161"/>
<trkpt lat="24.141365" lon="120.662161"/>
<trkpt lat="24.141402" lon="120.662207"/>
<trkpt lat="24.141543" lon="120.662209"/>
<trkpt lat="24.141552" lon="120.662358"/>
<trkpt lat="24.141801" lon="120.662371"/>
<trkpt lat="24.141834" lon="120.663279"/>
<trkpt lat="24.141853" lon="120.663376"/>
<trkpt lat="24.142051" lon="120.663380"/>
<trkpt lat="24.142047" lon="120.663807"/>
<trkpt lat="24.142275" lon="120.664242"/>
<trkpt lat="24.142326" lon="120.664344"/>
<trkpt lat="24.142531" lon="120.664535"/>
<trkpt lat="24.142533" lon="120.664604"/>
<trkpt lat="24.142461" lon="120.664618"/>
<trkpt lat="24.142488" lon="120.664677"/>
<trkpt lat="24.142374" lon="120.664740"/>
<trkpt lat="24.142346" lon="120.664677"/>
<trkpt lat="24.141929" lon="120.664918"/>
<trkpt lat="24.141937" lon="120.664963"/>
<trkpt lat="24.141932" lon="120.665008"/>
<trkpt lat="24.141915" lon="120.665050"/>
<trkpt lat="24.141886" lon="120.665084"/>
<trkpt lat="24.142125" lon="120.665452"/>
<trkpt lat="24.141998" lon="120.665544"/>
<trkpt lat="24.141888" lon="120.665668"/>
<trkpt lat="24.141611" lon="120.665980"/>
<trkpt lat="24.141361" lon="120.666266"/>
<trkpt lat="24.141142" lon="120.666535"/>
<trkpt lat="24.141186" lon="120.666581"/>
<trkpt lat="24.141251" lon="120.666649"/>
<trkpt lat="24.141331" lon="120.666734"/>
<trkpt lat="24.141423" lon="120.666630"/>
<trkpt lat="24.141483" lon="120.666557"/>
<trkpt lat="24.141747" lon="120.666827"/>
<trkpt lat="24.142166" lon="120.666359"/>
<trkpt lat="24.142279" lon="120.666533"/>
<trkpt lat="24.142445" lon="120.666790"/>
<trkpt lat="24.142327" lon="120.666923"/>
<trkpt lat="24.142213" lon="120.667060"/>
<trkpt lat="24.142107" lon="120.667202"/>
<trkpt lat="24.142035" lon="120.667292"/>
<trkpt lat="24.141869" lon="120.667477"/>
<trkpt lat="24.141802" lon="120.667545"/>
<trkpt lat="24.141549" lon="120.667839"/>
<trkpt lat="24.142277" lon="120.668585"/>
<trkpt lat="24.142051" lon="120.668844"/>
<trkpt lat="24.141324" lon="120.668095"/>
<trkpt lat="24.140887" lon="120.668586"/>
<trkpt lat="24.140672" lon="120.668834"/>
<trkpt lat="24.140450" lon="120.669091"/>
<trkpt lat="24.140015" lon="120.669592"/>
<trkpt lat="24.139596" lon="120.670055"/>
<trkpt lat="24.139557" lon="120.670013"/>
<trkpt lat="24.139500" lon="120.670077"/>
<trkpt lat="24.139458" lon="120.670124"/>
<trkpt lat="24.139501" lon="120.670169"/>
<trkpt lat="24.139459" lon="120.670223"/>
<trkpt lat="24.139284" lon="120.670452"/>
<trkpt lat="24.139254" lon="120.670486"/>
<trkpt lat="24.139181" lon="120.670573"/>
<trkpt lat="24.138821" lon="120.670188"/>
<trkpt lat="24.138720" lon="120.670338"/>
<trkpt lat="24.138654" lon="120.670421"/>
<trkpt lat="24.138549" lon="120.670525"/>
<trkpt lat="24.138526" lon="120.670494"/>
<trkpt lat="24.138427" lon="120.670462"/>
<trkpt lat="24.138324" lon="120.670441"/>
<trkpt lat="24.138279" lon="120.670435"/>
<trkpt lat="24.138166" lon="120.670435"/>
<trkpt lat="24.138051" lon="120.670449"/>
<trkpt lat="24.137936" lon="120.670372"/>
<trkpt lat="24.137864" lon="120.670319"/>
<trkpt lat="24.137805" lon="120.670252"/>
<trkpt lat="24.137701" lon="120.669809"/>
<trkpt lat="24.137127" lon="120.670464"/>
<trkpt lat="24.136773" lon="120.670096"/>
<trkpt lat="24.136415" lon="120.669727"/>
<trkpt lat="24.136035" lon="120.670168"/>
<trkpt lat="24.135778" lon="120.670462"/>
<trkpt lat="24.135645" lon="120.670277"/>
<trkpt lat="24.135596" lon="120.670221"/>
<trkpt lat="24.135435" lon="120.670071"/>
<trkpt lat="24.135234" lon="120.670303"/>
<trkpt lat="24.134879" lon="120.669933"/>
<trkpt lat="24.134489" lon="120.669532"/>
<trkpt lat="24.134165" lon="120.669194"/>
<trkpt lat="24.133865" lon="120.668885"/>
<trkpt lat="24.133529" lon="120.668537"/>
<trkpt lat="24.133122" lon="120.668112"/>
<trkpt lat="24.132959" lon="120.668101"/>
<trkpt lat="24.132732" lon="120.668082"/>
<trkpt lat="24.132686" lon="120.667877"/>
<trkpt lat="24.132703" lon="120.667602"/>
<trkpt lat="24.132690" lon="120.667571"/>
<trkpt lat="24.132711" lon="120.667276"/>
<trkpt lat="24.132593" lon="120.667033"/>
<trkpt lat="24.132157" lon="120.667258"/>
<trkpt lat="24.132162" lon="120.667163"/>
<trkpt lat="24.132164" lon="120.666851"/>
<trkpt lat="24.132167" lon="120.666482"/>
<trkpt lat="24.132167" lon="120.666386"/>
<trkpt lat="24.132165" lon="120.665632"/>
<trkpt lat="24.132163" lon="120.665089"/>
<trkpt lat="24.132161" lon="120.664548"/>
<trkpt lat="24.132169" lon="120.663725"/>
<trkpt lat="24.132170" lon="120.663656"/>
<trkpt lat="24.132248" lon="120.663657"/>
<trkpt lat="24.132251" lon="120.663422"/>
<trkpt lat="24.132253" lon="120.663313"/>
<trkpt lat="24.132245" lon="120.663298"/>
<trkpt lat="24.132248" lon="120.663229"/>
<trkpt lat="24.132254" lon="120.662862"/>
<trkpt lat="24.132268" lon="120.662836"/>
<trkpt lat="24.132300" lon="120.662834"/>
<trkpt lat="24.132333" lon="120.662784"/>
<trkpt lat="24.132395" lon="120.662740"/>
<trkpt lat="24.132369" lon="120.662645"/>
<trkpt lat="24.132363" lon="120.662603"/>
<trkpt lat="24.132363" lon="120.662589"/>
<trkpt lat="24.132601" lon="120.662591"/>
<trkpt lat="24.132678" lon="120.662592"/>
<trkpt lat="24.132706" lon="120.662592"/>
<trkpt lat="24.133052" lon="120.662592"/>
<trkpt lat="24.133153" lon="120.662588"/>
<trkpt lat="24.133155" lon="120.662087"/>
<trkpt lat="24.133156" lon="120.661791"/>
<trkpt lat="24.133097" lon="120.661789"/>
<trkpt lat="24.133100" lon="120.661689"/>
<trkpt lat="24.133100" lon="120.661603"/>
<trkpt lat="24.133101" lon="120.661590"/>
<trkpt lat="24.133101" lon="120.661572"/>
<trkpt lat="24.133143" lon="120.661570"/>
<trkpt lat="24.133183" lon="120.661571"/>
<trkpt lat="24.133228" lon="120.661570"/>
<trkpt lat="24.133267" lon="120.661570"/>
<trkpt lat="24.133307" lon="120.661570"/>
<trkpt lat="24.133332" lon="120.661569"/>
<trkpt lat="24.133373" lon="120.661570"/>
<trkpt lat="24.133372" lon="120.660869"/>
<trkpt lat="24.133146" lon="120.660870"/>
<trkpt lat="24.132737" lon="120.660873"/>
<trkpt lat="24.132714" lon="120.660873"/>
<trkpt lat="24.132747" lon="120.660811"/>
<trkpt lat="24.132761" lon="120.660786"/>
<trkpt lat="24.132932" lon="120.660471"/>
<trkpt lat="24.133080" lon="120.660195"/>
<trkpt lat="24.133070" lon="120.660196"/>
<trkpt lat="24.133076" lon="120.660182"/>
<trkpt lat="24.133085" lon="120.660165"/>
<trkpt lat="24.133104" lon="120.660165"/>
<trkpt lat="24.133123" lon="120.660134"/>
<trkpt lat="24.133156" lon="120.660084"/>
<trkpt lat="24.133198" lon="120.660005"/>
<trkpt lat="24.133232" lon="120.659943"/>
<trkpt lat="24.133257" lon="120.659959"/>
<trkpt lat="24.133515" lon="120.659962"/>
<trkpt lat="24.133515" lon="120.660003"/>
<trkpt lat="24.133514" lon="120.660085"/>
<trkpt lat="24.133712" lon="120.660086"/>
<trkpt lat="24.134007" lon="120.660087"/>
<trkpt lat="24.134183" lon="120.660088"/>
<trkpt lat="24.134183" lon="120.660031"/>
<trkpt lat="24.134214" lon="120.660032"/>
<trkpt lat="24.134250" lon="120.660032"/>
<trkpt lat="24.134287" lon="120.660033"/>
<trkpt lat="24.134287" lon="120.660186"/>
<trkpt lat="24.134541" lon="120.660186"/>
<trkpt lat="24.135096" lon="120.660187"/>
<trkpt lat="24.135145" lon="120.660187"/>
<trkpt lat="24.135211" lon="120.660187"/>
<trkpt lat="24.135553" lon="120.660187"/>
<trkpt lat="24.135556" lon="120.659780"/>
<trkpt lat="24.135557" lon="120.659753"/>
<trkpt lat="24.135557" lon="120.659707"/>
<trkpt lat="24.135555" lon="120.659524"/>
<trkpt lat="24.135557" lon="120.659524"/>
<trkpt lat="24.135838" lon="120.659523"/>
<trkpt lat="24.136554" lon="120.659520"/>
<trkpt lat="24.136621" lon="120.659484"/>
<trkpt lat="24.136980" lon="120.659486"/>
<trkpt lat="24.137275" lon="120.659488"/>
<trkpt lat="24.137276" lon="120.658833"/>
<trkpt lat="24.137568" lon="120.658834"/>
<trkpt lat="24.137965" lon="120.658835"/>
<trkpt lat="24.137965" lon="120.659286"/>
<trkpt lat="24.137964" lon="120.659502"/>
<trkpt lat="24.137964" lon="120.659772"/>
<trkpt lat="24.137964" lon="120.660189"/>
<trkpt lat="24.137630" lon="120.660189"/>
<trkpt lat="24.137574" lon="120.660189"/>
<trkpt lat="24.137273" lon="120.660188"/>
<trkpt lat="24.136974" lon="120.660188"/>
<trkpt lat="24.136663" lon="120.660188"/>
<trkpt lat="24.136661" lon="120.660271"/>
<trkpt lat="24.136553" lon="120.660272"/>
<trkpt lat="24.136553" lon="120.660524"/>
<trkpt lat="24.136553" lon="120.660827"/>
<trkpt lat="24.136553" lon="120.661206"/>
<trkpt lat="24.136552" lon="120.661546"/>
<trkpt lat="24.136466" lon="120.661546"/>
<trkpt lat="24.136459" lon="120.661538"/>
<trkpt lat="24.136412" lon="120.661596"/>
<trkpt lat="24.136391" lon="120.661597"/>
<trkpt lat="24.136347" lon="120.661598"/>
<trkpt lat="24.136305" lon="120.661599"/>
<trkpt lat="24.136266" lon="120.661599"/>
<trkpt lat="24.136225" lon="120.661598"/>
<trkpt lat="24.136184" lon="120.661598"/>
<trkpt lat="24.136141" lon="120.661599"/>
<trkpt lat="24.136097" lon="120.661598"/>
<trkpt lat="24.136051" lon="120.661599"/>
<trkpt lat="24.136006" lon="120.661599"/>
<trkpt lat="24.135883" lon="120.661598"/>
<trkpt lat="24.135850" lon="120.661599"/>
<trkpt lat="24.135817" lon="120.661599"/>
<trkpt lat="24.135630" lon="120.661598"/>
<trkpt lat="24.135626" lon="120.661599"/>
<trkpt lat="24.135258" lon="120.661604"/>
<trkpt lat="24.135248" lon="120.661595"/>
<trkpt lat="24.135248" lon="120.661611"/>
<trkpt lat="24.135247" lon="120.661690"/>
<trkpt lat="24.135249" lon="120.661799"/>
<trkpt lat="24.135249" lon="120.661815"/>
<trkpt lat="24.135240" lon="120.661804"/>
<trkpt lat="24.135237" lon="120.661800"/>
<trkpt lat="24.135148" lon="120.661801"/>
<trkpt lat="24.135147" lon="120.662121"/>
<trkpt lat="24.135147" lon="120.662177"/>
<trkpt lat="24.135147" lon="120.662498"/>
<trkpt lat="24.135147" lon="120.662578"/>
<trkpt lat="24.135093" lon="120.662577"/>
<trkpt lat="24.135079" lon="120.662576"/>
<trkpt lat="24.135076" lon="120.662595"/>
<trkpt lat="24.135076" lon="120.662648"/>
<trkpt lat="24.135075" lon="120.662704"/>
<trkpt lat="24.135075" lon="120.662716"/>
<trkpt lat="24.134774" lon="120.662715"/>
<trkpt lat="24.134772" lon="120.662875"/>
<trkpt lat="24.134773" lon="120.663025"/>
<trkpt lat="24.135066" lon="120.663025"/>
<trkpt lat="24.135066" lon="120.663038"/>
<trkpt lat="24.135066" lon="120.663076"/>
<trkpt lat="24.135064" lon="120.663140"/>
<trkpt lat="24.135065" lon="120.663153"/>
<trkpt lat="24.135075" lon="120.663153"/>
<trkpt lat="24.135147" lon="120.663151"/>
<trkpt lat="24.135146" lon="120.663397"/>
<trkpt lat="24.135145" lon="120.663543"/>
<trkpt lat="24.135143" lon="120.663802"/>
<trkpt lat="24.135077" lon="120.663803"/>
<trkpt lat="24.135073" lon="120.663858"/>
<trkpt lat="24.135070" lon="120.663940"/>
<trkpt lat="24.135071" lon="120.663958"/>
<trkpt lat="24.135071" lon="120.663979"/>
<trkpt lat="24.135071" lon="120.664013"/>
<trkpt lat="24.135072" lon="120.664045"/>
<trkpt lat="24.135075" lon="120.664060"/>
<trkpt lat="24.135082" lon="120.664094"/>
<trkpt lat="24.135081" lon="120.664154"/>
<trkpt lat="24.135080" lon="120.664229"/>
<trkpt lat="24.135143" lon="120.664229"/>
<trkpt lat="24.135147" lon="120.664804"/>
<trkpt lat="24.135143" lon="120.665184"/>
<trkpt lat="24.135140" lon="120.665481"/>
<trkpt lat="24.135138" lon="120.665494"/>
<trkpt lat="24.135184" lon="120.665503"/>
<trkpt lat="24.135281" lon="120.665644"/>
<trkpt lat="24.135866" lon="120.665652"/>
<trkpt lat="24.136464" lon="120.665661"/>
<trkpt lat="24.136462" lon="120.665761"/>
<trkpt lat="24.136460" lon="120.665918"/>
<trkpt lat="24.136550" lon="120.665919"/>
<trkpt lat="24.136551" lon="120.666514"/>
<trkpt lat="24.137273" lon="120.666515"/>
<trkpt lat="24.137823" lon="120.666515"/>
<trkpt lat="24.137966" lon="120.666508"/>
<trkpt lat="24.137955" lon="120.666390"/>
<trkpt lat="24.137958" lon="120.665760"/>
<trkpt lat="24.137958" lon="120.665658"/>
<trkpt lat="24.137958" lon="120.665055"/>
<trkpt lat="24.138620" lon="120.665056"/>
<trkpt lat="24.138620" lon="120.664888"/>
<trkpt lat="24.138621" lon="120.664158"/>
<trkpt lat="24.138876" lon="120.664159"/>
<trkpt lat="24.139272" lon="120.664162"/>
<trkpt lat="24.139272" lon="120.663867"/>
<trkpt lat="24.139270" lon="120.663107"/>
<trkpt lat="24.138879" lon="120.663107"/>
<trkpt lat="24.138515" lon="120.663107"/>
<trkpt lat="24.138029" lon="120.663106"/>
<trkpt lat="24.138030" lon="120.663039"/>
<trkpt lat="24.137961" lon="120.663038"/>
<trkpt lat="24.137906" lon="120.663039"/>
<trkpt lat="24.137888" lon="120.663042"/>
<trkpt lat="24.137884" lon="120.663039"/>
<trkpt lat="24.137904" lon="120.663019"/>
<trkpt lat="24.137904" lon="120.663003"/>
<trkpt lat="24.137904" lon="120.662864"/>
<trkpt lat="24.137904" lon="120.662752"/>
<trkpt lat="24.137863" lon="120.662706"/>
<trkpt lat="24.137871" lon="120.662686"/>
<trkpt lat="24.137873" lon="120.662616"/>
<trkpt lat="24.137874" lon="120.662564"/>
<trkpt lat="24.137962" lon="120.662565"/>
<trkpt lat="24.137961" lon="120.662186"/>
<trkpt lat="24.137962" lon="120.661798"/>
<trkpt lat="24.138050" lon="120.661800"/>
<trkpt lat="24.138051" lon="120.661693"/>
<trkpt lat="24.138337" lon="120.661693"/>
<trkpt lat="24.138425" lon="120.661693"/>
<trkpt lat="24.138846" lon="120.661693"/>
<trkpt lat="24.138962" lon="120.661693"/>
</trkseg></trk>
</gpx>