<?xml version="1.0" encoding="UTF-8"?>
<gpx version="1.1" creator="catrun" xmlns="http://www.topografix.com/GPX/1/1">
<metadata><name>南區 貓咪肉球 圖形路跑路線</name></metadata>
<wpt lat="24.132517" lon="120.669804"><name>公館公園</name><desc>地標</desc></wpt>
<wpt lat="24.133179" lon="120.674547"><name>臺中刑務所典獄官舍</name><desc>地標</desc></wpt>
<wpt lat="24.131546" lon="120.677446"><name>林氏宗祠</name><desc>地標</desc></wpt>
<trk><name>南區 貓咪肉球 圖形路跑路線</name><trkseg>
<trkpt lat="24.133764" lon="120.669653"/>
<trkpt lat="24.133467" lon="120.669347"/>
<trkpt lat="24.133040" lon="120.669839"/>
<trkpt lat="24.132512" lon="120.670445"/>
<trkpt lat="24.132275" lon="120.670424"/>
<trkpt lat="24.132232" lon="120.671189"/>
<trkpt lat="24.132185" lon="120.671156"/>
<trkpt lat="24.131878" lon="120.671131"/>
<trkpt lat="24.131793" lon="120.672263"/>
<trkpt lat="24.131786" lon="120.672381"/>
<trkpt lat="24.131790" lon="120.672465"/>
<trkpt lat="24.131794" lon="120.672537"/>
<trkpt lat="24.131794" lon="120.672598"/>
<trkpt lat="24.131749" lon="120.672646"/>
<trkpt lat="24.131672" lon="120.672702"/>
<trkpt lat="24.131605" lon="120.672748"/>
<trkpt lat="24.131546" lon="120.672783"/>
<trkpt lat="24.131268" lon="120.672922"/>
<trkpt lat="24.131499" lon="120.673513"/>
<trkpt lat="24.131721" lon="120.674035"/>
<trkpt lat="24.131573" lon="120.674111"/>
<trkpt lat="24.131818" lon="120.674708"/>
<trkpt lat="24.132019" lon="120.675193"/>
<trkpt lat="24.131754" lon="120.675325"/>
<trkpt lat="24.131965" lon="120.675820"/>
<trkpt lat="24.132176" lon="120.676322"/>
<trkpt lat="24.131885" lon="120.676462"/>
<trkpt lat="24.131937" lon="120.676576"/>
<trkpt lat="24.131982" lon="120.676673"/>
<trkpt lat="24.132325" lon="120.676491"/>
<trkpt lat="24.132711" lon="120.677413"/>
<trkpt lat="24.132680" lon="120.677427"/>
<trkpt lat="24.132894" lon="120.677944"/>
<trkpt lat="24.133284" lon="120.677743"/>
<trkpt lat="24.133487" lon="120.678285"/>
<trkpt lat="24.133788" lon="120.678810"/>
<trkpt lat="24.133994" lon="120.679189"/>
<trkpt lat="24.134032" lon="120.679281"/>
<trkpt lat="24.134331" lon="120.680022"/>
<trkpt lat="24.134476" lon="120.680347"/>
<trkpt lat="24.134859" lon="120.680158"/>
<trkpt lat="24.134943" lon="120.680087"/>
<trkpt lat="24.135150" lon="120.679880"/>
<trkpt lat="24.135404" lon="120.679595"/>
<trkpt lat="24.135722" lon="120.679239"/>
<trkpt lat="24.136112" lon="120.679645"/>
<trkpt lat="24.136436" lon="120.679984"/>
<trkpt lat="24.136782" lon="120.679578"/>
<trkpt lat="24.137077" lon="120.679244"/>
<trkpt lat="24.137149" lon="120.679162"/>
<trkpt lat="24.137453" lon="120.679478"/>
<trkpt lat="24.137801" lon="120.679838"/>
<trkpt lat="24.137859" lon="120.679770"/>
<trkpt lat="24.137919" lon="120.679762"/>
<trkpt lat="24.137999" lon="120.679844"/>
<trkpt lat="24.138273" lon="120.679522"/>
<trkpt lat="24.138374" lon="120.679397"/>
<trkpt lat="24.138448" lon="120.679311"/>
<trkpt lat="24.138499" lon="120.679252"/>
<trkpt lat="24.138540" lon="120.679207"/>
<trkpt lat="24.138625" lon="120.679293"/>
<trkpt lat="24.138640" lon="120.679293"/>
<trkpt lat="24.138700" lon="120.679223"/>
<trkpt lat="24.138935" lon="120.679464"/>
<trkpt lat="24.139349" lon="120.679888"/>
<trkpt lat="24.139694" lon="120.679486"/>
<trkpt lat="24.140022" lon="120.679132"/>
<trkpt lat="24.140743" lon="120.679866"/>
<trkpt lat="24.141022" lon="120.679533"/>
<trkpt lat="24.141244" lon="120.679813"/>
<trkpt lat="24.141352" lon="120.679972"/>
<trkpt lat="24.141581" lon="120.679721"/>
<trkpt lat="24.142050" lon="120.679175"/>
<trkpt lat="24.142109" lon="120.679083"/>
<trkpt lat="24.142198" lon="120.678993"/>
<trkpt lat="24.141934" lon="120.678720"/>
<trkpt lat="24.141979" lon="120.678672"/>
<trkpt lat="24.142321" lon="120.678303"/>
<trkpt lat="24.142519" lon="120.678521"/>
<trkpt lat="24.142538" lon="120.678541"/>
<trkpt lat="24.142631" lon="120.678422"/>
<trkpt lat="24.142635" lon="120.678397"/>
<trkpt lat="24.142303" lon="120.678055"/>
<trkpt lat="24.142496" lon="120.677832"/>
<trkpt lat="24.142704" lon="120.677587"/>
<trkpt lat="24.142631" lon="120.677552"/>
<trkpt lat="24.142678" lon="120.677490"/>
<trkpt lat="24.142592" lon="120.677440"/>
<trkpt lat="24.142312" lon="120.677272"/>
<trkpt lat="24.142060" lon="120.677058"/>
<trkpt lat="24.142008" lon="120.677007"/>
<trkpt lat="24.142067" lon="120.676931"/>
<trkpt lat="24.142001" lon="120.676856"/>
<trkpt lat="24.141952" lon="120.676799"/>
<trkpt lat="24.141931" lon="120.676817"/>
<trkpt lat="24.141916" lon="120.676816"/>
<trkpt lat="24.141873" lon="120.676864"/>
<trkpt lat="24.141602" lon="120.676548"/>
<trkpt lat="24.141506" lon="120.676394"/>
<trkpt lat="24.141479" lon="120.676346"/>
<trkpt lat="24.141369" lon="120.676141"/>
<trkpt lat="24.141441" lon="120.676059"/>
<trkpt lat="24.141666" lon="120.676485"/>
<trkpt lat="24.141916" lon="120.676816"/>
<trkpt lat="24.141931" lon="120.676817"/>
<trkpt lat="24.141952" lon="120.676799"/>
<trkpt lat="24.141971" lon="120.676776"/>
<trkpt lat="24.142154" lon="120.676564"/>
<trkpt lat="24.142175" lon="120.676532"/>
<trkpt lat="24.142196" lon="120.676485"/>
<trkpt lat="24.142231" lon="120.676446"/>
<trkpt lat="24.142286" lon="120.676387"/>
<trkpt lat="24.142346" lon="120.676451"/>
<trkpt lat="24.142878" lon="120.675839"/>
<trkpt lat="24.143201" lon="120.675473"/>
<trkpt lat="24.143549" lon="120.675060"/>
<trkpt lat="24.143813" lon="120.674766"/>
<trkpt lat="24.144023" lon="120.674517"/>
<trkpt lat="24.143671" lon="120.674169"/>
<trkpt lat="24.143364" lon="120.673857"/>
<trkpt lat="24.143270" lon="120.673760"/>
<trkpt lat="24.143346" lon="120.673673"/>
<trkpt lat="24.143362" lon="120.673654"/>
<trkpt lat="24.143050" lon="120.673316"/>
<trkpt lat="24.142622" lon="120.672858"/>
<trkpt lat="24.142392" lon="120.673118"/>
<trkpt lat="24.141673" lon="120.672370"/>
<trkpt lat="24.141836" lon="120.672188"/>
<trkpt lat="24.142050" lon="120.671951"/>
<trkpt lat="24.142121" lon="120.672026"/>
<trkpt lat="24.142305" lon="120.672210"/>
<trkpt lat="24.142324" lon="120.672251"/>
<trkpt lat="24.142354" lon="120.672283"/>
<trkpt lat="24.142391" lon="120.672303"/>
<trkpt lat="24.142432" lon="120.672310"/>
<trkpt lat="24.142473" lon="120.672303"/>
<trkpt lat="24.142510" lon="120.672281"/>
<trkpt lat="24.142539" lon="120.672249"/>
<trkpt lat="24.142558" lon="120.672207"/>
<trkpt lat="24.142563" lon="120.672162"/>
<trkpt lat="24.142601" lon="120.672160"/>
<trkpt lat="24.142591" lon="120.671839"/>
<trkpt lat="24.142566" lon="120.671803"/>
<trkpt lat="24.142487" lon="120.671805"/>
<trkpt lat="24.142484" lon="120.671701"/>
<trkpt lat="24.142455" lon="120.671661"/>
<trkpt lat="24.142282" lon="120.671850"/>
<trkpt lat="24.142235" lon="120.671901"/>
<trkpt lat="24.142121" lon="120.672026"/>
<trkpt lat="24.142050" lon="120.671951"/>
<trkpt lat="24.142167" lon="120.671821"/>
<trkpt lat="24.142614" lon="120.671326"/>
<trkpt lat="24.143048" lon="120.670826"/>
<trkpt lat="24.142738" lon="120.670502"/>
<trkpt lat="24.142483" lon="120.670231"/>
<trkpt lat="24.142328" lon="120.670073"/>
<trkpt lat="24.142208" lon="120.669950"/>
<trkpt lat="24.142071" lon="120.669809"/>
<trkpt lat="24.141931" lon="120.669665"/>
<trkpt lat="24.141866" lon="120.669598"/>
<trkpt lat="24.141617" lon="120.669341"/>
<trkpt lat="24.141255" lon="120.668969"/>
<trkpt lat="24.141038" lon="120.669213"/>
<trkpt lat="24.140816" lon="120.669469"/>
<trkpt lat="24.140450" lon="120.669091"/>
<trkpt lat="24.140015" lon="120.669592"/>
<trkpt lat="24.139596" lon="120.670055"/>
<trkpt lat="24.139557" lon="120.670013"/>
<trkpt lat="24.139500" lon="120.670077"/>
<trkpt lat="24.139458" lon="120.670124"/>
<trkpt lat="24.139452" lon="120.670113"/>
<trkpt lat="24.139422" lon="120.670096"/>
<trkpt lat="24.139405" lon="120.670098"/>
<trkpt lat="24.139327" lon="120.670015"/>
<trkpt lat="24.139229" lon="120.669920"/>
<trkpt lat="24.139206" lon="120.669879"/>
<trkpt lat="24.139184" lon="120.669836"/>
<trkpt lat="24.139130" lon="120.669779"/>
<trkpt lat="24.139036" lon="120.669743"/>
<trkpt lat="24.139002" lon="120.669690"/>
<trkpt lat="24.138942" lon="120.669618"/>
<trkpt lat="24.138876" lon="120.669541"/>
<trkpt lat="24.138848" lon="120.669541"/>
<trkpt lat="24.138829" lon="120.669535"/>
<trkpt lat="24.138816" lon="120.669550"/>
<trkpt lat="24.138784" lon="120.669586"/>
<trkpt lat="24.138594" lon="120.669803"/>
<trkpt lat="24.138585" lon="120.669872"/>
<trkpt lat="24.138555" lon="120.669911"/>
<trkpt lat="24.138821" lon="120.670188"/>
<trkpt lat="24.139181" lon="120.670573"/>
<trkpt lat="24.139254" lon="120.670486"/>
<trkpt lat="24.139284" lon="120.670452"/>
<trkpt lat="24.139459" lon="120.670223"/>
<trkpt lat="24.139501" lon="120.670169"/>
<trkpt lat="24.139458" lon="120.670124"/>
<trkpt lat="24.139500" lon="120.670077"/>
<trkpt lat="24.139557" lon="120.670013"/>
<trkpt lat="24.139596" lon="120.670055"/>
<trkpt lat="24.140015" lon="120.669592"/>
<trkpt lat="24.139679" lon="120.669246"/>
<trkpt lat="24.140111" lon="120.668742"/>
<trkpt lat="24.139815" lon="120.668437"/>
<trkpt lat="24.139859" lon="120.668381"/>
<trkpt lat="24.139764" lon="120.668282"/>
<trkpt lat="24.139666" lon="120.668179"/>
<trkpt lat="24.139618" lon="120.668234"/>
<trkpt lat="24.139172" lon="120.667775"/>
<trkpt lat="24.139073" lon="120.667673"/>
<trkpt lat="24.138833" lon="120.667424"/>
<trkpt lat="24.138310" lon="120.666877"/>
<trkpt lat="24.137966" lon="120.666508"/>
<trkpt lat="24.137523" lon="120.667017"/>
<trkpt lat="24.137342" lon="120.667235"/>
<trkpt lat="24.137292" lon="120.667295"/>
<trkpt lat="24.137037" lon="120.667583"/>
<trkpt lat="24.136666" lon="120.667215"/>
<trkpt lat="24.136605" lon="120.667287"/>
<trkpt lat="24.136581" lon="120.667268"/>
<trkpt lat="24.136573" lon="120.667273"/>
<trkpt lat="24.136563" lon="120.667280"/>
<trkpt lat="24.136377" lon="120.667498"/>
<trkpt lat="24.136369" lon="120.667515"/>
<trkpt lat="24.136373" lon="120.667532"/>
<trkpt lat="24.136304" lon="120.667455"/>
<trkpt lat="24.136250" lon="120.667520"/>
<trkpt lat="24.135766" lon="120.668072"/>
<trkpt lat="24.135312" lon="120.668588"/>
<trkpt lat="24.135003" lon="120.668945"/>
<trkpt lat="24.134489" lon="120.669532"/>
<trkpt lat="24.134165" lon="120.669194"/>
<trkpt lat="24.133764" lon="120.669653"/>
</trkseg></trk>
</gpx>