<?xml version="1.0" encoding="UTF-8"?>
<gpx version="1.1" creator="catrun" xmlns="http://www.topografix.com/GPX/1/1">
<metadata><name>太平區 手繪蹲坐貓（原稿描圖） 圖形路跑路線</name></metadata>
<wpt lat="24.149685" lon="120.719679"><name>新坪公園</name><desc>地標</desc></wpt>
<wpt lat="24.148551" lon="120.722530"><name>八德公園</name><desc>地標</desc></wpt>
<wpt lat="24.149858" lon="120.723091"><name>吉祥公園</name><desc>地標</desc></wpt>
<trk><name>太平區 手繪蹲坐貓（原稿描圖） 圖形路跑路線</name><trkseg>
<trkpt lat="24.144902" lon="120.717856"/>
<trkpt lat="24.144992" lon="120.717909"/>
<trkpt lat="24.145210" lon="120.718014"/>
<trkpt lat="24.145204" lon="120.716525"/>
<trkpt lat="24.145578" lon="120.716514"/>
<trkpt lat="24.145943" lon="120.716525"/>
<trkpt lat="24.146390" lon="120.716513"/>
<trkpt lat="24.146401" lon="120.717583"/>
<trkpt lat="24.146762" lon="120.717597"/>
<trkpt lat="24.146754" lon="120.717973"/>
<trkpt lat="24.147230" lon="120.718294"/>
<trkpt lat="24.147304" lon="120.718291"/>
<trkpt lat="24.147370" lon="120.718211"/>
<trkpt lat="24.148110" lon="120.718229"/>
<trkpt lat="24.148114" lon="120.718698"/>
<trkpt lat="24.148881" lon="120.718684"/>
<trkpt lat="24.148911" lon="120.718897"/>
<trkpt lat="24.149016" lon="120.718923"/>
<trkpt lat="24.149125" lon="120.719017"/>
<trkpt lat="24.149221" lon="120.719110"/>
<trkpt lat="24.149284" lon="120.719161"/>
<trkpt lat="24.149347" lon="120.719211"/>
<trkpt lat="24.149541" lon="120.719386"/>
<trkpt lat="24.149896" lon="120.719696"/>
<trkpt lat="24.150141" lon="120.719355"/>
<trkpt lat="24.150282" lon="120.719196"/>
<trkpt lat="24.149763" lon="120.718679"/>
<trkpt lat="24.149660" lon="120.718609"/>
<trkpt lat="24.149669" lon="120.718486"/>
<trkpt lat="24.149664" lon="120.718231"/>
<trkpt lat="24.150067" lon="120.718212"/>
<trkpt lat="24.150428" lon="120.718208"/>
<trkpt lat="24.150623" lon="120.718206"/>
<trkpt lat="24.150712" lon="120.718199"/>
<trkpt lat="24.151216" lon="120.718064"/>
<trkpt lat="24.151313" lon="120.717866"/>
<trkpt lat="24.151309" lon="120.717849"/>
<trkpt lat="24.151148" lon="120.717289"/>
<trkpt lat="24.151157" lon="120.717234"/>
<trkpt lat="24.151362" lon="120.716827"/>
<trkpt lat="24.152590" lon="120.717597"/>
<trkpt lat="24.153780" lon="120.718360"/>
<trkpt lat="24.153558" lon="120.718786"/>
<trkpt lat="24.153154" lon="120.718552"/>
<trkpt lat="24.152750" lon="120.718306"/>
<trkpt lat="24.152409" lon="120.718100"/>
<trkpt lat="24.152354" lon="120.718115"/>
<trkpt lat="24.151939" lon="120.719062"/>
<trkpt lat="24.152041" lon="120.719568"/>
<trkpt lat="24.152231" lon="120.719619"/>
<trkpt lat="24.152478" lon="120.719737"/>
<trkpt lat="24.152628" lon="120.719807"/>
<trkpt lat="24.152736" lon="120.719858"/>
<trkpt lat="24.153062" lon="120.719990"/>
<trkpt lat="24.152891" lon="120.720398"/>
<trkpt lat="24.152731" lon="120.720633"/>
<trkpt lat="24.152583" lon="120.720899"/>
<trkpt lat="24.152413" lon="120.721070"/>
<trkpt lat="24.152394" lon="120.721064"/>
<trkpt lat="24.152016" lon="120.721062"/>
<trkpt lat="24.151465" lon="120.721120"/>
<trkpt lat="24.151078" lon="120.721167"/>
<trkpt lat="24.150471" lon="120.721206"/>
<trkpt lat="24.150441" lon="120.721385"/>
<trkpt lat="24.150447" lon="120.721465"/>
<trkpt lat="24.150452" lon="120.721529"/>
<trkpt lat="24.150478" lon="120.721866"/>
<trkpt lat="24.150028" lon="120.721910"/>
<trkpt lat="24.149892" lon="120.721933"/>
<trkpt lat="24.149943" lon="120.722342"/>
<trkpt lat="24.149599" lon="120.722392"/>
<trkpt lat="24.149338" lon="120.722431"/>
<trkpt lat="24.149395" lon="120.722805"/>
<trkpt lat="24.149425" lon="120.723076"/>
<trkpt lat="24.149297" lon="120.723035"/>
<trkpt lat="24.149293" lon="120.723049"/>
<trkpt lat="24.149312" lon="120.723180"/>
<trkpt lat="24.149328" lon="120.723284"/>
<trkpt lat="24.149338" lon="120.723357"/>
<trkpt lat="24.149359" lon="120.723371"/>
<trkpt lat="24.149373" lon="120.723396"/>
<trkpt lat="24.149393" lon="120.723428"/>
<trkpt lat="24.149407" lon="120.723490"/>
<trkpt lat="24.149535" lon="120.724434"/>
<trkpt lat="24.149507" lon="120.724459"/>
<trkpt lat="24.149477" lon="120.724479"/>
<trkpt lat="24.149487" lon="120.724544"/>
<trkpt lat="24.149632" lon="120.724587"/>
<trkpt lat="24.149650" lon="120.724750"/>
<trkpt lat="24.149658" lon="120.724812"/>
<trkpt lat="24.149309" lon="120.724802"/>
<trkpt lat="24.149003" lon="120.724706"/>
<trkpt lat="24.148682" lon="120.724585"/>
<trkpt lat="24.148511" lon="120.724512"/>
<trkpt lat="24.148361" lon="120.724450"/>
<trkpt lat="24.148157" lon="120.724377"/>
<trkpt lat="24.148012" lon="120.724314"/>
<trkpt lat="24.147753" lon="120.724242"/>
<trkpt lat="24.147554" lon="120.724201"/>
<trkpt lat="24.147317" lon="120.724181"/>
<trkpt lat="24.146781" lon="120.724168"/>
<trkpt lat="24.146105" lon="120.724019"/>
<trkpt lat="24.144937" lon="120.723701"/>
<trkpt lat="24.144928" lon="120.723786"/>
<trkpt lat="24.144902" lon="120.723955"/>
<trkpt lat="24.144890" lon="120.724029"/>
<trkpt lat="24.144127" lon="120.723775"/>
<trkpt lat="24.144101" lon="120.723947"/>
<trkpt lat="24.144031" lon="120.724346"/>
<trkpt lat="24.143892" lon="120.725135"/>
<trkpt lat="24.143775" lon="120.725802"/>
<trkpt lat="24.143617" lon="120.725780"/>
<trkpt lat="24.143460" lon="120.726715"/>
<trkpt lat="24.143321" lon="120.727548"/>
<trkpt lat="24.143677" lon="120.727541"/>
<trkpt lat="24.143810" lon="120.726789"/>
<trkpt lat="24.143972" lon="120.725859"/>
<trkpt lat="24.144079" lon="120.725872"/>
<trkpt lat="24.144196" lon="120.725193"/>
<trkpt lat="24.143892" lon="120.725135"/>
<trkpt lat="24.143570" lon="120.725061"/>
<trkpt lat="24.143256" lon="120.725007"/>
<trkpt lat="24.142940" lon="120.724954"/>
<trkpt lat="24.142601" lon="120.724881"/>
<trkpt lat="24.142280" lon="120.724811"/>
<trkpt lat="24.142178" lon="120.725490"/>
<trkpt lat="24.142486" lon="120.725552"/>
<trkpt lat="24.142829" lon="120.725617"/>
<trkpt lat="24.142940" lon="120.724954"/>
<trkpt lat="24.143066" lon="120.724170"/>
<trkpt lat="24.143401" lon="120.724235"/>
<trkpt lat="24.143503" lon="120.723547"/>
<trkpt lat="24.143199" lon="120.723439"/>
<trkpt lat="24.142875" lon="120.723326"/>
<trkpt lat="24.142583" lon="120.723221"/>
<trkpt lat="24.142226" lon="120.723105"/>
<trkpt lat="24.142342" lon="120.722633"/>
<trkpt lat="24.142361" lon="120.722555"/>
<trkpt lat="24.142539" lon="120.722605"/>
<trkpt lat="24.142554" lon="120.722547"/>
<trkpt lat="24.142523" lon="120.722540"/>
<trkpt lat="24.142483" lon="120.722523"/>
<trkpt lat="24.142472" lon="120.722486"/>
<trkpt lat="24.142466" lon="120.722448"/>
<trkpt lat="24.142657" lon="120.721649"/>
<trkpt lat="24.142679" lon="120.721571"/>
<trkpt lat="24.142703" lon="120.721550"/>
<trkpt lat="24.142710" lon="120.721544"/>
<trkpt lat="24.142744" lon="120.721521"/>
<trkpt lat="24.142774" lon="120.721517"/>
<trkpt lat="24.142823" lon="120.721532"/>
<trkpt lat="24.142896" lon="120.721553"/>
<trkpt lat="24.143353" lon="120.721677"/>
<trkpt lat="24.143701" lon="120.721786"/>
<trkpt lat="24.144045" lon="120.721887"/>
<trkpt lat="24.144060" lon="120.721820"/>
<trkpt lat="24.144085" lon="120.721709"/>
<trkpt lat="24.144107" lon="120.721614"/>
<trkpt lat="24.144123" lon="120.721623"/>
<trkpt lat="24.144179" lon="120.721637"/>
<trkpt lat="24.144343" lon="120.720958"/>
<trkpt lat="24.144630" lon="120.719763"/>
<trkpt lat="24.145640" lon="120.720097"/>
<trkpt lat="24.145718" lon="120.719703"/>
<trkpt lat="24.145817" lon="120.719238"/>
<trkpt lat="24.145637" lon="120.719216"/>
<trkpt lat="24.145463" lon="120.719146"/>
<trkpt lat="24.145113" lon="120.718839"/>
<trkpt lat="24.144276" lon="120.718159"/>
<trkpt lat="24.143793" lon="120.717768"/>
<trkpt lat="24.143601" lon="120.717612"/>
<trkpt lat="24.143554" lon="120.717573"/>
<trkpt lat="24.143544" lon="120.717403"/>
<trkpt lat="24.143526" lon="120.716922"/>
<trkpt lat="24.143477" lon="120.716531"/>
<trkpt lat="24.143592" lon="120.716532"/>
<trkpt lat="24.143778" lon="120.716534"/>
<trkpt lat="24.144123" lon="120.716525"/>
<trkpt lat="24.144478" lon="120.716514"/>
<trkpt lat="24.144847" lon="120.716520"/>
<trkpt lat="24.145204" lon="120.716525"/>
<trkpt lat="24.145210" lon="120.718014"/>
<trkpt lat="24.144992" lon="120.717909"/>
<trkpt lat="24.144902" lon="120.717856"/>
</trkseg></trk>
</gpx>