<?xml version="1.0" encoding="UTF-8"?>
<gpx version="1.1" creator="catrun" xmlns="http://www.topografix.com/GPX/1/1">
<metadata><name>潭子區 手繪蹲坐貓（原稿描圖） 圖形路跑路線</name></metadata>
<wpt lat="24.191508" lon="120.678565"><name>仁德公園</name><desc>地標</desc></wpt>
<wpt lat="24.195459" lon="120.681427"><name>四張犁公園</name><desc>地標</desc></wpt>
<wpt lat="24.193915" lon="120.683971"><name>陸光公園</name><desc>地標</desc></wpt>
<trk><name>潭子區 手繪蹲坐貓（原稿描圖） 圖形路跑路線</name><trkseg>
<trkpt lat="24.188607" lon="120.677984"/>
<trkpt lat="24.188571" lon="120.677932"/>
<trkpt lat="24.188511" lon="120.677850"/>
<trkpt lat="24.188199" lon="120.677388"/>
<trkpt lat="24.188188" lon="120.677352"/>
<trkpt lat="24.188212" lon="120.677327"/>
<trkpt lat="24.188595" lon="120.677016"/>
<trkpt lat="24.188618" lon="120.677013"/>
<trkpt lat="24.188696" lon="120.676954"/>
<trkpt lat="24.188769" lon="120.676886"/>
<trkpt lat="24.188795" lon="120.676846"/>
<trkpt lat="24.189241" lon="120.676479"/>
<trkpt lat="24.189267" lon="120.676464"/>
<trkpt lat="24.189313" lon="120.676427"/>
<trkpt lat="24.189355" lon="120.676394"/>
<trkpt lat="24.189361" lon="120.676435"/>
<trkpt lat="24.189686" lon="120.676973"/>
<trkpt lat="24.189705" lon="120.676982"/>
<trkpt lat="24.189729" lon="120.677021"/>
<trkpt lat="24.189751" lon="120.677055"/>
<trkpt lat="24.189764" lon="120.677091"/>
<trkpt lat="24.190092" lon="120.677607"/>
<trkpt lat="24.190120" lon="120.677616"/>
<trkpt lat="24.190155" lon="120.677602"/>
<trkpt lat="24.191036" lon="120.676752"/>
<trkpt lat="24.191079" lon="120.676716"/>
<trkpt lat="24.191124" lon="120.676672"/>
<trkpt lat="24.191184" lon="120.676725"/>
<trkpt lat="24.191222" lon="120.676758"/>
<trkpt lat="24.191672" lon="120.676322"/>
<trkpt lat="24.191717" lon="120.676310"/>
<trkpt lat="24.191737" lon="120.676334"/>
<trkpt lat="24.191946" lon="120.676761"/>
<trkpt lat="24.191961" lon="120.676864"/>
<trkpt lat="24.192083" lon="120.676754"/>
<trkpt lat="24.192173" lon="120.676683"/>
<trkpt lat="24.192234" lon="120.676637"/>
<trkpt lat="24.192370" lon="120.676544"/>
<trkpt lat="24.192772" lon="120.676362"/>
<trkpt lat="24.193050" lon="120.676279"/>
<trkpt lat="24.193244" lon="120.676248"/>
<trkpt lat="24.193256" lon="120.676365"/>
<trkpt lat="24.193267" lon="120.676469"/>
<trkpt lat="24.193361" lon="120.676443"/>
<trkpt lat="24.193395" lon="120.677197"/>
<trkpt lat="24.193379" lon="120.677571"/>
<trkpt lat="24.193316" lon="120.677949"/>
<trkpt lat="24.193284" lon="120.678162"/>
<trkpt lat="24.193371" lon="120.678179"/>
<trkpt lat="24.193350" lon="120.678276"/>
<trkpt lat="24.194225" lon="120.678262"/>
<trkpt lat="24.194839" lon="120.678258"/>
<trkpt lat="24.194856" lon="120.678173"/>
<trkpt lat="24.194878" lon="120.678162"/>
<trkpt lat="24.194902" lon="120.678113"/>
<trkpt lat="24.194975" lon="120.678130"/>
<trkpt lat="24.195063" lon="120.678146"/>
<trkpt lat="24.195098" lon="120.678157"/>
<trkpt lat="24.195120" lon="120.678165"/>
<trkpt lat="24.195894" lon="120.678153"/>
<trkpt lat="24.195964" lon="120.678155"/>
<trkpt lat="24.196034" lon="120.678157"/>
<trkpt lat="24.196512" lon="120.678146"/>
<trkpt lat="24.196531" lon="120.678140"/>
<trkpt lat="24.196550" lon="120.678112"/>
<trkpt lat="24.196558" lon="120.676992"/>
<trkpt lat="24.196559" lon="120.676904"/>
<trkpt lat="24.196561" lon="120.676813"/>
<trkpt lat="24.196562" lon="120.676300"/>
<trkpt lat="24.196541" lon="120.676254"/>
<trkpt lat="24.196539" lon="120.676141"/>
<trkpt lat="24.196538" lon="120.676018"/>
<trkpt lat="24.196558" lon="120.675972"/>
<trkpt lat="24.196565" lon="120.675434"/>
<trkpt lat="24.196648" lon="120.675434"/>
<trkpt lat="24.196734" lon="120.675434"/>
<trkpt lat="24.196733" lon="120.675446"/>
<trkpt lat="24.196731" lon="120.675968"/>
<trkpt lat="24.196732" lon="120.675990"/>
<trkpt lat="24.196758" lon="120.676016"/>
<trkpt lat="24.197715" lon="120.676030"/>
<trkpt lat="24.197766" lon="120.676016"/>
<trkpt lat="24.197802" lon="120.675948"/>
<trkpt lat="24.197816" lon="120.674903"/>
<trkpt lat="24.197911" lon="120.674903"/>
<trkpt lat="24.198010" lon="120.674905"/>
<trkpt lat="24.198006" lon="120.675947"/>
<trkpt lat="24.198037" lon="120.676020"/>
<trkpt lat="24.198080" lon="120.676032"/>
<trkpt lat="24.199081" lon="120.676036"/>
<trkpt lat="24.199139" lon="120.676022"/>
<trkpt lat="24.199139" lon="120.676145"/>
<trkpt lat="24.199139" lon="120.676274"/>
<trkpt lat="24.199166" lon="120.676341"/>
<trkpt lat="24.199171" lon="120.676854"/>
<trkpt lat="24.199163" lon="120.676876"/>
<trkpt lat="24.199162" lon="120.676940"/>
<trkpt lat="24.199162" lon="120.676999"/>
<trkpt lat="24.199166" lon="120.677023"/>
<trkpt lat="24.199171" lon="120.677468"/>
<trkpt lat="24.199251" lon="120.677434"/>
<trkpt lat="24.199437" lon="120.677330"/>
<trkpt lat="24.199511" lon="120.677290"/>
<trkpt lat="24.199518" lon="120.677333"/>
<trkpt lat="24.199526" lon="120.677386"/>
<trkpt lat="24.200024" lon="120.677136"/>
<trkpt lat="24.200056" lon="120.677190"/>
<trkpt lat="24.200104" lon="120.677192"/>
<trkpt lat="24.200117" lon="120.679345"/>
<trkpt lat="24.200095" lon="120.679399"/>
<trkpt lat="24.200057" lon="120.679426"/>
<trkpt lat="24.199517" lon="120.679427"/>
<trkpt lat="24.199516" lon="120.679475"/>
<trkpt lat="24.199530" lon="120.679503"/>
<trkpt lat="24.199534" lon="120.680334"/>
<trkpt lat="24.199541" lon="120.680363"/>
<trkpt lat="24.199447" lon="120.680363"/>
<trkpt lat="24.199268" lon="120.680363"/>
<trkpt lat="24.199182" lon="120.680363"/>
<trkpt lat="24.199147" lon="120.680391"/>
<trkpt lat="24.198029" lon="120.680387"/>
<trkpt lat="24.197987" lon="120.680364"/>
<trkpt lat="24.197988" lon="120.680484"/>
<trkpt lat="24.197989" lon="120.680589"/>
<trkpt lat="24.197977" lon="120.680648"/>
<trkpt lat="24.197965" lon="120.681805"/>
<trkpt lat="24.197968" lon="120.681846"/>
<trkpt lat="24.197863" lon="120.681847"/>
<trkpt lat="24.197763" lon="120.681847"/>
<trkpt lat="24.197728" lon="120.681866"/>
<trkpt lat="24.196880" lon="120.681869"/>
<trkpt lat="24.196880" lon="120.681923"/>
<trkpt lat="24.196881" lon="120.681982"/>
<trkpt lat="24.196828" lon="120.681983"/>
<trkpt lat="24.196790" lon="120.681983"/>
<trkpt lat="24.196793" lon="120.682880"/>
<trkpt lat="24.196767" lon="120.682926"/>
<trkpt lat="24.196742" lon="120.683017"/>
<trkpt lat="24.196719" lon="120.683101"/>
<trkpt lat="24.196836" lon="120.683144"/>
<trkpt lat="24.197066" lon="120.683221"/>
<trkpt lat="24.197065" lon="120.683223"/>
<trkpt lat="24.197151" lon="120.683254"/>
<trkpt lat="24.197118" lon="120.683319"/>
<trkpt lat="24.196742" lon="120.683944"/>
<trkpt lat="24.196147" lon="120.684919"/>
<trkpt lat="24.195995" lon="120.684767"/>
<trkpt lat="24.195853" lon="120.684625"/>
<trkpt lat="24.195730" lon="120.684783"/>
<trkpt lat="24.195623" lon="120.684854"/>
<trkpt lat="24.195432" lon="120.684904"/>
<trkpt lat="24.194942" lon="120.685068"/>
<trkpt lat="24.194249" lon="120.685275"/>
<trkpt lat="24.193537" lon="120.685158"/>
<trkpt lat="24.193488" lon="120.685669"/>
<trkpt lat="24.193942" lon="120.685720"/>
<trkpt lat="24.193994" lon="120.685729"/>
<trkpt lat="24.194038" lon="120.685747"/>
<trkpt lat="24.194014" lon="120.686335"/>
<trkpt lat="24.193961" lon="120.686334"/>
<trkpt lat="24.193915" lon="120.686332"/>
<trkpt lat="24.193603" lon="120.686346"/>
<trkpt lat="24.193596" lon="120.686412"/>
<trkpt lat="24.193511" lon="120.686410"/>
<trkpt lat="24.193513" lon="120.686317"/>
<trkpt lat="24.193471" lon="120.686316"/>
<trkpt lat="24.193422" lon="120.686318"/>
<trkpt lat="24.192909" lon="120.686304"/>
<trkpt lat="24.192860" lon="120.686301"/>
<trkpt lat="24.192808" lon="120.686298"/>
<trkpt lat="24.192756" lon="120.686295"/>
<trkpt lat="24.192712" lon="120.686299"/>
<trkpt lat="24.191859" lon="120.686286"/>
<trkpt lat="24.191827" lon="120.686283"/>
<trkpt lat="24.191755" lon="120.686283"/>
<trkpt lat="24.191702" lon="120.686283"/>
<trkpt lat="24.190579" lon="120.686243"/>
<trkpt lat="24.190542" lon="120.686217"/>
<trkpt lat="24.190487" lon="120.686216"/>
<trkpt lat="24.190390" lon="120.686221"/>
<trkpt lat="24.190394" lon="120.686320"/>
<trkpt lat="24.190390" lon="120.686437"/>
<trkpt lat="24.190389" lon="120.686525"/>
<trkpt lat="24.190408" lon="120.686558"/>
<trkpt lat="24.190415" lon="120.686909"/>
<trkpt lat="24.190414" lon="120.686993"/>
<trkpt lat="24.190413" lon="120.687044"/>
<trkpt lat="24.190410" lon="120.687061"/>
<trkpt lat="24.190425" lon="120.687091"/>
<trkpt lat="24.190433" lon="120.687127"/>
<trkpt lat="24.190431" lon="120.687438"/>
<trkpt lat="24.190413" lon="120.687470"/>
<trkpt lat="24.190382" lon="120.687488"/>
<trkpt lat="24.189922" lon="120.687489"/>
<trkpt lat="24.189924" lon="120.687553"/>
<trkpt lat="24.189923" lon="120.687613"/>
<trkpt lat="24.189904" lon="120.687624"/>
<trkpt lat="24.189871" lon="120.687626"/>
<trkpt lat="24.189875" lon="120.688182"/>
<trkpt lat="24.189872" lon="120.688885"/>
<trkpt lat="24.189903" lon="120.688885"/>
<trkpt lat="24.189924" lon="120.688903"/>
<trkpt lat="24.189925" lon="120.688978"/>
<trkpt lat="24.190520" lon="120.688988"/>
<trkpt lat="24.190527" lon="120.689610"/>
<trkpt lat="24.190466" lon="120.689610"/>
<trkpt lat="24.190429" lon="120.689648"/>
<trkpt lat="24.190427" lon="120.689687"/>
<trkpt lat="24.190422" lon="120.689777"/>
<trkpt lat="24.190440" lon="120.689791"/>
<trkpt lat="24.190454" lon="120.690357"/>
<trkpt lat="24.190407" lon="120.690376"/>
<trkpt lat="24.190014" lon="120.690368"/>
<trkpt lat="24.189912" lon="120.690366"/>
<trkpt lat="24.189910" lon="120.690451"/>
<trkpt lat="24.189909" lon="120.690554"/>
<trkpt lat="24.189917" lon="120.690581"/>
<trkpt lat="24.189920" lon="120.692378"/>
<trkpt lat="24.189901" lon="120.692407"/>
<trkpt lat="24.189901" lon="120.692487"/>
<trkpt lat="24.189901" lon="120.692566"/>
<trkpt lat="24.189486" lon="120.692567"/>
<trkpt lat="24.189470" lon="120.692577"/>
<trkpt lat="24.189451" lon="120.692617"/>
<trkpt lat="24.189448" lon="120.693300"/>
<trkpt lat="24.189468" lon="120.693350"/>
<trkpt lat="24.189383" lon="120.693351"/>
<trkpt lat="24.189303" lon="120.693351"/>
<trkpt lat="24.189280" lon="120.693356"/>
<trkpt lat="24.188343" lon="120.693374"/>
<trkpt lat="24.188313" lon="120.693321"/>
<trkpt lat="24.188328" lon="120.692603"/>
<trkpt lat="24.188361" lon="120.692576"/>
<trkpt lat="24.188768" lon="120.692571"/>
<trkpt lat="24.188769" lon="120.692506"/>
<trkpt lat="24.188771" lon="120.692423"/>
<trkpt lat="24.188793" lon="120.692392"/>
<trkpt lat="24.188793" lon="120.692330"/>
<trkpt lat="24.188799" lon="120.690572"/>
<trkpt lat="24.188778" lon="120.690537"/>
<trkpt lat="24.188776" lon="120.690434"/>
<trkpt lat="24.188775" lon="120.690344"/>
<trkpt lat="24.188379" lon="120.690336"/>
<trkpt lat="24.188350" lon="120.690325"/>
<trkpt lat="24.188339" lon="120.690279"/>
<trkpt lat="24.188343" lon="120.689789"/>
<trkpt lat="24.188347" lon="120.689765"/>
<trkpt lat="24.188348" lon="120.689692"/>
<trkpt lat="24.188349" lon="120.689621"/>
<trkpt lat="24.188342" lon="120.689585"/>
<trkpt lat="24.188343" lon="120.689016"/>
<trkpt lat="24.188252" lon="120.689014"/>
<trkpt lat="24.188136" lon="120.689013"/>
<trkpt lat="24.188137" lon="120.688845"/>
<trkpt lat="24.188150" lon="120.688380"/>
<trkpt lat="24.188159" lon="120.687626"/>
<trkpt lat="24.188263" lon="120.687625"/>
<trkpt lat="24.188357" lon="120.687624"/>
<trkpt lat="24.188352" lon="120.687497"/>
<trkpt lat="24.188354" lon="120.687410"/>
<trkpt lat="24.188360" lon="120.686996"/>
<trkpt lat="24.188360" lon="120.686935"/>
<trkpt lat="24.188362" lon="120.686860"/>
<trkpt lat="24.188363" lon="120.686570"/>
<trkpt lat="24.188364" lon="120.686530"/>
<trkpt lat="24.188429" lon="120.686464"/>
<trkpt lat="24.188681" lon="120.686468"/>
<trkpt lat="24.188743" lon="120.686395"/>
<trkpt lat="24.188841" lon="120.686279"/>
<trkpt lat="24.188885" lon="120.686219"/>
<trkpt lat="24.188872" lon="120.686207"/>
<trkpt lat="24.188835" lon="120.686150"/>
<trkpt lat="24.188751" lon="120.686190"/>
<trkpt lat="24.188723" lon="120.685908"/>
<trkpt lat="24.188726" lon="120.685712"/>
<trkpt lat="24.188731" lon="120.685581"/>
<trkpt lat="24.188763" lon="120.684840"/>
<trkpt lat="24.188614" lon="120.684827"/>
<trkpt lat="24.188619" lon="120.684476"/>
<trkpt lat="24.188634" lon="120.683368"/>
<trkpt lat="24.188665" lon="120.682158"/>
<trkpt lat="24.188780" lon="120.681776"/>
<trkpt lat="24.188812" lon="120.681512"/>
<trkpt lat="24.188851" lon="120.681346"/>
<trkpt lat="24.188650" lon="120.681228"/>
<trkpt lat="24.188527" lon="120.681172"/>
<trkpt lat="24.188548" lon="120.681115"/>
<trkpt lat="24.188439" lon="120.681051"/>
<trkpt lat="24.188366" lon="120.681022"/>
<trkpt lat="24.188466" lon="120.680803"/>
<trkpt lat="24.188798" lon="120.680165"/>
<trkpt lat="24.188871" lon="120.680077"/>
<trkpt lat="24.188956" lon="120.679949"/>
<trkpt lat="24.189392" lon="120.679418"/>
<trkpt lat="24.189909" lon="120.678840"/>
<trkpt lat="24.189895" lon="120.678793"/>
<trkpt lat="24.189607" lon="120.678371"/>
<trkpt lat="24.189575" lon="120.678352"/>
<trkpt lat="24.189535" lon="120.678376"/>
<trkpt lat="24.189200" lon="120.678768"/>
<trkpt lat="24.189173" lon="120.678736"/>
<trkpt lat="24.189138" lon="120.678695"/>
<trkpt lat="24.189112" lon="120.678697"/>
<trkpt lat="24.189090" lon="120.678684"/>
<trkpt lat="24.188607" lon="120.677984"/>
</trkseg></trk>
</gpx>