<?xml version="1.0" encoding="UTF-8"?>
<gpx version="1.1" creator="catrun" xmlns="http://www.topografix.com/GPX/1/1">
<metadata><name>外埔區 手繪蹲坐貓（原稿描圖） 圖形路跑路線</name></metadata>
<wpt lat="24.344348" lon="120.621840"><name>林氏貞節牌坊</name><desc>地標</desc></wpt>
<wpt lat="24.344414" lon="120.621787"><name>林氏貞節牌坊</name><desc>地標</desc></wpt>
<wpt lat="24.345367" lon="120.623179"><name>石獅</name><desc>地標</desc></wpt>
<trk><name>外埔區 手繪蹲坐貓（原稿描圖） 圖形路跑路線</name><trkseg>
<trkpt lat="24.342099" lon="120.621283"/>
<trkpt lat="24.341880" lon="120.620277"/>
<trkpt lat="24.342398" lon="120.620666"/>
<trkpt lat="24.342607" lon="120.620390"/>
<trkpt lat="24.342732" lon="120.620234"/>
<trkpt lat="24.342834" lon="120.620132"/>
<trkpt lat="24.342878" lon="120.620211"/>
<trkpt lat="24.342918" lon="120.620301"/>
<trkpt lat="24.342949" lon="120.620452"/>
<trkpt lat="24.342965" lon="120.620610"/>
<trkpt lat="24.343155" lon="120.620756"/>
<trkpt lat="24.343310" lon="120.620879"/>
<trkpt lat="24.343439" lon="120.620698"/>
<trkpt lat="24.343612" lon="120.620446"/>
<trkpt lat="24.343944" lon="120.620753"/>
<trkpt lat="24.344223" lon="120.620953"/>
<trkpt lat="24.344352" lon="120.621096"/>
<trkpt lat="24.344367" lon="120.621060"/>
<trkpt lat="24.344452" lon="120.620917"/>
<trkpt lat="24.344494" lon="120.620851"/>
<trkpt lat="24.344840" lon="120.620307"/>
<trkpt lat="24.345651" lon="120.620644"/>
<trkpt lat="24.346125" lon="120.620842"/>
<trkpt lat="24.345893" lon="120.621506"/>
<trkpt lat="24.346148" lon="120.621584"/>
<trkpt lat="24.346402" lon="120.621642"/>
<trkpt lat="24.346611" lon="120.621044"/>
<trkpt lat="24.347188" lon="120.621284"/>
<trkpt lat="24.347765" lon="120.621524"/>
<trkpt lat="24.348127" lon="120.620445"/>
<trkpt lat="24.348277" lon="120.620034"/>
<trkpt lat="24.348372" lon="120.619770"/>
<trkpt lat="24.348506" lon="120.619376"/>
<trkpt lat="24.348565" lon="120.619200"/>
<trkpt lat="24.348909" lon="120.619342"/>
<trkpt lat="24.349748" lon="120.619688"/>
<trkpt lat="24.349821" lon="120.619719"/>
<trkpt lat="24.350760" lon="120.620106"/>
<trkpt lat="24.350554" lon="120.620675"/>
<trkpt lat="24.351523" lon="120.621067"/>
<trkpt lat="24.351394" lon="120.621441"/>
<trkpt lat="24.351787" lon="120.621611"/>
<trkpt lat="24.352191" lon="120.621635"/>
<trkpt lat="24.352165" lon="120.621703"/>
<trkpt lat="24.352086" lon="120.621822"/>
<trkpt lat="24.351994" lon="120.621874"/>
<trkpt lat="24.351822" lon="120.621979"/>
<trkpt lat="24.351709" lon="120.622060"/>
<trkpt lat="24.351650" lon="120.622145"/>
<trkpt lat="24.351433" lon="120.622371"/>
<trkpt lat="24.351317" lon="120.622482"/>
<trkpt lat="24.351176" lon="120.622603"/>
<trkpt lat="24.350963" lon="120.622685"/>
<trkpt lat="24.350908" lon="120.622843"/>
<trkpt lat="24.350764" lon="120.622783"/>
<trkpt lat="24.350649" lon="120.622869"/>
<trkpt lat="24.350475" lon="120.622930"/>
<trkpt lat="24.350397" lon="120.623020"/>
<trkpt lat="24.350283" lon="120.623185"/>
<trkpt lat="24.350054" lon="120.623109"/>
<trkpt lat="24.349951" lon="120.623156"/>
<trkpt lat="24.349712" lon="120.623335"/>
<trkpt lat="24.349623" lon="120.623319"/>
<trkpt lat="24.349456" lon="120.623813"/>
<trkpt lat="24.348952" lon="120.625231"/>
<trkpt lat="24.348922" lon="120.625297"/>
<trkpt lat="24.348768" lon="120.625465"/>
<trkpt lat="24.348484" lon="120.625758"/>
<trkpt lat="24.348015" lon="120.626256"/>
<trkpt lat="24.347776" lon="120.626958"/>
<trkpt lat="24.347594" lon="120.627534"/>
<trkpt lat="24.347589" lon="120.627679"/>
<trkpt lat="24.347174" lon="120.627728"/>
<trkpt lat="24.346813" lon="120.627768"/>
<trkpt lat="24.346661" lon="120.627785"/>
<trkpt lat="24.346603" lon="120.627788"/>
<trkpt lat="24.346573" lon="120.627944"/>
<trkpt lat="24.346574" lon="120.628265"/>
<trkpt lat="24.346554" lon="120.628397"/>
<trkpt lat="24.346509" lon="120.628524"/>
<trkpt lat="24.346605" lon="120.628587"/>
<trkpt lat="24.346579" lon="120.628641"/>
<trkpt lat="24.346551" lon="120.628686"/>
<trkpt lat="24.346528" lon="120.628720"/>
<trkpt lat="24.346490" lon="120.628761"/>
<trkpt lat="24.346427" lon="120.628815"/>
<trkpt lat="24.346378" lon="120.628857"/>
<trkpt lat="24.346342" lon="120.628814"/>
<trkpt lat="24.346159" lon="120.628799"/>
<trkpt lat="24.345773" lon="120.628653"/>
<trkpt lat="24.345359" lon="120.628455"/>
<trkpt lat="24.345215" lon="120.628321"/>
<trkpt lat="24.345193" lon="120.628296"/>
<trkpt lat="24.345132" lon="120.628255"/>
<trkpt lat="24.345071" lon="120.628247"/>
<trkpt lat="24.345017" lon="120.628313"/>
<trkpt lat="24.344947" lon="120.628397"/>
<trkpt lat="24.344229" lon="120.627930"/>
<trkpt lat="24.343750" lon="120.627602"/>
<trkpt lat="24.343309" lon="120.627300"/>
<trkpt lat="24.343165" lon="120.627463"/>
<trkpt lat="24.343169" lon="120.627662"/>
<trkpt lat="24.343217" lon="120.627926"/>
<trkpt lat="24.343224" lon="120.627966"/>
<trkpt lat="24.343314" lon="120.628210"/>
<trkpt lat="24.343370" lon="120.628292"/>
<trkpt lat="24.343416" lon="120.628504"/>
<trkpt lat="24.343371" lon="120.628690"/>
<trkpt lat="24.344503" lon="120.629249"/>
<trkpt lat="24.344403" lon="120.629397"/>
<trkpt lat="24.344308" lon="120.629512"/>
<trkpt lat="24.344258" lon="120.629571"/>
<trkpt lat="24.344171" lon="120.629661"/>
<trkpt lat="24.343278" lon="120.629223"/>
<trkpt lat="24.343124" lon="120.629393"/>
<trkpt lat="24.343965" lon="120.629785"/>
<trkpt lat="24.343878" lon="120.629810"/>
<trkpt lat="24.343473" lon="120.629922"/>
<trkpt lat="24.343144" lon="120.630007"/>
<trkpt lat="24.342912" lon="120.630067"/>
<trkpt lat="24.342909" lon="120.630124"/>
<trkpt lat="24.342899" lon="120.630324"/>
<trkpt lat="24.342897" lon="120.630380"/>
<trkpt lat="24.342816" lon="120.630636"/>
<trkpt lat="24.343049" lon="120.630786"/>
<trkpt lat="24.343383" lon="120.630981"/>
<trkpt lat="24.343848" lon="120.631260"/>
<trkpt lat="24.343973" lon="120.631340"/>
<trkpt lat="24.343822" lon="120.631670"/>
<trkpt lat="24.343330" lon="120.631397"/>
<trkpt lat="24.343147" lon="120.631764"/>
<trkpt lat="24.342949" lon="120.631642"/>
<trkpt lat="24.342463" lon="120.631366"/>
<trkpt lat="24.342271" lon="120.631764"/>
<trkpt lat="24.342119" lon="120.632071"/>
<trkpt lat="24.342486" lon="120.632287"/>
<trkpt lat="24.342913" lon="120.632526"/>
<trkpt lat="24.343279" lon="120.632753"/>
<trkpt lat="24.342990" lon="120.633372"/>
<trkpt lat="24.342540" lon="120.633094"/>
<trkpt lat="24.342450" lon="120.633045"/>
<trkpt lat="24.342119" lon="120.632856"/>
<trkpt lat="24.341800" lon="120.632669"/>
<trkpt lat="24.342105" lon="120.632112"/>
<trkpt lat="24.342119" lon="120.632071"/>
<trkpt lat="24.342271" lon="120.631764"/>
<trkpt lat="24.342463" lon="120.631366"/>
<trkpt lat="24.342566" lon="120.631152"/>
<trkpt lat="24.342816" lon="120.630636"/>
<trkpt lat="24.342460" lon="120.630440"/>
<trkpt lat="24.342249" lon="120.630319"/>
<trkpt lat="24.341965" lon="120.630152"/>
<trkpt lat="24.341927" lon="120.630132"/>
<trkpt lat="24.341478" lon="120.629893"/>
<trkpt lat="24.341341" lon="120.629847"/>
<trkpt lat="24.341201" lon="120.629817"/>
<trkpt lat="24.340324" lon="120.629663"/>
<trkpt lat="24.340399" lon="120.629346"/>
<trkpt lat="24.340542" lon="120.628863"/>
<trkpt lat="24.340626" lon="120.628515"/>
<trkpt lat="24.340639" lon="120.628200"/>
<trkpt lat="24.340638" lon="120.628098"/>
<trkpt lat="24.340630" lon="120.628035"/>
<trkpt lat="24.340718" lon="120.628084"/>
<trkpt lat="24.340845" lon="120.628184"/>
<trkpt lat="24.340955" lon="120.628264"/>
<trkpt lat="24.341186" lon="120.628428"/>
<trkpt lat="24.341324" lon="120.628555"/>
<trkpt lat="24.341443" lon="120.628623"/>
<trkpt lat="24.341570" lon="120.628649"/>
<trkpt lat="24.341751" lon="120.628704"/>
<trkpt lat="24.341999" lon="120.628819"/>
<trkpt lat="24.342108" lon="120.628910"/>
<trkpt lat="24.342221" lon="120.629053"/>
<trkpt lat="24.342416" lon="120.629256"/>
<trkpt lat="24.342801" lon="120.628569"/>
<trkpt lat="24.342859" lon="120.628457"/>
<trkpt lat="24.343371" lon="120.628690"/>
<trkpt lat="24.343416" lon="120.628504"/>
<trkpt lat="24.343370" lon="120.628292"/>
<trkpt lat="24.343314" lon="120.628210"/>
<trkpt lat="24.343224" lon="120.627966"/>
<trkpt lat="24.343217" lon="120.627926"/>
<trkpt lat="24.343169" lon="120.627662"/>
<trkpt lat="24.343165" lon="120.627463"/>
<trkpt lat="24.343309" lon="120.627300"/>
<trkpt lat="24.343750" lon="120.627602"/>
<trkpt lat="24.343821" lon="120.627484"/>
<trkpt lat="24.344163" lon="120.626941"/>
<trkpt lat="24.344259" lon="120.626778"/>
<trkpt lat="24.343609" lon="120.626349"/>
<trkpt lat="24.343780" lon="120.626039"/>
<trkpt lat="24.343728" lon="120.626005"/>
<trkpt lat="24.343538" lon="120.625878"/>
<trkpt lat="24.343319" lon="120.625895"/>
<trkpt lat="24.342759" lon="120.625814"/>
<trkpt lat="24.342365" lon="120.625780"/>
<trkpt lat="24.342299" lon="120.625727"/>
<trkpt lat="24.342102" lon="120.625572"/>
<trkpt lat="24.342116" lon="120.625410"/>
<trkpt lat="24.342188" lon="120.625143"/>
<trkpt lat="24.342116" lon="120.625033"/>
<trkpt lat="24.341928" lon="120.625006"/>
<trkpt lat="24.341907" lon="120.624962"/>
<trkpt lat="24.341863" lon="120.624675"/>
<trkpt lat="24.342124" lon="120.624670"/>
<trkpt lat="24.342177" lon="120.624682"/>
<trkpt lat="24.342374" lon="120.624737"/>
<trkpt lat="24.342569" lon="120.624602"/>
<trkpt lat="24.342909" lon="120.624677"/>
<trkpt lat="24.342781" lon="120.624101"/>
<trkpt lat="24.342700" lon="120.623816"/>
<trkpt lat="24.342554" lon="120.623165"/>
<trkpt lat="24.342423" lon="120.622592"/>
<trkpt lat="24.342243" lon="120.621896"/>
<trkpt lat="24.342099" lon="120.621283"/>
</trkseg></trk>
</gpx>