<?xml version="1.0" encoding="UTF-8"?>
<gpx version="1.1" creator="catrun" xmlns="http://www.topografix.com/GPX/1/1">
<metadata><name>西區 手繪蹲坐貓（原稿描圖） 圖形路跑路線</name></metadata>
<wpt lat="24.150373" lon="120.657923"><name>公益公園</name><desc>地標</desc></wpt>
<wpt lat="24.152259" lon="120.663223"><name>草悟道</name><desc>地標</desc></wpt>
<wpt lat="24.149897" lon="120.663655"><name>市民廣場</name><desc>地標</desc></wpt>
<trk><name>西區 手繪蹲坐貓（原稿描圖） 圖形路跑路線</name><trkseg>
<trkpt lat="24.139305" lon="120.659506"/>
<trkpt lat="24.139276" lon="120.659506"/>
<trkpt lat="24.139280" lon="120.658839"/>
<trkpt lat="24.139621" lon="120.658840"/>
<trkpt lat="24.140028" lon="120.658834"/>
<trkpt lat="24.140126" lon="120.658834"/>
<trkpt lat="24.140675" lon="120.658833"/>
<trkpt lat="24.140866" lon="120.658833"/>
<trkpt lat="24.141253" lon="120.658833"/>
<trkpt lat="24.141403" lon="120.658833"/>
<trkpt lat="24.141560" lon="120.658833"/>
<trkpt lat="24.142054" lon="120.658833"/>
<trkpt lat="24.142050" lon="120.659583"/>
<trkpt lat="24.142052" lon="120.660001"/>
<trkpt lat="24.142227" lon="120.660105"/>
<trkpt lat="24.142290" lon="120.660203"/>
<trkpt lat="24.142357" lon="120.660203"/>
<trkpt lat="24.142463" lon="120.660203"/>
<trkpt lat="24.142600" lon="120.660203"/>
<trkpt lat="24.142946" lon="120.660199"/>
<trkpt lat="24.143345" lon="120.660203"/>
<trkpt lat="24.143600" lon="120.660201"/>
<trkpt lat="24.143839" lon="120.660202"/>
<trkpt lat="24.144321" lon="120.660202"/>
<trkpt lat="24.144685" lon="120.660202"/>
<trkpt lat="24.144891" lon="120.660202"/>
<trkpt lat="24.145103" lon="120.660202"/>
<trkpt lat="24.145541" lon="120.660201"/>
<trkpt lat="24.146028" lon="120.660201"/>
<trkpt lat="24.146296" lon="120.660201"/>
<trkpt lat="24.146705" lon="120.660203"/>
<trkpt lat="24.147308" lon="120.660199"/>
<trkpt lat="24.147308" lon="120.659518"/>
<trkpt lat="24.147308" lon="120.658830"/>
<trkpt lat="24.147868" lon="120.658830"/>
<trkpt lat="24.147867" lon="120.658322"/>
<trkpt lat="24.147868" lon="120.657832"/>
<trkpt lat="24.147871" lon="120.657518"/>
<trkpt lat="24.147852" lon="120.657381"/>
<trkpt lat="24.149024" lon="120.657366"/>
<trkpt lat="24.149024" lon="120.657833"/>
<trkpt lat="24.149023" lon="120.658164"/>
<trkpt lat="24.149628" lon="120.658168"/>
<trkpt lat="24.149895" lon="120.658167"/>
<trkpt lat="24.150120" lon="120.658590"/>
<trkpt lat="24.150155" lon="120.658653"/>
<trkpt lat="24.150185" lon="120.658829"/>
<trkpt lat="24.150189" lon="120.658875"/>
<trkpt lat="24.150192" lon="120.659084"/>
<trkpt lat="24.150193" lon="120.659520"/>
<trkpt lat="24.150195" lon="120.659941"/>
<trkpt lat="24.150193" lon="120.660193"/>
<trkpt lat="24.150847" lon="120.660193"/>
<trkpt lat="24.151446" lon="120.660196"/>
<trkpt lat="24.151974" lon="120.660194"/>
<trkpt lat="24.151975" lon="120.660603"/>
<trkpt lat="24.151977" lon="120.660911"/>
<trkpt lat="24.151445" lon="120.660916"/>
<trkpt lat="24.151442" lon="120.661687"/>
<trkpt lat="24.151126" lon="120.661686"/>
<trkpt lat="24.150849" lon="120.661685"/>
<trkpt lat="24.150851" lon="120.662362"/>
<trkpt lat="24.150459" lon="120.662357"/>
<trkpt lat="24.150372" lon="120.662393"/>
<trkpt lat="24.150384" lon="120.663000"/>
<trkpt lat="24.149777" lon="120.663018"/>
<trkpt lat="24.149358" lon="120.663026"/>
<trkpt lat="24.149019" lon="120.663032"/>
<trkpt lat="24.149018" lon="120.664227"/>
<trkpt lat="24.148958" lon="120.664231"/>
<trkpt lat="24.148958" lon="120.664299"/>
<trkpt lat="24.148571" lon="120.664297"/>
<trkpt lat="24.148258" lon="120.664300"/>
<trkpt lat="24.147882" lon="120.664299"/>
<trkpt lat="24.147884" lon="120.664768"/>
<trkpt lat="24.147886" lon="120.665122"/>
<trkpt lat="24.147797" lon="120.665124"/>
<trkpt lat="24.147795" lon="120.665173"/>
<trkpt lat="24.147795" lon="120.665296"/>
<trkpt lat="24.147492" lon="120.665299"/>
<trkpt lat="24.147138" lon="120.665300"/>
<trkpt lat="24.146833" lon="120.665301"/>
<trkpt lat="24.146835" lon="120.665452"/>
<trkpt lat="24.146703" lon="120.665453"/>
<trkpt lat="24.146703" lon="120.666624"/>
<trkpt lat="24.145861" lon="120.666624"/>
<trkpt lat="24.145625" lon="120.666624"/>
<trkpt lat="24.145581" lon="120.666624"/>
<trkpt lat="24.145045" lon="120.666623"/>
<trkpt lat="24.145036" lon="120.667079"/>
<trkpt lat="24.145038" lon="120.667666"/>
<trkpt lat="24.144383" lon="120.667674"/>
<trkpt lat="24.144388" lon="120.667849"/>
<trkpt lat="24.144389" lon="120.667882"/>
<trkpt lat="24.144403" lon="120.668563"/>
<trkpt lat="24.144334" lon="120.668565"/>
<trkpt lat="24.144334" lon="120.668635"/>
<trkpt lat="24.144288" lon="120.668635"/>
<trkpt lat="24.144084" lon="120.668639"/>
<trkpt lat="24.143617" lon="120.668648"/>
<trkpt lat="24.143550" lon="120.668644"/>
<trkpt lat="24.143516" lon="120.668636"/>
<trkpt lat="24.143487" lon="120.668624"/>
<trkpt lat="24.143458" lon="120.668604"/>
<trkpt lat="24.142827" lon="120.667947"/>
<trkpt lat="24.142760" lon="120.668016"/>
<trkpt lat="24.142669" lon="120.668118"/>
<trkpt lat="24.142662" lon="120.668126"/>
<trkpt lat="24.142739" lon="120.668208"/>
<trkpt lat="24.142757" lon="120.668227"/>
<trkpt lat="24.142675" lon="120.668315"/>
<trkpt lat="24.142612" lon="120.668384"/>
<trkpt lat="24.142547" lon="120.668454"/>
<trkpt lat="24.142458" lon="120.668366"/>
<trkpt lat="24.142277" lon="120.668585"/>
<trkpt lat="24.142051" lon="120.668844"/>
<trkpt lat="24.141324" lon="120.668095"/>
<trkpt lat="24.140887" lon="120.668586"/>
<trkpt lat="24.140546" lon="120.668238"/>
<trkpt lat="24.140111" lon="120.668742"/>
<trkpt lat="24.140450" lon="120.669091"/>
<trkpt lat="24.140015" lon="120.669592"/>
<trkpt lat="24.139596" lon="120.670055"/>
<trkpt lat="24.139541" lon="120.670117"/>
<trkpt lat="24.139501" lon="120.670169"/>
<trkpt lat="24.139459" lon="120.670223"/>
<trkpt lat="24.139284" lon="120.670452"/>
<trkpt lat="24.139254" lon="120.670486"/>
<trkpt lat="24.139305" lon="120.670535"/>
<trkpt lat="24.139440" lon="120.670675"/>
<trkpt lat="24.139775" lon="120.671097"/>
<trkpt lat="24.139846" lon="120.671218"/>
<trkpt lat="24.139906" lon="120.671295"/>
<trkpt lat="24.139837" lon="120.671374"/>
<trkpt lat="24.139961" lon="120.671648"/>
<trkpt lat="24.140062" lon="120.671897"/>
<trkpt lat="24.139828" lon="120.672155"/>
<trkpt lat="24.139735" lon="120.672261"/>
<trkpt lat="24.139536" lon="120.672493"/>
<trkpt lat="24.139386" lon="120.672667"/>
<trkpt lat="24.139508" lon="120.672788"/>
<trkpt lat="24.139450" lon="120.672853"/>
<trkpt lat="24.139525" lon="120.672934"/>
<trkpt lat="24.139658" lon="120.673071"/>
<trkpt lat="24.139695" lon="120.673110"/>
<trkpt lat="24.139175" lon="120.673708"/>
<trkpt lat="24.138866" lon="120.674061"/>
<trkpt lat="24.139228" lon="120.674432"/>
<trkpt lat="24.139587" lon="120.674797"/>
<trkpt lat="24.138756" lon="120.675749"/>
<trkpt lat="24.138399" lon="120.675374"/>
<trkpt lat="24.138046" lon="120.674997"/>
<trkpt lat="24.138866" lon="120.674061"/>
<trkpt lat="24.139175" lon="120.673708"/>
<trkpt lat="24.138461" lon="120.672973"/>
<trkpt lat="24.137747" lon="120.672224"/>
<trkpt lat="24.137901" lon="120.672045"/>
<trkpt lat="24.138261" lon="120.671631"/>
<trkpt lat="24.138581" lon="120.671261"/>
<trkpt lat="24.138625" lon="120.671212"/>
<trkpt lat="24.138707" lon="120.671118"/>
<trkpt lat="24.138685" lon="120.671094"/>
<trkpt lat="24.138348" lon="120.670751"/>
<trkpt lat="24.138549" lon="120.670525"/>
<trkpt lat="24.138654" lon="120.670421"/>
<trkpt lat="24.138720" lon="120.670338"/>
<trkpt lat="24.138821" lon="120.670188"/>
<trkpt lat="24.138555" lon="120.669911"/>
<trkpt lat="24.138517" lon="120.669937"/>
<trkpt lat="24.138483" lon="120.669951"/>
<trkpt lat="24.138382" lon="120.669864"/>
<trkpt lat="24.138281" lon="120.669749"/>
<trkpt lat="24.138330" lon="120.669695"/>
<trkpt lat="24.138365" lon="120.669656"/>
<trkpt lat="24.138420" lon="120.669631"/>
<trkpt lat="24.138243" lon="120.669436"/>
<trkpt lat="24.138055" lon="120.669272"/>
<trkpt lat="24.137955" lon="120.669118"/>
<trkpt lat="24.137804" lon="120.669012"/>
<trkpt lat="24.137820" lon="120.668983"/>
<trkpt lat="24.138017" lon="120.668762"/>
<trkpt lat="24.138019" lon="120.668758"/>
<trkpt lat="24.138026" lon="120.668756"/>
<trkpt lat="24.138100" lon="120.668676"/>
<trkpt lat="24.138051" lon="120.668626"/>
<trkpt lat="24.137912" lon="120.668490"/>
<trkpt lat="24.137979" lon="120.668411"/>
<trkpt lat="24.138166" lon="120.668191"/>
<trkpt lat="24.138403" lon="120.667917"/>
<trkpt lat="24.138833" lon="120.667424"/>
<trkpt lat="24.139271" lon="120.666913"/>
<trkpt lat="24.139266" lon="120.666883"/>
<trkpt lat="24.139272" lon="120.666841"/>
<trkpt lat="24.139270" lon="120.666516"/>
<trkpt lat="24.139268" lon="120.666145"/>
<trkpt lat="24.139269" lon="120.665762"/>
<trkpt lat="24.139270" lon="120.665653"/>
<trkpt lat="24.139271" lon="120.664888"/>
<trkpt lat="24.138864" lon="120.664888"/>
<trkpt lat="24.138876" lon="120.664159"/>
<trkpt lat="24.139272" lon="120.664162"/>
<trkpt lat="24.139272" lon="120.663867"/>
<trkpt lat="24.139270" lon="120.663107"/>
<trkpt lat="24.139272" lon="120.662700"/>
<trkpt lat="24.139233" lon="120.662700"/>
<trkpt lat="24.139219" lon="120.662700"/>
<trkpt lat="24.139220" lon="120.662613"/>
<trkpt lat="24.139220" lon="120.662568"/>
<trkpt lat="24.139272" lon="120.662568"/>
<trkpt lat="24.139274" lon="120.661693"/>
<trkpt lat="24.139452" lon="120.661693"/>
<trkpt lat="24.139480" lon="120.661693"/>
<trkpt lat="24.139609" lon="120.661693"/>
<trkpt lat="24.140051" lon="120.661693"/>
<trkpt lat="24.140056" lon="120.660990"/>
<trkpt lat="24.140055" lon="120.660973"/>
<trkpt lat="24.140037" lon="120.660190"/>
<trkpt lat="24.139269" lon="120.660190"/>
<trkpt lat="24.139276" lon="120.659506"/>
<trkpt lat="24.139305" lon="120.659506"/>
</trkseg></trk>
</gpx>