<?xml version="1.0" encoding="UTF-8"?>
<gpx version="1.1" creator="catrun" xmlns="http://www.topografix.com/GPX/1/1">
<metadata><name>西區 貓臉（正面） 圖形路跑路線</name></metadata>
<wpt lat="24.157368" lon="120.678394"><name>育德園道</name><desc>地標</desc></wpt>
<wpt lat="24.157377" lon="120.679419"><name>育德園道</name><desc>地標</desc></wpt>
<wpt lat="24.158618" lon="120.677372"><name>尚德公園</name><desc>地標</desc></wpt>
<trk><name>西區 貓臉（正面） 圖形路跑路線</name><trkseg>
<trkpt lat="24.155129" lon="120.676035"/>
<trkpt lat="24.154876" lon="120.676038"/>
<trkpt lat="24.154732" lon="120.676038"/>
<trkpt lat="24.154611" lon="120.676041"/>
<trkpt lat="24.154626" lon="120.676246"/>
<trkpt lat="24.154688" lon="120.676447"/>
<trkpt lat="24.154874" lon="120.677131"/>
<trkpt lat="24.155534" lon="120.676948"/>
<trkpt lat="24.155605" lon="120.676924"/>
<trkpt lat="24.155606" lon="120.677036"/>
<trkpt lat="24.155607" lon="120.677168"/>
<trkpt lat="24.155616" lon="120.677179"/>
<trkpt lat="24.155726" lon="120.677153"/>
<trkpt lat="24.155723" lon="120.678030"/>
<trkpt lat="24.155720" lon="120.678798"/>
<trkpt lat="24.155719" lon="120.678974"/>
<trkpt lat="24.155841" lon="120.678974"/>
<trkpt lat="24.155838" lon="120.679050"/>
<trkpt lat="24.156108" lon="120.679034"/>
<trkpt lat="24.156510" lon="120.678976"/>
<trkpt lat="24.156743" lon="120.678953"/>
<trkpt lat="24.157048" lon="120.678923"/>
<trkpt lat="24.157088" lon="120.678920"/>
<trkpt lat="24.157134" lon="120.678915"/>
<trkpt lat="24.157239" lon="120.678905"/>
<trkpt lat="24.157300" lon="120.678902"/>
<trkpt lat="24.157506" lon="120.678893"/>
<trkpt lat="24.157592" lon="120.678890"/>
<trkpt lat="24.157636" lon="120.678885"/>
<trkpt lat="24.157871" lon="120.678851"/>
<trkpt lat="24.158207" lon="120.678810"/>
<trkpt lat="24.158183" lon="120.679959"/>
<trkpt lat="24.157866" lon="120.679957"/>
<trkpt lat="24.157775" lon="120.679957"/>
<trkpt lat="24.157511" lon="120.679959"/>
<trkpt lat="24.157515" lon="120.680063"/>
<trkpt lat="24.157407" lon="120.680078"/>
<trkpt lat="24.157439" lon="120.680534"/>
<trkpt lat="24.157535" lon="120.680525"/>
<trkpt lat="24.157548" lon="120.680965"/>
<trkpt lat="24.157640" lon="120.680947"/>
<trkpt lat="24.157668" lon="120.681084"/>
<trkpt lat="24.157689" lon="120.681207"/>
<trkpt lat="24.157482" lon="120.681270"/>
<trkpt lat="24.157406" lon="120.681277"/>
<trkpt lat="24.157341" lon="120.681288"/>
<trkpt lat="24.157323" lon="120.681343"/>
<trkpt lat="24.157305" lon="120.681398"/>
<trkpt lat="24.156840" lon="120.681497"/>
<trkpt lat="24.156726" lon="120.681440"/>
<trkpt lat="24.156667" lon="120.681427"/>
<trkpt lat="24.156525" lon="120.681460"/>
<trkpt lat="24.155999" lon="120.681670"/>
<trkpt lat="24.155808" lon="120.681746"/>
<trkpt lat="24.155709" lon="120.681649"/>
<trkpt lat="24.155643" lon="120.681555"/>
<trkpt lat="24.155591" lon="120.681473"/>
<trkpt lat="24.155395" lon="120.681567"/>
<trkpt lat="24.155321" lon="120.681604"/>
<trkpt lat="24.155220" lon="120.681654"/>
<trkpt lat="24.155242" lon="120.681703"/>
<trkpt lat="24.154559" lon="120.682020"/>
<trkpt lat="24.154898" lon="120.682899"/>
<trkpt lat="24.154302" lon="120.683172"/>
<trkpt lat="24.154611" lon="120.683983"/>
<trkpt lat="24.154561" lon="120.684005"/>
<trkpt lat="24.154590" lon="120.684085"/>
<trkpt lat="24.154113" lon="120.684304"/>
<trkpt lat="24.154079" lon="120.684213"/>
<trkpt lat="24.153987" lon="120.684254"/>
<trkpt lat="24.153899" lon="120.684293"/>
<trkpt lat="24.153853" lon="120.684314"/>
<trkpt lat="24.153898" lon="120.684467"/>
<trkpt lat="24.153941" lon="120.684578"/>
<trkpt lat="24.153880" lon="120.684680"/>
<trkpt lat="24.153795" lon="120.684921"/>
<trkpt lat="24.153418" lon="120.684792"/>
<trkpt lat="24.153061" lon="120.684644"/>
<trkpt lat="24.152960" lon="120.684927"/>
<trkpt lat="24.152916" lon="120.684909"/>
<trkpt lat="24.152810" lon="120.685218"/>
<trkpt lat="24.152759" lon="120.685237"/>
<trkpt lat="24.152739" lon="120.685288"/>
<trkpt lat="24.152699" lon="120.685398"/>
<trkpt lat="24.152457" lon="120.685296"/>
<trkpt lat="24.151986" lon="120.685099"/>
<trkpt lat="24.151848" lon="120.685534"/>
<trkpt lat="24.151674" lon="120.686033"/>
<trkpt lat="24.151215" lon="120.685841"/>
<trkpt lat="24.150980" lon="120.685743"/>
<trkpt lat="24.150961" lon="120.685778"/>
<trkpt lat="24.150896" lon="120.685915"/>
<trkpt lat="24.150813" lon="120.685986"/>
<trkpt lat="24.150732" lon="120.686186"/>
<trkpt lat="24.150264" lon="120.685989"/>
<trkpt lat="24.149974" lon="120.685858"/>
<trkpt lat="24.149699" lon="120.685739"/>
<trkpt lat="24.149526" lon="120.686197"/>
<trkpt lat="24.149404" lon="120.686250"/>
<trkpt lat="24.149272" lon="120.686188"/>
<trkpt lat="24.149268" lon="120.686158"/>
<trkpt lat="24.149254" lon="120.686125"/>
<trkpt lat="24.149223" lon="120.686093"/>
<trkpt lat="24.148658" lon="120.685875"/>
<trkpt lat="24.148264" lon="120.685712"/>
<trkpt lat="24.147586" lon="120.685440"/>
<trkpt lat="24.147575" lon="120.685472"/>
<trkpt lat="24.147034" lon="120.685245"/>
<trkpt lat="24.147125" lon="120.684998"/>
<trkpt lat="24.147399" lon="120.684245"/>
<trkpt lat="24.147148" lon="120.684140"/>
<trkpt lat="24.146805" lon="120.683996"/>
<trkpt lat="24.146668" lon="120.683939"/>
<trkpt lat="24.146420" lon="120.683835"/>
<trkpt lat="24.146325" lon="120.683835"/>
<trkpt lat="24.146222" lon="120.683866"/>
<trkpt lat="24.146129" lon="120.683598"/>
<trkpt lat="24.145993" lon="120.683706"/>
<trkpt lat="24.145177" lon="120.684105"/>
<trkpt lat="24.145063" lon="120.684100"/>
<trkpt lat="24.144980" lon="120.683909"/>
<trkpt lat="24.144867" lon="120.683891"/>
<trkpt lat="24.144782" lon="120.683877"/>
<trkpt lat="24.144728" lon="120.683765"/>
<trkpt lat="24.144662" lon="120.683629"/>
<trkpt lat="24.144627" lon="120.683608"/>
<trkpt lat="24.144386" lon="120.683474"/>
<trkpt lat="24.143922" lon="120.683266"/>
<trkpt lat="24.143738" lon="120.683012"/>
<trkpt lat="24.143636" lon="120.682870"/>
<trkpt lat="24.142895" lon="120.682082"/>
<trkpt lat="24.143179" lon="120.681756"/>
<trkpt lat="24.143536" lon="120.681347"/>
<trkpt lat="24.143180" lon="120.680992"/>
<trkpt lat="24.142804" lon="120.680629"/>
<trkpt lat="24.142443" lon="120.680253"/>
<trkpt lat="24.142118" lon="120.679907"/>
<trkpt lat="24.142333" lon="120.679658"/>
<trkpt lat="24.142270" lon="120.679592"/>
<trkpt lat="24.142286" lon="120.679574"/>
<trkpt lat="24.142283" lon="120.679528"/>
<trkpt lat="24.142271" lon="120.679518"/>
<trkpt lat="24.142329" lon="120.679452"/>
<trkpt lat="24.142386" lon="120.679387"/>
<trkpt lat="24.142427" lon="120.679379"/>
<trkpt lat="24.142379" lon="120.679331"/>
<trkpt lat="24.142431" lon="120.679241"/>
<trkpt lat="24.142477" lon="120.679185"/>
<trkpt lat="24.142380" lon="120.678813"/>
<trkpt lat="24.142382" lon="120.678812"/>
<trkpt lat="24.142389" lon="120.678806"/>
<trkpt lat="24.142395" lon="120.678798"/>
<trkpt lat="24.142398" lon="120.678789"/>
<trkpt lat="24.142399" lon="120.678780"/>
<trkpt lat="24.142398" lon="120.678771"/>
<trkpt lat="24.142394" lon="120.678763"/>
<trkpt lat="24.142388" lon="120.678755"/>
<trkpt lat="24.142557" lon="120.678560"/>
<trkpt lat="24.142538" lon="120.678541"/>
<trkpt lat="24.142631" lon="120.678422"/>
<trkpt lat="24.142635" lon="120.678397"/>
<trkpt lat="24.142303" lon="120.678055"/>
<trkpt lat="24.142496" lon="120.677832"/>
<trkpt lat="24.142704" lon="120.677587"/>
<trkpt lat="24.142631" lon="120.677552"/>
<trkpt lat="24.142678" lon="120.677490"/>
<trkpt lat="24.142734" lon="120.677421"/>
<trkpt lat="24.142796" lon="120.677380"/>
<trkpt lat="24.142990" lon="120.677162"/>
<trkpt lat="24.142990" lon="120.677118"/>
<trkpt lat="24.142956" lon="120.677121"/>
<trkpt lat="24.142924" lon="120.677141"/>
<trkpt lat="24.142899" lon="120.677196"/>
<trkpt lat="24.142805" lon="120.677197"/>
<trkpt lat="24.142748" lon="120.677172"/>
<trkpt lat="24.142713" lon="120.677146"/>
<trkpt lat="24.142663" lon="120.677091"/>
<trkpt lat="24.142618" lon="120.677038"/>
<trkpt lat="24.142565" lon="120.677018"/>
<trkpt lat="24.142502" lon="120.676997"/>
<trkpt lat="24.142434" lon="120.676974"/>
<trkpt lat="24.142394" lon="120.676927"/>
<trkpt lat="24.142276" lon="120.676782"/>
<trkpt lat="24.142309" lon="120.676736"/>
<trkpt lat="24.142306" lon="120.676652"/>
<trkpt lat="24.142294" lon="120.676642"/>
<trkpt lat="24.142347" lon="120.676566"/>
<trkpt lat="24.142401" lon="120.676503"/>
<trkpt lat="24.142346" lon="120.676451"/>
<trkpt lat="24.142878" lon="120.675839"/>
<trkpt lat="24.143201" lon="120.675473"/>
<trkpt lat="24.143549" lon="120.675060"/>
<trkpt lat="24.143813" lon="120.674766"/>
<trkpt lat="24.144023" lon="120.674517"/>
<trkpt lat="24.143671" lon="120.674169"/>
<trkpt lat="24.143364" lon="120.673857"/>
<trkpt lat="24.143270" lon="120.673760"/>
<trkpt lat="24.143346" lon="120.673673"/>
<trkpt lat="24.143362" lon="120.673654"/>
<trkpt lat="24.143699" lon="120.673259"/>
<trkpt lat="24.144016" lon="120.672905"/>
<trkpt lat="24.144244" lon="120.672652"/>
<trkpt lat="24.144351" lon="120.672533"/>
<trkpt lat="24.144492" lon="120.672374"/>
<trkpt lat="24.144524" lon="120.672336"/>
<trkpt lat="24.144574" lon="120.672275"/>
<trkpt lat="24.144631" lon="120.672206"/>
<trkpt lat="24.144772" lon="120.672054"/>
<trkpt lat="24.144923" lon="120.671892"/>
<trkpt lat="24.145005" lon="120.671976"/>
<trkpt lat="24.145048" lon="120.671928"/>
<trkpt lat="24.145340" lon="120.672233"/>
<trkpt lat="24.145827" lon="120.671692"/>
<trkpt lat="24.145534" lon="120.671392"/>
<trkpt lat="24.145595" lon="120.671318"/>
<trkpt lat="24.145844" lon="120.671570"/>
<trkpt lat="24.146227" lon="120.671970"/>
<trkpt lat="24.146573" lon="120.671586"/>
<trkpt lat="24.146882" lon="120.671245"/>
<trkpt lat="24.147006" lon="120.670948"/>
<trkpt lat="24.147326" lon="120.670951"/>
<trkpt lat="24.147758" lon="120.670961"/>
<trkpt lat="24.147878" lon="120.670960"/>
<trkpt lat="24.148007" lon="120.670960"/>
<trkpt lat="24.148434" lon="120.670964"/>
<trkpt lat="24.149004" lon="120.670961"/>
<trkpt lat="24.149555" lon="120.670968"/>
<trkpt lat="24.149565" lon="120.670385"/>
<trkpt lat="24.149565" lon="120.669961"/>
<trkpt lat="24.149633" lon="120.669961"/>
<trkpt lat="24.149631" lon="120.669838"/>
<trkpt lat="24.149695" lon="120.669857"/>
<trkpt lat="24.149854" lon="120.669859"/>
<trkpt lat="24.150368" lon="120.669859"/>
<trkpt lat="24.150380" lon="120.669859"/>
<trkpt lat="24.150381" lon="120.669924"/>
<trkpt lat="24.150444" lon="120.670071"/>
<trkpt lat="24.150473" lon="120.670107"/>
<trkpt lat="24.150521" lon="120.670157"/>
<trkpt lat="24.150602" lon="120.670242"/>
<trkpt lat="24.150660" lon="120.670303"/>
<trkpt lat="24.150704" lon="120.670348"/>
<trkpt lat="24.150732" lon="120.670319"/>
<trkpt lat="24.150824" lon="120.670266"/>
<trkpt lat="24.150891" lon="120.670310"/>
<trkpt lat="24.151116" lon="120.670542"/>
<trkpt lat="24.151170" lon="120.670583"/>
<trkpt lat="24.151256" lon="120.670486"/>
<trkpt lat="24.151339" lon="120.670494"/>
<trkpt lat="24.151400" lon="120.670500"/>
<trkpt lat="24.151504" lon="120.670501"/>
<trkpt lat="24.151501" lon="120.670615"/>
<trkpt lat="24.151559" lon="120.670615"/>
<trkpt lat="24.151559" lon="120.670856"/>
<trkpt lat="24.151932" lon="120.670943"/>
<trkpt lat="24.152189" lon="120.670947"/>
<trkpt lat="24.152191" lon="120.671331"/>
<trkpt lat="24.152195" lon="120.671401"/>
<trkpt lat="24.152200" lon="120.672073"/>
<trkpt lat="24.153053" lon="120.672069"/>
<trkpt lat="24.153375" lon="120.672065"/>
<trkpt lat="24.153787" lon="120.672067"/>
<trkpt lat="24.153787" lon="120.671782"/>
<trkpt lat="24.153790" lon="120.670668"/>
<trkpt lat="24.153802" lon="120.670615"/>
<trkpt lat="24.153866" lon="120.670607"/>
<trkpt lat="24.153880" lon="120.670503"/>
<trkpt lat="24.154201" lon="120.670505"/>
<trkpt lat="24.154564" lon="120.670505"/>
<trkpt lat="24.155231" lon="120.670502"/>
<trkpt lat="24.155623" lon="120.670502"/>
<trkpt lat="24.155621" lon="120.670615"/>
<trkpt lat="24.155723" lon="120.670620"/>
<trkpt lat="24.155725" lon="120.670683"/>
<trkpt lat="24.155773" lon="120.670696"/>
<trkpt lat="24.155805" lon="120.670734"/>
<trkpt lat="24.156194" lon="120.671079"/>
<trkpt lat="24.156154" lon="120.671146"/>
<trkpt lat="24.156131" lon="120.671234"/>
<trkpt lat="24.156111" lon="120.671415"/>
<trkpt lat="24.156071" lon="120.671737"/>
<trkpt lat="24.156082" lon="120.672091"/>
<trkpt lat="24.155824" lon="120.672095"/>
<trkpt lat="24.155811" lon="120.672178"/>
<trkpt lat="24.155726" lon="120.672188"/>
<trkpt lat="24.155727" lon="120.672820"/>
<trkpt lat="24.155727" lon="120.672864"/>
<trkpt lat="24.155726" lon="120.673052"/>
<trkpt lat="24.155725" lon="120.673574"/>
<trkpt lat="24.155626" lon="120.673577"/>
<trkpt lat="24.155626" lon="120.673644"/>
<trkpt lat="24.155403" lon="120.673644"/>
<trkpt lat="24.155090" lon="120.673639"/>
<trkpt lat="24.155080" lon="120.674347"/>
<trkpt lat="24.155062" lon="120.674949"/>
<trkpt lat="24.155356" lon="120.675037"/>
<trkpt lat="24.155628" lon="120.675130"/>
<trkpt lat="24.155625" lon="120.675340"/>
<trkpt lat="24.155625" lon="120.675385"/>
<trkpt lat="24.155434" lon="120.675413"/>
<trkpt lat="24.154865" lon="120.675430"/>
<trkpt lat="24.154876" lon="120.676038"/>
<trkpt lat="24.155129" lon="120.676035"/>
</trkseg></trk>
</gpx>