<?xml version="1.0" encoding="UTF-8"?>
<gpx version="1.1" creator="catrun" xmlns="http://www.topografix.com/GPX/1/1">
<metadata><name>西區 貓咪肉球 圖形路跑路線</name></metadata>
<wpt lat="24.143894" lon="120.679524"><name>臺中市立圖書館中區分館</name><desc>地標</desc></wpt>
<wpt lat="24.145048" lon="120.683335"><name>台灣地籍測量三角原點中心碑</name><desc>地標</desc></wpt>
<wpt lat="24.145461" lon="120.683571"><name>吉羊康泰</name><desc>地標</desc></wpt>
<trk><name>西區 貓咪肉球 圖形路跑路線</name><trkseg>
<trkpt lat="24.148589" lon="120.679348"/>
<trkpt lat="24.148153" lon="120.679827"/>
<trkpt lat="24.147874" lon="120.679538"/>
<trkpt lat="24.147551" lon="120.679204"/>
<trkpt lat="24.147164" lon="120.678803"/>
<trkpt lat="24.147102" lon="120.678877"/>
<trkpt lat="24.146692" lon="120.679361"/>
<trkpt lat="24.146321" lon="120.679800"/>
<trkpt lat="24.146264" lon="120.679734"/>
<trkpt lat="24.146210" lon="120.679738"/>
<trkpt lat="24.146146" lon="120.679814"/>
<trkpt lat="24.145540" lon="120.679173"/>
<trkpt lat="24.145399" lon="120.679252"/>
<trkpt lat="24.145302" lon="120.679311"/>
<trkpt lat="24.145257" lon="120.679339"/>
<trkpt lat="24.144959" lon="120.679701"/>
<trkpt lat="24.144665" lon="120.680036"/>
<trkpt lat="24.145014" lon="120.680415"/>
<trkpt lat="24.144626" lon="120.680859"/>
<trkpt lat="24.144268" lon="120.681312"/>
<trkpt lat="24.144199" lon="120.681397"/>
<trkpt lat="24.144573" lon="120.681769"/>
<trkpt lat="24.144507" lon="120.681842"/>
<trkpt lat="24.143636" lon="120.682870"/>
<trkpt lat="24.143738" lon="120.683012"/>
<trkpt lat="24.143922" lon="120.683266"/>
<trkpt lat="24.143695" lon="120.683374"/>
<trkpt lat="24.143857" lon="120.683824"/>
<trkpt lat="24.144045" lon="120.684074"/>
<trkpt lat="24.144281" lon="120.684387"/>
<trkpt lat="24.144289" lon="120.684437"/>
<trkpt lat="24.144321" lon="120.684471"/>
<trkpt lat="24.144358" lon="120.684477"/>
<trkpt lat="24.144401" lon="120.684465"/>
<trkpt lat="24.144393" lon="120.684520"/>
<trkpt lat="24.144361" lon="120.684613"/>
<trkpt lat="24.144286" lon="120.684608"/>
<trkpt lat="24.144089" lon="120.684742"/>
<trkpt lat="24.143944" lon="120.684604"/>
<trkpt lat="24.143912" lon="120.684558"/>
<trkpt lat="24.143861" lon="120.684604"/>
<trkpt lat="24.143805" lon="120.684584"/>
<trkpt lat="24.143711" lon="120.684528"/>
<trkpt lat="24.143695" lon="120.684597"/>
<trkpt lat="24.143652" lon="120.684921"/>
<trkpt lat="24.143581" lon="120.684980"/>
<trkpt lat="24.143474" lon="120.685121"/>
<trkpt lat="24.143305" lon="120.685295"/>
<trkpt lat="24.143337" lon="120.685323"/>
<trkpt lat="24.143416" lon="120.685421"/>
<trkpt lat="24.143346" lon="120.685980"/>
<trkpt lat="24.143461" lon="120.685987"/>
<trkpt lat="24.143466" lon="120.685921"/>
<trkpt lat="24.143664" lon="120.685991"/>
<trkpt lat="24.143648" lon="120.686082"/>
<trkpt lat="24.143610" lon="120.686247"/>
<trkpt lat="24.143798" lon="120.686284"/>
<trkpt lat="24.143695" lon="120.686748"/>
<trkpt lat="24.143825" lon="120.686789"/>
<trkpt lat="24.143946" lon="120.686330"/>
<trkpt lat="24.144048" lon="120.686362"/>
<trkpt lat="24.144184" lon="120.686421"/>
<trkpt lat="24.144247" lon="120.686459"/>
<trkpt lat="24.144369" lon="120.686498"/>
<trkpt lat="24.144300" lon="120.686684"/>
<trkpt lat="24.144244" lon="120.686722"/>
<trkpt lat="24.144178" lon="120.686773"/>
<trkpt lat="24.144146" lon="120.686857"/>
<trkpt lat="24.144040" lon="120.687068"/>
<trkpt lat="24.144001" lon="120.687268"/>
<trkpt lat="24.143972" lon="120.687357"/>
<trkpt lat="24.143834" lon="120.687640"/>
<trkpt lat="24.144353" lon="120.687683"/>
<trkpt lat="24.144468" lon="120.687688"/>
<trkpt lat="24.145714" lon="120.687798"/>
<trkpt lat="24.145644" lon="120.688657"/>
<trkpt lat="24.145590" lon="120.689427"/>
<trkpt lat="24.146116" lon="120.689466"/>
<trkpt lat="24.146334" lon="120.689497"/>
<trkpt lat="24.146520" lon="120.689503"/>
<trkpt lat="24.146754" lon="120.689510"/>
<trkpt lat="24.146909" lon="120.689528"/>
<trkpt lat="24.147194" lon="120.690388"/>
<trkpt lat="24.147330" lon="120.690806"/>
<trkpt lat="24.147384" lon="120.690967"/>
<trkpt lat="24.147479" lon="120.691252"/>
<trkpt lat="24.147572" lon="120.691207"/>
<trkpt lat="24.147532" lon="120.691076"/>
<trkpt lat="24.147389" lon="120.690654"/>
<trkpt lat="24.147702" lon="120.690494"/>
<trkpt lat="24.147800" lon="120.690458"/>
<trkpt lat="24.148098" lon="120.690325"/>
<trkpt lat="24.148243" lon="120.690353"/>
<trkpt lat="24.148597" lon="120.690905"/>
<trkpt lat="24.148945" lon="120.691199"/>
<trkpt lat="24.149408" lon="120.691380"/>
<trkpt lat="24.149641" lon="120.691413"/>
<trkpt lat="24.149805" lon="120.691533"/>
<trkpt lat="24.149803" lon="120.691616"/>
<trkpt lat="24.149725" lon="120.691889"/>
<trkpt lat="24.149944" lon="120.691978"/>
<trkpt lat="24.150072" lon="120.692025"/>
<trkpt lat="24.150390" lon="120.692031"/>
<trkpt lat="24.150556" lon="120.692024"/>
<trkpt lat="24.150808" lon="120.692133"/>
<trkpt lat="24.151077" lon="120.692143"/>
<trkpt lat="24.151176" lon="120.692160"/>
<trkpt lat="24.151325" lon="120.692226"/>
<trkpt lat="24.151545" lon="120.692345"/>
<trkpt lat="24.151687" lon="120.692483"/>
<trkpt lat="24.151735" lon="120.692352"/>
<trkpt lat="24.152124" lon="120.691245"/>
<trkpt lat="24.152231" lon="120.690933"/>
<trkpt lat="24.152460" lon="120.690261"/>
<trkpt lat="24.152799" lon="120.689315"/>
<trkpt lat="24.153122" lon="120.689449"/>
<trkpt lat="24.153255" lon="120.689504"/>
<trkpt lat="24.153802" lon="120.689730"/>
<trkpt lat="24.153858" lon="120.689754"/>
<trkpt lat="24.153995" lon="120.689813"/>
<trkpt lat="24.154117" lon="120.689860"/>
<trkpt lat="24.154161" lon="120.689727"/>
<trkpt lat="24.154194" lon="120.689623"/>
<trkpt lat="24.154242" lon="120.689467"/>
<trkpt lat="24.154867" lon="120.689729"/>
<trkpt lat="24.154891" lon="120.689655"/>
<trkpt lat="24.155052" lon="120.689723"/>
<trkpt lat="24.155309" lon="120.689093"/>
<trkpt lat="24.155484" lon="120.688694"/>
<trkpt lat="24.155827" lon="120.688840"/>
<trkpt lat="24.156101" lon="120.688065"/>
<trkpt lat="24.156076" lon="120.688038"/>
<trkpt lat="24.155732" lon="120.687606"/>
<trkpt lat="24.155624" lon="120.687497"/>
<trkpt lat="24.155603" lon="120.687476"/>
<trkpt lat="24.155488" lon="120.687280"/>
<trkpt lat="24.155526" lon="120.687239"/>
<trkpt lat="24.155596" lon="120.687167"/>
<trkpt lat="24.155502" lon="120.687056"/>
<trkpt lat="24.155301" lon="120.686829"/>
<trkpt lat="24.155084" lon="120.686554"/>
<trkpt lat="24.155090" lon="120.686424"/>
<trkpt lat="24.155055" lon="120.686385"/>
<trkpt lat="24.154981" lon="120.686310"/>
<trkpt lat="24.154967" lon="120.686266"/>
<trkpt lat="24.154920" lon="120.686187"/>
<trkpt lat="24.154870" lon="120.686086"/>
<trkpt lat="24.154708" lon="120.686161"/>
<trkpt lat="24.154581" lon="120.686078"/>
<trkpt lat="24.154503" lon="120.686040"/>
<trkpt lat="24.154482" lon="120.685941"/>
<trkpt lat="24.154402" lon="120.685903"/>
<trkpt lat="24.154359" lon="120.685880"/>
<trkpt lat="24.154284" lon="120.685933"/>
<trkpt lat="24.153851" lon="120.685746"/>
<trkpt lat="24.153637" lon="120.685655"/>
<trkpt lat="24.153595" lon="120.685771"/>
<trkpt lat="24.153938" lon="120.685916"/>
<trkpt lat="24.154511" lon="120.686158"/>
<trkpt lat="24.154510" lon="120.686230"/>
<trkpt lat="24.154472" lon="120.686375"/>
<trkpt lat="24.154550" lon="120.686413"/>
<trkpt lat="24.154625" lon="120.686451"/>
<trkpt lat="24.154738" lon="120.686519"/>
<trkpt lat="24.154811" lon="120.686478"/>
<trkpt lat="24.154840" lon="120.686449"/>
<trkpt lat="24.154913" lon="120.686376"/>
<trkpt lat="24.154981" lon="120.686310"/>
<trkpt lat="24.154967" lon="120.686266"/>
<trkpt lat="24.155046" lon="120.686229"/>
<trkpt lat="24.155098" lon="120.686205"/>
<trkpt lat="24.155133" lon="120.686184"/>
<trkpt lat="24.155431" lon="120.686050"/>
<trkpt lat="24.155467" lon="120.686034"/>
<trkpt lat="24.155510" lon="120.686020"/>
<trkpt lat="24.155831" lon="120.685859"/>
<trkpt lat="24.155804" lon="120.685792"/>
<trkpt lat="24.155763" lon="120.685682"/>
<trkpt lat="24.155730" lon="120.685604"/>
<trkpt lat="24.155843" lon="120.685544"/>
<trkpt lat="24.155906" lon="120.685511"/>
<trkpt lat="24.155957" lon="120.685488"/>
<trkpt lat="24.156085" lon="120.685453"/>
<trkpt lat="24.156848" lon="120.685121"/>
<trkpt lat="24.156922" lon="120.685090"/>
<trkpt lat="24.157242" lon="120.684946"/>
<trkpt lat="24.157139" lon="120.684697"/>
<trkpt lat="24.156842" lon="120.684834"/>
<trkpt lat="24.156255" lon="120.683262"/>
<trkpt lat="24.156236" lon="120.683210"/>
<trkpt lat="24.156270" lon="120.683174"/>
<trkpt lat="24.156204" lon="120.683037"/>
<trkpt lat="24.156153" lon="120.682929"/>
<trkpt lat="24.156220" lon="120.682874"/>
<trkpt lat="24.156270" lon="120.682764"/>
<trkpt lat="24.156259" lon="120.682734"/>
<trkpt lat="24.156225" lon="120.682670"/>
<trkpt lat="24.156139" lon="120.682666"/>
<trkpt lat="24.156063" lon="120.682645"/>
<trkpt lat="24.156008" lon="120.682493"/>
<trkpt lat="24.155943" lon="120.682483"/>
<trkpt lat="24.155878" lon="120.682344"/>
<trkpt lat="24.155868" lon="120.682197"/>
<trkpt lat="24.155782" lon="120.682260"/>
<trkpt lat="24.155691" lon="120.682296"/>
<trkpt lat="24.155649" lon="120.682278"/>
<trkpt lat="24.155621" lon="120.682274"/>
<trkpt lat="24.155541" lon="120.682061"/>
<trkpt lat="24.155439" lon="120.681787"/>
<trkpt lat="24.155305" lon="120.681851"/>
<trkpt lat="24.155242" lon="120.681703"/>
<trkpt lat="24.154559" lon="120.682020"/>
<trkpt lat="24.153969" lon="120.682295"/>
<trkpt lat="24.153742" lon="120.682400"/>
<trkpt lat="24.153482" lon="120.682521"/>
<trkpt lat="24.153477" lon="120.682524"/>
<trkpt lat="24.153339" lon="120.682543"/>
<trkpt lat="24.153228" lon="120.682552"/>
<trkpt lat="24.153130" lon="120.682537"/>
<trkpt lat="24.153088" lon="120.682391"/>
<trkpt lat="24.153169" lon="120.682398"/>
<trkpt lat="24.153288" lon="120.682408"/>
<trkpt lat="24.153371" lon="120.682416"/>
<trkpt lat="24.153462" lon="120.682468"/>
<trkpt lat="24.153482" lon="120.682521"/>
<trkpt lat="24.153742" lon="120.682400"/>
<trkpt lat="24.153969" lon="120.682295"/>
<trkpt lat="24.154559" lon="120.682020"/>
<trkpt lat="24.154311" lon="120.681372"/>
<trkpt lat="24.154676" lon="120.681209"/>
<trkpt lat="24.155001" lon="120.681063"/>
<trkpt lat="24.154646" lon="120.680465"/>
<trkpt lat="24.154738" lon="120.680445"/>
<trkpt lat="24.154931" lon="120.680436"/>
<trkpt lat="24.154962" lon="120.680434"/>
<trkpt lat="24.154915" lon="120.680337"/>
<trkpt lat="24.154980" lon="120.680345"/>
<trkpt lat="24.154615" lon="120.679678"/>
<trkpt lat="24.154512" lon="120.679506"/>
<trkpt lat="24.154420" lon="120.679384"/>
<trkpt lat="24.154260" lon="120.679227"/>
<trkpt lat="24.154085" lon="120.679152"/>
<trkpt lat="24.153899" lon="120.679087"/>
<trkpt lat="24.153902" lon="120.678753"/>
<trkpt lat="24.153465" lon="120.678737"/>
<trkpt lat="24.153316" lon="120.678799"/>
<trkpt lat="24.153220" lon="120.678551"/>
<trkpt lat="24.153118" lon="120.678283"/>
<trkpt lat="24.153100" lon="120.678237"/>
<trkpt lat="24.153027" lon="120.678048"/>
<trkpt lat="24.152451" lon="120.678336"/>
<trkpt lat="24.152498" lon="120.678455"/>
<trkpt lat="24.151886" lon="120.678741"/>
<trkpt lat="24.151793" lon="120.678500"/>
<trkpt lat="24.151636" lon="120.678117"/>
<trkpt lat="24.151525" lon="120.678175"/>
<trkpt lat="24.150941" lon="120.678477"/>
<trkpt lat="24.151010" lon="120.678661"/>
<trkpt lat="24.150841" lon="120.678887"/>
<trkpt lat="24.150672" lon="120.679153"/>
<trkpt lat="24.150680" lon="120.679203"/>
<trkpt lat="24.150530" lon="120.679260"/>
<trkpt lat="24.150315" lon="120.679267"/>
<trkpt lat="24.149988" lon="120.678989"/>
<trkpt lat="24.149943" lon="120.679061"/>
<trkpt lat="24.149836" lon="120.679217"/>
<trkpt lat="24.149782" lon="120.679287"/>
<trkpt lat="24.149532" lon="120.679090"/>
<trkpt lat="24.149085" lon="120.678738"/>
<trkpt lat="24.148589" lon="120.679348"/>
</trkseg></trk>
</gpx>