<?xml version="1.0" encoding="UTF-8"?>
<gpx version="1.1" creator="catrun" xmlns="http://www.topografix.com/GPX/1/1">
<metadata><name>西區 蜷睡貓咪 圖形路跑路線</name></metadata>
<wpt lat="24.160945" lon="120.668136"><name>風采</name><desc>地標</desc></wpt>
<wpt lat="24.163706" lon="120.668492"><name>中德公園</name><desc>地標</desc></wpt>
<wpt lat="24.165561" lon="120.670244"><name>太原公園</name><desc>地標</desc></wpt>
<trk><name>西區 蜷睡貓咪 圖形路跑路線</name><trkseg>
<trkpt lat="24.159745" lon="120.669195"/>
<trkpt lat="24.160433" lon="120.669203"/>
<trkpt lat="24.161008" lon="120.669205"/>
<trkpt lat="24.161601" lon="120.669206"/>
<trkpt lat="24.162213" lon="120.669207"/>
<trkpt lat="24.162369" lon="120.669208"/>
<trkpt lat="24.162836" lon="120.669209"/>
<trkpt lat="24.162930" lon="120.669209"/>
<trkpt lat="24.163457" lon="120.669210"/>
<trkpt lat="24.163797" lon="120.669211"/>
<trkpt lat="24.164009" lon="120.669219"/>
<trkpt lat="24.164382" lon="120.669218"/>
<trkpt lat="24.164921" lon="120.669224"/>
<trkpt lat="24.165166" lon="120.669230"/>
<trkpt lat="24.165515" lon="120.669229"/>
<trkpt lat="24.165521" lon="120.669862"/>
<trkpt lat="24.165775" lon="120.669860"/>
<trkpt lat="24.165766" lon="120.670550"/>
<trkpt lat="24.166278" lon="120.670548"/>
<trkpt lat="24.166276" lon="120.671339"/>
<trkpt lat="24.166280" lon="120.672128"/>
<trkpt lat="24.166527" lon="120.672111"/>
<trkpt lat="24.166806" lon="120.672116"/>
<trkpt lat="24.166895" lon="120.672118"/>
<trkpt lat="24.167004" lon="120.672113"/>
<trkpt lat="24.167490" lon="120.672092"/>
<trkpt lat="24.167961" lon="120.672035"/>
<trkpt lat="24.168243" lon="120.671884"/>
<trkpt lat="24.168312" lon="120.672170"/>
<trkpt lat="24.168421" lon="120.672588"/>
<trkpt lat="24.168460" lon="120.672724"/>
<trkpt lat="24.168755" lon="120.672633"/>
<trkpt lat="24.168767" lon="120.672742"/>
<trkpt lat="24.168828" lon="120.672726"/>
<trkpt lat="24.168895" lon="120.672709"/>
<trkpt lat="24.169190" lon="120.672620"/>
<trkpt lat="24.169315" lon="120.673116"/>
<trkpt lat="24.169357" lon="120.673324"/>
<trkpt lat="24.169375" lon="120.673590"/>
<trkpt lat="24.169372" lon="120.673632"/>
<trkpt lat="24.169330" lon="120.674311"/>
<trkpt lat="24.169171" lon="120.674305"/>
<trkpt lat="24.168854" lon="120.674293"/>
<trkpt lat="24.168664" lon="120.674853"/>
<trkpt lat="24.168683" lon="120.675690"/>
<trkpt lat="24.168629" lon="120.676423"/>
<trkpt lat="24.168621" lon="120.676767"/>
<trkpt lat="24.169167" lon="120.676819"/>
<trkpt lat="24.169502" lon="120.676851"/>
<trkpt lat="24.169829" lon="120.676882"/>
<trkpt lat="24.169825" lon="120.676938"/>
<trkpt lat="24.169913" lon="120.676945"/>
<trkpt lat="24.169872" lon="120.677879"/>
<trkpt lat="24.169921" lon="120.677887"/>
<trkpt lat="24.169949" lon="120.677918"/>
<trkpt lat="24.169947" lon="120.677972"/>
<trkpt lat="24.170548" lon="120.678120"/>
<trkpt lat="24.171234" lon="120.678279"/>
<trkpt lat="24.171231" lon="120.678348"/>
<trkpt lat="24.171293" lon="120.678351"/>
<trkpt lat="24.171254" lon="120.679018"/>
<trkpt lat="24.171190" lon="120.679013"/>
<trkpt lat="24.171184" lon="120.679100"/>
<trkpt lat="24.171035" lon="120.679077"/>
<trkpt lat="24.170877" lon="120.679069"/>
<trkpt lat="24.170816" lon="120.679074"/>
<trkpt lat="24.170504" lon="120.679102"/>
<trkpt lat="24.170275" lon="120.679139"/>
<trkpt lat="24.169977" lon="120.679151"/>
<trkpt lat="24.169845" lon="120.679130"/>
<trkpt lat="24.169843" lon="120.679208"/>
<trkpt lat="24.169841" lon="120.679224"/>
<trkpt lat="24.169835" lon="120.679343"/>
<trkpt lat="24.169833" lon="120.679367"/>
<trkpt lat="24.169827" lon="120.679444"/>
<trkpt lat="24.169745" lon="120.680347"/>
<trkpt lat="24.169693" lon="120.680342"/>
<trkpt lat="24.169687" lon="120.680420"/>
<trkpt lat="24.169681" lon="120.680498"/>
<trkpt lat="24.169736" lon="120.680503"/>
<trkpt lat="24.169728" lon="120.680679"/>
<trkpt lat="24.169708" lon="120.681188"/>
<trkpt lat="24.169704" lon="120.681279"/>
<trkpt lat="24.169696" lon="120.681405"/>
<trkpt lat="24.169669" lon="120.681910"/>
<trkpt lat="24.169660" lon="120.682195"/>
<trkpt lat="24.169651" lon="120.682266"/>
<trkpt lat="24.169644" lon="120.682344"/>
<trkpt lat="24.169598" lon="120.683052"/>
<trkpt lat="24.169662" lon="120.683059"/>
<trkpt lat="24.169682" lon="120.683091"/>
<trkpt lat="24.169680" lon="120.683138"/>
<trkpt lat="24.169594" lon="120.683123"/>
<trkpt lat="24.169523" lon="120.683112"/>
<trkpt lat="24.169176" lon="120.683058"/>
<trkpt lat="24.168543" lon="120.682959"/>
<trkpt lat="24.168543" lon="120.683007"/>
<trkpt lat="24.168467" lon="120.683006"/>
<trkpt lat="24.168446" lon="120.683539"/>
<trkpt lat="24.168443" lon="120.683605"/>
<trkpt lat="24.168442" lon="120.683697"/>
<trkpt lat="24.168414" lon="120.685058"/>
<trkpt lat="24.168340" lon="120.685054"/>
<trkpt lat="24.168324" lon="120.685072"/>
<trkpt lat="24.168024" lon="120.685051"/>
<trkpt lat="24.167726" lon="120.685031"/>
<trkpt lat="24.167092" lon="120.684987"/>
<trkpt lat="24.167082" lon="120.684963"/>
<trkpt lat="24.166996" lon="120.684950"/>
<trkpt lat="24.166894" lon="120.684961"/>
<trkpt lat="24.166858" lon="120.684987"/>
<trkpt lat="24.166854" lon="120.685070"/>
<trkpt lat="24.166855" lon="120.685169"/>
<trkpt lat="24.166854" lon="120.685248"/>
<trkpt lat="24.166062" lon="120.685250"/>
<trkpt lat="24.165994" lon="120.685249"/>
<trkpt lat="24.165982" lon="120.685534"/>
<trkpt lat="24.165970" lon="120.686372"/>
<trkpt lat="24.165966" lon="120.686690"/>
<trkpt lat="24.165904" lon="120.686703"/>
<trkpt lat="24.165904" lon="120.686761"/>
<trkpt lat="24.165358" lon="120.686733"/>
<trkpt lat="24.165357" lon="120.686817"/>
<trkpt lat="24.165289" lon="120.686816"/>
<trkpt lat="24.165244" lon="120.686815"/>
<trkpt lat="24.165245" lon="120.686732"/>
<trkpt lat="24.165097" lon="120.686742"/>
<trkpt lat="24.165022" lon="120.686741"/>
<trkpt lat="24.164955" lon="120.686742"/>
<trkpt lat="24.164629" lon="120.686729"/>
<trkpt lat="24.164405" lon="120.686713"/>
<trkpt lat="24.164234" lon="120.686710"/>
<trkpt lat="24.163937" lon="120.686703"/>
<trkpt lat="24.163938" lon="120.686745"/>
<trkpt lat="24.163911" lon="120.686768"/>
<trkpt lat="24.163877" lon="120.686763"/>
<trkpt lat="24.163861" lon="120.687625"/>
<trkpt lat="24.163853" lon="120.688472"/>
<trkpt lat="24.163796" lon="120.688442"/>
<trkpt lat="24.163792" lon="120.688539"/>
<trkpt lat="24.163727" lon="120.688510"/>
<trkpt lat="24.163625" lon="120.688458"/>
<trkpt lat="24.163456" lon="120.688428"/>
<trkpt lat="24.163412" lon="120.688422"/>
<trkpt lat="24.163287" lon="120.688414"/>
<trkpt lat="24.163139" lon="120.688401"/>
<trkpt lat="24.163033" lon="120.688427"/>
<trkpt lat="24.162958" lon="120.688457"/>
<trkpt lat="24.162912" lon="120.688358"/>
<trkpt lat="24.162847" lon="120.688359"/>
<trkpt lat="24.162781" lon="120.688337"/>
<trkpt lat="24.162601" lon="120.688335"/>
<trkpt lat="24.162548" lon="120.688357"/>
<trkpt lat="24.162481" lon="120.688383"/>
<trkpt lat="24.162416" lon="120.688418"/>
<trkpt lat="24.162350" lon="120.688493"/>
<trkpt lat="24.162300" lon="120.688559"/>
<trkpt lat="24.162258" lon="120.688687"/>
<trkpt lat="24.162236" lon="120.688785"/>
<trkpt lat="24.162242" lon="120.689095"/>
<trkpt lat="24.162159" lon="120.689140"/>
<trkpt lat="24.162051" lon="120.689200"/>
<trkpt lat="24.161984" lon="120.689240"/>
<trkpt lat="24.161829" lon="120.689239"/>
<trkpt lat="24.161623" lon="120.689221"/>
<trkpt lat="24.161488" lon="120.689252"/>
<trkpt lat="24.161476" lon="120.689812"/>
<trkpt lat="24.161181" lon="120.689706"/>
<trkpt lat="24.160970" lon="120.689644"/>
<trkpt lat="24.160722" lon="120.689561"/>
<trkpt lat="24.160578" lon="120.689512"/>
<trkpt lat="24.160195" lon="120.689366"/>
<trkpt lat="24.159744" lon="120.689231"/>
<trkpt lat="24.159724" lon="120.689225"/>
<trkpt lat="24.159528" lon="120.689157"/>
<trkpt lat="24.159343" lon="120.689107"/>
<trkpt lat="24.158974" lon="120.688987"/>
<trkpt lat="24.158598" lon="120.688970"/>
<trkpt lat="24.158515" lon="120.688967"/>
<trkpt lat="24.158473" lon="120.689000"/>
<trkpt lat="24.157892" lon="120.689598"/>
<trkpt lat="24.157872" lon="120.689619"/>
<trkpt lat="24.157779" lon="120.689714"/>
<trkpt lat="24.157648" lon="120.689729"/>
<trkpt lat="24.157584" lon="120.689776"/>
<trkpt lat="24.157521" lon="120.689822"/>
<trkpt lat="24.157249" lon="120.690593"/>
<trkpt lat="24.156607" lon="120.690337"/>
<trkpt lat="24.156252" lon="120.690185"/>
<trkpt lat="24.155923" lon="120.690065"/>
<trkpt lat="24.155900" lon="120.690131"/>
<trkpt lat="24.155682" lon="120.690043"/>
<trkpt lat="24.155460" lon="120.689950"/>
<trkpt lat="24.155483" lon="120.689882"/>
<trkpt lat="24.155052" lon="120.689723"/>
<trkpt lat="24.154891" lon="120.689655"/>
<trkpt lat="24.153793" lon="120.689213"/>
<trkpt lat="24.153681" lon="120.689168"/>
<trkpt lat="24.153602" lon="120.689137"/>
<trkpt lat="24.153511" lon="120.689100"/>
<trkpt lat="24.153483" lon="120.689187"/>
<trkpt lat="24.153472" lon="120.689220"/>
<trkpt lat="24.153053" lon="120.689073"/>
<trkpt lat="24.152893" lon="120.689008"/>
<trkpt lat="24.152787" lon="120.688966"/>
<trkpt lat="24.152805" lon="120.688913"/>
<trkpt lat="24.152833" lon="120.688828"/>
<trkpt lat="24.152734" lon="120.688785"/>
<trkpt lat="24.152473" lon="120.688673"/>
<trkpt lat="24.151755" lon="120.688377"/>
<trkpt lat="24.151403" lon="120.688227"/>
<trkpt lat="24.151044" lon="120.688085"/>
<trkpt lat="24.150891" lon="120.688020"/>
<trkpt lat="24.150934" lon="120.687905"/>
<trkpt lat="24.150944" lon="120.687795"/>
<trkpt lat="24.150819" lon="120.687823"/>
<trkpt lat="24.150372" lon="120.687632"/>
<trkpt lat="24.150775" lon="120.686289"/>
<trkpt lat="24.150732" lon="120.686186"/>
<trkpt lat="24.150264" lon="120.685989"/>
<trkpt lat="24.149974" lon="120.685858"/>
<trkpt lat="24.149699" lon="120.685739"/>
<trkpt lat="24.149526" lon="120.686197"/>
<trkpt lat="24.149404" lon="120.686250"/>
<trkpt lat="24.149272" lon="120.686188"/>
<trkpt lat="24.149268" lon="120.686158"/>
<trkpt lat="24.149254" lon="120.686125"/>
<trkpt lat="24.149223" lon="120.686093"/>
<trkpt lat="24.149518" lon="120.685209"/>
<trkpt lat="24.149540" lon="120.685141"/>
<trkpt lat="24.149560" lon="120.685082"/>
<trkpt lat="24.149622" lon="120.684903"/>
<trkpt lat="24.149729" lon="120.684516"/>
<trkpt lat="24.149349" lon="120.684364"/>
<trkpt lat="24.148922" lon="120.684184"/>
<trkpt lat="24.148535" lon="120.684020"/>
<trkpt lat="24.148158" lon="120.683858"/>
<trkpt lat="24.148273" lon="120.683541"/>
<trkpt lat="24.148310" lon="120.683439"/>
<trkpt lat="24.148685" lon="120.682367"/>
<trkpt lat="24.147593" lon="120.681885"/>
<trkpt lat="24.147807" lon="120.681195"/>
<trkpt lat="24.147480" lon="120.681056"/>
<trkpt lat="24.147308" lon="120.680980"/>
<trkpt lat="24.147217" lon="120.680898"/>
<trkpt lat="24.147029" lon="120.680693"/>
<trkpt lat="24.147090" lon="120.680618"/>
<trkpt lat="24.147017" lon="120.680545"/>
<trkpt lat="24.147218" lon="120.680316"/>
<trkpt lat="24.147263" lon="120.680265"/>
<trkpt lat="24.147413" lon="120.680094"/>
<trkpt lat="24.147563" lon="120.679922"/>
<trkpt lat="24.147713" lon="120.679750"/>
<trkpt lat="24.147874" lon="120.679538"/>
<trkpt lat="24.147551" lon="120.679204"/>
<trkpt lat="24.147164" lon="120.678803"/>
<trkpt lat="24.147112" lon="120.678749"/>
<trkpt lat="24.146715" lon="120.678338"/>
<trkpt lat="24.146452" lon="120.678060"/>
<trkpt lat="24.146548" lon="120.677866"/>
<trkpt lat="24.146895" lon="120.677468"/>
<trkpt lat="24.147177" lon="120.677160"/>
<trkpt lat="24.147627" lon="120.676640"/>
<trkpt lat="24.147685" lon="120.676579"/>
<trkpt lat="24.147339" lon="120.676180"/>
<trkpt lat="24.146981" lon="120.675822"/>
<trkpt lat="24.147190" lon="120.675563"/>
<trkpt lat="24.147422" lon="120.675340"/>
<trkpt lat="24.147836" lon="120.674836"/>
<trkpt lat="24.147571" lon="120.674552"/>
<trkpt lat="24.147225" lon="120.674182"/>
<trkpt lat="24.147257" lon="120.674143"/>
<trkpt lat="24.147256" lon="120.674115"/>
<trkpt lat="24.147202" lon="120.674057"/>
<trkpt lat="24.147364" lon="120.673874"/>
<trkpt lat="24.147383" lon="120.673714"/>
<trkpt lat="24.147383" lon="120.673563"/>
<trkpt lat="24.147420" lon="120.673563"/>
<trkpt lat="24.147436" lon="120.673554"/>
<trkpt lat="24.147444" lon="120.673511"/>
<trkpt lat="24.147509" lon="120.673436"/>
<trkpt lat="24.147570" lon="120.673364"/>
<trkpt lat="24.147616" lon="120.673311"/>
<trkpt lat="24.147640" lon="120.673275"/>
<trkpt lat="24.147636" lon="120.673243"/>
<trkpt lat="24.147636" lon="120.673203"/>
<trkpt lat="24.147658" lon="120.673202"/>
<trkpt lat="24.147708" lon="120.673193"/>
<trkpt lat="24.147822" lon="120.673156"/>
<trkpt lat="24.148174" lon="120.672742"/>
<trkpt lat="24.148152" lon="120.672720"/>
<trkpt lat="24.148222" lon="120.672637"/>
<trkpt lat="24.147878" lon="120.672279"/>
<trkpt lat="24.148332" lon="120.671746"/>
<trkpt lat="24.148242" lon="120.671693"/>
<trkpt lat="24.148028" lon="120.671430"/>
<trkpt lat="24.147876" lon="120.671234"/>
<trkpt lat="24.147876" lon="120.671140"/>
<trkpt lat="24.147878" lon="120.671029"/>
<trkpt lat="24.147878" lon="120.670960"/>
<trkpt lat="24.148007" lon="120.670960"/>
<trkpt lat="24.148434" lon="120.670964"/>
<trkpt lat="24.149004" lon="120.670961"/>
<trkpt lat="24.149020" lon="120.670417"/>
<trkpt lat="24.149019" lon="120.669963"/>
<trkpt lat="24.149109" lon="120.669963"/>
<trkpt lat="24.149109" lon="120.669822"/>
<trkpt lat="24.149189" lon="120.669822"/>
<trkpt lat="24.149240" lon="120.669821"/>
<trkpt lat="24.149496" lon="120.669819"/>
<trkpt lat="24.149564" lon="120.669819"/>
<trkpt lat="24.149630" lon="120.669800"/>
<trkpt lat="24.149697" lon="120.669782"/>
<trkpt lat="24.149988" lon="120.669786"/>
<trkpt lat="24.150236" lon="120.669786"/>
<trkpt lat="24.150236" lon="120.669693"/>
<trkpt lat="24.150324" lon="120.669695"/>
<trkpt lat="24.150378" lon="120.669745"/>
<trkpt lat="24.150460" lon="120.669722"/>
<trkpt lat="24.150620" lon="120.669611"/>
<trkpt lat="24.150760" lon="120.669381"/>
<trkpt lat="24.150813" lon="120.669382"/>
<trkpt lat="24.150813" lon="120.669354"/>
<trkpt lat="24.150814" lon="120.669120"/>
<trkpt lat="24.150836" lon="120.669048"/>
<trkpt lat="24.150858" lon="120.668983"/>
<trkpt lat="24.150858" lon="120.668792"/>
<trkpt lat="24.150797" lon="120.668792"/>
<trkpt lat="24.150707" lon="120.668793"/>
<trkpt lat="24.150707" lon="120.668581"/>
<trkpt lat="24.150794" lon="120.668580"/>
<trkpt lat="24.150858" lon="120.668580"/>
<trkpt lat="24.150857" lon="120.668518"/>
<trkpt lat="24.151194" lon="120.668517"/>
<trkpt lat="24.151283" lon="120.668402"/>
<trkpt lat="24.151437" lon="120.668155"/>
<trkpt lat="24.152002" lon="120.667302"/>
<trkpt lat="24.152541" lon="120.666452"/>
<trkpt lat="24.152585" lon="120.666497"/>
<trkpt lat="24.152622" lon="120.666494"/>
<trkpt lat="24.152695" lon="120.666417"/>
<trkpt lat="24.152765" lon="120.666343"/>
<trkpt lat="24.152746" lon="120.666279"/>
<trkpt lat="24.152690" lon="120.666211"/>
<trkpt lat="24.153356" lon="120.665087"/>
<trkpt lat="24.153586" lon="120.665328"/>
<trkpt lat="24.153630" lon="120.665370"/>
<trkpt lat="24.153745" lon="120.665485"/>
<trkpt lat="24.153817" lon="120.665559"/>
<trkpt lat="24.153876" lon="120.665634"/>
<trkpt lat="24.153939" lon="120.665715"/>
<trkpt lat="24.154341" lon="120.666115"/>
<trkpt lat="24.154694" lon="120.666514"/>
<trkpt lat="24.154945" lon="120.666090"/>
<trkpt lat="24.155544" lon="120.666671"/>
<trkpt lat="24.155331" lon="120.666968"/>
<trkpt lat="24.155262" lon="120.667039"/>
<trkpt lat="24.155186" lon="120.667070"/>
<trkpt lat="24.154994" lon="120.667289"/>
<trkpt lat="24.154818" lon="120.667492"/>
<trkpt lat="24.154749" lon="120.667567"/>
<trkpt lat="24.154671" lon="120.667648"/>
<trkpt lat="24.154375" lon="120.667986"/>
<trkpt lat="24.154294" lon="120.668079"/>
<trkpt lat="24.154226" lon="120.668158"/>
<trkpt lat="24.154110" lon="120.668290"/>
<trkpt lat="24.153931" lon="120.668508"/>
<trkpt lat="24.154215" lon="120.668796"/>
<trkpt lat="24.154014" lon="120.669034"/>
<trkpt lat="24.154129" lon="120.669153"/>
<trkpt lat="24.153953" lon="120.669351"/>
<trkpt lat="24.154374" lon="120.669807"/>
<trkpt lat="24.154328" lon="120.669840"/>
<trkpt lat="24.153850" lon="120.670185"/>
<trkpt lat="24.153788" lon="120.670228"/>
<trkpt lat="24.153642" lon="120.670336"/>
<trkpt lat="24.153591" lon="120.670268"/>
<trkpt lat="24.153568" lon="120.670260"/>
<trkpt lat="24.153555" lon="120.670258"/>
<trkpt lat="24.153497" lon="120.670305"/>
<trkpt lat="24.153400" lon="120.670400"/>
<trkpt lat="24.153265" lon="120.670505"/>
<trkpt lat="24.153135" lon="120.670607"/>
<trkpt lat="24.153236" lon="120.670607"/>
<trkpt lat="24.153039" lon="120.670756"/>
<trkpt lat="24.152911" lon="120.670849"/>
<trkpt lat="24.152687" lon="120.671018"/>
<trkpt lat="24.152646" lon="120.671047"/>
<trkpt lat="24.152570" lon="120.671102"/>
<trkpt lat="24.152434" lon="120.671198"/>
<trkpt lat="24.152195" lon="120.671401"/>
<trkpt lat="24.152200" lon="120.672073"/>
<trkpt lat="24.152202" lon="120.673030"/>
<trkpt lat="24.152203" lon="120.673300"/>
<trkpt lat="24.152199" lon="120.673636"/>
<trkpt lat="24.152198" lon="120.674531"/>
<trkpt lat="24.152191" lon="120.675427"/>
<trkpt lat="24.152490" lon="120.675425"/>
<trkpt lat="24.152493" lon="120.676551"/>
<trkpt lat="24.152667" lon="120.676553"/>
<trkpt lat="24.152668" lon="120.676624"/>
<trkpt lat="24.152683" lon="120.677230"/>
<trkpt lat="24.152814" lon="120.677346"/>
<trkpt lat="24.152838" lon="120.677556"/>
<trkpt lat="24.153011" lon="120.678007"/>
<trkpt lat="24.153027" lon="120.678048"/>
<trkpt lat="24.153100" lon="120.678237"/>
<trkpt lat="24.153118" lon="120.678283"/>
<trkpt lat="24.153220" lon="120.678551"/>
<trkpt lat="24.153316" lon="120.678799"/>
<trkpt lat="24.153440" lon="120.679121"/>
<trkpt lat="24.153731" lon="120.679100"/>
<trkpt lat="24.153899" lon="120.679087"/>
<trkpt lat="24.154085" lon="120.679152"/>
<trkpt lat="24.154260" lon="120.679227"/>
<trkpt lat="24.154420" lon="120.679384"/>
<trkpt lat="24.154512" lon="120.679506"/>
<trkpt lat="24.154615" lon="120.679678"/>
<trkpt lat="24.154980" lon="120.680345"/>
<trkpt lat="24.155026" lon="120.680429"/>
<trkpt lat="24.155078" lon="120.680521"/>
<trkpt lat="24.155494" lon="120.681223"/>
<trkpt lat="24.155562" lon="120.681341"/>
<trkpt lat="24.155602" lon="120.681320"/>
<trkpt lat="24.155650" lon="120.681314"/>
<trkpt lat="24.155719" lon="120.681314"/>
<trkpt lat="24.155824" lon="120.681313"/>
<trkpt lat="24.155939" lon="120.681379"/>
<trkpt lat="24.155962" lon="120.681495"/>
<trkpt lat="24.155982" lon="120.681598"/>
<trkpt lat="24.155999" lon="120.681670"/>
<trkpt lat="24.156525" lon="120.681460"/>
<trkpt lat="24.156667" lon="120.681427"/>
<trkpt lat="24.156726" lon="120.681440"/>
<trkpt lat="24.156840" lon="120.681497"/>
<trkpt lat="24.157305" lon="120.681398"/>
<trkpt lat="24.157323" lon="120.681343"/>
<trkpt lat="24.157341" lon="120.681288"/>
<trkpt lat="24.157406" lon="120.681277"/>
<trkpt lat="24.157482" lon="120.681270"/>
<trkpt lat="24.157689" lon="120.681207"/>
<trkpt lat="24.157668" lon="120.681084"/>
<trkpt lat="24.157927" lon="120.681023"/>
<trkpt lat="24.157922" lon="120.680359"/>
<trkpt lat="24.157796" lon="120.680098"/>
<trkpt lat="24.157775" lon="120.679957"/>
<trkpt lat="24.157866" lon="120.679957"/>
<trkpt lat="24.158183" lon="120.679959"/>
<trkpt lat="24.158568" lon="120.679961"/>
<trkpt lat="24.158752" lon="120.679960"/>
<trkpt lat="24.159125" lon="120.679959"/>
<trkpt lat="24.159579" lon="120.679964"/>
<trkpt lat="24.159584" lon="120.679571"/>
<trkpt lat="24.159588" lon="120.679203"/>
<trkpt lat="24.159783" lon="120.679211"/>
<trkpt lat="24.159794" lon="120.678649"/>
<trkpt lat="24.160377" lon="120.678591"/>
<trkpt lat="24.160388" lon="120.677846"/>
<trkpt lat="24.160390" lon="120.677472"/>
<trkpt lat="24.160407" lon="120.676600"/>
<trkpt lat="24.160411" lon="120.676341"/>
<trkpt lat="24.160414" lon="120.675985"/>
<trkpt lat="24.160431" lon="120.675480"/>
<trkpt lat="24.160429" lon="120.675305"/>
<trkpt lat="24.160436" lon="120.674601"/>
<trkpt lat="24.160438" lon="120.674462"/>
<trkpt lat="24.160436" lon="120.674064"/>
<trkpt lat="24.160435" lon="120.673799"/>
<trkpt lat="24.160433" lon="120.672588"/>
<trkpt lat="24.160433" lon="120.672569"/>
<trkpt lat="24.160432" lon="120.672190"/>
<trkpt lat="24.160394" lon="120.672191"/>
<trkpt lat="24.160396" lon="120.672084"/>
<trkpt lat="24.160025" lon="120.672085"/>
<trkpt lat="24.159678" lon="120.672086"/>
<trkpt lat="24.159205" lon="120.672083"/>
<trkpt lat="24.159149" lon="120.672083"/>
<trkpt lat="24.158468" lon="120.672083"/>
<trkpt lat="24.158464" lon="120.671693"/>
<trkpt lat="24.158446" lon="120.670944"/>
<trkpt lat="24.158446" lon="120.670614"/>
<trkpt lat="24.158525" lon="120.670612"/>
<trkpt lat="24.158526" lon="120.670510"/>
<trkpt lat="24.159123" lon="120.670509"/>
<trkpt lat="24.159123" lon="120.670365"/>
<trkpt lat="24.159201" lon="120.670366"/>
<trkpt lat="24.159201" lon="120.670098"/>
<trkpt lat="24.159209" lon="120.669817"/>
<trkpt lat="24.159209" lon="120.669738"/>
<trkpt lat="24.159214" lon="120.669154"/>
<trkpt lat="24.159339" lon="120.669191"/>
<trkpt lat="24.159745" lon="120.669195"/>
</trkseg></trk>
</gpx>