<?xml version="1.0" encoding="UTF-8"?>
<gpx version="1.1" creator="catrun" xmlns="http://www.topografix.com/GPX/1/1">
<metadata><name>西區 貓咪肉球 圖形路跑路線</name></metadata>
<wpt lat="24.140511" lon="120.671040"><name>自立公園</name><desc>地標</desc></wpt>
<wpt lat="24.141317" lon="120.673583"><name>林之助畫室</name><desc>地標</desc></wpt>
<wpt lat="24.141539" lon="120.673539"><name>國立臺中教育大學中華校區</name><desc>地標</desc></wpt>
<trk><name>西區 貓咪肉球 圖形路跑路線</name><trkseg>
<trkpt lat="24.142005" lon="120.671201"/>
<trkpt lat="24.141802" lon="120.671439"/>
<trkpt lat="24.141461" lon="120.671087"/>
<trkpt lat="24.141127" lon="120.671480"/>
<trkpt lat="24.140680" lon="120.671984"/>
<trkpt lat="24.140546" lon="120.672137"/>
<trkpt lat="24.140379" lon="120.672329"/>
<trkpt lat="24.140318" lon="120.672395"/>
<trkpt lat="24.140347" lon="120.672478"/>
<trkpt lat="24.140332" lon="120.672514"/>
<trkpt lat="24.140279" lon="120.672565"/>
<trkpt lat="24.140201" lon="120.672658"/>
<trkpt lat="24.140146" lon="120.672596"/>
<trkpt lat="24.139695" lon="120.673110"/>
<trkpt lat="24.139175" lon="120.673708"/>
<trkpt lat="24.138866" lon="120.674061"/>
<trkpt lat="24.139228" lon="120.674432"/>
<trkpt lat="24.139587" lon="120.674797"/>
<trkpt lat="24.138756" lon="120.675749"/>
<trkpt lat="24.139010" lon="120.676014"/>
<trkpt lat="24.139327" lon="120.676344"/>
<trkpt lat="24.138936" lon="120.676786"/>
<trkpt lat="24.138376" lon="120.676197"/>
<trkpt lat="24.138311" lon="120.676270"/>
<trkpt lat="24.137805" lon="120.676846"/>
<trkpt lat="24.138307" lon="120.677342"/>
<trkpt lat="24.138315" lon="120.677359"/>
<trkpt lat="24.138318" lon="120.677379"/>
<trkpt lat="24.137650" lon="120.678134"/>
<trkpt lat="24.138514" lon="120.679038"/>
<trkpt lat="24.138579" lon="120.678961"/>
<trkpt lat="24.138671" lon="120.679056"/>
<trkpt lat="24.138750" lon="120.679138"/>
<trkpt lat="24.138747" lon="120.679167"/>
<trkpt lat="24.138700" lon="120.679223"/>
<trkpt lat="24.138935" lon="120.679464"/>
<trkpt lat="24.139349" lon="120.679888"/>
<trkpt lat="24.139112" lon="120.680166"/>
<trkpt lat="24.139553" lon="120.680661"/>
<trkpt lat="24.139106" lon="120.681191"/>
<trkpt lat="24.139351" lon="120.681460"/>
<trkpt lat="24.139729" lon="120.681842"/>
<trkpt lat="24.140025" lon="120.682124"/>
<trkpt lat="24.139968" lon="120.682187"/>
<trkpt lat="24.139963" lon="120.682251"/>
<trkpt lat="24.140021" lon="120.682310"/>
<trkpt lat="24.139933" lon="120.682412"/>
<trkpt lat="24.139858" lon="120.682498"/>
<trkpt lat="24.139735" lon="120.682640"/>
<trkpt lat="24.140420" lon="120.683358"/>
<trkpt lat="24.140079" lon="120.683761"/>
<trkpt lat="24.140421" lon="120.684115"/>
<trkpt lat="24.140652" lon="120.684341"/>
<trkpt lat="24.140794" lon="120.684488"/>
<trkpt lat="24.140984" lon="120.684673"/>
<trkpt lat="24.141144" lon="120.684842"/>
<trkpt lat="24.141502" lon="120.685255"/>
<trkpt lat="24.141517" lon="120.685684"/>
<trkpt lat="24.141671" lon="120.685679"/>
<trkpt lat="24.141684" lon="120.685678"/>
<trkpt lat="24.141687" lon="120.685763"/>
<trkpt lat="24.141694" lon="120.685918"/>
<trkpt lat="24.141700" lon="120.686068"/>
<trkpt lat="24.141685" lon="120.686103"/>
<trkpt lat="24.141565" lon="120.686100"/>
<trkpt lat="24.141541" lon="120.686877"/>
<trkpt lat="24.141529" lon="120.687337"/>
<trkpt lat="24.141518" lon="120.687570"/>
<trkpt lat="24.142279" lon="120.687599"/>
<trkpt lat="24.143004" lon="120.687633"/>
<trkpt lat="24.143134" lon="120.687581"/>
<trkpt lat="24.143415" lon="120.687607"/>
<trkpt lat="24.143353" lon="120.687921"/>
<trkpt lat="24.143683" lon="120.687944"/>
<trkpt lat="24.143726" lon="120.687807"/>
<trkpt lat="24.143834" lon="120.687640"/>
<trkpt lat="24.144353" lon="120.687683"/>
<trkpt lat="24.144468" lon="120.687688"/>
<trkpt lat="24.145714" lon="120.687798"/>
<trkpt lat="24.145644" lon="120.688657"/>
<trkpt lat="24.145590" lon="120.689427"/>
<trkpt lat="24.146116" lon="120.689466"/>
<trkpt lat="24.146334" lon="120.689497"/>
<trkpt lat="24.146520" lon="120.689503"/>
<trkpt lat="24.146754" lon="120.689510"/>
<trkpt lat="24.146909" lon="120.689528"/>
<trkpt lat="24.147009" lon="120.689486"/>
<trkpt lat="24.146876" lon="120.689058"/>
<trkpt lat="24.146780" lon="120.688684"/>
<trkpt lat="24.146954" lon="120.688618"/>
<trkpt lat="24.147009" lon="120.688643"/>
<trkpt lat="24.147191" lon="120.688830"/>
<trkpt lat="24.147345" lon="120.689027"/>
<trkpt lat="24.147373" lon="120.689061"/>
<trkpt lat="24.147438" lon="120.689135"/>
<trkpt lat="24.147732" lon="120.689421"/>
<trkpt lat="24.147923" lon="120.689543"/>
<trkpt lat="24.148061" lon="120.689598"/>
<trkpt lat="24.148296" lon="120.689631"/>
<trkpt lat="24.148547" lon="120.689677"/>
<trkpt lat="24.148505" lon="120.690178"/>
<trkpt lat="24.148528" lon="120.690305"/>
<trkpt lat="24.148570" lon="120.690469"/>
<trkpt lat="24.148658" lon="120.690667"/>
<trkpt lat="24.148827" lon="120.690870"/>
<trkpt lat="24.148978" lon="120.690958"/>
<trkpt lat="24.149057" lon="120.691027"/>
<trkpt lat="24.149140" lon="120.691044"/>
<trkpt lat="24.149275" lon="120.691086"/>
<trkpt lat="24.149307" lon="120.691096"/>
<trkpt lat="24.149811" lon="120.691215"/>
<trkpt lat="24.149866" lon="120.691220"/>
<trkpt lat="24.149923" lon="120.691221"/>
<trkpt lat="24.149982" lon="120.691169"/>
<trkpt lat="24.150040" lon="120.691098"/>
<trkpt lat="24.150118" lon="120.690922"/>
<trkpt lat="24.150326" lon="120.690285"/>
<trkpt lat="24.150464" lon="120.689865"/>
<trkpt lat="24.151017" lon="120.688181"/>
<trkpt lat="24.151044" lon="120.688085"/>
<trkpt lat="24.151403" lon="120.688227"/>
<trkpt lat="24.151755" lon="120.688377"/>
<trkpt lat="24.152473" lon="120.688673"/>
<trkpt lat="24.152734" lon="120.688785"/>
<trkpt lat="24.152833" lon="120.688828"/>
<trkpt lat="24.152939" lon="120.688873"/>
<trkpt lat="24.153039" lon="120.688911"/>
<trkpt lat="24.153320" lon="120.688050"/>
<trkpt lat="24.153387" lon="120.687838"/>
<trkpt lat="24.153418" lon="120.687764"/>
<trkpt lat="24.153397" lon="120.687753"/>
<trkpt lat="24.153712" lon="120.686850"/>
<trkpt lat="24.153978" lon="120.686955"/>
<trkpt lat="24.154320" lon="120.687097"/>
<trkpt lat="24.154383" lon="120.687141"/>
<trkpt lat="24.155583" lon="120.687630"/>
<trkpt lat="24.155241" lon="120.688608"/>
<trkpt lat="24.155484" lon="120.688694"/>
<trkpt lat="24.155827" lon="120.688840"/>
<trkpt lat="24.156101" lon="120.688065"/>
<trkpt lat="24.156171" lon="120.688139"/>
<trkpt lat="24.156408" lon="120.688348"/>
<trkpt lat="24.156451" lon="120.688304"/>
<trkpt lat="24.156508" lon="120.688245"/>
<trkpt lat="24.156592" lon="120.688342"/>
<trkpt lat="24.156692" lon="120.688174"/>
<trkpt lat="24.156928" lon="120.687089"/>
<trkpt lat="24.157399" lon="120.687293"/>
<trkpt lat="24.157788" lon="120.687467"/>
<trkpt lat="24.158676" lon="120.687826"/>
<trkpt lat="24.158922" lon="120.687925"/>
<trkpt lat="24.158923" lon="120.687854"/>
<trkpt lat="24.158918" lon="120.687415"/>
<trkpt lat="24.158917" lon="120.687317"/>
<trkpt lat="24.158926" lon="120.686740"/>
<trkpt lat="24.158928" lon="120.686588"/>
<trkpt lat="24.159013" lon="120.686591"/>
<trkpt lat="24.159036" lon="120.685709"/>
<trkpt lat="24.159036" lon="120.685686"/>
<trkpt lat="24.159039" lon="120.685573"/>
<trkpt lat="24.159039" lon="120.685540"/>
<trkpt lat="24.159041" lon="120.685452"/>
<trkpt lat="24.159044" lon="120.685226"/>
<trkpt lat="24.159156" lon="120.685227"/>
<trkpt lat="24.159203" lon="120.685189"/>
<trkpt lat="24.159281" lon="120.685188"/>
<trkpt lat="24.159656" lon="120.685186"/>
<trkpt lat="24.159674" lon="120.685186"/>
<trkpt lat="24.159700" lon="120.685185"/>
<trkpt lat="24.160170" lon="120.685179"/>
<trkpt lat="24.160169" lon="120.685102"/>
<trkpt lat="24.160168" lon="120.685007"/>
<trkpt lat="24.160175" lon="120.684939"/>
<trkpt lat="24.160221" lon="120.684889"/>
<trkpt lat="24.160276" lon="120.684890"/>
<trkpt lat="24.160288" lon="120.683931"/>
<trkpt lat="24.160292" lon="120.683683"/>
<trkpt lat="24.159720" lon="120.683675"/>
<trkpt lat="24.159716" lon="120.683362"/>
<trkpt lat="24.159745" lon="120.683306"/>
<trkpt lat="24.159742" lon="120.682349"/>
<trkpt lat="24.159579" lon="120.682345"/>
<trkpt lat="24.159084" lon="120.682350"/>
<trkpt lat="24.159089" lon="120.681884"/>
<trkpt lat="24.158155" lon="120.681881"/>
<trkpt lat="24.158160" lon="120.681492"/>
<trkpt lat="24.158160" lon="120.681442"/>
<trkpt lat="24.158160" lon="120.681113"/>
<trkpt lat="24.158103" lon="120.681116"/>
<trkpt lat="24.157689" lon="120.681207"/>
<trkpt lat="24.157482" lon="120.681270"/>
<trkpt lat="24.157406" lon="120.681277"/>
<trkpt lat="24.157341" lon="120.681288"/>
<trkpt lat="24.157323" lon="120.681343"/>
<trkpt lat="24.157305" lon="120.681398"/>
<trkpt lat="24.156840" lon="120.681497"/>
<trkpt lat="24.156726" lon="120.681440"/>
<trkpt lat="24.156667" lon="120.681427"/>
<trkpt lat="24.156525" lon="120.681460"/>
<trkpt lat="24.155999" lon="120.681670"/>
<trkpt lat="24.155982" lon="120.681598"/>
<trkpt lat="24.155962" lon="120.681495"/>
<trkpt lat="24.155939" lon="120.681379"/>
<trkpt lat="24.155824" lon="120.681313"/>
<trkpt lat="24.155719" lon="120.681314"/>
<trkpt lat="24.155696" lon="120.681532"/>
<trkpt lat="24.155643" lon="120.681555"/>
<trkpt lat="24.155709" lon="120.681649"/>
<trkpt lat="24.155808" lon="120.681746"/>
<trkpt lat="24.155999" lon="120.681670"/>
<trkpt lat="24.156525" lon="120.681460"/>
<trkpt lat="24.156685" lon="120.681890"/>
<trkpt lat="24.156709" lon="120.681958"/>
<trkpt lat="24.156993" lon="120.681865"/>
<trkpt lat="24.157354" lon="120.681798"/>
<trkpt lat="24.157305" lon="120.681398"/>
<trkpt lat="24.157323" lon="120.681343"/>
<trkpt lat="24.157341" lon="120.681288"/>
<trkpt lat="24.157406" lon="120.681277"/>
<trkpt lat="24.157482" lon="120.681270"/>
<trkpt lat="24.157689" lon="120.681207"/>
<trkpt lat="24.158103" lon="120.681116"/>
<trkpt lat="24.158160" lon="120.681113"/>
<trkpt lat="24.158160" lon="120.681442"/>
<trkpt lat="24.158160" lon="120.681492"/>
<trkpt lat="24.159093" lon="120.681492"/>
<trkpt lat="24.159103" lon="120.680969"/>
<trkpt lat="24.159580" lon="120.680968"/>
<trkpt lat="24.159957" lon="120.680968"/>
<trkpt lat="24.160337" lon="120.680970"/>
<trkpt lat="24.160358" lon="120.679973"/>
<trkpt lat="24.160801" lon="120.679973"/>
<trkpt lat="24.161182" lon="120.679976"/>
<trkpt lat="24.161185" lon="120.679227"/>
<trkpt lat="24.160934" lon="120.679224"/>
<trkpt lat="24.160939" lon="120.678537"/>
<trkpt lat="24.161225" lon="120.678510"/>
<trkpt lat="24.161664" lon="120.678461"/>
<trkpt lat="24.161680" lon="120.677351"/>
<trkpt lat="24.161691" lon="120.676674"/>
<trkpt lat="24.161694" lon="120.676446"/>
<trkpt lat="24.161698" lon="120.676162"/>
<trkpt lat="24.161511" lon="120.676017"/>
<trkpt lat="24.161385" lon="120.675878"/>
<trkpt lat="24.161215" lon="120.675698"/>
<trkpt lat="24.161130" lon="120.675515"/>
<trkpt lat="24.161089" lon="120.675372"/>
<trkpt lat="24.161060" lon="120.675268"/>
<trkpt lat="24.160747" lon="120.675372"/>
<trkpt lat="24.160431" lon="120.675480"/>
<trkpt lat="24.160429" lon="120.675305"/>
<trkpt lat="24.160436" lon="120.674601"/>
<trkpt lat="24.159195" lon="120.674614"/>
<trkpt lat="24.159204" lon="120.673641"/>
<trkpt lat="24.158817" lon="120.673644"/>
<trkpt lat="24.158610" lon="120.673646"/>
<trkpt lat="24.158451" lon="120.673647"/>
<trkpt lat="24.157940" lon="120.673639"/>
<trkpt lat="24.157501" lon="120.673632"/>
<trkpt lat="24.157446" lon="120.673633"/>
<trkpt lat="24.157298" lon="120.673636"/>
<trkpt lat="24.157229" lon="120.673633"/>
<trkpt lat="24.157231" lon="120.674401"/>
<trkpt lat="24.156792" lon="120.674406"/>
<trkpt lat="24.156358" lon="120.674410"/>
<trkpt lat="24.156355" lon="120.674845"/>
<trkpt lat="24.156353" lon="120.675199"/>
<trkpt lat="24.156358" lon="120.675319"/>
<trkpt lat="24.156743" lon="120.675431"/>
<trkpt lat="24.156969" lon="120.675440"/>
<trkpt lat="24.157233" lon="120.675439"/>
<trkpt lat="24.157233" lon="120.675780"/>
<trkpt lat="24.157418" lon="120.675787"/>
<trkpt lat="24.157505" lon="120.675790"/>
<trkpt lat="24.157504" lon="120.675446"/>
<trkpt lat="24.157500" lon="120.674565"/>
<trkpt lat="24.157501" lon="120.673632"/>
<trkpt lat="24.157940" lon="120.673639"/>
<trkpt lat="24.158451" lon="120.673647"/>
<trkpt lat="24.158456" lon="120.673206"/>
<trkpt lat="24.158460" lon="120.672846"/>
<trkpt lat="24.158468" lon="120.672083"/>
<trkpt lat="24.159149" lon="120.672083"/>
<trkpt lat="24.159150" lon="120.672018"/>
<trkpt lat="24.159205" lon="120.672020"/>
<trkpt lat="24.159206" lon="120.671383"/>
<trkpt lat="24.159207" lon="120.671053"/>
<trkpt lat="24.159202" lon="120.670947"/>
<trkpt lat="24.159201" lon="120.670634"/>
<trkpt lat="24.159122" lon="120.670634"/>
<trkpt lat="24.159123" lon="120.670509"/>
<trkpt lat="24.159123" lon="120.670365"/>
<trkpt lat="24.159201" lon="120.670366"/>
<trkpt lat="24.159201" lon="120.670098"/>
<trkpt lat="24.159209" lon="120.669817"/>
<trkpt lat="24.159209" lon="120.669738"/>
<trkpt lat="24.159214" lon="120.669154"/>
<trkpt lat="24.159212" lon="120.668183"/>
<trkpt lat="24.159171" lon="120.668182"/>
<trkpt lat="24.159140" lon="120.668182"/>
<trkpt lat="24.159043" lon="120.668184"/>
<trkpt lat="24.158988" lon="120.668185"/>
<trkpt lat="24.158991" lon="120.668367"/>
<trkpt lat="24.158910" lon="120.668468"/>
<trkpt lat="24.158856" lon="120.668561"/>
<trkpt lat="24.158829" lon="120.668650"/>
<trkpt lat="24.158792" lon="120.668697"/>
<trkpt lat="24.158738" lon="120.668875"/>
<trkpt lat="24.158655" lon="120.668908"/>
<trkpt lat="24.158598" lon="120.668903"/>
<trkpt lat="24.158558" lon="120.668880"/>
<trkpt lat="24.158534" lon="120.668845"/>
<trkpt lat="24.158517" lon="120.668804"/>
<trkpt lat="24.158462" lon="120.668766"/>
<trkpt lat="24.158435" lon="120.668762"/>
<trkpt lat="24.158378" lon="120.668735"/>
<trkpt lat="24.158321" lon="120.668737"/>
<trkpt lat="24.158282" lon="120.668766"/>
<trkpt lat="24.158243" lon="120.668830"/>
<trkpt lat="24.158201" lon="120.668925"/>
<trkpt lat="24.158159" lon="120.668940"/>
<trkpt lat="24.158115" lon="120.668902"/>
<trkpt lat="24.158084" lon="120.668896"/>
<trkpt lat="24.158059" lon="120.668911"/>
<trkpt lat="24.158000" lon="120.668915"/>
<trkpt lat="24.158006" lon="120.668880"/>
<trkpt lat="24.158024" lon="120.668875"/>
<trkpt lat="24.158109" lon="120.668797"/>
<trkpt lat="24.158164" lon="120.668674"/>
<trkpt lat="24.158187" lon="120.668562"/>
<trkpt lat="24.158182" lon="120.668436"/>
<trkpt lat="24.158161" lon="120.668371"/>
<trkpt lat="24.158147" lon="120.668330"/>
<trkpt lat="24.158091" lon="120.668256"/>
<trkpt lat="24.158026" lon="120.668213"/>
<trkpt lat="24.157965" lon="120.668204"/>
<trkpt lat="24.157895" lon="120.668214"/>
<trkpt lat="24.157833" lon="120.668254"/>
<trkpt lat="24.157765" lon="120.668310"/>
<trkpt lat="24.157686" lon="120.668385"/>
<trkpt lat="24.157619" lon="120.668482"/>
<trkpt lat="24.157591" lon="120.668501"/>
<trkpt lat="24.157544" lon="120.668439"/>
<trkpt lat="24.157480" lon="120.668397"/>
<trkpt lat="24.157408" lon="120.668378"/>
<trkpt lat="24.157335" lon="120.668386"/>
<trkpt lat="24.157267" lon="120.668419"/>
<trkpt lat="24.157165" lon="120.668285"/>
<trkpt lat="24.157119" lon="120.668124"/>
<trkpt lat="24.157069" lon="120.668038"/>
<trkpt lat="24.157058" lon="120.668018"/>
<trkpt lat="24.157002" lon="120.667939"/>
<trkpt lat="24.156940" lon="120.667845"/>
<trkpt lat="24.156926" lon="120.667823"/>
<trkpt lat="24.156532" lon="120.668113"/>
<trkpt lat="24.156404" lon="120.668214"/>
<trkpt lat="24.156377" lon="120.668184"/>
<trkpt lat="24.156150" lon="120.667933"/>
<trkpt lat="24.155910" lon="120.667677"/>
<trkpt lat="24.155807" lon="120.667587"/>
<trkpt lat="24.155348" lon="120.667122"/>
<trkpt lat="24.155292" lon="120.667191"/>
<trkpt lat="24.155186" lon="120.667070"/>
<trkpt lat="24.154994" lon="120.667289"/>
<trkpt lat="24.154818" lon="120.667492"/>
<trkpt lat="24.154749" lon="120.667567"/>
<trkpt lat="24.154671" lon="120.667648"/>
<trkpt lat="24.154375" lon="120.667986"/>
<trkpt lat="24.154294" lon="120.668079"/>
<trkpt lat="24.154226" lon="120.668158"/>
<trkpt lat="24.154110" lon="120.668290"/>
<trkpt lat="24.153931" lon="120.668508"/>
<trkpt lat="24.153664" lon="120.668238"/>
<trkpt lat="24.153638" lon="120.668567"/>
<trkpt lat="24.153630" lon="120.668865"/>
<trkpt lat="24.153568" lon="120.668937"/>
<trkpt lat="24.152916" lon="120.669655"/>
<trkpt lat="24.152756" lon="120.669853"/>
<trkpt lat="24.152614" lon="120.670027"/>
<trkpt lat="24.152479" lon="120.670168"/>
<trkpt lat="24.152375" lon="120.670300"/>
<trkpt lat="24.152328" lon="120.670351"/>
<trkpt lat="24.152294" lon="120.670390"/>
<trkpt lat="24.152225" lon="120.670393"/>
<trkpt lat="24.152199" lon="120.670405"/>
<trkpt lat="24.152149" lon="120.670503"/>
<trkpt lat="24.151829" lon="120.670502"/>
<trkpt lat="24.151799" lon="120.670502"/>
<trkpt lat="24.151686" lon="120.670502"/>
<trkpt lat="24.151602" lon="120.670501"/>
<trkpt lat="24.151600" lon="120.670615"/>
<trkpt lat="24.151559" lon="120.670615"/>
<trkpt lat="24.151559" lon="120.670856"/>
<trkpt lat="24.151565" lon="120.671497"/>
<trkpt lat="24.151152" lon="120.671495"/>
<trkpt lat="24.150894" lon="120.671223"/>
<trkpt lat="24.150742" lon="120.671062"/>
<trkpt lat="24.151052" lon="120.670717"/>
<trkpt lat="24.151170" lon="120.670583"/>
<trkpt lat="24.151256" lon="120.670486"/>
<trkpt lat="24.151339" lon="120.670494"/>
<trkpt lat="24.151400" lon="120.670500"/>
<trkpt lat="24.151504" lon="120.670501"/>
<trkpt lat="24.151559" lon="120.670501"/>
<trkpt lat="24.151602" lon="120.670501"/>
<trkpt lat="24.151686" lon="120.670502"/>
<trkpt lat="24.151799" lon="120.670502"/>
<trkpt lat="24.151829" lon="120.670502"/>
<trkpt lat="24.152149" lon="120.670503"/>
<trkpt lat="24.152213" lon="120.670502"/>
<trkpt lat="24.152294" lon="120.670390"/>
<trkpt lat="24.152328" lon="120.670351"/>
<trkpt lat="24.152375" lon="120.670300"/>
<trkpt lat="24.152479" lon="120.670168"/>
<trkpt lat="24.152614" lon="120.670027"/>
<trkpt lat="24.152756" lon="120.669853"/>
<trkpt lat="24.152916" lon="120.669655"/>
<trkpt lat="24.153568" lon="120.668937"/>
<trkpt lat="24.153630" lon="120.668865"/>
<trkpt lat="24.153638" lon="120.668567"/>
<trkpt lat="24.153260" lon="120.668169"/>
<trkpt lat="24.153426" lon="120.667990"/>
<trkpt lat="24.153613" lon="120.667775"/>
<trkpt lat="24.153692" lon="120.667684"/>
<trkpt lat="24.153728" lon="120.667641"/>
<trkpt lat="24.153682" lon="120.667593"/>
<trkpt lat="24.153748" lon="120.667518"/>
<trkpt lat="24.153707" lon="120.667475"/>
<trkpt lat="24.153690" lon="120.667460"/>
<trkpt lat="24.153595" lon="120.667362"/>
<trkpt lat="24.153406" lon="120.667171"/>
<trkpt lat="24.153287" lon="120.667050"/>
<trkpt lat="24.153266" lon="120.667085"/>
<trkpt lat="24.153202" lon="120.667017"/>
<trkpt lat="24.153226" lon="120.666978"/>
<trkpt lat="24.153190" lon="120.666940"/>
<trkpt lat="24.153024" lon="120.666760"/>
<trkpt lat="24.152985" lon="120.666719"/>
<trkpt lat="24.152962" lon="120.666756"/>
<trkpt lat="24.152893" lon="120.666685"/>
<trkpt lat="24.152915" lon="120.666650"/>
<trkpt lat="24.152695" lon="120.666417"/>
<trkpt lat="24.152765" lon="120.666343"/>
<trkpt lat="24.152746" lon="120.666279"/>
<trkpt lat="24.152690" lon="120.666211"/>
<trkpt lat="24.152666" lon="120.666184"/>
<trkpt lat="24.152638" lon="120.666185"/>
<trkpt lat="24.152603" lon="120.666283"/>
<trkpt lat="24.152553" lon="120.666220"/>
<trkpt lat="24.152437" lon="120.666112"/>
<trkpt lat="24.152275" lon="120.665948"/>
<trkpt lat="24.152160" lon="120.665815"/>
<trkpt lat="24.151906" lon="120.665557"/>
<trkpt lat="24.151806" lon="120.665460"/>
<trkpt lat="24.151706" lon="120.665386"/>
<trkpt lat="24.151632" lon="120.665342"/>
<trkpt lat="24.151547" lon="120.665304"/>
<trkpt lat="24.151470" lon="120.665280"/>
<trkpt lat="24.151314" lon="120.665257"/>
<trkpt lat="24.151215" lon="120.665258"/>
<trkpt lat="24.151156" lon="120.665259"/>
<trkpt lat="24.150993" lon="120.665254"/>
<trkpt lat="24.150848" lon="120.665288"/>
<trkpt lat="24.150383" lon="120.665287"/>
<trkpt lat="24.150231" lon="120.665287"/>
<trkpt lat="24.150145" lon="120.665287"/>
<trkpt lat="24.149797" lon="120.665287"/>
<trkpt lat="24.149591" lon="120.665287"/>
<trkpt lat="24.149560" lon="120.665287"/>
<trkpt lat="24.149431" lon="120.665286"/>
<trkpt lat="24.149123" lon="120.665284"/>
<trkpt lat="24.149121" lon="120.665171"/>
<trkpt lat="24.149092" lon="120.665123"/>
<trkpt lat="24.149017" lon="120.665122"/>
<trkpt lat="24.148954" lon="120.665123"/>
<trkpt lat="24.148945" lon="120.665141"/>
<trkpt lat="24.148946" lon="120.665286"/>
<trkpt lat="24.148782" lon="120.665285"/>
<trkpt lat="24.148619" lon="120.665288"/>
<trkpt lat="24.148526" lon="120.665289"/>
<trkpt lat="24.148514" lon="120.665289"/>
<trkpt lat="24.148265" lon="120.665293"/>
<trkpt lat="24.147975" lon="120.665295"/>
<trkpt lat="24.147977" lon="120.665428"/>
<trkpt lat="24.147882" lon="120.665426"/>
<trkpt lat="24.147880" lon="120.666625"/>
<trkpt lat="24.147479" lon="120.666625"/>
<trkpt lat="24.147137" lon="120.666625"/>
<trkpt lat="24.146703" lon="120.666624"/>
<trkpt lat="24.145861" lon="120.666624"/>
<trkpt lat="24.145625" lon="120.666624"/>
<trkpt lat="24.145581" lon="120.666624"/>
<trkpt lat="24.145045" lon="120.666623"/>
<trkpt lat="24.145036" lon="120.667079"/>
<trkpt lat="24.145038" lon="120.667666"/>
<trkpt lat="24.144383" lon="120.667674"/>
<trkpt lat="24.144388" lon="120.667849"/>
<trkpt lat="24.144389" lon="120.667882"/>
<trkpt lat="24.144403" lon="120.668563"/>
<trkpt lat="24.144405" lon="120.668635"/>
<trkpt lat="24.144412" lon="120.668810"/>
<trkpt lat="24.144431" lon="120.668956"/>
<trkpt lat="24.144516" lon="120.669142"/>
<trkpt lat="24.144485" lon="120.669178"/>
<trkpt lat="24.144362" lon="120.669321"/>
<trkpt lat="24.144101" lon="120.669619"/>
<trkpt lat="24.144057" lon="120.669567"/>
<trkpt lat="24.143967" lon="120.669665"/>
<trkpt lat="24.143904" lon="120.669733"/>
<trkpt lat="24.143831" lon="120.669812"/>
<trkpt lat="24.143886" lon="120.669866"/>
<trkpt lat="24.143480" lon="120.670324"/>
<trkpt lat="24.143210" lon="120.670640"/>
<trkpt lat="24.143048" lon="120.670826"/>
<trkpt lat="24.142614" lon="120.671326"/>
<trkpt lat="24.142298" lon="120.671002"/>
<trkpt lat="24.142234" lon="120.670942"/>
<trkpt lat="24.142005" lon="120.671201"/>
</trkseg></trk>
</gpx>