<?xml version="1.0" encoding="UTF-8"?>
<gpx version="1.1" creator="catrun" xmlns="http://www.topografix.com/GPX/1/1">
<metadata><name>西區 蜷睡貓咪 圖形路跑路線</name></metadata>
<wpt lat="24.141478" lon="120.665610"><name>大墩文化中心</name><desc>地標</desc></wpt>
<wpt lat="24.140791" lon="120.664847"><name>圓融</name><desc>地標</desc></wpt>
<wpt lat="24.141054" lon="120.664963"><name>開天闢地</name><desc>地標</desc></wpt>
<trk><name>西區 蜷睡貓咪 圖形路跑路線</name><trkseg>
<trkpt lat="24.140831" lon="120.666543"/>
<trkpt lat="24.140973" lon="120.666690"/>
<trkpt lat="24.140889" lon="120.666785"/>
<trkpt lat="24.140984" lon="120.666884"/>
<trkpt lat="24.141101" lon="120.667004"/>
<trkpt lat="24.141182" lon="120.666907"/>
<trkpt lat="24.141244" lon="120.666836"/>
<trkpt lat="24.141304" lon="120.666765"/>
<trkpt lat="24.141331" lon="120.666734"/>
<trkpt lat="24.141423" lon="120.666630"/>
<trkpt lat="24.141483" lon="120.666557"/>
<trkpt lat="24.141402" lon="120.666475"/>
<trkpt lat="24.141881" lon="120.665925"/>
<trkpt lat="24.141981" lon="120.665811"/>
<trkpt lat="24.142005" lon="120.665784"/>
<trkpt lat="24.142147" lon="120.665646"/>
<trkpt lat="24.142300" lon="120.665531"/>
<trkpt lat="24.142469" lon="120.665451"/>
<trkpt lat="24.142688" lon="120.665367"/>
<trkpt lat="24.142861" lon="120.665340"/>
<trkpt lat="24.143106" lon="120.665331"/>
<trkpt lat="24.143141" lon="120.665333"/>
<trkpt lat="24.143197" lon="120.665309"/>
<trkpt lat="24.143197" lon="120.665261"/>
<trkpt lat="24.143197" lon="120.665157"/>
<trkpt lat="24.144223" lon="120.665161"/>
<trkpt lat="24.144260" lon="120.665162"/>
<trkpt lat="24.144330" lon="120.665162"/>
<trkpt lat="24.144406" lon="120.665163"/>
<trkpt lat="24.144406" lon="120.665300"/>
<trkpt lat="24.144406" lon="120.665437"/>
<trkpt lat="24.144332" lon="120.665437"/>
<trkpt lat="24.144332" lon="120.665477"/>
<trkpt lat="24.144335" lon="120.665533"/>
<trkpt lat="24.144334" lon="120.665644"/>
<trkpt lat="24.144336" lon="120.665703"/>
<trkpt lat="24.144338" lon="120.665941"/>
<trkpt lat="24.144346" lon="120.666623"/>
<trkpt lat="24.145045" lon="120.666623"/>
<trkpt lat="24.145581" lon="120.666624"/>
<trkpt lat="24.145625" lon="120.666624"/>
<trkpt lat="24.145861" lon="120.666624"/>
<trkpt lat="24.146703" lon="120.666624"/>
<trkpt lat="24.147137" lon="120.666625"/>
<trkpt lat="24.147142" lon="120.667595"/>
<trkpt lat="24.147322" lon="120.667594"/>
<trkpt lat="24.147480" lon="120.667592"/>
<trkpt lat="24.147872" lon="120.667592"/>
<trkpt lat="24.147869" lon="120.668189"/>
<trkpt lat="24.147872" lon="120.668971"/>
<trkpt lat="24.148417" lon="120.668968"/>
<trkpt lat="24.149017" lon="120.668972"/>
<trkpt lat="24.149019" lon="120.669371"/>
<trkpt lat="24.149019" lon="120.669675"/>
<trkpt lat="24.149019" lon="120.669783"/>
<trkpt lat="24.149018" lon="120.669823"/>
<trkpt lat="24.148955" lon="120.669823"/>
<trkpt lat="24.148486" lon="120.669827"/>
<trkpt lat="24.148414" lon="120.669827"/>
<trkpt lat="24.148324" lon="120.669827"/>
<trkpt lat="24.147953" lon="120.669828"/>
<trkpt lat="24.147871" lon="120.669829"/>
<trkpt lat="24.147871" lon="120.669869"/>
<trkpt lat="24.147870" lon="120.669915"/>
<trkpt lat="24.147869" lon="120.669973"/>
<trkpt lat="24.147869" lon="120.669996"/>
<trkpt lat="24.147869" lon="120.670275"/>
<trkpt lat="24.147877" lon="120.670884"/>
<trkpt lat="24.147878" lon="120.670960"/>
<trkpt lat="24.147878" lon="120.671029"/>
<trkpt lat="24.147876" lon="120.671140"/>
<trkpt lat="24.147876" lon="120.671234"/>
<trkpt lat="24.148028" lon="120.671430"/>
<trkpt lat="24.148242" lon="120.671693"/>
<trkpt lat="24.148332" lon="120.671746"/>
<trkpt lat="24.147878" lon="120.672279"/>
<trkpt lat="24.148222" lon="120.672637"/>
<trkpt lat="24.148152" lon="120.672720"/>
<trkpt lat="24.148174" lon="120.672742"/>
<trkpt lat="24.148230" lon="120.672804"/>
<trkpt lat="24.148284" lon="120.672863"/>
<trkpt lat="24.148336" lon="120.672921"/>
<trkpt lat="24.147984" lon="120.673370"/>
<trkpt lat="24.147974" lon="120.673423"/>
<trkpt lat="24.147970" lon="120.673549"/>
<trkpt lat="24.147933" lon="120.673548"/>
<trkpt lat="24.147910" lon="120.673548"/>
<trkpt lat="24.147876" lon="120.673575"/>
<trkpt lat="24.147827" lon="120.673630"/>
<trkpt lat="24.147765" lon="120.673701"/>
<trkpt lat="24.147702" lon="120.673771"/>
<trkpt lat="24.147680" lon="120.673784"/>
<trkpt lat="24.147682" lon="120.673802"/>
<trkpt lat="24.147681" lon="120.673845"/>
<trkpt lat="24.147637" lon="120.673844"/>
<trkpt lat="24.147487" lon="120.673850"/>
<trkpt lat="24.147364" lon="120.673874"/>
<trkpt lat="24.147202" lon="120.674057"/>
<trkpt lat="24.147140" lon="120.673990"/>
<trkpt lat="24.147093" lon="120.674043"/>
<trkpt lat="24.147062" lon="120.674079"/>
<trkpt lat="24.147056" lon="120.674103"/>
<trkpt lat="24.147113" lon="120.674160"/>
<trkpt lat="24.146763" lon="120.674561"/>
<trkpt lat="24.146833" lon="120.674632"/>
<trkpt lat="24.146791" lon="120.674683"/>
<trkpt lat="24.146749" lon="120.674734"/>
<trkpt lat="24.146736" lon="120.674734"/>
<trkpt lat="24.146670" lon="120.674668"/>
<trkpt lat="24.146477" lon="120.674891"/>
<trkpt lat="24.146439" lon="120.674935"/>
<trkpt lat="24.146277" lon="120.675122"/>
<trkpt lat="24.146585" lon="120.675430"/>
<trkpt lat="24.146200" lon="120.675868"/>
<trkpt lat="24.145911" lon="120.675543"/>
<trkpt lat="24.145726" lon="120.675754"/>
<trkpt lat="24.145524" lon="120.675984"/>
<trkpt lat="24.145596" lon="120.676057"/>
<trkpt lat="24.145550" lon="120.676109"/>
<trkpt lat="24.145511" lon="120.676153"/>
<trkpt lat="24.145439" lon="120.676081"/>
<trkpt lat="24.145092" lon="120.676475"/>
<trkpt lat="24.145158" lon="120.676541"/>
<trkpt lat="24.145160" lon="120.676603"/>
<trkpt lat="24.145104" lon="120.676668"/>
<trkpt lat="24.145049" lon="120.676733"/>
<trkpt lat="24.144988" lon="120.676733"/>
<trkpt lat="24.144925" lon="120.676666"/>
<trkpt lat="24.144770" lon="120.676845"/>
<trkpt lat="24.144707" lon="120.676919"/>
<trkpt lat="24.144576" lon="120.677069"/>
<trkpt lat="24.144528" lon="120.677124"/>
<trkpt lat="24.144483" lon="120.677177"/>
<trkpt lat="24.144280" lon="120.677419"/>
<trkpt lat="24.144196" lon="120.677415"/>
<trkpt lat="24.144157" lon="120.677373"/>
<trkpt lat="24.144116" lon="120.677398"/>
<trkpt lat="24.144004" lon="120.677496"/>
<trkpt lat="24.143977" lon="120.677517"/>
<trkpt lat="24.143976" lon="120.677577"/>
<trkpt lat="24.143939" lon="120.677526"/>
<trkpt lat="24.143853" lon="120.677440"/>
<trkpt lat="24.143783" lon="120.677413"/>
<trkpt lat="24.143749" lon="120.677531"/>
<trkpt lat="24.143648" lon="120.677506"/>
<trkpt lat="24.143579" lon="120.677489"/>
<trkpt lat="24.143506" lon="120.677435"/>
<trkpt lat="24.143436" lon="120.677400"/>
<trkpt lat="24.143322" lon="120.677388"/>
<trkpt lat="24.143250" lon="120.677343"/>
<trkpt lat="24.143210" lon="120.677313"/>
<trkpt lat="24.143227" lon="120.677248"/>
<trkpt lat="24.143213" lon="120.677187"/>
<trkpt lat="24.143156" lon="120.677179"/>
<trkpt lat="24.143124" lon="120.677217"/>
<trkpt lat="24.142931" lon="120.677441"/>
<trkpt lat="24.142918" lon="120.677505"/>
<trkpt lat="24.142849" lon="120.677570"/>
<trkpt lat="24.142805" lon="120.677606"/>
<trkpt lat="24.142747" lon="120.677611"/>
<trkpt lat="24.142704" lon="120.677587"/>
<trkpt lat="24.142496" lon="120.677832"/>
<trkpt lat="24.142428" lon="120.677741"/>
<trkpt lat="24.142323" lon="120.677637"/>
<trkpt lat="24.142243" lon="120.677611"/>
<trkpt lat="24.142123" lon="120.677657"/>
<trkpt lat="24.142074" lon="120.677707"/>
<trkpt lat="24.142047" lon="120.677778"/>
<trkpt lat="24.141927" lon="120.677811"/>
<trkpt lat="24.141658" lon="120.677783"/>
<trkpt lat="24.141632" lon="120.677763"/>
<trkpt lat="24.141400" lon="120.677753"/>
<trkpt lat="24.141220" lon="120.677735"/>
<trkpt lat="24.140949" lon="120.678042"/>
<trkpt lat="24.140608" lon="120.677670"/>
<trkpt lat="24.140434" lon="120.677491"/>
<trkpt lat="24.140319" lon="120.677372"/>
<trkpt lat="24.140309" lon="120.677362"/>
<trkpt lat="24.140369" lon="120.677294"/>
<trkpt lat="24.140372" lon="120.677216"/>
<trkpt lat="24.140312" lon="120.677158"/>
<trkpt lat="24.140225" lon="120.677074"/>
<trkpt lat="24.140202" lon="120.677074"/>
<trkpt lat="24.140123" lon="120.677168"/>
<trkpt lat="24.140085" lon="120.677129"/>
<trkpt lat="24.139894" lon="120.676930"/>
<trkpt lat="24.139657" lon="120.676682"/>
<trkpt lat="24.139327" lon="120.676344"/>
<trkpt lat="24.138936" lon="120.676786"/>
<trkpt lat="24.138376" lon="120.676197"/>
<trkpt lat="24.138756" lon="120.675749"/>
<trkpt lat="24.138399" lon="120.675374"/>
<trkpt lat="24.138046" lon="120.674997"/>
<trkpt lat="24.137682" lon="120.674635"/>
<trkpt lat="24.137370" lon="120.674316"/>
<trkpt lat="24.137342" lon="120.674287"/>
<trkpt lat="24.137327" lon="120.674272"/>
<trkpt lat="24.137256" lon="120.674197"/>
<trkpt lat="24.137195" lon="120.674133"/>
<trkpt lat="24.136606" lon="120.673527"/>
<trkpt lat="24.137039" lon="120.673038"/>
<trkpt lat="24.136687" lon="120.672670"/>
<trkpt lat="24.137079" lon="120.672212"/>
<trkpt lat="24.136797" lon="120.671922"/>
<trkpt lat="24.136681" lon="120.671803"/>
<trkpt lat="24.136591" lon="120.671710"/>
<trkpt lat="24.136308" lon="120.671416"/>
<trkpt lat="24.135951" lon="120.671043"/>
<trkpt lat="24.135667" lon="120.670753"/>
<trkpt lat="24.135593" lon="120.670675"/>
<trkpt lat="24.135778" lon="120.670462"/>
<trkpt lat="24.136035" lon="120.670168"/>
<trkpt lat="24.136415" lon="120.669727"/>
<trkpt lat="24.136056" lon="120.669358"/>
<trkpt lat="24.136508" lon="120.668846"/>
<trkpt lat="24.136978" lon="120.668305"/>
<trkpt lat="24.136627" lon="120.667926"/>
<trkpt lat="24.136304" lon="120.667579"/>
<trkpt lat="24.136250" lon="120.667520"/>
<trkpt lat="24.136304" lon="120.667455"/>
<trkpt lat="24.136373" lon="120.667532"/>
<trkpt lat="24.136369" lon="120.667515"/>
<trkpt lat="24.136377" lon="120.667498"/>
<trkpt lat="24.136563" lon="120.667280"/>
<trkpt lat="24.136573" lon="120.667273"/>
<trkpt lat="24.136581" lon="120.667268"/>
<trkpt lat="24.136605" lon="120.667287"/>
<trkpt lat="24.136666" lon="120.667215"/>
<trkpt lat="24.137037" lon="120.667583"/>
<trkpt lat="24.137292" lon="120.667295"/>
<trkpt lat="24.137342" lon="120.667235"/>
<trkpt lat="24.137523" lon="120.667017"/>
<trkpt lat="24.137966" lon="120.666508"/>
<trkpt lat="24.138310" lon="120.666877"/>
<trkpt lat="24.138833" lon="120.667424"/>
<trkpt lat="24.138403" lon="120.667917"/>
<trkpt lat="24.138166" lon="120.668191"/>
<trkpt lat="24.137979" lon="120.668411"/>
<trkpt lat="24.137912" lon="120.668490"/>
<trkpt lat="24.138051" lon="120.668626"/>
<trkpt lat="24.138100" lon="120.668676"/>
<trkpt lat="24.138026" lon="120.668756"/>
<trkpt lat="24.138019" lon="120.668758"/>
<trkpt lat="24.138017" lon="120.668762"/>
<trkpt lat="24.137820" lon="120.668983"/>
<trkpt lat="24.137804" lon="120.669012"/>
<trkpt lat="24.137746" lon="120.669082"/>
<trkpt lat="24.138049" lon="120.669408"/>
<trkpt lat="24.138330" lon="120.669695"/>
<trkpt lat="24.138392" lon="120.669754"/>
<trkpt lat="24.138443" lon="120.669800"/>
<trkpt lat="24.138555" lon="120.669911"/>
<trkpt lat="24.138821" lon="120.670188"/>
<trkpt lat="24.138720" lon="120.670338"/>
<trkpt lat="24.138654" lon="120.670421"/>
<trkpt lat="24.138549" lon="120.670525"/>
<trkpt lat="24.138627" lon="120.670647"/>
<trkpt lat="24.138677" lon="120.670776"/>
<trkpt lat="24.138693" lon="120.670916"/>
<trkpt lat="24.138696" lon="120.671030"/>
<trkpt lat="24.138685" lon="120.671094"/>
<trkpt lat="24.138707" lon="120.671118"/>
<trkpt lat="24.138625" lon="120.671212"/>
<trkpt lat="24.138859" lon="120.671457"/>
<trkpt lat="24.139021" lon="120.671626"/>
<trkpt lat="24.139107" lon="120.671716"/>
<trkpt lat="24.139335" lon="120.671954"/>
<trkpt lat="24.138979" lon="120.672369"/>
<trkpt lat="24.139332" lon="120.672731"/>
<trkpt lat="24.139386" lon="120.672667"/>
<trkpt lat="24.139536" lon="120.672493"/>
<trkpt lat="24.139735" lon="120.672261"/>
<trkpt lat="24.139828" lon="120.672155"/>
<trkpt lat="24.140062" lon="120.671897"/>
<trkpt lat="24.140205" lon="120.672323"/>
<trkpt lat="24.140307" lon="120.672274"/>
<trkpt lat="24.140303" lon="120.672325"/>
<trkpt lat="24.140318" lon="120.672395"/>
<trkpt lat="24.140347" lon="120.672478"/>
<trkpt lat="24.140412" lon="120.672641"/>
<trkpt lat="24.140469" lon="120.672848"/>
<trkpt lat="24.140550" lon="120.673092"/>
<trkpt lat="24.140599" lon="120.673281"/>
<trkpt lat="24.140618" lon="120.673360"/>
<trkpt lat="24.140659" lon="120.673362"/>
<trkpt lat="24.140896" lon="120.673100"/>
<trkpt lat="24.140905" lon="120.673091"/>
<trkpt lat="24.140905" lon="120.673068"/>
<trkpt lat="24.140910" lon="120.673024"/>
<trkpt lat="24.140967" lon="120.672966"/>
<trkpt lat="24.141057" lon="120.672879"/>
<trkpt lat="24.141100" lon="120.673003"/>
<trkpt lat="24.141329" lon="120.672756"/>
<trkpt lat="24.142048" lon="120.673504"/>
<trkpt lat="24.142392" lon="120.673118"/>
<trkpt lat="24.141673" lon="120.672370"/>
<trkpt lat="24.141836" lon="120.672188"/>
<trkpt lat="24.142050" lon="120.671951"/>
<trkpt lat="24.142167" lon="120.671821"/>
<trkpt lat="24.142614" lon="120.671326"/>
<trkpt lat="24.143048" lon="120.670826"/>
<trkpt lat="24.143210" lon="120.670640"/>
<trkpt lat="24.143480" lon="120.670324"/>
<trkpt lat="24.143113" lon="120.669948"/>
<trkpt lat="24.142761" lon="120.669581"/>
<trkpt lat="24.142985" lon="120.669326"/>
<trkpt lat="24.142612" lon="120.668946"/>
<trkpt lat="24.142408" lon="120.669206"/>
<trkpt lat="24.142051" lon="120.668844"/>
<trkpt lat="24.141324" lon="120.668095"/>
<trkpt lat="24.140944" lon="120.667704"/>
<trkpt lat="24.140681" lon="120.667427"/>
<trkpt lat="24.140728" lon="120.667370"/>
<trkpt lat="24.140640" lon="120.667279"/>
<trkpt lat="24.140807" lon="120.667082"/>
<trkpt lat="24.140984" lon="120.666884"/>
<trkpt lat="24.140889" lon="120.666785"/>
<trkpt lat="24.140973" lon="120.666690"/>
<trkpt lat="24.140831" lon="120.666543"/>
</trkseg></trk>
</gpx>