<?xml version="1.0" encoding="UTF-8"?>
<gpx version="1.1" creator="catrun" xmlns="http://www.topografix.com/GPX/1/1">
<metadata><name>西區 蹲坐貓咪（側面） 圖形路跑路線</name></metadata>
<wpt lat="24.142469" lon="120.669615"><name>忠勤公園</name><desc>地標</desc></wpt>
<wpt lat="24.148445" lon="120.671507"><name>茄苳公園</name><desc>地標</desc></wpt>
<wpt lat="24.143894" lon="120.679524"><name>臺中市立圖書館中區分館</name><desc>地標</desc></wpt>
<trk><name>西區 蹲坐貓咪（側面） 圖形路跑路線</name><trkseg>
<trkpt lat="24.141038" lon="120.669213"/>
<trkpt lat="24.141255" lon="120.668969"/>
<trkpt lat="24.141617" lon="120.669341"/>
<trkpt lat="24.141866" lon="120.669598"/>
<trkpt lat="24.141931" lon="120.669665"/>
<trkpt lat="24.142071" lon="120.669809"/>
<trkpt lat="24.142208" lon="120.669950"/>
<trkpt lat="24.142328" lon="120.670073"/>
<trkpt lat="24.142532" lon="120.669841"/>
<trkpt lat="24.142761" lon="120.669581"/>
<trkpt lat="24.142985" lon="120.669326"/>
<trkpt lat="24.143185" lon="120.669103"/>
<trkpt lat="24.143148" lon="120.669063"/>
<trkpt lat="24.143201" lon="120.668998"/>
<trkpt lat="24.143262" lon="120.668929"/>
<trkpt lat="24.143352" lon="120.668835"/>
<trkpt lat="24.143489" lon="120.668975"/>
<trkpt lat="24.143525" lon="120.669017"/>
<trkpt lat="24.143579" lon="120.668990"/>
<trkpt lat="24.143639" lon="120.668978"/>
<trkpt lat="24.143710" lon="120.668976"/>
<trkpt lat="24.144217" lon="120.668969"/>
<trkpt lat="24.144282" lon="120.668963"/>
<trkpt lat="24.144329" lon="120.668961"/>
<trkpt lat="24.144431" lon="120.668956"/>
<trkpt lat="24.144516" lon="120.669142"/>
<trkpt lat="24.144645" lon="120.668995"/>
<trkpt lat="24.144868" lon="120.668750"/>
<trkpt lat="24.145112" lon="120.669003"/>
<trkpt lat="24.145457" lon="120.669003"/>
<trkpt lat="24.145620" lon="120.669003"/>
<trkpt lat="24.145709" lon="120.669003"/>
<trkpt lat="24.145749" lon="120.669003"/>
<trkpt lat="24.146108" lon="120.669003"/>
<trkpt lat="24.146101" lon="120.669712"/>
<trkpt lat="24.146019" lon="120.669791"/>
<trkpt lat="24.145939" lon="120.669862"/>
<trkpt lat="24.146233" lon="120.670165"/>
<trkpt lat="24.146305" lon="120.670083"/>
<trkpt lat="24.146387" lon="120.670166"/>
<trkpt lat="24.146549" lon="120.669995"/>
<trkpt lat="24.146618" lon="120.669920"/>
<trkpt lat="24.146666" lon="120.669874"/>
<trkpt lat="24.146697" lon="120.669854"/>
<trkpt lat="24.146740" lon="120.669836"/>
<trkpt lat="24.146818" lon="120.669833"/>
<trkpt lat="24.146852" lon="120.669832"/>
<trkpt lat="24.147276" lon="120.669832"/>
<trkpt lat="24.147277" lon="120.669960"/>
<trkpt lat="24.147343" lon="120.669959"/>
<trkpt lat="24.147409" lon="120.669956"/>
<trkpt lat="24.147404" lon="120.669829"/>
<trkpt lat="24.147796" lon="120.669829"/>
<trkpt lat="24.147871" lon="120.669829"/>
<trkpt lat="24.147953" lon="120.669828"/>
<trkpt lat="24.148324" lon="120.669827"/>
<trkpt lat="24.148414" lon="120.669827"/>
<trkpt lat="24.148414" lon="120.669865"/>
<trkpt lat="24.148415" lon="120.669952"/>
<trkpt lat="24.148415" lon="120.669975"/>
<trkpt lat="24.148419" lon="120.670832"/>
<trkpt lat="24.148434" lon="120.670964"/>
<trkpt lat="24.148007" lon="120.670960"/>
<trkpt lat="24.147878" lon="120.670960"/>
<trkpt lat="24.147878" lon="120.671029"/>
<trkpt lat="24.147876" lon="120.671140"/>
<trkpt lat="24.147759" lon="120.671139"/>
<trkpt lat="24.147759" lon="120.671226"/>
<trkpt lat="24.147085" lon="120.671245"/>
<trkpt lat="24.147079" lon="120.671358"/>
<trkpt lat="24.147049" lon="120.671418"/>
<trkpt lat="24.147253" lon="120.671642"/>
<trkpt lat="24.147550" lon="120.671937"/>
<trkpt lat="24.147600" lon="120.671988"/>
<trkpt lat="24.147649" lon="120.672041"/>
<trkpt lat="24.147878" lon="120.672279"/>
<trkpt lat="24.148222" lon="120.672637"/>
<trkpt lat="24.148263" lon="120.672588"/>
<trkpt lat="24.148285" lon="120.672611"/>
<trkpt lat="24.148343" lon="120.672673"/>
<trkpt lat="24.148398" lon="120.672731"/>
<trkpt lat="24.148453" lon="120.672791"/>
<trkpt lat="24.148762" lon="120.672438"/>
<trkpt lat="24.149035" lon="120.672126"/>
<trkpt lat="24.149062" lon="120.672154"/>
<trkpt lat="24.149156" lon="120.672050"/>
<trkpt lat="24.149522" lon="120.672456"/>
<trkpt lat="24.148826" lon="120.673257"/>
<trkpt lat="24.148182" lon="120.674011"/>
<trkpt lat="24.148366" lon="120.674200"/>
<trkpt lat="24.148303" lon="120.674275"/>
<trkpt lat="24.147836" lon="120.674836"/>
<trkpt lat="24.147422" lon="120.675340"/>
<trkpt lat="24.147190" lon="120.675563"/>
<trkpt lat="24.146814" lon="120.675190"/>
<trkpt lat="24.146585" lon="120.675430"/>
<trkpt lat="24.146200" lon="120.675868"/>
<trkpt lat="24.145911" lon="120.675543"/>
<trkpt lat="24.145726" lon="120.675754"/>
<trkpt lat="24.145524" lon="120.675984"/>
<trkpt lat="24.145596" lon="120.676057"/>
<trkpt lat="24.145550" lon="120.676109"/>
<trkpt lat="24.146172" lon="120.676708"/>
<trkpt lat="24.145696" lon="120.677296"/>
<trkpt lat="24.145221" lon="120.677845"/>
<trkpt lat="24.145576" lon="120.678207"/>
<trkpt lat="24.145495" lon="120.678303"/>
<trkpt lat="24.145110" lon="120.678734"/>
<trkpt lat="24.145264" lon="120.678881"/>
<trkpt lat="24.145452" lon="120.679066"/>
<trkpt lat="24.145540" lon="120.679173"/>
<trkpt lat="24.145399" lon="120.679252"/>
<trkpt lat="24.145302" lon="120.679311"/>
<trkpt lat="24.145257" lon="120.679339"/>
<trkpt lat="24.144959" lon="120.679701"/>
<trkpt lat="24.144665" lon="120.680036"/>
<trkpt lat="24.144274" lon="120.680499"/>
<trkpt lat="24.143892" lon="120.680934"/>
<trkpt lat="24.143967" lon="120.681009"/>
<trkpt lat="24.143841" lon="120.681158"/>
<trkpt lat="24.143768" lon="120.681076"/>
<trkpt lat="24.143536" lon="120.681347"/>
<trkpt lat="24.143179" lon="120.681756"/>
<trkpt lat="24.142895" lon="120.682082"/>
<trkpt lat="24.142531" lon="120.682499"/>
<trkpt lat="24.142220" lon="120.682856"/>
<trkpt lat="24.142534" lon="120.683176"/>
<trkpt lat="24.142962" lon="120.683625"/>
<trkpt lat="24.142268" lon="120.684426"/>
<trkpt lat="24.142529" lon="120.684474"/>
<trkpt lat="24.142566" lon="120.684486"/>
<trkpt lat="24.142701" lon="120.684609"/>
<trkpt lat="24.142722" lon="120.684663"/>
<trkpt lat="24.142557" lon="120.684618"/>
<trkpt lat="24.142522" lon="120.684514"/>
<trkpt lat="24.142529" lon="120.684474"/>
<trkpt lat="24.142268" lon="120.684426"/>
<trkpt lat="24.141884" lon="120.684034"/>
<trkpt lat="24.141835" lon="120.683985"/>
<trkpt lat="24.141518" lon="120.683661"/>
<trkpt lat="24.140794" lon="120.684488"/>
<trkpt lat="24.140652" lon="120.684341"/>
<trkpt lat="24.140421" lon="120.684115"/>
<trkpt lat="24.140090" lon="120.684492"/>
<trkpt lat="24.139759" lon="120.684887"/>
<trkpt lat="24.139407" lon="120.684530"/>
<trkpt lat="24.139028" lon="120.684136"/>
<trkpt lat="24.138799" lon="120.683903"/>
<trkpt lat="24.138765" lon="120.683939"/>
<trkpt lat="24.138739" lon="120.683939"/>
<trkpt lat="24.138673" lon="120.683870"/>
<trkpt lat="24.138567" lon="120.683991"/>
<trkpt lat="24.138632" lon="120.684058"/>
<trkpt lat="24.138651" lon="120.684087"/>
<trkpt lat="24.138617" lon="120.684127"/>
<trkpt lat="24.138570" lon="120.684181"/>
<trkpt lat="24.138527" lon="120.684180"/>
<trkpt lat="24.137855" lon="120.684729"/>
<trkpt lat="24.137832" lon="120.684736"/>
<trkpt lat="24.137779" lon="120.684656"/>
<trkpt lat="24.137730" lon="120.684583"/>
<trkpt lat="24.137731" lon="120.684555"/>
<trkpt lat="24.137565" lon="120.684359"/>
<trkpt lat="24.137376" lon="120.684235"/>
<trkpt lat="24.137314" lon="120.684198"/>
<trkpt lat="24.137280" lon="120.684180"/>
<trkpt lat="24.137096" lon="120.684219"/>
<trkpt lat="24.136774" lon="120.684085"/>
<trkpt lat="24.136682" lon="120.683851"/>
<trkpt lat="24.136534" lon="120.683512"/>
<trkpt lat="24.136449" lon="120.683313"/>
<trkpt lat="24.136396" lon="120.683346"/>
<trkpt lat="24.136323" lon="120.683395"/>
<trkpt lat="24.136268" lon="120.683435"/>
<trkpt lat="24.136212" lon="120.683290"/>
<trkpt lat="24.136039" lon="120.682864"/>
<trkpt lat="24.135878" lon="120.682480"/>
<trkpt lat="24.135841" lon="120.682466"/>
<trkpt lat="24.135779" lon="120.682473"/>
<trkpt lat="24.135724" lon="120.682461"/>
<trkpt lat="24.135670" lon="120.682341"/>
<trkpt lat="24.135595" lon="120.682203"/>
<trkpt lat="24.135697" lon="120.682151"/>
<trkpt lat="24.135784" lon="120.682103"/>
<trkpt lat="24.135759" lon="120.682068"/>
<trkpt lat="24.135722" lon="120.681993"/>
<trkpt lat="24.135574" lon="120.681639"/>
<trkpt lat="24.135569" lon="120.681627"/>
<trkpt lat="24.135397" lon="120.681176"/>
<trkpt lat="24.135771" lon="120.680740"/>
<trkpt lat="24.135122" lon="120.680076"/>
<trkpt lat="24.134943" lon="120.680087"/>
<trkpt lat="24.134047" lon="120.678004"/>
<trkpt lat="24.134152" lon="120.677916"/>
<trkpt lat="24.134315" lon="120.677729"/>
<trkpt lat="24.133950" lon="120.677376"/>
<trkpt lat="24.134276" lon="120.676989"/>
<trkpt lat="24.133913" lon="120.676617"/>
<trkpt lat="24.134282" lon="120.676191"/>
<trkpt lat="24.134175" lon="120.676081"/>
<trkpt lat="24.134135" lon="120.676040"/>
<trkpt lat="24.133998" lon="120.675898"/>
<trkpt lat="24.133890" lon="120.675786"/>
<trkpt lat="24.133650" lon="120.675539"/>
<trkpt lat="24.133534" lon="120.675419"/>
<trkpt lat="24.133433" lon="120.675310"/>
<trkpt lat="24.133346" lon="120.675397"/>
<trkpt lat="24.133055" lon="120.675069"/>
<trkpt lat="24.133008" lon="120.675020"/>
<trkpt lat="24.132910" lon="120.674915"/>
<trkpt lat="24.132860" lon="120.674869"/>
<trkpt lat="24.132825" lon="120.674828"/>
<trkpt lat="24.132887" lon="120.674756"/>
<trkpt lat="24.132821" lon="120.674690"/>
<trkpt lat="24.132899" lon="120.674580"/>
<trkpt lat="24.133899" lon="120.673409"/>
<trkpt lat="24.133987" lon="120.673308"/>
<trkpt lat="24.134201" lon="120.673066"/>
<trkpt lat="24.134395" lon="120.673268"/>
<trkpt lat="24.134641" lon="120.673533"/>
<trkpt lat="24.134814" lon="120.673718"/>
<trkpt lat="24.134837" lon="120.673742"/>
<trkpt lat="24.134891" lon="120.673686"/>
<trkpt lat="24.134966" lon="120.673764"/>
<trkpt lat="24.135167" lon="120.673527"/>
<trkpt lat="24.135569" lon="120.673070"/>
<trkpt lat="24.135766" lon="120.672838"/>
<trkpt lat="24.135676" lon="120.672748"/>
<trkpt lat="24.135760" lon="120.672652"/>
<trkpt lat="24.135848" lon="120.672553"/>
<trkpt lat="24.135936" lon="120.672644"/>
<trkpt lat="24.136147" lon="120.672406"/>
<trkpt lat="24.136159" lon="120.672392"/>
<trkpt lat="24.136278" lon="120.672258"/>
<trkpt lat="24.136687" lon="120.672670"/>
<trkpt lat="24.137079" lon="120.672212"/>
<trkpt lat="24.137114" lon="120.672241"/>
<trkpt lat="24.137441" lon="120.672573"/>
<trkpt lat="24.137698" lon="120.672281"/>
<trkpt lat="24.137747" lon="120.672224"/>
<trkpt lat="24.137901" lon="120.672045"/>
<trkpt lat="24.138261" lon="120.671631"/>
<trkpt lat="24.137905" lon="120.671268"/>
<trkpt lat="24.138348" lon="120.670751"/>
<trkpt lat="24.138549" lon="120.670525"/>
<trkpt lat="24.138627" lon="120.670647"/>
<trkpt lat="24.138677" lon="120.670776"/>
<trkpt lat="24.138693" lon="120.670916"/>
<trkpt lat="24.138696" lon="120.671030"/>
<trkpt lat="24.138685" lon="120.671094"/>
<trkpt lat="24.138707" lon="120.671118"/>
<trkpt lat="24.139181" lon="120.670573"/>
<trkpt lat="24.139254" lon="120.670486"/>
<trkpt lat="24.139284" lon="120.670452"/>
<trkpt lat="24.139459" lon="120.670223"/>
<trkpt lat="24.139501" lon="120.670169"/>
<trkpt lat="24.139553" lon="120.670226"/>
<trkpt lat="24.139597" lon="120.670178"/>
<trkpt lat="24.139908" lon="120.670520"/>
<trkpt lat="24.140375" lon="120.669965"/>
<trkpt lat="24.140816" lon="120.669469"/>
<trkpt lat="24.141038" lon="120.669213"/>
</trkseg></trk>
</gpx>