<?xml version="1.0" encoding="UTF-8"?>
<gpx version="1.1" creator="catrun" xmlns="http://www.topografix.com/GPX/1/1">
<metadata><name>西區 手繪蹲坐貓（原稿描圖） 圖形路跑路線</name></metadata>
<wpt lat="24.150373" lon="120.657923"><name>公益公園</name><desc>地標</desc></wpt>
<wpt lat="24.154543" lon="120.653714"><name>東興公園</name><desc>地標</desc></wpt>
<wpt lat="24.157864" lon="120.654503"><name>大安公園</name><desc>地標</desc></wpt>
<trk><name>西區 手繪蹲坐貓（原稿描圖） 圖形路跑路線</name><trkseg>
<trkpt lat="24.138450" lon="120.660061"/>
<trkpt lat="24.138445" lon="120.659503"/>
<trkpt lat="24.138445" lon="120.658837"/>
<trkpt lat="24.138671" lon="120.658838"/>
<trkpt lat="24.138956" lon="120.658839"/>
<trkpt lat="24.139280" lon="120.658839"/>
<trkpt lat="24.139621" lon="120.658840"/>
<trkpt lat="24.139622" lon="120.658139"/>
<trkpt lat="24.140043" lon="120.658140"/>
<trkpt lat="24.140028" lon="120.658834"/>
<trkpt lat="24.140126" lon="120.658834"/>
<trkpt lat="24.140675" lon="120.658833"/>
<trkpt lat="24.140866" lon="120.658833"/>
<trkpt lat="24.141253" lon="120.658833"/>
<trkpt lat="24.141403" lon="120.658833"/>
<trkpt lat="24.141560" lon="120.658833"/>
<trkpt lat="24.142054" lon="120.658833"/>
<trkpt lat="24.142465" lon="120.658833"/>
<trkpt lat="24.142947" lon="120.658832"/>
<trkpt lat="24.143380" lon="120.658832"/>
<trkpt lat="24.143845" lon="120.658832"/>
<trkpt lat="24.144317" lon="120.658832"/>
<trkpt lat="24.144923" lon="120.658832"/>
<trkpt lat="24.145545" lon="120.658831"/>
<trkpt lat="24.145562" lon="120.658831"/>
<trkpt lat="24.145791" lon="120.659481"/>
<trkpt lat="24.146142" lon="120.659482"/>
<trkpt lat="24.146303" lon="120.659482"/>
<trkpt lat="24.146708" lon="120.659481"/>
<trkpt lat="24.146708" lon="120.659517"/>
<trkpt lat="24.147308" lon="120.659518"/>
<trkpt lat="24.147865" lon="120.659518"/>
<trkpt lat="24.148453" lon="120.659514"/>
<trkpt lat="24.148659" lon="120.659513"/>
<trkpt lat="24.149022" lon="120.659515"/>
<trkpt lat="24.149276" lon="120.659513"/>
<trkpt lat="24.149633" lon="120.659516"/>
<trkpt lat="24.149913" lon="120.659522"/>
<trkpt lat="24.150193" lon="120.659520"/>
<trkpt lat="24.150192" lon="120.659084"/>
<trkpt lat="24.150189" lon="120.658875"/>
<trkpt lat="24.150185" lon="120.658829"/>
<trkpt lat="24.150422" lon="120.658829"/>
<trkpt lat="24.150534" lon="120.658861"/>
<trkpt lat="24.150733" lon="120.658863"/>
<trkpt lat="24.150757" lon="120.658829"/>
<trkpt lat="24.150844" lon="120.658822"/>
<trkpt lat="24.150982" lon="120.658832"/>
<trkpt lat="24.150982" lon="120.658871"/>
<trkpt lat="24.151452" lon="120.658896"/>
<trkpt lat="24.151720" lon="120.658899"/>
<trkpt lat="24.151988" lon="120.658899"/>
<trkpt lat="24.152259" lon="120.658900"/>
<trkpt lat="24.152534" lon="120.658901"/>
<trkpt lat="24.152540" lon="120.658839"/>
<trkpt lat="24.152544" lon="120.658504"/>
<trkpt lat="24.152540" lon="120.658454"/>
<trkpt lat="24.152545" lon="120.657934"/>
<trkpt lat="24.152529" lon="120.657389"/>
<trkpt lat="24.152531" lon="120.657275"/>
<trkpt lat="24.152361" lon="120.657275"/>
<trkpt lat="24.152361" lon="120.656633"/>
<trkpt lat="24.152783" lon="120.656634"/>
<trkpt lat="24.152780" lon="120.656060"/>
<trkpt lat="24.152788" lon="120.655117"/>
<trkpt lat="24.152927" lon="120.655116"/>
<trkpt lat="24.152926" lon="120.654664"/>
<trkpt lat="24.152926" lon="120.654340"/>
<trkpt lat="24.152925" lon="120.653869"/>
<trkpt lat="24.153588" lon="120.653871"/>
<trkpt lat="24.153588" lon="120.653023"/>
<trkpt lat="24.154291" lon="120.653024"/>
<trkpt lat="24.154475" lon="120.653051"/>
<trkpt lat="24.154545" lon="120.653084"/>
<trkpt lat="24.154598" lon="120.653118"/>
<trkpt lat="24.154764" lon="120.653224"/>
<trkpt lat="24.155199" lon="120.653502"/>
<trkpt lat="24.155763" lon="120.653863"/>
<trkpt lat="24.155426" lon="120.654494"/>
<trkpt lat="24.156536" lon="120.655212"/>
<trkpt lat="24.156956" lon="120.655484"/>
<trkpt lat="24.157324" lon="120.655722"/>
<trkpt lat="24.157512" lon="120.655844"/>
<trkpt lat="24.157734" lon="120.655987"/>
<trkpt lat="24.157442" lon="120.656533"/>
<trkpt lat="24.157111" lon="120.657138"/>
<trkpt lat="24.157363" lon="120.657302"/>
<trkpt lat="24.157625" lon="120.657470"/>
<trkpt lat="24.157908" lon="120.657657"/>
<trkpt lat="24.157941" lon="120.657586"/>
<trkpt lat="24.158005" lon="120.657563"/>
<trkpt lat="24.158044" lon="120.657589"/>
<trkpt lat="24.158162" lon="120.657668"/>
<trkpt lat="24.158248" lon="120.657725"/>
<trkpt lat="24.158361" lon="120.657800"/>
<trkpt lat="24.158388" lon="120.657818"/>
<trkpt lat="24.158424" lon="120.657872"/>
<trkpt lat="24.158373" lon="120.657962"/>
<trkpt lat="24.158834" lon="120.658263"/>
<trkpt lat="24.159128" lon="120.657739"/>
<trkpt lat="24.159432" lon="120.657184"/>
<trkpt lat="24.159782" lon="120.657418"/>
<trkpt lat="24.160009" lon="120.656976"/>
<trkpt lat="24.160674" lon="120.657189"/>
<trkpt lat="24.160991" lon="120.656643"/>
<trkpt lat="24.161489" lon="120.656799"/>
<trkpt lat="24.161538" lon="120.656814"/>
<trkpt lat="24.161593" lon="120.656832"/>
<trkpt lat="24.162668" lon="120.657199"/>
<trkpt lat="24.162298" lon="120.657874"/>
<trkpt lat="24.162047" lon="120.658342"/>
<trkpt lat="24.161821" lon="120.658761"/>
<trkpt lat="24.161493" lon="120.659312"/>
<trkpt lat="24.161220" lon="120.659824"/>
<trkpt lat="24.160979" lon="120.660263"/>
<trkpt lat="24.160785" lon="120.660616"/>
<trkpt lat="24.160603" lon="120.660948"/>
<trkpt lat="24.160418" lon="120.661284"/>
<trkpt lat="24.160209" lon="120.661666"/>
<trkpt lat="24.160174" lon="120.661740"/>
<trkpt lat="24.159581" lon="120.661357"/>
<trkpt lat="24.159383" lon="120.661676"/>
<trkpt lat="24.158936" lon="120.661402"/>
<trkpt lat="24.158853" lon="120.661549"/>
<trkpt lat="24.158646" lon="120.661901"/>
<trkpt lat="24.158746" lon="120.661967"/>
<trkpt lat="24.158573" lon="120.662312"/>
<trkpt lat="24.158981" lon="120.662578"/>
<trkpt lat="24.158950" lon="120.662630"/>
<trkpt lat="24.158848" lon="120.662826"/>
<trkpt lat="24.159046" lon="120.662987"/>
<trkpt lat="24.158712" lon="120.663637"/>
<trkpt lat="24.158665" lon="120.663722"/>
<trkpt lat="24.158447" lon="120.664132"/>
<trkpt lat="24.158399" lon="120.664209"/>
<trkpt lat="24.158295" lon="120.664367"/>
<trkpt lat="24.158259" lon="120.664342"/>
<trkpt lat="24.158212" lon="120.664308"/>
<trkpt lat="24.158129" lon="120.664253"/>
<trkpt lat="24.157920" lon="120.664088"/>
<trkpt lat="24.157830" lon="120.664219"/>
<trkpt lat="24.157797" lon="120.664268"/>
<trkpt lat="24.157763" lon="120.664330"/>
<trkpt lat="24.157633" lon="120.664219"/>
<trkpt lat="24.157170" lon="120.664857"/>
<trkpt lat="24.157276" lon="120.664950"/>
<trkpt lat="24.157159" lon="120.665107"/>
<trkpt lat="24.157137" lon="120.665134"/>
<trkpt lat="24.156970" lon="120.664985"/>
<trkpt lat="24.156248" lon="120.666004"/>
<trkpt lat="24.156226" lon="120.665907"/>
<trkpt lat="24.156109" lon="120.666075"/>
<trkpt lat="24.155999" lon="120.666239"/>
<trkpt lat="24.155963" lon="120.666271"/>
<trkpt lat="24.155894" lon="120.666205"/>
<trkpt lat="24.155844" lon="120.666278"/>
<trkpt lat="24.155544" lon="120.666671"/>
<trkpt lat="24.155331" lon="120.666968"/>
<trkpt lat="24.155262" lon="120.667039"/>
<trkpt lat="24.155186" lon="120.667070"/>
<trkpt lat="24.154994" lon="120.667289"/>
<trkpt lat="24.154818" lon="120.667492"/>
<trkpt lat="24.154749" lon="120.667567"/>
<trkpt lat="24.154671" lon="120.667648"/>
<trkpt lat="24.154375" lon="120.667986"/>
<trkpt lat="24.154294" lon="120.668079"/>
<trkpt lat="24.154226" lon="120.668158"/>
<trkpt lat="24.154110" lon="120.668290"/>
<trkpt lat="24.153931" lon="120.668508"/>
<trkpt lat="24.154215" lon="120.668796"/>
<trkpt lat="24.154014" lon="120.669034"/>
<trkpt lat="24.154129" lon="120.669153"/>
<trkpt lat="24.153953" lon="120.669351"/>
<trkpt lat="24.154374" lon="120.669807"/>
<trkpt lat="24.154328" lon="120.669840"/>
<trkpt lat="24.153850" lon="120.670185"/>
<trkpt lat="24.153788" lon="120.670228"/>
<trkpt lat="24.153848" lon="120.670419"/>
<trkpt lat="24.153824" lon="120.670501"/>
<trkpt lat="24.153880" lon="120.670503"/>
<trkpt lat="24.153866" lon="120.670607"/>
<trkpt lat="24.153802" lon="120.670615"/>
<trkpt lat="24.153790" lon="120.670668"/>
<trkpt lat="24.153787" lon="120.671782"/>
<trkpt lat="24.153787" lon="120.672067"/>
<trkpt lat="24.153375" lon="120.672065"/>
<trkpt lat="24.153053" lon="120.672069"/>
<trkpt lat="24.152200" lon="120.672073"/>
<trkpt lat="24.152202" lon="120.673030"/>
<trkpt lat="24.152203" lon="120.673300"/>
<trkpt lat="24.152199" lon="120.673636"/>
<trkpt lat="24.151575" lon="120.673640"/>
<trkpt lat="24.150940" lon="120.673638"/>
<trkpt lat="24.150936" lon="120.674359"/>
<trkpt lat="24.150516" lon="120.674361"/>
<trkpt lat="24.150467" lon="120.674393"/>
<trkpt lat="24.150433" lon="120.674425"/>
<trkpt lat="24.150206" lon="120.674698"/>
<trkpt lat="24.149748" lon="120.674221"/>
<trkpt lat="24.149424" lon="120.674572"/>
<trkpt lat="24.149296" lon="120.674719"/>
<trkpt lat="24.149090" lon="120.674946"/>
<trkpt lat="24.149021" lon="120.675053"/>
<trkpt lat="24.148558" lon="120.675581"/>
<trkpt lat="24.148112" lon="120.676085"/>
<trkpt lat="24.147776" lon="120.675703"/>
<trkpt lat="24.147422" lon="120.675340"/>
<trkpt lat="24.147190" lon="120.675563"/>
<trkpt lat="24.146814" lon="120.675190"/>
<trkpt lat="24.146585" lon="120.675430"/>
<trkpt lat="24.146277" lon="120.675122"/>
<trkpt lat="24.146141" lon="120.675019"/>
<trkpt lat="24.145849" lon="120.675032"/>
<trkpt lat="24.145578" lon="120.675098"/>
<trkpt lat="24.145291" lon="120.675166"/>
<trkpt lat="24.145136" lon="120.675203"/>
<trkpt lat="24.144914" lon="120.675216"/>
<trkpt lat="24.144827" lon="120.675162"/>
<trkpt lat="24.144734" lon="120.675254"/>
<trkpt lat="24.144704" lon="120.675224"/>
<trkpt lat="24.144461" lon="120.675295"/>
<trkpt lat="24.144323" lon="120.675316"/>
<trkpt lat="24.144001" lon="120.675364"/>
<trkpt lat="24.143925" lon="120.675454"/>
<trkpt lat="24.143549" lon="120.675060"/>
<trkpt lat="24.143201" lon="120.675473"/>
<trkpt lat="24.142878" lon="120.675839"/>
<trkpt lat="24.142507" lon="120.675461"/>
<trkpt lat="24.142228" lon="120.675175"/>
<trkpt lat="24.142134" lon="120.675078"/>
<trkpt lat="24.142085" lon="120.675130"/>
<trkpt lat="24.141866" lon="120.675365"/>
<trkpt lat="24.141794" lon="120.675285"/>
<trkpt lat="24.141752" lon="120.675283"/>
<trkpt lat="24.141654" lon="120.675390"/>
<trkpt lat="24.141599" lon="120.675445"/>
<trkpt lat="24.141642" lon="120.675614"/>
<trkpt lat="24.141688" lon="120.675757"/>
<trkpt lat="24.141701" lon="120.675773"/>
<trkpt lat="24.141905" lon="120.676170"/>
<trkpt lat="24.142170" lon="120.676496"/>
<trkpt lat="24.142175" lon="120.676532"/>
<trkpt lat="24.142154" lon="120.676564"/>
<trkpt lat="24.141971" lon="120.676776"/>
<trkpt lat="24.141952" lon="120.676799"/>
<trkpt lat="24.141784" lon="120.676587"/>
<trkpt lat="24.141801" lon="120.676564"/>
<trkpt lat="24.141940" lon="120.676685"/>
<trkpt lat="24.142001" lon="120.676648"/>
<trkpt lat="24.142017" lon="120.676667"/>
<trkpt lat="24.142168" lon="120.676876"/>
<trkpt lat="24.142178" lon="120.676889"/>
<trkpt lat="24.142252" lon="120.676983"/>
<trkpt lat="24.142320" lon="120.677042"/>
<trkpt lat="24.142375" lon="120.677058"/>
<trkpt lat="24.142387" lon="120.677064"/>
<trkpt lat="24.142370" lon="120.677136"/>
<trkpt lat="24.142363" lon="120.677185"/>
<trkpt lat="24.142407" lon="120.677222"/>
<trkpt lat="24.142734" lon="120.677421"/>
<trkpt lat="24.142678" lon="120.677490"/>
<trkpt lat="24.142631" lon="120.677552"/>
<trkpt lat="24.142704" lon="120.677587"/>
<trkpt lat="24.142496" lon="120.677832"/>
<trkpt lat="24.142303" lon="120.678055"/>
<trkpt lat="24.142635" lon="120.678397"/>
<trkpt lat="24.142631" lon="120.678422"/>
<trkpt lat="24.142538" lon="120.678541"/>
<trkpt lat="24.142557" lon="120.678560"/>
<trkpt lat="24.142388" lon="120.678755"/>
<trkpt lat="24.142383" lon="120.678751"/>
<trkpt lat="24.142376" lon="120.678747"/>
<trkpt lat="24.142368" lon="120.678746"/>
<trkpt lat="24.142366" lon="120.678746"/>
<trkpt lat="24.142359" lon="120.678747"/>
<trkpt lat="24.142351" lon="120.678751"/>
<trkpt lat="24.142344" lon="120.678757"/>
<trkpt lat="24.142339" lon="120.678765"/>
<trkpt lat="24.142339" lon="120.678766"/>
<trkpt lat="24.142336" lon="120.678765"/>
<trkpt lat="24.141979" lon="120.678672"/>
<trkpt lat="24.141934" lon="120.678720"/>
<trkpt lat="24.142198" lon="120.678993"/>
<trkpt lat="24.142431" lon="120.679241"/>
<trkpt lat="24.142379" lon="120.679331"/>
<trkpt lat="24.142427" lon="120.679379"/>
<trkpt lat="24.142386" lon="120.679387"/>
<trkpt lat="24.142329" lon="120.679452"/>
<trkpt lat="24.142271" lon="120.679518"/>
<trkpt lat="24.142283" lon="120.679528"/>
<trkpt lat="24.142286" lon="120.679574"/>
<trkpt lat="24.142270" lon="120.679592"/>
<trkpt lat="24.142333" lon="120.679658"/>
<trkpt lat="24.142118" lon="120.679907"/>
<trkpt lat="24.142443" lon="120.680253"/>
<trkpt lat="24.142075" lon="120.680652"/>
<trkpt lat="24.142452" lon="120.681033"/>
<trkpt lat="24.142181" lon="120.681363"/>
<trkpt lat="24.141834" lon="120.681742"/>
<trkpt lat="24.141507" lon="120.682117"/>
<trkpt lat="24.141867" lon="120.682491"/>
<trkpt lat="24.142220" lon="120.682856"/>
<trkpt lat="24.142534" lon="120.683176"/>
<trkpt lat="24.142962" lon="120.683625"/>
<trkpt lat="24.142268" lon="120.684426"/>
<trkpt lat="24.141502" lon="120.685255"/>
<trkpt lat="24.141517" lon="120.685684"/>
<trkpt lat="24.141671" lon="120.685679"/>
<trkpt lat="24.141684" lon="120.685678"/>
<trkpt lat="24.141687" lon="120.685763"/>
<trkpt lat="24.141694" lon="120.685918"/>
<trkpt lat="24.141700" lon="120.686068"/>
<trkpt lat="24.141685" lon="120.686103"/>
<trkpt lat="24.141565" lon="120.686100"/>
<trkpt lat="24.141541" lon="120.686877"/>
<trkpt lat="24.141529" lon="120.687337"/>
<trkpt lat="24.141518" lon="120.687570"/>
<trkpt lat="24.142279" lon="120.687599"/>
<trkpt lat="24.142235" lon="120.689233"/>
<trkpt lat="24.141481" lon="120.689204"/>
<trkpt lat="24.140971" lon="120.689186"/>
<trkpt lat="24.140095" lon="120.689166"/>
<trkpt lat="24.140118" lon="120.688383"/>
<trkpt lat="24.140121" lon="120.688154"/>
<trkpt lat="24.140124" lon="120.687799"/>
<trkpt lat="24.140133" lon="120.687288"/>
<trkpt lat="24.140141" lon="120.686804"/>
<trkpt lat="24.140155" lon="120.686000"/>
<trkpt lat="24.140144" lon="120.685860"/>
<trkpt lat="24.140139" lon="120.685733"/>
<trkpt lat="24.139837" lon="120.685744"/>
<trkpt lat="24.139823" lon="120.685752"/>
<trkpt lat="24.139703" lon="120.685492"/>
<trkpt lat="24.139999" lon="120.685138"/>
<trkpt lat="24.139759" lon="120.684887"/>
<trkpt lat="24.140090" lon="120.684492"/>
<trkpt lat="24.140421" lon="120.684115"/>
<trkpt lat="24.140079" lon="120.683761"/>
<trkpt lat="24.139473" lon="120.683121"/>
<trkpt lat="24.139519" lon="120.683070"/>
<trkpt lat="24.139436" lon="120.682987"/>
<trkpt lat="24.139353" lon="120.682904"/>
<trkpt lat="24.139314" lon="120.682949"/>
<trkpt lat="24.138637" lon="120.682272"/>
<trkpt lat="24.139003" lon="120.681853"/>
<trkpt lat="24.139351" lon="120.681460"/>
<trkpt lat="24.139738" lon="120.681019"/>
<trkpt lat="24.140066" lon="120.680641"/>
<trkpt lat="24.139807" lon="120.680365"/>
<trkpt lat="24.139349" lon="120.679888"/>
<trkpt lat="24.139694" lon="120.679486"/>
<trkpt lat="24.140022" lon="120.679132"/>
<trkpt lat="24.139664" lon="120.678746"/>
<trkpt lat="24.140126" lon="120.678229"/>
<trkpt lat="24.139724" lon="120.677824"/>
<trkpt lat="24.139698" lon="120.677858"/>
<trkpt lat="24.139632" lon="120.677783"/>
<trkpt lat="24.139567" lon="120.677710"/>
<trkpt lat="24.139583" lon="120.677354"/>
<trkpt lat="24.139894" lon="120.676930"/>
<trkpt lat="24.139657" lon="120.676682"/>
<trkpt lat="24.139327" lon="120.676344"/>
<trkpt lat="24.139010" lon="120.676014"/>
<trkpt lat="24.138756" lon="120.675749"/>
<trkpt lat="24.139587" lon="120.674797"/>
<trkpt lat="24.139228" lon="120.674432"/>
<trkpt lat="24.138866" lon="120.674061"/>
<trkpt lat="24.139175" lon="120.673708"/>
<trkpt lat="24.138461" lon="120.672973"/>
<trkpt lat="24.138979" lon="120.672369"/>
<trkpt lat="24.139335" lon="120.671954"/>
<trkpt lat="24.139620" lon="120.671625"/>
<trkpt lat="24.139837" lon="120.671374"/>
<trkpt lat="24.139801" lon="120.671323"/>
<trkpt lat="24.139581" lon="120.671003"/>
<trkpt lat="24.139417" lon="120.670815"/>
<trkpt lat="24.139236" lon="120.670623"/>
<trkpt lat="24.139181" lon="120.670573"/>
<trkpt lat="24.139254" lon="120.670486"/>
<trkpt lat="24.139284" lon="120.670452"/>
<trkpt lat="24.139459" lon="120.670223"/>
<trkpt lat="24.139501" lon="120.670169"/>
<trkpt lat="24.139458" lon="120.670124"/>
<trkpt lat="24.139500" lon="120.670077"/>
<trkpt lat="24.139177" lon="120.669764"/>
<trkpt lat="24.139644" lon="120.669210"/>
<trkpt lat="24.139373" lon="120.668931"/>
<trkpt lat="24.139281" lon="120.668837"/>
<trkpt lat="24.139434" lon="120.668663"/>
<trkpt lat="24.139445" lon="120.668650"/>
<trkpt lat="24.139668" lon="120.668393"/>
<trkpt lat="24.139717" lon="120.668336"/>
<trkpt lat="24.139618" lon="120.668234"/>
<trkpt lat="24.139172" lon="120.667775"/>
<trkpt lat="24.139073" lon="120.667673"/>
<trkpt lat="24.138833" lon="120.667424"/>
<trkpt lat="24.139271" lon="120.666913"/>
<trkpt lat="24.139266" lon="120.666883"/>
<trkpt lat="24.139272" lon="120.666841"/>
<trkpt lat="24.139270" lon="120.666516"/>
<trkpt lat="24.139268" lon="120.666145"/>
<trkpt lat="24.139269" lon="120.665762"/>
<trkpt lat="24.139270" lon="120.665653"/>
<trkpt lat="24.139271" lon="120.664888"/>
<trkpt lat="24.139272" lon="120.664162"/>
<trkpt lat="24.139272" lon="120.663867"/>
<trkpt lat="24.139270" lon="120.663107"/>
<trkpt lat="24.139658" lon="120.663106"/>
<trkpt lat="24.140051" lon="120.663110"/>
<trkpt lat="24.140051" lon="120.662947"/>
<trkpt lat="24.140051" lon="120.662708"/>
<trkpt lat="24.140140" lon="120.662707"/>
<trkpt lat="24.140141" lon="120.662621"/>
<trkpt lat="24.140141" lon="120.662563"/>
<trkpt lat="24.140142" lon="120.662161"/>
<trkpt lat="24.140143" lon="120.661693"/>
<trkpt lat="24.140051" lon="120.661693"/>
<trkpt lat="24.140056" lon="120.660990"/>
<trkpt lat="24.140055" lon="120.660973"/>
<trkpt lat="24.140037" lon="120.660190"/>
<trkpt lat="24.139269" lon="120.660190"/>
<trkpt lat="24.138946" lon="120.660190"/>
<trkpt lat="24.138843" lon="120.660190"/>
<trkpt lat="24.138669" lon="120.660190"/>
<trkpt lat="24.138424" lon="120.660189"/>
<trkpt lat="24.138393" lon="120.660189"/>
<trkpt lat="24.138414" lon="120.660134"/>
<trkpt lat="24.138450" lon="120.660061"/>
</trkseg></trk>
</gpx>