<?xml version="1.0" encoding="UTF-8"?>
<gpx version="1.1" creator="catrun" xmlns="http://www.topografix.com/GPX/1/1">
<metadata><name>西區 蹲坐貓咪（側面） 圖形路跑路線</name></metadata>
<wpt lat="24.154543" lon="120.653714"><name>東興公園</name><desc>地標</desc></wpt>
<wpt lat="24.157864" lon="120.654503"><name>大安公園</name><desc>地標</desc></wpt>
<wpt lat="24.160059" lon="120.658810"><name>大有公園</name><desc>地標</desc></wpt>
<trk><name>西區 蹲坐貓咪（側面） 圖形路跑路線</name><trkseg>
<trkpt lat="24.152925" lon="120.653869"/>
<trkpt lat="24.153588" lon="120.653871"/>
<trkpt lat="24.153588" lon="120.654213"/>
<trkpt lat="24.154104" lon="120.654226"/>
<trkpt lat="24.154227" lon="120.654245"/>
<trkpt lat="24.154427" lon="120.654362"/>
<trkpt lat="24.154605" lon="120.654475"/>
<trkpt lat="24.154658" lon="120.654483"/>
<trkpt lat="24.154685" lon="120.654487"/>
<trkpt lat="24.154854" lon="120.654590"/>
<trkpt lat="24.154419" lon="120.655353"/>
<trkpt lat="24.154834" lon="120.655623"/>
<trkpt lat="24.155142" lon="120.655038"/>
<trkpt lat="24.156189" lon="120.655734"/>
<trkpt lat="24.156237" lon="120.655766"/>
<trkpt lat="24.156536" lon="120.655212"/>
<trkpt lat="24.156956" lon="120.655484"/>
<trkpt lat="24.157324" lon="120.655722"/>
<trkpt lat="24.157512" lon="120.655844"/>
<trkpt lat="24.157734" lon="120.655987"/>
<trkpt lat="24.157442" lon="120.656533"/>
<trkpt lat="24.157111" lon="120.657138"/>
<trkpt lat="24.157363" lon="120.657302"/>
<trkpt lat="24.157625" lon="120.657470"/>
<trkpt lat="24.157908" lon="120.657657"/>
<trkpt lat="24.157941" lon="120.657586"/>
<trkpt lat="24.158005" lon="120.657563"/>
<trkpt lat="24.158044" lon="120.657589"/>
<trkpt lat="24.158162" lon="120.657668"/>
<trkpt lat="24.158248" lon="120.657725"/>
<trkpt lat="24.158361" lon="120.657800"/>
<trkpt lat="24.158388" lon="120.657818"/>
<trkpt lat="24.158424" lon="120.657872"/>
<trkpt lat="24.158373" lon="120.657962"/>
<trkpt lat="24.158834" lon="120.658263"/>
<trkpt lat="24.159736" lon="120.658853"/>
<trkpt lat="24.160177" lon="120.659142"/>
<trkpt lat="24.159976" lon="120.659500"/>
<trkpt lat="24.159940" lon="120.659567"/>
<trkpt lat="24.159749" lon="120.659923"/>
<trkpt lat="24.159564" lon="120.660248"/>
<trkpt lat="24.160603" lon="120.660948"/>
<trkpt lat="24.161396" lon="120.661472"/>
<trkpt lat="24.161526" lon="120.661558"/>
<trkpt lat="24.161717" lon="120.661215"/>
<trkpt lat="24.161791" lon="120.661269"/>
<trkpt lat="24.162265" lon="120.662009"/>
<trkpt lat="24.162510" lon="120.661823"/>
<trkpt lat="24.162903" lon="120.662451"/>
<trkpt lat="24.162903" lon="120.662509"/>
<trkpt lat="24.162709" lon="120.662789"/>
<trkpt lat="24.162364" lon="120.662520"/>
<trkpt lat="24.162255" lon="120.662437"/>
<trkpt lat="24.162149" lon="120.662401"/>
<trkpt lat="24.162053" lon="120.662384"/>
<trkpt lat="24.161945" lon="120.662380"/>
<trkpt lat="24.161801" lon="120.662409"/>
<trkpt lat="24.161687" lon="120.662446"/>
<trkpt lat="24.161302" lon="120.662732"/>
<trkpt lat="24.161204" lon="120.662811"/>
<trkpt lat="24.161217" lon="120.662828"/>
<trkpt lat="24.161367" lon="120.663057"/>
<trkpt lat="24.161397" lon="120.663106"/>
<trkpt lat="24.161006" lon="120.663407"/>
<trkpt lat="24.160864" lon="120.663472"/>
<trkpt lat="24.160724" lon="120.663500"/>
<trkpt lat="24.160501" lon="120.663478"/>
<trkpt lat="24.160208" lon="120.663380"/>
<trkpt lat="24.159744" lon="120.664222"/>
<trkpt lat="24.159944" lon="120.664552"/>
<trkpt lat="24.160096" lon="120.664803"/>
<trkpt lat="24.160228" lon="120.665025"/>
<trkpt lat="24.160435" lon="120.665352"/>
<trkpt lat="24.160434" lon="120.665799"/>
<trkpt lat="24.160687" lon="120.665797"/>
<trkpt lat="24.160685" lon="120.665954"/>
<trkpt lat="24.160832" lon="120.665886"/>
<trkpt lat="24.160824" lon="120.666256"/>
<trkpt lat="24.161170" lon="120.666255"/>
<trkpt lat="24.161593" lon="120.666254"/>
<trkpt lat="24.161594" lon="120.666437"/>
<trkpt lat="24.161596" lon="120.667370"/>
<trkpt lat="24.161596" lon="120.667976"/>
<trkpt lat="24.161029" lon="120.667969"/>
<trkpt lat="24.160426" lon="120.667979"/>
<trkpt lat="24.159839" lon="120.667978"/>
<trkpt lat="24.159211" lon="120.667978"/>
<trkpt lat="24.159210" lon="120.668068"/>
<trkpt lat="24.159212" lon="120.668183"/>
<trkpt lat="24.159171" lon="120.668182"/>
<trkpt lat="24.159140" lon="120.668182"/>
<trkpt lat="24.159043" lon="120.668184"/>
<trkpt lat="24.159008" lon="120.667708"/>
<trkpt lat="24.158932" lon="120.667657"/>
<trkpt lat="24.158756" lon="120.667545"/>
<trkpt lat="24.158659" lon="120.667509"/>
<trkpt lat="24.158594" lon="120.667480"/>
<trkpt lat="24.158554" lon="120.667425"/>
<trkpt lat="24.158488" lon="120.667387"/>
<trkpt lat="24.158402" lon="120.667385"/>
<trkpt lat="24.158357" lon="120.667416"/>
<trkpt lat="24.158312" lon="120.667411"/>
<trkpt lat="24.158280" lon="120.667423"/>
<trkpt lat="24.158269" lon="120.667457"/>
<trkpt lat="24.158234" lon="120.667477"/>
<trkpt lat="24.158212" lon="120.667474"/>
<trkpt lat="24.158172" lon="120.667487"/>
<trkpt lat="24.158141" lon="120.667487"/>
<trkpt lat="24.158074" lon="120.667525"/>
<trkpt lat="24.158061" lon="120.667503"/>
<trkpt lat="24.158039" lon="120.667468"/>
<trkpt lat="24.157924" lon="120.667559"/>
<trkpt lat="24.157840" lon="120.667625"/>
<trkpt lat="24.157825" lon="120.667620"/>
<trkpt lat="24.157760" lon="120.667537"/>
<trkpt lat="24.157710" lon="120.667513"/>
<trkpt lat="24.157670" lon="120.667448"/>
<trkpt lat="24.157826" lon="120.667332"/>
<trkpt lat="24.157774" lon="120.667245"/>
<trkpt lat="24.157761" lon="120.667223"/>
<trkpt lat="24.156926" lon="120.667823"/>
<trkpt lat="24.156532" lon="120.668113"/>
<trkpt lat="24.156404" lon="120.668214"/>
<trkpt lat="24.156377" lon="120.668184"/>
<trkpt lat="24.156150" lon="120.667933"/>
<trkpt lat="24.156207" lon="120.668136"/>
<trkpt lat="24.156230" lon="120.668291"/>
<trkpt lat="24.156222" lon="120.668380"/>
<trkpt lat="24.156180" lon="120.668513"/>
<trkpt lat="24.155926" lon="120.668680"/>
<trkpt lat="24.155793" lon="120.668775"/>
<trkpt lat="24.155740" lon="120.668799"/>
<trkpt lat="24.155408" lon="120.669043"/>
<trkpt lat="24.155316" lon="120.668960"/>
<trkpt lat="24.155280" lon="120.668957"/>
<trkpt lat="24.155212" lon="120.669025"/>
<trkpt lat="24.154809" lon="120.668610"/>
<trkpt lat="24.154686" lon="120.668483"/>
<trkpt lat="24.154346" lon="120.668132"/>
<trkpt lat="24.154281" lon="120.668210"/>
<trkpt lat="24.154226" lon="120.668158"/>
<trkpt lat="24.154110" lon="120.668290"/>
<trkpt lat="24.153931" lon="120.668508"/>
<trkpt lat="24.153630" lon="120.668865"/>
<trkpt lat="24.153568" lon="120.668937"/>
<trkpt lat="24.152916" lon="120.669655"/>
<trkpt lat="24.152756" lon="120.669853"/>
<trkpt lat="24.152614" lon="120.670027"/>
<trkpt lat="24.152479" lon="120.670168"/>
<trkpt lat="24.152375" lon="120.670300"/>
<trkpt lat="24.152328" lon="120.670351"/>
<trkpt lat="24.152294" lon="120.670390"/>
<trkpt lat="24.152213" lon="120.670502"/>
<trkpt lat="24.152193" lon="120.670617"/>
<trkpt lat="24.152192" lon="120.670649"/>
<trkpt lat="24.152189" lon="120.670947"/>
<trkpt lat="24.152191" lon="120.671331"/>
<trkpt lat="24.152195" lon="120.671401"/>
<trkpt lat="24.151568" lon="120.671861"/>
<trkpt lat="24.151187" lon="120.672147"/>
<trkpt lat="24.150967" lon="120.672311"/>
<trkpt lat="24.150762" lon="120.672452"/>
<trkpt lat="24.149999" lon="120.672996"/>
<trkpt lat="24.149167" lon="120.673607"/>
<trkpt lat="24.148366" lon="120.674200"/>
<trkpt lat="24.148303" lon="120.674275"/>
<trkpt lat="24.147836" lon="120.674836"/>
<trkpt lat="24.147422" lon="120.675340"/>
<trkpt lat="24.147133" lon="120.675039"/>
<trkpt lat="24.146791" lon="120.674683"/>
<trkpt lat="24.146749" lon="120.674734"/>
<trkpt lat="24.146736" lon="120.674734"/>
<trkpt lat="24.146670" lon="120.674668"/>
<trkpt lat="24.146477" lon="120.674891"/>
<trkpt lat="24.146439" lon="120.674935"/>
<trkpt lat="24.146277" lon="120.675122"/>
<trkpt lat="24.146141" lon="120.675019"/>
<trkpt lat="24.145849" lon="120.675032"/>
<trkpt lat="24.145578" lon="120.675098"/>
<trkpt lat="24.145291" lon="120.675166"/>
<trkpt lat="24.145136" lon="120.675203"/>
<trkpt lat="24.144914" lon="120.675216"/>
<trkpt lat="24.144827" lon="120.675162"/>
<trkpt lat="24.144734" lon="120.675254"/>
<trkpt lat="24.144704" lon="120.675224"/>
<trkpt lat="24.144461" lon="120.675295"/>
<trkpt lat="24.144323" lon="120.675316"/>
<trkpt lat="24.144174" lon="120.675158"/>
<trkpt lat="24.144001" lon="120.675364"/>
<trkpt lat="24.143925" lon="120.675454"/>
<trkpt lat="24.143217" lon="120.676203"/>
<trkpt lat="24.143332" lon="120.676332"/>
<trkpt lat="24.143266" lon="120.676451"/>
<trkpt lat="24.143189" lon="120.676659"/>
<trkpt lat="24.143087" lon="120.676989"/>
<trkpt lat="24.143062" lon="120.677041"/>
<trkpt lat="24.143023" lon="120.677025"/>
<trkpt lat="24.142990" lon="120.677092"/>
<trkpt lat="24.142990" lon="120.677118"/>
<trkpt lat="24.142990" lon="120.677162"/>
<trkpt lat="24.142796" lon="120.677380"/>
<trkpt lat="24.142734" lon="120.677421"/>
<trkpt lat="24.142678" lon="120.677490"/>
<trkpt lat="24.142631" lon="120.677552"/>
<trkpt lat="24.142704" lon="120.677587"/>
<trkpt lat="24.142496" lon="120.677832"/>
<trkpt lat="24.142303" lon="120.678055"/>
<trkpt lat="24.142635" lon="120.678397"/>
<trkpt lat="24.142631" lon="120.678422"/>
<trkpt lat="24.142538" lon="120.678541"/>
<trkpt lat="24.142557" lon="120.678560"/>
<trkpt lat="24.142388" lon="120.678755"/>
<trkpt lat="24.142366" lon="120.678781"/>
<trkpt lat="24.142345" lon="120.678806"/>
<trkpt lat="24.142198" lon="120.678993"/>
<trkpt lat="24.142109" lon="120.679083"/>
<trkpt lat="24.142050" lon="120.679175"/>
<trkpt lat="24.141581" lon="120.679721"/>
<trkpt lat="24.141352" lon="120.679972"/>
<trkpt lat="24.141516" lon="120.680169"/>
<trkpt lat="24.141711" lon="120.680372"/>
<trkpt lat="24.141539" lon="120.680572"/>
<trkpt lat="24.141609" lon="120.680644"/>
<trkpt lat="24.141562" lon="120.680700"/>
<trkpt lat="24.141814" lon="120.680972"/>
<trkpt lat="24.142181" lon="120.681363"/>
<trkpt lat="24.142452" lon="120.681033"/>
<trkpt lat="24.142075" lon="120.680652"/>
<trkpt lat="24.141770" lon="120.680306"/>
<trkpt lat="24.141711" lon="120.680372"/>
<trkpt lat="24.141516" lon="120.680169"/>
<trkpt lat="24.141352" lon="120.679972"/>
<trkpt lat="24.141244" lon="120.679813"/>
<trkpt lat="24.141022" lon="120.679533"/>
<trkpt lat="24.141202" lon="120.679322"/>
<trkpt lat="24.141514" lon="120.678960"/>
<trkpt lat="24.141672" lon="120.678787"/>
<trkpt lat="24.141494" lon="120.678602"/>
<trkpt lat="24.141215" lon="120.678324"/>
<trkpt lat="24.140949" lon="120.678042"/>
<trkpt lat="24.141220" lon="120.677735"/>
<trkpt lat="24.141883" lon="120.676987"/>
<trkpt lat="24.141823" lon="120.676919"/>
<trkpt lat="24.141873" lon="120.676864"/>
<trkpt lat="24.141602" lon="120.676548"/>
<trkpt lat="24.141506" lon="120.676394"/>
<trkpt lat="24.141479" lon="120.676346"/>
<trkpt lat="24.141369" lon="120.676141"/>
<trkpt lat="24.141338" lon="120.676065"/>
<trkpt lat="24.141335" lon="120.676053"/>
<trkpt lat="24.141324" lon="120.675977"/>
<trkpt lat="24.141245" lon="120.675771"/>
<trkpt lat="24.140707" lon="120.674085"/>
<trkpt lat="24.140526" lon="120.673973"/>
<trkpt lat="24.140393" lon="120.673842"/>
<trkpt lat="24.140313" lon="120.673947"/>
<trkpt lat="24.139587" lon="120.674797"/>
<trkpt lat="24.139228" lon="120.674432"/>
<trkpt lat="24.138866" lon="120.674061"/>
<trkpt lat="24.138046" lon="120.674997"/>
<trkpt lat="24.137682" lon="120.674635"/>
<trkpt lat="24.137370" lon="120.674316"/>
<trkpt lat="24.137342" lon="120.674287"/>
<trkpt lat="24.137327" lon="120.674272"/>
<trkpt lat="24.137256" lon="120.674197"/>
<trkpt lat="24.137195" lon="120.674133"/>
<trkpt lat="24.136606" lon="120.673527"/>
<trkpt lat="24.136402" lon="120.673321"/>
<trkpt lat="24.135974" lon="120.672877"/>
<trkpt lat="24.135846" lon="120.672743"/>
<trkpt lat="24.135760" lon="120.672652"/>
<trkpt lat="24.135122" lon="120.671994"/>
<trkpt lat="24.134851" lon="120.671708"/>
<trkpt lat="24.134405" lon="120.671250"/>
<trkpt lat="24.134048" lon="120.670879"/>
<trkpt lat="24.133661" lon="120.670479"/>
<trkpt lat="24.134087" lon="120.669989"/>
<trkpt lat="24.134489" lon="120.669532"/>
<trkpt lat="24.134165" lon="120.669194"/>
<trkpt lat="24.133865" lon="120.668885"/>
<trkpt lat="24.133529" lon="120.668537"/>
<trkpt lat="24.134354" lon="120.667590"/>
<trkpt lat="24.133967" lon="120.667187"/>
<trkpt lat="24.133935" lon="120.667131"/>
<trkpt lat="24.133822" lon="120.666884"/>
<trkpt lat="24.133664" lon="120.666507"/>
<trkpt lat="24.133611" lon="120.666427"/>
<trkpt lat="24.133311" lon="120.666122"/>
<trkpt lat="24.133517" lon="120.665913"/>
<trkpt lat="24.134076" lon="120.665618"/>
<trkpt lat="24.134213" lon="120.665443"/>
<trkpt lat="24.134556" lon="120.665799"/>
<trkpt lat="24.134649" lon="120.665750"/>
<trkpt lat="24.134683" lon="120.665785"/>
<trkpt lat="24.134709" lon="120.665772"/>
<trkpt lat="24.134974" lon="120.665639"/>
<trkpt lat="24.134971" lon="120.665607"/>
<trkpt lat="24.134991" lon="120.665557"/>
<trkpt lat="24.135009" lon="120.665499"/>
<trkpt lat="24.135138" lon="120.665494"/>
<trkpt lat="24.135140" lon="120.665481"/>
<trkpt lat="24.135143" lon="120.665184"/>
<trkpt lat="24.135147" lon="120.664804"/>
<trkpt lat="24.135143" lon="120.664229"/>
<trkpt lat="24.135142" lon="120.664154"/>
<trkpt lat="24.135142" lon="120.664094"/>
<trkpt lat="24.135143" lon="120.663939"/>
<trkpt lat="24.135143" lon="120.663858"/>
<trkpt lat="24.135143" lon="120.663802"/>
<trkpt lat="24.135145" lon="120.663543"/>
<trkpt lat="24.135146" lon="120.663397"/>
<trkpt lat="24.135147" lon="120.663151"/>
<trkpt lat="24.135075" lon="120.663153"/>
<trkpt lat="24.135065" lon="120.663153"/>
<trkpt lat="24.135064" lon="120.663140"/>
<trkpt lat="24.135066" lon="120.663076"/>
<trkpt lat="24.135066" lon="120.663038"/>
<trkpt lat="24.135066" lon="120.663025"/>
<trkpt lat="24.135081" lon="120.663016"/>
<trkpt lat="24.135082" lon="120.662875"/>
<trkpt lat="24.135082" lon="120.662856"/>
<trkpt lat="24.135084" lon="120.662716"/>
<trkpt lat="24.135075" lon="120.662716"/>
<trkpt lat="24.135075" lon="120.662704"/>
<trkpt lat="24.135076" lon="120.662648"/>
<trkpt lat="24.135076" lon="120.662595"/>
<trkpt lat="24.135079" lon="120.662576"/>
<trkpt lat="24.135093" lon="120.662577"/>
<trkpt lat="24.135147" lon="120.662578"/>
<trkpt lat="24.135147" lon="120.662498"/>
<trkpt lat="24.135147" lon="120.662177"/>
<trkpt lat="24.135147" lon="120.662121"/>
<trkpt lat="24.135148" lon="120.661801"/>
<trkpt lat="24.135086" lon="120.661802"/>
<trkpt lat="24.135086" lon="120.661690"/>
<trkpt lat="24.135085" lon="120.661595"/>
<trkpt lat="24.135060" lon="120.661595"/>
<trkpt lat="24.135035" lon="120.661595"/>
<trkpt lat="24.135091" lon="120.661539"/>
<trkpt lat="24.135092" lon="120.661248"/>
<trkpt lat="24.135092" lon="120.661226"/>
<trkpt lat="24.135092" lon="120.661198"/>
<trkpt lat="24.135091" lon="120.661170"/>
<trkpt lat="24.135085" lon="120.661147"/>
<trkpt lat="24.135085" lon="120.661091"/>
<trkpt lat="24.135085" lon="120.661024"/>
<trkpt lat="24.135086" lon="120.660949"/>
<trkpt lat="24.135085" lon="120.660932"/>
<trkpt lat="24.135095" lon="120.660877"/>
<trkpt lat="24.135095" lon="120.660827"/>
<trkpt lat="24.135095" lon="120.660782"/>
<trkpt lat="24.135101" lon="120.660774"/>
<trkpt lat="24.135101" lon="120.660293"/>
<trkpt lat="24.135089" lon="120.660278"/>
<trkpt lat="24.135095" lon="120.660264"/>
<trkpt lat="24.135096" lon="120.660187"/>
<trkpt lat="24.135096" lon="120.660126"/>
<trkpt lat="24.135083" lon="120.660106"/>
<trkpt lat="24.135098" lon="120.660089"/>
<trkpt lat="24.135098" lon="120.658922"/>
<trkpt lat="24.135099" lon="120.658734"/>
<trkpt lat="24.135120" lon="120.658734"/>
<trkpt lat="24.135145" lon="120.658734"/>
<trkpt lat="24.135147" lon="120.658494"/>
<trkpt lat="24.135147" lon="120.658439"/>
<trkpt lat="24.135151" lon="120.657976"/>
<trkpt lat="24.135152" lon="120.657506"/>
<trkpt lat="24.135153" lon="120.657362"/>
<trkpt lat="24.135147" lon="120.657253"/>
<trkpt lat="24.135150" lon="120.656744"/>
<trkpt lat="24.135150" lon="120.656232"/>
<trkpt lat="24.135944" lon="120.656232"/>
<trkpt lat="24.135945" lon="120.655698"/>
<trkpt lat="24.136076" lon="120.655697"/>
<trkpt lat="24.136227" lon="120.655623"/>
<trkpt lat="24.136392" lon="120.655551"/>
<trkpt lat="24.136556" lon="120.655517"/>
<trkpt lat="24.136552" lon="120.655141"/>
<trkpt lat="24.136566" lon="120.655070"/>
<trkpt lat="24.136658" lon="120.654660"/>
<trkpt lat="24.136674" lon="120.654587"/>
<trkpt lat="24.136675" lon="120.653812"/>
<trkpt lat="24.136893" lon="120.653813"/>
<trkpt lat="24.136949" lon="120.653813"/>
<trkpt lat="24.137096" lon="120.653813"/>
<trkpt lat="24.137438" lon="120.653815"/>
<trkpt lat="24.137612" lon="120.653815"/>
<trkpt lat="24.137845" lon="120.653816"/>
<trkpt lat="24.138912" lon="120.653826"/>
<trkpt lat="24.139439" lon="120.653822"/>
<trkpt lat="24.139491" lon="120.653768"/>
<trkpt lat="24.139486" lon="120.653013"/>
<trkpt lat="24.140044" lon="120.653009"/>
<trkpt lat="24.140162" lon="120.653011"/>
<trkpt lat="24.140410" lon="120.653013"/>
<trkpt lat="24.140969" lon="120.653013"/>
<trkpt lat="24.140971" lon="120.653983"/>
<trkpt lat="24.141449" lon="120.653982"/>
<trkpt lat="24.141468" lon="120.653982"/>
<trkpt lat="24.141843" lon="120.653981"/>
<trkpt lat="24.142220" lon="120.653980"/>
<trkpt lat="24.142314" lon="120.653979"/>
<trkpt lat="24.142645" lon="120.653979"/>
<trkpt lat="24.143228" lon="120.653978"/>
<trkpt lat="24.143827" lon="120.653974"/>
<trkpt lat="24.144323" lon="120.653975"/>
<trkpt lat="24.144355" lon="120.653976"/>
<trkpt lat="24.144956" lon="120.653974"/>
<trkpt lat="24.145820" lon="120.653972"/>
<trkpt lat="24.146305" lon="120.653971"/>
<trkpt lat="24.146714" lon="120.653970"/>
<trkpt lat="24.147240" lon="120.653969"/>
<trkpt lat="24.147751" lon="120.653968"/>
<trkpt lat="24.148290" lon="120.653967"/>
<trkpt lat="24.148383" lon="120.653967"/>
<trkpt lat="24.148838" lon="120.653966"/>
<trkpt lat="24.149437" lon="120.653915"/>
<trkpt lat="24.149631" lon="120.653899"/>
<trkpt lat="24.149938" lon="120.653875"/>
<trkpt lat="24.150776" lon="120.653876"/>
<trkpt lat="24.150881" lon="120.653872"/>
<trkpt lat="24.151582" lon="120.653863"/>
<trkpt lat="24.151944" lon="120.653867"/>
<trkpt lat="24.152322" lon="120.653868"/>
<trkpt lat="24.152925" lon="120.653869"/>
</trkseg></trk>
</gpx>