<?xml version="1.0" encoding="UTF-8"?>
<gpx version="1.1" creator="catrun" xmlns="http://www.topografix.com/GPX/1/1">
<metadata><name>西區 貓臉（正面） 圖形路跑路線</name></metadata>
<wpt lat="24.160945" lon="120.668136"><name>風采</name><desc>地標</desc></wpt>
<wpt lat="24.163706" lon="120.668492"><name>中德公園</name><desc>地標</desc></wpt>
<wpt lat="24.165561" lon="120.670244"><name>太原公園</name><desc>地標</desc></wpt>
<trk><name>西區 貓臉（正面） 圖形路跑路線</name><trkseg>
<trkpt lat="24.159215" lon="120.666256"/>
<trkpt lat="24.159215" lon="120.666623"/>
<trkpt lat="24.159548" lon="120.666630"/>
<trkpt lat="24.159696" lon="120.666591"/>
<trkpt lat="24.159786" lon="120.666941"/>
<trkpt lat="24.159832" lon="120.667191"/>
<trkpt lat="24.159849" lon="120.667468"/>
<trkpt lat="24.160429" lon="120.667472"/>
<trkpt lat="24.160426" lon="120.667979"/>
<trkpt lat="24.160429" lon="120.668063"/>
<trkpt lat="24.160425" lon="120.668658"/>
<trkpt lat="24.160433" lon="120.669203"/>
<trkpt lat="24.161008" lon="120.669205"/>
<trkpt lat="24.161601" lon="120.669206"/>
<trkpt lat="24.161602" lon="120.669904"/>
<trkpt lat="24.161892" lon="120.669948"/>
<trkpt lat="24.161996" lon="120.669914"/>
<trkpt lat="24.162170" lon="120.669854"/>
<trkpt lat="24.162342" lon="120.669859"/>
<trkpt lat="24.162429" lon="120.669880"/>
<trkpt lat="24.162651" lon="120.669899"/>
<trkpt lat="24.162841" lon="120.669904"/>
<trkpt lat="24.162840" lon="120.670315"/>
<trkpt lat="24.162941" lon="120.670321"/>
<trkpt lat="24.163007" lon="120.670318"/>
<trkpt lat="24.163009" lon="120.670397"/>
<trkpt lat="24.163017" lon="120.670451"/>
<trkpt lat="24.163030" lon="120.670484"/>
<trkpt lat="24.163030" lon="120.670532"/>
<trkpt lat="24.163062" lon="120.670530"/>
<trkpt lat="24.163459" lon="120.670527"/>
<trkpt lat="24.163662" lon="120.670529"/>
<trkpt lat="24.164236" lon="120.670528"/>
<trkpt lat="24.164442" lon="120.670529"/>
<trkpt lat="24.164807" lon="120.670535"/>
<trkpt lat="24.164905" lon="120.670539"/>
<trkpt lat="24.165160" lon="120.670545"/>
<trkpt lat="24.165158" lon="120.670910"/>
<trkpt lat="24.165152" lon="120.671351"/>
<trkpt lat="24.165593" lon="120.671347"/>
<trkpt lat="24.165885" lon="120.671340"/>
<trkpt lat="24.166040" lon="120.671337"/>
<trkpt lat="24.166276" lon="120.671339"/>
<trkpt lat="24.166280" lon="120.672128"/>
<trkpt lat="24.165874" lon="120.672132"/>
<trkpt lat="24.165656" lon="120.672146"/>
<trkpt lat="24.165345" lon="120.672165"/>
<trkpt lat="24.165152" lon="120.672182"/>
<trkpt lat="24.164909" lon="120.672176"/>
<trkpt lat="24.164894" lon="120.672695"/>
<trkpt lat="24.164907" lon="120.673687"/>
<trkpt lat="24.164868" lon="120.673894"/>
<trkpt lat="24.164849" lon="120.674008"/>
<trkpt lat="24.164855" lon="120.674184"/>
<trkpt lat="24.164980" lon="120.674629"/>
<trkpt lat="24.164552" lon="120.674757"/>
<trkpt lat="24.164039" lon="120.674932"/>
<trkpt lat="24.163692" lon="120.675040"/>
<trkpt lat="24.163139" lon="120.675230"/>
<trkpt lat="24.163106" lon="120.675069"/>
<trkpt lat="24.163104" lon="120.675006"/>
<trkpt lat="24.163108" lon="120.674943"/>
<trkpt lat="24.163120" lon="120.674881"/>
<trkpt lat="24.163137" lon="120.674821"/>
<trkpt lat="24.163162" lon="120.674763"/>
<trkpt lat="24.163140" lon="120.674751"/>
<trkpt lat="24.163135" lon="120.674727"/>
<trkpt lat="24.163057" lon="120.674736"/>
<trkpt lat="24.163024" lon="120.674747"/>
<trkpt lat="24.162908" lon="120.674786"/>
<trkpt lat="24.162852" lon="120.674806"/>
<trkpt lat="24.162812" lon="120.674828"/>
<trkpt lat="24.162782" lon="120.674867"/>
<trkpt lat="24.162767" lon="120.674897"/>
<trkpt lat="24.162694" lon="120.674856"/>
<trkpt lat="24.162618" lon="120.674822"/>
<trkpt lat="24.162540" lon="120.674795"/>
<trkpt lat="24.162319" lon="120.674868"/>
<trkpt lat="24.161692" lon="120.675072"/>
<trkpt lat="24.161713" lon="120.675570"/>
<trkpt lat="24.161489" lon="120.675793"/>
<trkpt lat="24.161385" lon="120.675878"/>
<trkpt lat="24.161257" lon="120.675919"/>
<trkpt lat="24.161085" lon="120.675947"/>
<trkpt lat="24.160414" lon="120.675985"/>
<trkpt lat="24.160411" lon="120.676341"/>
<trkpt lat="24.160407" lon="120.676600"/>
<trkpt lat="24.160390" lon="120.677472"/>
<trkpt lat="24.160388" lon="120.677846"/>
<trkpt lat="24.160377" lon="120.678591"/>
<trkpt lat="24.160361" lon="120.679220"/>
<trkpt lat="24.160358" lon="120.679973"/>
<trkpt lat="24.159579" lon="120.679964"/>
<trkpt lat="24.159125" lon="120.679959"/>
<trkpt lat="24.159112" lon="120.680648"/>
<trkpt lat="24.159103" lon="120.680969"/>
<trkpt lat="24.159093" lon="120.681492"/>
<trkpt lat="24.159091" lon="120.681704"/>
<trkpt lat="24.159089" lon="120.681884"/>
<trkpt lat="24.159084" lon="120.682350"/>
<trkpt lat="24.159076" lon="120.683051"/>
<trkpt lat="24.159076" lon="120.683097"/>
<trkpt lat="24.158642" lon="120.683042"/>
<trkpt lat="24.158625" lon="120.683672"/>
<trkpt lat="24.158421" lon="120.683671"/>
<trkpt lat="24.157649" lon="120.683665"/>
<trkpt lat="24.157649" lon="120.683738"/>
<trkpt lat="24.157643" lon="120.684409"/>
<trkpt lat="24.157638" lon="120.684891"/>
<trkpt lat="24.157580" lon="120.684891"/>
<trkpt lat="24.157480" lon="120.684915"/>
<trkpt lat="24.157313" lon="120.684917"/>
<trkpt lat="24.157242" lon="120.684946"/>
<trkpt lat="24.156922" lon="120.685090"/>
<trkpt lat="24.156848" lon="120.685121"/>
<trkpt lat="24.156085" lon="120.685453"/>
<trkpt lat="24.155957" lon="120.685488"/>
<trkpt lat="24.155906" lon="120.685511"/>
<trkpt lat="24.155843" lon="120.685544"/>
<trkpt lat="24.155730" lon="120.685604"/>
<trkpt lat="24.155346" lon="120.685787"/>
<trkpt lat="24.155305" lon="120.685807"/>
<trkpt lat="24.155280" lon="120.685817"/>
<trkpt lat="24.154834" lon="120.686008"/>
<trkpt lat="24.154870" lon="120.686086"/>
<trkpt lat="24.154920" lon="120.686187"/>
<trkpt lat="24.154967" lon="120.686266"/>
<trkpt lat="24.154981" lon="120.686310"/>
<trkpt lat="24.154913" lon="120.686376"/>
<trkpt lat="24.154840" lon="120.686449"/>
<trkpt lat="24.154811" lon="120.686478"/>
<trkpt lat="24.154738" lon="120.686519"/>
<trkpt lat="24.154625" lon="120.686451"/>
<trkpt lat="24.154550" lon="120.686413"/>
<trkpt lat="24.154431" lon="120.686773"/>
<trkpt lat="24.154320" lon="120.687097"/>
<trkpt lat="24.153978" lon="120.686955"/>
<trkpt lat="24.153712" lon="120.686850"/>
<trkpt lat="24.153447" lon="120.686747"/>
<trkpt lat="24.153162" lon="120.686656"/>
<trkpt lat="24.152822" lon="120.686514"/>
<trkpt lat="24.152455" lon="120.686353"/>
<trkpt lat="24.151674" lon="120.686033"/>
<trkpt lat="24.151215" lon="120.685841"/>
<trkpt lat="24.150980" lon="120.685743"/>
<trkpt lat="24.150961" lon="120.685778"/>
<trkpt lat="24.150896" lon="120.685915"/>
<trkpt lat="24.150813" lon="120.685986"/>
<trkpt lat="24.150732" lon="120.686186"/>
<trkpt lat="24.150264" lon="120.685989"/>
<trkpt lat="24.149974" lon="120.685858"/>
<trkpt lat="24.149699" lon="120.685739"/>
<trkpt lat="24.149526" lon="120.686197"/>
<trkpt lat="24.149404" lon="120.686250"/>
<trkpt lat="24.149272" lon="120.686188"/>
<trkpt lat="24.149268" lon="120.686158"/>
<trkpt lat="24.149254" lon="120.686125"/>
<trkpt lat="24.149223" lon="120.686093"/>
<trkpt lat="24.148872" lon="120.687143"/>
<trkpt lat="24.148842" lon="120.687229"/>
<trkpt lat="24.148476" lon="120.687075"/>
<trkpt lat="24.147870" lon="120.686811"/>
<trkpt lat="24.147199" lon="120.686496"/>
<trkpt lat="24.146505" lon="120.686175"/>
<trkpt lat="24.146392" lon="120.686157"/>
<trkpt lat="24.146245" lon="120.686182"/>
<trkpt lat="24.146127" lon="120.686218"/>
<trkpt lat="24.146159" lon="120.686419"/>
<trkpt lat="24.146282" lon="120.686961"/>
<trkpt lat="24.146088" lon="120.686900"/>
<trkpt lat="24.146044" lon="120.686836"/>
<trkpt lat="24.146017" lon="120.686775"/>
<trkpt lat="24.145976" lon="120.686565"/>
<trkpt lat="24.145923" lon="120.686581"/>
<trkpt lat="24.145913" lon="120.686648"/>
<trkpt lat="24.145946" lon="120.686700"/>
<trkpt lat="24.145989" lon="120.686812"/>
<trkpt lat="24.145981" lon="120.686858"/>
<trkpt lat="24.145784" lon="120.686835"/>
<trkpt lat="24.145362" lon="120.686602"/>
<trkpt lat="24.144937" lon="120.686381"/>
<trkpt lat="24.144631" lon="120.686293"/>
<trkpt lat="24.144649" lon="120.686214"/>
<trkpt lat="24.144670" lon="120.686086"/>
<trkpt lat="24.144605" lon="120.686066"/>
<trkpt lat="24.144578" lon="120.686057"/>
<trkpt lat="24.144423" lon="120.686006"/>
<trkpt lat="24.144081" lon="120.685901"/>
<trkpt lat="24.143487" lon="120.685725"/>
<trkpt lat="24.143513" lon="120.685571"/>
<trkpt lat="24.143490" lon="120.685527"/>
<trkpt lat="24.143416" lon="120.685421"/>
<trkpt lat="24.143337" lon="120.685323"/>
<trkpt lat="24.143305" lon="120.685295"/>
<trkpt lat="24.143474" lon="120.685121"/>
<trkpt lat="24.143581" lon="120.684980"/>
<trkpt lat="24.143400" lon="120.684935"/>
<trkpt lat="24.142943" lon="120.684685"/>
<trkpt lat="24.142862" lon="120.684723"/>
<trkpt lat="24.142792" lon="120.684723"/>
<trkpt lat="24.142748" lon="120.684663"/>
<trkpt lat="24.142722" lon="120.684663"/>
<trkpt lat="24.142701" lon="120.684609"/>
<trkpt lat="24.142566" lon="120.684486"/>
<trkpt lat="24.142529" lon="120.684474"/>
<trkpt lat="24.142268" lon="120.684426"/>
<trkpt lat="24.141884" lon="120.684034"/>
<trkpt lat="24.141835" lon="120.683985"/>
<trkpt lat="24.141518" lon="120.683661"/>
<trkpt lat="24.140794" lon="120.684488"/>
<trkpt lat="24.140652" lon="120.684341"/>
<trkpt lat="24.140421" lon="120.684115"/>
<trkpt lat="24.140079" lon="120.683761"/>
<trkpt lat="24.139473" lon="120.683121"/>
<trkpt lat="24.139439" lon="120.683159"/>
<trkpt lat="24.139413" lon="120.683157"/>
<trkpt lat="24.139346" lon="120.683092"/>
<trkpt lat="24.139261" lon="120.683008"/>
<trkpt lat="24.139314" lon="120.682949"/>
<trkpt lat="24.138637" lon="120.682272"/>
<trkpt lat="24.138335" lon="120.681931"/>
<trkpt lat="24.138294" lon="120.681900"/>
<trkpt lat="24.138258" lon="120.681863"/>
<trkpt lat="24.138489" lon="120.681586"/>
<trkpt lat="24.138155" lon="120.681262"/>
<trkpt lat="24.138268" lon="120.681133"/>
<trkpt lat="24.137912" lon="120.680764"/>
<trkpt lat="24.137849" lon="120.680693"/>
<trkpt lat="24.137784" lon="120.680625"/>
<trkpt lat="24.137525" lon="120.680360"/>
<trkpt lat="24.137137" lon="120.679956"/>
<trkpt lat="24.136782" lon="120.679578"/>
<trkpt lat="24.137077" lon="120.679244"/>
<trkpt lat="24.137149" lon="120.679162"/>
<trkpt lat="24.137033" lon="120.679044"/>
<trkpt lat="24.136431" lon="120.678421"/>
<trkpt lat="24.136371" lon="120.678352"/>
<trkpt lat="24.135973" lon="120.677938"/>
<trkpt lat="24.135754" lon="120.677711"/>
<trkpt lat="24.135549" lon="120.677499"/>
<trkpt lat="24.135004" lon="120.676937"/>
<trkpt lat="24.135719" lon="120.676115"/>
<trkpt lat="24.135905" lon="120.675903"/>
<trkpt lat="24.135817" lon="120.675828"/>
<trkpt lat="24.135585" lon="120.675602"/>
<trkpt lat="24.135232" lon="120.675234"/>
<trkpt lat="24.135110" lon="120.675117"/>
<trkpt lat="24.134811" lon="120.674816"/>
<trkpt lat="24.134680" lon="120.674682"/>
<trkpt lat="24.134425" lon="120.674412"/>
<trkpt lat="24.134867" lon="120.673879"/>
<trkpt lat="24.134915" lon="120.673822"/>
<trkpt lat="24.134966" lon="120.673764"/>
<trkpt lat="24.134891" lon="120.673686"/>
<trkpt lat="24.134837" lon="120.673742"/>
<trkpt lat="24.134814" lon="120.673718"/>
<trkpt lat="24.134641" lon="120.673533"/>
<trkpt lat="24.134395" lon="120.673268"/>
<trkpt lat="24.134201" lon="120.673066"/>
<trkpt lat="24.135122" lon="120.671994"/>
<trkpt lat="24.134851" lon="120.671708"/>
<trkpt lat="24.134405" lon="120.671250"/>
<trkpt lat="24.134820" lon="120.670776"/>
<trkpt lat="24.135234" lon="120.670303"/>
<trkpt lat="24.134879" lon="120.669933"/>
<trkpt lat="24.135158" lon="120.669637"/>
<trkpt lat="24.135071" lon="120.669389"/>
<trkpt lat="24.135060" lon="120.669346"/>
<trkpt lat="24.135020" lon="120.669156"/>
<trkpt lat="24.135003" lon="120.668945"/>
<trkpt lat="24.135312" lon="120.668588"/>
<trkpt lat="24.135766" lon="120.668072"/>
<trkpt lat="24.136250" lon="120.667520"/>
<trkpt lat="24.136304" lon="120.667455"/>
<trkpt lat="24.136246" lon="120.667391"/>
<trkpt lat="24.136259" lon="120.667378"/>
<trkpt lat="24.136448" lon="120.667162"/>
<trkpt lat="24.136449" lon="120.667158"/>
<trkpt lat="24.136449" lon="120.667147"/>
<trkpt lat="24.136443" lon="120.667134"/>
<trkpt lat="24.136460" lon="120.667048"/>
<trkpt lat="24.136469" lon="120.666935"/>
<trkpt lat="24.136548" lon="120.666979"/>
<trkpt lat="24.136551" lon="120.666514"/>
<trkpt lat="24.136550" lon="120.665919"/>
<trkpt lat="24.136460" lon="120.665918"/>
<trkpt lat="24.136462" lon="120.665761"/>
<trkpt lat="24.136464" lon="120.665661"/>
<trkpt lat="24.135866" lon="120.665652"/>
<trkpt lat="24.135869" lon="120.665189"/>
<trkpt lat="24.135863" lon="120.664799"/>
<trkpt lat="24.135870" lon="120.664231"/>
<trkpt lat="24.135931" lon="120.664229"/>
<trkpt lat="24.135935" lon="120.664153"/>
<trkpt lat="24.135935" lon="120.664113"/>
<trkpt lat="24.135935" lon="120.664105"/>
<trkpt lat="24.136055" lon="120.664106"/>
<trkpt lat="24.136337" lon="120.664108"/>
<trkpt lat="24.136386" lon="120.664108"/>
<trkpt lat="24.136438" lon="120.664073"/>
<trkpt lat="24.136440" lon="120.663967"/>
<trkpt lat="24.136440" lon="120.663947"/>
<trkpt lat="24.136441" lon="120.663932"/>
<trkpt lat="24.136442" lon="120.663867"/>
<trkpt lat="24.136441" lon="120.663804"/>
<trkpt lat="24.136443" lon="120.663784"/>
<trkpt lat="24.136458" lon="120.663780"/>
<trkpt lat="24.136550" lon="120.663781"/>
<trkpt lat="24.136550" lon="120.663577"/>
<trkpt lat="24.136551" lon="120.663304"/>
<trkpt lat="24.136655" lon="120.663304"/>
<trkpt lat="24.136655" lon="120.663285"/>
<trkpt lat="24.136656" lon="120.663238"/>
<trkpt lat="24.136683" lon="120.663211"/>
<trkpt lat="24.136677" lon="120.663203"/>
<trkpt lat="24.136669" lon="120.663195"/>
<trkpt lat="24.136670" lon="120.663113"/>
<trkpt lat="24.136670" lon="120.663060"/>
<trkpt lat="24.136678" lon="120.663020"/>
<trkpt lat="24.136679" lon="120.662863"/>
<trkpt lat="24.136679" lon="120.662792"/>
<trkpt lat="24.136679" lon="120.662716"/>
<trkpt lat="24.136679" lon="120.662702"/>
<trkpt lat="24.136680" lon="120.662615"/>
<trkpt lat="24.136680" lon="120.662554"/>
<trkpt lat="24.136681" lon="120.662534"/>
<trkpt lat="24.136662" lon="120.662507"/>
<trkpt lat="24.136662" lon="120.662239"/>
<trkpt lat="24.136652" lon="120.662219"/>
<trkpt lat="24.136652" lon="120.662187"/>
<trkpt lat="24.136651" lon="120.662135"/>
<trkpt lat="24.136651" lon="120.662107"/>
<trkpt lat="24.136651" lon="120.662061"/>
<trkpt lat="24.136651" lon="120.662016"/>
<trkpt lat="24.136651" lon="120.661972"/>
<trkpt lat="24.136651" lon="120.661926"/>
<trkpt lat="24.136651" lon="120.661878"/>
<trkpt lat="24.136651" lon="120.661871"/>
<trkpt lat="24.136673" lon="120.661845"/>
<trkpt lat="24.136696" lon="120.661818"/>
<trkpt lat="24.136711" lon="120.661800"/>
<trkpt lat="24.136767" lon="120.661801"/>
<trkpt lat="24.136773" lon="120.661801"/>
<trkpt lat="24.136826" lon="120.661801"/>
<trkpt lat="24.136868" lon="120.661801"/>
<trkpt lat="24.136907" lon="120.661801"/>
<trkpt lat="24.136949" lon="120.661801"/>
<trkpt lat="24.137008" lon="120.661801"/>
<trkpt lat="24.137055" lon="120.661801"/>
<trkpt lat="24.137105" lon="120.661802"/>
<trkpt lat="24.137315" lon="120.661804"/>
<trkpt lat="24.137345" lon="120.661804"/>
<trkpt lat="24.137401" lon="120.661804"/>
<trkpt lat="24.137444" lon="120.661804"/>
<trkpt lat="24.137483" lon="120.661804"/>
<trkpt lat="24.137523" lon="120.661805"/>
<trkpt lat="24.137566" lon="120.661805"/>
<trkpt lat="24.137604" lon="120.661805"/>
<trkpt lat="24.137646" lon="120.661805"/>
<trkpt lat="24.137687" lon="120.661805"/>
<trkpt lat="24.137726" lon="120.661806"/>
<trkpt lat="24.137765" lon="120.661806"/>
<trkpt lat="24.137804" lon="120.661806"/>
<trkpt lat="24.137840" lon="120.661806"/>
<trkpt lat="24.137859" lon="120.661806"/>
<trkpt lat="24.137868" lon="120.661816"/>
<trkpt lat="24.137877" lon="120.661806"/>
<trkpt lat="24.137883" lon="120.661798"/>
<trkpt lat="24.137962" lon="120.661798"/>
<trkpt lat="24.138050" lon="120.661800"/>
<trkpt lat="24.138051" lon="120.661693"/>
<trkpt lat="24.138337" lon="120.661693"/>
<trkpt lat="24.138425" lon="120.661693"/>
<trkpt lat="24.138424" lon="120.660189"/>
<trkpt lat="24.138669" lon="120.660190"/>
<trkpt lat="24.138843" lon="120.660190"/>
<trkpt lat="24.138946" lon="120.660190"/>
<trkpt lat="24.139269" lon="120.660190"/>
<trkpt lat="24.140037" lon="120.660190"/>
<trkpt lat="24.140034" lon="120.659615"/>
<trkpt lat="24.140028" lon="120.658834"/>
<trkpt lat="24.140126" lon="120.658834"/>
<trkpt lat="24.140675" lon="120.658833"/>
<trkpt lat="24.140866" lon="120.658833"/>
<trkpt lat="24.141253" lon="120.658833"/>
<trkpt lat="24.141403" lon="120.658833"/>
<trkpt lat="24.141560" lon="120.658833"/>
<trkpt lat="24.141558" lon="120.657357"/>
<trkpt lat="24.141559" lon="120.657254"/>
<trkpt lat="24.141563" lon="120.655958"/>
<trkpt lat="24.141908" lon="120.655959"/>
<trkpt lat="24.142196" lon="120.655991"/>
<trkpt lat="24.142366" lon="120.656040"/>
<trkpt lat="24.142499" lon="120.656093"/>
<trkpt lat="24.142676" lon="120.656221"/>
<trkpt lat="24.142814" lon="120.656355"/>
<trkpt lat="24.142949" lon="120.656535"/>
<trkpt lat="24.142979" lon="120.656441"/>
<trkpt lat="24.143174" lon="120.656211"/>
<trkpt lat="24.143217" lon="120.656140"/>
<trkpt lat="24.143237" lon="120.656213"/>
<trkpt lat="24.143392" lon="120.656445"/>
<trkpt lat="24.143499" lon="120.656561"/>
<trkpt lat="24.143589" lon="120.656630"/>
<trkpt lat="24.143698" lon="120.656685"/>
<trkpt lat="24.143818" lon="120.656737"/>
<trkpt lat="24.143919" lon="120.656757"/>
<trkpt lat="24.144022" lon="120.656773"/>
<trkpt lat="24.144117" lon="120.656775"/>
<trkpt lat="24.144229" lon="120.656772"/>
<trkpt lat="24.144954" lon="120.656769"/>
<trkpt lat="24.145530" lon="120.656769"/>
<trkpt lat="24.145530" lon="120.656187"/>
<trkpt lat="24.145529" lon="120.655712"/>
<trkpt lat="24.145556" lon="120.655684"/>
<trkpt lat="24.146131" lon="120.655683"/>
<trkpt lat="24.146131" lon="120.655129"/>
<trkpt lat="24.146303" lon="120.655132"/>
<trkpt lat="24.146706" lon="120.655131"/>
<trkpt lat="24.147240" lon="120.655142"/>
<trkpt lat="24.147765" lon="120.655142"/>
<trkpt lat="24.147782" lon="120.655225"/>
<trkpt lat="24.147781" lon="120.656762"/>
<trkpt lat="24.147943" lon="120.656763"/>
<trkpt lat="24.148280" lon="120.656764"/>
<trkpt lat="24.148797" lon="120.656763"/>
<trkpt lat="24.149287" lon="120.656767"/>
<trkpt lat="24.149598" lon="120.656768"/>
<trkpt lat="24.149789" lon="120.656767"/>
<trkpt lat="24.150300" lon="120.656765"/>
<trkpt lat="24.150845" lon="120.656762"/>
<trkpt lat="24.150846" lon="120.657157"/>
<trkpt lat="24.150849" lon="120.657264"/>
<trkpt lat="24.150974" lon="120.657265"/>
<trkpt lat="24.152361" lon="120.657275"/>
<trkpt lat="24.152531" lon="120.657275"/>
<trkpt lat="24.152529" lon="120.657389"/>
<trkpt lat="24.152545" lon="120.657934"/>
<trkpt lat="24.153108" lon="120.657927"/>
<trkpt lat="24.153311" lon="120.657932"/>
<trkpt lat="24.153402" lon="120.657937"/>
<trkpt lat="24.153575" lon="120.658005"/>
<trkpt lat="24.153682" lon="120.658067"/>
<trkpt lat="24.153804" lon="120.658144"/>
<trkpt lat="24.153899" lon="120.658204"/>
<trkpt lat="24.154535" lon="120.658618"/>
<trkpt lat="24.155147" lon="120.659016"/>
<trkpt lat="24.155374" lon="120.658618"/>
<trkpt lat="24.155421" lon="120.658521"/>
<trkpt lat="24.155741" lon="120.658733"/>
<trkpt lat="24.155950" lon="120.658320"/>
<trkpt lat="24.155973" lon="120.658251"/>
<trkpt lat="24.155927" lon="120.658100"/>
<trkpt lat="24.155789" lon="120.657640"/>
<trkpt lat="24.155895" lon="120.657451"/>
<trkpt lat="24.156337" lon="120.656619"/>
<trkpt lat="24.156732" lon="120.656886"/>
<trkpt lat="24.157082" lon="120.657119"/>
<trkpt lat="24.157111" lon="120.657138"/>
<trkpt lat="24.157363" lon="120.657302"/>
<trkpt lat="24.157625" lon="120.657470"/>
<trkpt lat="24.157908" lon="120.657657"/>
<trkpt lat="24.157941" lon="120.657586"/>
<trkpt lat="24.158005" lon="120.657563"/>
<trkpt lat="24.158044" lon="120.657589"/>
<trkpt lat="24.158249" lon="120.657198"/>
<trkpt lat="24.158379" lon="120.656958"/>
<trkpt lat="24.158888" lon="120.656058"/>
<trkpt lat="24.159003" lon="120.656128"/>
<trkpt lat="24.159086" lon="120.656179"/>
<trkpt lat="24.159169" lon="120.656229"/>
<trkpt lat="24.159192" lon="120.656243"/>
<trkpt lat="24.159270" lon="120.656290"/>
<trkpt lat="24.159346" lon="120.656233"/>
<trkpt lat="24.159414" lon="120.656106"/>
<trkpt lat="24.159640" lon="120.656186"/>
<trkpt lat="24.159831" lon="120.656250"/>
<trkpt lat="24.159920" lon="120.656276"/>
<trkpt lat="24.159621" lon="120.656852"/>
<trkpt lat="24.159432" lon="120.657184"/>
<trkpt lat="24.159128" lon="120.657739"/>
<trkpt lat="24.160016" lon="120.658350"/>
<trkpt lat="24.159947" lon="120.658475"/>
<trkpt lat="24.160379" lon="120.658782"/>
<trkpt lat="24.160177" lon="120.659142"/>
<trkpt lat="24.159976" lon="120.659500"/>
<trkpt lat="24.159940" lon="120.659567"/>
<trkpt lat="24.159749" lon="120.659923"/>
<trkpt lat="24.159564" lon="120.660248"/>
<trkpt lat="24.159371" lon="120.660604"/>
<trkpt lat="24.159164" lon="120.660977"/>
<trkpt lat="24.159126" lon="120.661062"/>
<trkpt lat="24.158936" lon="120.661402"/>
<trkpt lat="24.158853" lon="120.661549"/>
<trkpt lat="24.158646" lon="120.661901"/>
<trkpt lat="24.158746" lon="120.661967"/>
<trkpt lat="24.158573" lon="120.662312"/>
<trkpt lat="24.158981" lon="120.662578"/>
<trkpt lat="24.158950" lon="120.662630"/>
<trkpt lat="24.158848" lon="120.662826"/>
<trkpt lat="24.159046" lon="120.662987"/>
<trkpt lat="24.158712" lon="120.663637"/>
<trkpt lat="24.158665" lon="120.663722"/>
<trkpt lat="24.158447" lon="120.664132"/>
<trkpt lat="24.158399" lon="120.664209"/>
<trkpt lat="24.158295" lon="120.664367"/>
<trkpt lat="24.158318" lon="120.664384"/>
<trkpt lat="24.158394" lon="120.664441"/>
<trkpt lat="24.158465" lon="120.664506"/>
<trkpt lat="24.158529" lon="120.664566"/>
<trkpt lat="24.158601" lon="120.664634"/>
<trkpt lat="24.158638" lon="120.664674"/>
<trkpt lat="24.158678" lon="120.664727"/>
<trkpt lat="24.158744" lon="120.664811"/>
<trkpt lat="24.158810" lon="120.664892"/>
<trkpt lat="24.158871" lon="120.664994"/>
<trkpt lat="24.158936" lon="120.665104"/>
<trkpt lat="24.158987" lon="120.665201"/>
<trkpt lat="24.159015" lon="120.665267"/>
<trkpt lat="24.159068" lon="120.665376"/>
<trkpt lat="24.159098" lon="120.665478"/>
<trkpt lat="24.159124" lon="120.665560"/>
<trkpt lat="24.159139" lon="120.665627"/>
<trkpt lat="24.159167" lon="120.665741"/>
<trkpt lat="24.159190" lon="120.665886"/>
<trkpt lat="24.159215" lon="120.666256"/>
</trkseg></trk>
</gpx>