<?xml version="1.0" encoding="UTF-8"?>
<gpx version="1.1" creator="catrun" xmlns="http://www.topografix.com/GPX/1/1">
<metadata><name>霧峰區 手繪蹲坐貓（原稿描圖） 圖形路跑路線</name></metadata>
<wpt lat="24.084816" lon="120.693353"><name>青年公園</name><desc>地標</desc></wpt>
<wpt lat="24.085041" lon="120.694428"><name>東湖公園</name><desc>地標</desc></wpt>
<wpt lat="24.081813" lon="120.697411"><name>藝術廈門博覽會釆釆畫廊</name><desc>地標</desc></wpt>
<trk><name>霧峰區 手繪蹲坐貓（原稿描圖） 圖形路跑路線</name><trkseg>
<trkpt lat="24.073784" lon="120.691435"/>
<trkpt lat="24.073884" lon="120.691571"/>
<trkpt lat="24.073997" lon="120.691728"/>
<trkpt lat="24.074648" lon="120.690668"/>
<trkpt lat="24.074838" lon="120.690382"/>
<trkpt lat="24.074982" lon="120.690207"/>
<trkpt lat="24.075204" lon="120.689971"/>
<trkpt lat="24.075440" lon="120.689778"/>
<trkpt lat="24.075490" lon="120.689853"/>
<trkpt lat="24.075245" lon="120.690069"/>
<trkpt lat="24.075170" lon="120.690139"/>
<trkpt lat="24.074998" lon="120.690328"/>
<trkpt lat="24.074866" lon="120.690501"/>
<trkpt lat="24.074734" lon="120.690702"/>
<trkpt lat="24.074376" lon="120.691280"/>
<trkpt lat="24.074066" lon="120.691805"/>
<trkpt lat="24.074723" lon="120.692598"/>
<trkpt lat="24.074862" lon="120.692530"/>
<trkpt lat="24.075383" lon="120.692287"/>
<trkpt lat="24.076826" lon="120.691880"/>
<trkpt lat="24.076993" lon="120.691840"/>
<trkpt lat="24.077037" lon="120.692384"/>
<trkpt lat="24.077060" lon="120.692647"/>
<trkpt lat="24.077108" lon="120.693217"/>
<trkpt lat="24.077263" lon="120.693219"/>
<trkpt lat="24.077271" lon="120.693335"/>
<trkpt lat="24.077377" lon="120.693347"/>
<trkpt lat="24.077957" lon="120.693406"/>
<trkpt lat="24.078207" lon="120.693418"/>
<trkpt lat="24.078740" lon="120.693239"/>
<trkpt lat="24.078820" lon="120.693364"/>
<trkpt lat="24.079041" lon="120.693759"/>
<trkpt lat="24.079164" lon="120.693981"/>
<trkpt lat="24.079278" lon="120.694203"/>
<trkpt lat="24.079446" lon="120.694506"/>
<trkpt lat="24.079971" lon="120.694398"/>
<trkpt lat="24.079920" lon="120.694038"/>
<trkpt lat="24.079844" lon="120.693609"/>
<trkpt lat="24.080238" lon="120.693488"/>
<trkpt lat="24.080371" lon="120.694323"/>
<trkpt lat="24.080463" lon="120.694322"/>
<trkpt lat="24.080448" lon="120.693447"/>
<trkpt lat="24.080568" lon="120.693390"/>
<trkpt lat="24.080504" lon="120.692774"/>
<trkpt lat="24.080769" lon="120.692693"/>
<trkpt lat="24.081191" lon="120.692595"/>
<trkpt lat="24.081173" lon="120.692400"/>
<trkpt lat="24.081149" lon="120.692218"/>
<trkpt lat="24.081319" lon="120.692203"/>
<trkpt lat="24.081390" lon="120.692248"/>
<trkpt lat="24.081530" lon="120.692278"/>
<trkpt lat="24.081678" lon="120.692233"/>
<trkpt lat="24.081976" lon="120.692026"/>
<trkpt lat="24.081906" lon="120.692199"/>
<trkpt lat="24.081836" lon="120.692397"/>
<trkpt lat="24.081795" lon="120.692668"/>
<trkpt lat="24.082348" lon="120.694542"/>
<trkpt lat="24.082858" lon="120.694320"/>
<trkpt lat="24.083127" lon="120.695136"/>
<trkpt lat="24.083161" lon="120.695149"/>
<trkpt lat="24.083486" lon="120.694999"/>
<trkpt lat="24.083336" lon="120.694503"/>
<trkpt lat="24.083237" lon="120.694173"/>
<trkpt lat="24.083644" lon="120.694103"/>
<trkpt lat="24.083700" lon="120.694601"/>
<trkpt lat="24.083879" lon="120.695667"/>
<trkpt lat="24.084033" lon="120.696585"/>
<trkpt lat="24.084050" lon="120.696676"/>
<trkpt lat="24.084079" lon="120.696742"/>
<trkpt lat="24.083565" lon="120.696774"/>
<trkpt lat="24.083339" lon="120.696907"/>
<trkpt lat="24.083077" lon="120.697048"/>
<trkpt lat="24.082755" lon="120.696988"/>
<trkpt lat="24.082767" lon="120.696892"/>
<trkpt lat="24.082685" lon="120.696796"/>
<trkpt lat="24.082498" lon="120.696538"/>
<trkpt lat="24.082474" lon="120.696499"/>
<trkpt lat="24.081322" lon="120.696675"/>
<trkpt lat="24.081258" lon="120.696151"/>
<trkpt lat="24.081143" lon="120.696139"/>
<trkpt lat="24.080843" lon="120.696162"/>
<trkpt lat="24.080965" lon="120.696926"/>
<trkpt lat="24.080584" lon="120.696986"/>
<trkpt lat="24.080674" lon="120.697345"/>
<trkpt lat="24.080477" lon="120.697414"/>
<trkpt lat="24.080293" lon="120.697539"/>
<trkpt lat="24.080402" lon="120.697846"/>
<trkpt lat="24.080524" lon="120.698240"/>
<trkpt lat="24.079598" lon="120.698508"/>
<trkpt lat="24.079682" lon="120.698598"/>
<trkpt lat="24.079444" lon="120.698554"/>
<trkpt lat="24.079363" lon="120.698579"/>
<trkpt lat="24.078348" lon="120.698926"/>
<trkpt lat="24.077927" lon="120.699066"/>
<trkpt lat="24.077936" lon="120.699187"/>
<trkpt lat="24.077548" lon="120.699307"/>
<trkpt lat="24.077076" lon="120.699444"/>
<trkpt lat="24.077001" lon="120.699469"/>
<trkpt lat="24.076976" lon="120.699341"/>
<trkpt lat="24.076398" lon="120.699505"/>
<trkpt lat="24.075955" lon="120.699648"/>
<trkpt lat="24.075830" lon="120.699684"/>
<trkpt lat="24.075716" lon="120.699728"/>
<trkpt lat="24.075600" lon="120.699766"/>
<trkpt lat="24.075488" lon="120.699797"/>
<trkpt lat="24.075341" lon="120.699827"/>
<trkpt lat="24.075206" lon="120.699846"/>
<trkpt lat="24.075069" lon="120.699857"/>
<trkpt lat="24.074932" lon="120.699860"/>
<trkpt lat="24.074795" lon="120.699855"/>
<trkpt lat="24.074659" lon="120.699841"/>
<trkpt lat="24.074523" lon="120.699819"/>
<trkpt lat="24.074303" lon="120.699789"/>
<trkpt lat="24.074009" lon="120.699730"/>
<trkpt lat="24.073760" lon="120.699627"/>
<trkpt lat="24.073623" lon="120.699543"/>
<trkpt lat="24.073596" lon="120.699553"/>
<trkpt lat="24.073436" lon="120.699422"/>
<trkpt lat="24.073290" lon="120.699322"/>
<trkpt lat="24.073297" lon="120.699322"/>
<trkpt lat="24.072998" lon="120.699022"/>
<trkpt lat="24.072965" lon="120.699156"/>
<trkpt lat="24.072361" lon="120.698657"/>
<trkpt lat="24.071381" lon="120.697812"/>
<trkpt lat="24.071203" lon="120.698276"/>
<trkpt lat="24.071389" lon="120.698348"/>
<trkpt lat="24.071494" lon="120.698405"/>
<trkpt lat="24.071553" lon="120.698464"/>
<trkpt lat="24.071636" lon="120.698598"/>
<trkpt lat="24.071668" lon="120.698705"/>
<trkpt lat="24.071666" lon="120.698936"/>
<trkpt lat="24.071599" lon="120.699540"/>
<trkpt lat="24.071521" lon="120.700179"/>
<trkpt lat="24.071513" lon="120.700331"/>
<trkpt lat="24.071467" lon="120.700385"/>
<trkpt lat="24.071281" lon="120.700457"/>
<trkpt lat="24.071033" lon="120.700540"/>
<trkpt lat="24.070967" lon="120.700564"/>
<trkpt lat="24.070852" lon="120.700564"/>
<trkpt lat="24.070706" lon="120.701532"/>
<trkpt lat="24.070788" lon="120.701637"/>
<trkpt lat="24.070641" lon="120.702398"/>
<trkpt lat="24.070268" lon="120.702731"/>
<trkpt lat="24.070052" lon="120.702632"/>
<trkpt lat="24.069668" lon="120.702523"/>
<trkpt lat="24.069101" lon="120.702380"/>
<trkpt lat="24.068873" lon="120.702329"/>
<trkpt lat="24.069028" lon="120.701756"/>
<trkpt lat="24.069114" lon="120.701444"/>
<trkpt lat="24.069157" lon="120.701294"/>
<trkpt lat="24.069221" lon="120.701058"/>
<trkpt lat="24.069690" lon="120.701211"/>
<trkpt lat="24.069758" lon="120.700954"/>
<trkpt lat="24.069840" lon="120.700548"/>
<trkpt lat="24.069717" lon="120.700397"/>
<trkpt lat="24.069834" lon="120.700381"/>
<trkpt lat="24.069917" lon="120.700158"/>
<trkpt lat="24.070036" lon="120.699856"/>
<trkpt lat="24.070085" lon="120.699370"/>
<trkpt lat="24.070294" lon="120.699384"/>
<trkpt lat="24.070466" lon="120.699406"/>
<trkpt lat="24.070983" lon="120.699454"/>
<trkpt lat="24.071095" lon="120.698755"/>
<trkpt lat="24.071203" lon="120.698276"/>
<trkpt lat="24.071381" lon="120.697812"/>
<trkpt lat="24.070487" lon="120.697018"/>
<trkpt lat="24.070213" lon="120.696842"/>
<trkpt lat="24.070068" lon="120.696753"/>
<trkpt lat="24.070179" lon="120.696681"/>
<trkpt lat="24.070294" lon="120.696638"/>
<trkpt lat="24.070477" lon="120.696499"/>
<trkpt lat="24.071195" lon="120.695951"/>
<trkpt lat="24.071422" lon="120.695763"/>
<trkpt lat="24.072202" lon="120.695168"/>
<trkpt lat="24.072337" lon="120.695067"/>
<trkpt lat="24.072412" lon="120.694988"/>
<trkpt lat="24.072488" lon="120.694885"/>
<trkpt lat="24.072594" lon="120.694670"/>
<trkpt lat="24.072694" lon="120.694333"/>
<trkpt lat="24.072793" lon="120.694023"/>
<trkpt lat="24.072897" lon="120.693750"/>
<trkpt lat="24.072954" lon="120.693626"/>
<trkpt lat="24.073194" lon="120.693215"/>
<trkpt lat="24.073272" lon="120.693090"/>
<trkpt lat="24.073326" lon="120.692997"/>
<trkpt lat="24.073428" lon="120.692824"/>
<trkpt lat="24.073717" lon="120.692365"/>
<trkpt lat="24.074066" lon="120.691805"/>
<trkpt lat="24.073997" lon="120.691728"/>
<trkpt lat="24.073884" lon="120.691571"/>
<trkpt lat="24.073784" lon="120.691435"/>
</trkseg></trk>
</gpx>