<?xml version="1.0" encoding="UTF-8"?>
<gpx version="1.1" creator="catrun" xmlns="http://www.topografix.com/GPX/1/1">
<metadata><name>梧棲區 手繪蹲坐貓（原稿描圖） 圖形路跑路線</name></metadata>
<wpt lat="24.262540" lon="120.530513"><name>魚寮運動公園</name><desc>地標</desc></wpt>
<wpt lat="24.266150" lon="120.532946"><name>地景公園</name><desc>地標</desc></wpt>
<wpt lat="24.271824" lon="120.531862"><name>台中港榕樹公園</name><desc>地標</desc></wpt>
<trk><name>梧棲區 手繪蹲坐貓（原稿描圖） 圖形路跑路線</name><trkseg>
<trkpt lat="24.263055" lon="120.533681"/>
<trkpt lat="24.263361" lon="120.532840"/>
<trkpt lat="24.262856" lon="120.532617"/>
<trkpt lat="24.262535" lon="120.532475"/>
<trkpt lat="24.262175" lon="120.532316"/>
<trkpt lat="24.262220" lon="120.532187"/>
<trkpt lat="24.262241" lon="120.532125"/>
<trkpt lat="24.262271" lon="120.532138"/>
<trkpt lat="24.262450" lon="120.532217"/>
<trkpt lat="24.262518" lon="120.532247"/>
<trkpt lat="24.262593" lon="120.532280"/>
<trkpt lat="24.262698" lon="120.532326"/>
<trkpt lat="24.262824" lon="120.532382"/>
<trkpt lat="24.262923" lon="120.532426"/>
<trkpt lat="24.263001" lon="120.532460"/>
<trkpt lat="24.263080" lon="120.532495"/>
<trkpt lat="24.263274" lon="120.532581"/>
<trkpt lat="24.263461" lon="120.532663"/>
<trkpt lat="24.263755" lon="120.532793"/>
<trkpt lat="24.263761" lon="120.532796"/>
<trkpt lat="24.263768" lon="120.532798"/>
<trkpt lat="24.263774" lon="120.532801"/>
<trkpt lat="24.263780" lon="120.532803"/>
<trkpt lat="24.263787" lon="120.532805"/>
<trkpt lat="24.263794" lon="120.532806"/>
<trkpt lat="24.263800" lon="120.532808"/>
<trkpt lat="24.263807" lon="120.532809"/>
<trkpt lat="24.263813" lon="120.532810"/>
<trkpt lat="24.263820" lon="120.532811"/>
<trkpt lat="24.263827" lon="120.532811"/>
<trkpt lat="24.263834" lon="120.532812"/>
<trkpt lat="24.263840" lon="120.532812"/>
<trkpt lat="24.263847" lon="120.532812"/>
<trkpt lat="24.263854" lon="120.532812"/>
<trkpt lat="24.263860" lon="120.532811"/>
<trkpt lat="24.263867" lon="120.532811"/>
<trkpt lat="24.263874" lon="120.532810"/>
<trkpt lat="24.263880" lon="120.532809"/>
<trkpt lat="24.263883" lon="120.532809"/>
<trkpt lat="24.263887" lon="120.532808"/>
<trkpt lat="24.263894" lon="120.532806"/>
<trkpt lat="24.263900" lon="120.532804"/>
<trkpt lat="24.263907" lon="120.532803"/>
<trkpt lat="24.263913" lon="120.532800"/>
<trkpt lat="24.263920" lon="120.532798"/>
<trkpt lat="24.263926" lon="120.532796"/>
<trkpt lat="24.263932" lon="120.532793"/>
<trkpt lat="24.263938" lon="120.532790"/>
<trkpt lat="24.263944" lon="120.532787"/>
<trkpt lat="24.263950" lon="120.532784"/>
<trkpt lat="24.263956" lon="120.532781"/>
<trkpt lat="24.263962" lon="120.532777"/>
<trkpt lat="24.263968" lon="120.532773"/>
<trkpt lat="24.263974" lon="120.532769"/>
<trkpt lat="24.263979" lon="120.532765"/>
<trkpt lat="24.263984" lon="120.532761"/>
<trkpt lat="24.263990" lon="120.532756"/>
<trkpt lat="24.263995" lon="120.532751"/>
<trkpt lat="24.264000" lon="120.532747"/>
<trkpt lat="24.264005" lon="120.532742"/>
<trkpt lat="24.264006" lon="120.532741"/>
<trkpt lat="24.264082" lon="120.532774"/>
<trkpt lat="24.264128" lon="120.532794"/>
<trkpt lat="24.264153" lon="120.532805"/>
<trkpt lat="24.264200" lon="120.532825"/>
<trkpt lat="24.264276" lon="120.532858"/>
<trkpt lat="24.264276" lon="120.532865"/>
<trkpt lat="24.264277" lon="120.532872"/>
<trkpt lat="24.264278" lon="120.532880"/>
<trkpt lat="24.264279" lon="120.532887"/>
<trkpt lat="24.264280" lon="120.532894"/>
<trkpt lat="24.264281" lon="120.532901"/>
<trkpt lat="24.264283" lon="120.532909"/>
<trkpt lat="24.264285" lon="120.532916"/>
<trkpt lat="24.264287" lon="120.532923"/>
<trkpt lat="24.264289" lon="120.532930"/>
<trkpt lat="24.264291" lon="120.532937"/>
<trkpt lat="24.264294" lon="120.532944"/>
<trkpt lat="24.264297" lon="120.532950"/>
<trkpt lat="24.264299" lon="120.532957"/>
<trkpt lat="24.264302" lon="120.532963"/>
<trkpt lat="24.264306" lon="120.532970"/>
<trkpt lat="24.264309" lon="120.532976"/>
<trkpt lat="24.264313" lon="120.532983"/>
<trkpt lat="24.264316" lon="120.532989"/>
<trkpt lat="24.264320" lon="120.532995"/>
<trkpt lat="24.264324" lon="120.533001"/>
<trkpt lat="24.264326" lon="120.533003"/>
<trkpt lat="24.264328" lon="120.533006"/>
<trkpt lat="24.264333" lon="120.533012"/>
<trkpt lat="24.264337" lon="120.533018"/>
<trkpt lat="24.264342" lon="120.533023"/>
<trkpt lat="24.264346" lon="120.533028"/>
<trkpt lat="24.264351" lon="120.533033"/>
<trkpt lat="24.264357" lon="120.533038"/>
<trkpt lat="24.264362" lon="120.533043"/>
<trkpt lat="24.264367" lon="120.533047"/>
<trkpt lat="24.264372" lon="120.533052"/>
<trkpt lat="24.264378" lon="120.533056"/>
<trkpt lat="24.264383" lon="120.533060"/>
<trkpt lat="24.264389" lon="120.533064"/>
<trkpt lat="24.264395" lon="120.533068"/>
<trkpt lat="24.264401" lon="120.533071"/>
<trkpt lat="24.264407" lon="120.533075"/>
<trkpt lat="24.264413" lon="120.533078"/>
<trkpt lat="24.264419" lon="120.533081"/>
<trkpt lat="24.264425" lon="120.533084"/>
<trkpt lat="24.264760" lon="120.533225"/>
<trkpt lat="24.265298" lon="120.533453"/>
<trkpt lat="24.265304" lon="120.533455"/>
<trkpt lat="24.265310" lon="120.533455"/>
<trkpt lat="24.265286" lon="120.533520"/>
<trkpt lat="24.265345" lon="120.533545"/>
<trkpt lat="24.265417" lon="120.533575"/>
<trkpt lat="24.265439" lon="120.533513"/>
<trkpt lat="24.265829" lon="120.533679"/>
<trkpt lat="24.265966" lon="120.533737"/>
<trkpt lat="24.266321" lon="120.533887"/>
<trkpt lat="24.266327" lon="120.533889"/>
<trkpt lat="24.266332" lon="120.533889"/>
<trkpt lat="24.266335" lon="120.533888"/>
<trkpt lat="24.266311" lon="120.533954"/>
<trkpt lat="24.266370" lon="120.533979"/>
<trkpt lat="24.266452" lon="120.534014"/>
<trkpt lat="24.266474" lon="120.533952"/>
<trkpt lat="24.266460" lon="120.533946"/>
<trkpt lat="24.266454" lon="120.533943"/>
<trkpt lat="24.266450" lon="120.533938"/>
<trkpt lat="24.266447" lon="120.533933"/>
<trkpt lat="24.266445" lon="120.533927"/>
<trkpt lat="24.266445" lon="120.533920"/>
<trkpt lat="24.266447" lon="120.533914"/>
<trkpt lat="24.266610" lon="120.533460"/>
<trkpt lat="24.266974" lon="120.532449"/>
<trkpt lat="24.266977" lon="120.532443"/>
<trkpt lat="24.266981" lon="120.532439"/>
<trkpt lat="24.266986" lon="120.532435"/>
<trkpt lat="24.266991" lon="120.532433"/>
<trkpt lat="24.266997" lon="120.532433"/>
<trkpt lat="24.267003" lon="120.532435"/>
<trkpt lat="24.267566" lon="120.532674"/>
<trkpt lat="24.268125" lon="120.532911"/>
<trkpt lat="24.268131" lon="120.532914"/>
<trkpt lat="24.268135" lon="120.532918"/>
<trkpt lat="24.268138" lon="120.532924"/>
<trkpt lat="24.268139" lon="120.532930"/>
<trkpt lat="24.268140" lon="120.532936"/>
<trkpt lat="24.268139" lon="120.532938"/>
<trkpt lat="24.268196" lon="120.532962"/>
<trkpt lat="24.268222" lon="120.532891"/>
<trkpt lat="24.268247" lon="120.532819"/>
<trkpt lat="24.268200" lon="120.532799"/>
<trkpt lat="24.268190" lon="120.532795"/>
<trkpt lat="24.268192" lon="120.532791"/>
<trkpt lat="24.268611" lon="120.531607"/>
<trkpt lat="24.268613" lon="120.531600"/>
<trkpt lat="24.268615" lon="120.531593"/>
<trkpt lat="24.268617" lon="120.531586"/>
<trkpt lat="24.268619" lon="120.531579"/>
<trkpt lat="24.268621" lon="120.531572"/>
<trkpt lat="24.268622" lon="120.531565"/>
<trkpt lat="24.268624" lon="120.531557"/>
<trkpt lat="24.268625" lon="120.531550"/>
<trkpt lat="24.268626" lon="120.531543"/>
<trkpt lat="24.268627" lon="120.531536"/>
<trkpt lat="24.268627" lon="120.531528"/>
<trkpt lat="24.268628" lon="120.531521"/>
<trkpt lat="24.268628" lon="120.531514"/>
<trkpt lat="24.268628" lon="120.531507"/>
<trkpt lat="24.268629" lon="120.531499"/>
<trkpt lat="24.268628" lon="120.531492"/>
<trkpt lat="24.268628" lon="120.531485"/>
<trkpt lat="24.268628" lon="120.531477"/>
<trkpt lat="24.268627" lon="120.531470"/>
<trkpt lat="24.268626" lon="120.531463"/>
<trkpt lat="24.268625" lon="120.531455"/>
<trkpt lat="24.268624" lon="120.531448"/>
<trkpt lat="24.268623" lon="120.531441"/>
<trkpt lat="24.268622" lon="120.531434"/>
<trkpt lat="24.268620" lon="120.531427"/>
<trkpt lat="24.268618" lon="120.531420"/>
<trkpt lat="24.268616" lon="120.531413"/>
<trkpt lat="24.268614" lon="120.531406"/>
<trkpt lat="24.268612" lon="120.531399"/>
<trkpt lat="24.268610" lon="120.531392"/>
<trkpt lat="24.268607" lon="120.531385"/>
<trkpt lat="24.268607" lon="120.531385"/>
<trkpt lat="24.268604" lon="120.531378"/>
<trkpt lat="24.268602" lon="120.531372"/>
<trkpt lat="24.268599" lon="120.531365"/>
<trkpt lat="24.268595" lon="120.531359"/>
<trkpt lat="24.268592" lon="120.531352"/>
<trkpt lat="24.268589" lon="120.531346"/>
<trkpt lat="24.268585" lon="120.531340"/>
<trkpt lat="24.268581" lon="120.531334"/>
<trkpt lat="24.268578" lon="120.531328"/>
<trkpt lat="24.268574" lon="120.531322"/>
<trkpt lat="24.268570" lon="120.531316"/>
<trkpt lat="24.268565" lon="120.531310"/>
<trkpt lat="24.268561" lon="120.531305"/>
<trkpt lat="24.268556" lon="120.531299"/>
<trkpt lat="24.268552" lon="120.531294"/>
<trkpt lat="24.268547" lon="120.531289"/>
<trkpt lat="24.268542" lon="120.531284"/>
<trkpt lat="24.268537" lon="120.531279"/>
<trkpt lat="24.268532" lon="120.531274"/>
<trkpt lat="24.268527" lon="120.531269"/>
<trkpt lat="24.268522" lon="120.531265"/>
<trkpt lat="24.268516" lon="120.531261"/>
<trkpt lat="24.268511" lon="120.531256"/>
<trkpt lat="24.268505" lon="120.531252"/>
<trkpt lat="24.268499" lon="120.531249"/>
<trkpt lat="24.268494" lon="120.531245"/>
<trkpt lat="24.268488" lon="120.531241"/>
<trkpt lat="24.268482" lon="120.531238"/>
<trkpt lat="24.268476" lon="120.531234"/>
<trkpt lat="24.268470" lon="120.531231"/>
<trkpt lat="24.268464" lon="120.531228"/>
<trkpt lat="24.268457" lon="120.531226"/>
<trkpt lat="24.267961" lon="120.531011"/>
<trkpt lat="24.267974" lon="120.530974"/>
<trkpt lat="24.268464" lon="120.531186"/>
<trkpt lat="24.268484" lon="120.531197"/>
<trkpt lat="24.268504" lon="120.531209"/>
<trkpt lat="24.268522" lon="120.531222"/>
<trkpt lat="24.268540" lon="120.531237"/>
<trkpt lat="24.268556" lon="120.531253"/>
<trkpt lat="24.268572" lon="120.531270"/>
<trkpt lat="24.268586" lon="120.531288"/>
<trkpt lat="24.268599" lon="120.531307"/>
<trkpt lat="24.268610" lon="120.531327"/>
<trkpt lat="24.268620" lon="120.531347"/>
<trkpt lat="24.268629" lon="120.531368"/>
<trkpt lat="24.268636" lon="120.531390"/>
<trkpt lat="24.268638" lon="120.531398"/>
<trkpt lat="24.268660" lon="120.531408"/>
<trkpt lat="24.268735" lon="120.531197"/>
<trkpt lat="24.268769" lon="120.531101"/>
<trkpt lat="24.268802" lon="120.531004"/>
<trkpt lat="24.268836" lon="120.530908"/>
<trkpt lat="24.268913" lon="120.530940"/>
<trkpt lat="24.268973" lon="120.530771"/>
<trkpt lat="24.269021" lon="120.530639"/>
<trkpt lat="24.269134" lon="120.530688"/>
<trkpt lat="24.270615" lon="120.531325"/>
<trkpt lat="24.270830" lon="120.531403"/>
<trkpt lat="24.271099" lon="120.531458"/>
<trkpt lat="24.271024" lon="120.531649"/>
<trkpt lat="24.270968" lon="120.531816"/>
<trkpt lat="24.270933" lon="120.531912"/>
<trkpt lat="24.270898" lon="120.532008"/>
<trkpt lat="24.270862" lon="120.532104"/>
<trkpt lat="24.271101" lon="120.532206"/>
<trkpt lat="24.271053" lon="120.532329"/>
<trkpt lat="24.271109" lon="120.532352"/>
<trkpt lat="24.271353" lon="120.532456"/>
<trkpt lat="24.271373" lon="120.532465"/>
<trkpt lat="24.271404" lon="120.532478"/>
<trkpt lat="24.271573" lon="120.532550"/>
<trkpt lat="24.271648" lon="120.532582"/>
<trkpt lat="24.271687" lon="120.532599"/>
<trkpt lat="24.271693" lon="120.532602"/>
<trkpt lat="24.271699" lon="120.532604"/>
<trkpt lat="24.271700" lon="120.532605"/>
<trkpt lat="24.271706" lon="120.532607"/>
<trkpt lat="24.271712" lon="120.532611"/>
<trkpt lat="24.271718" lon="120.532614"/>
<trkpt lat="24.271724" lon="120.532617"/>
<trkpt lat="24.271730" lon="120.532620"/>
<trkpt lat="24.271736" lon="120.532624"/>
<trkpt lat="24.271742" lon="120.532627"/>
<trkpt lat="24.271748" lon="120.532631"/>
<trkpt lat="24.271754" lon="120.532635"/>
<trkpt lat="24.271759" lon="120.532639"/>
<trkpt lat="24.271765" lon="120.532643"/>
<trkpt lat="24.271771" lon="120.532647"/>
<trkpt lat="24.271776" lon="120.532651"/>
<trkpt lat="24.271782" lon="120.532655"/>
<trkpt lat="24.271787" lon="120.532659"/>
<trkpt lat="24.271793" lon="120.532664"/>
<trkpt lat="24.271798" lon="120.532668"/>
<trkpt lat="24.271803" lon="120.532673"/>
<trkpt lat="24.271808" lon="120.532678"/>
<trkpt lat="24.271813" lon="120.532683"/>
<trkpt lat="24.271818" lon="120.532687"/>
<trkpt lat="24.271823" lon="120.532692"/>
<trkpt lat="24.271828" lon="120.532698"/>
<trkpt lat="24.271833" lon="120.532703"/>
<trkpt lat="24.271838" lon="120.532708"/>
<trkpt lat="24.271843" lon="120.532713"/>
<trkpt lat="24.271847" lon="120.532719"/>
<trkpt lat="24.271852" lon="120.532724"/>
<trkpt lat="24.271856" lon="120.532730"/>
<trkpt lat="24.271860" lon="120.532735"/>
<trkpt lat="24.271865" lon="120.532741"/>
<trkpt lat="24.271869" lon="120.532747"/>
<trkpt lat="24.271873" lon="120.532753"/>
<trkpt lat="24.271877" lon="120.532758"/>
<trkpt lat="24.271881" lon="120.532764"/>
<trkpt lat="24.271885" lon="120.532770"/>
<trkpt lat="24.271889" lon="120.532777"/>
<trkpt lat="24.271892" lon="120.532783"/>
<trkpt lat="24.271896" lon="120.532789"/>
<trkpt lat="24.271899" lon="120.532795"/>
<trkpt lat="24.271902" lon="120.532799"/>
<trkpt lat="24.271903" lon="120.532802"/>
<trkpt lat="24.271906" lon="120.532808"/>
<trkpt lat="24.271909" lon="120.532815"/>
<trkpt lat="24.271912" lon="120.532821"/>
<trkpt lat="24.271915" lon="120.532828"/>
<trkpt lat="24.271918" lon="120.532834"/>
<trkpt lat="24.271921" lon="120.532841"/>
<trkpt lat="24.271924" lon="120.532848"/>
<trkpt lat="24.271927" lon="120.532854"/>
<trkpt lat="24.271929" lon="120.532861"/>
<trkpt lat="24.271932" lon="120.532868"/>
<trkpt lat="24.271934" lon="120.532875"/>
<trkpt lat="24.271936" lon="120.532882"/>
<trkpt lat="24.271938" lon="120.532889"/>
<trkpt lat="24.271940" lon="120.532896"/>
<trkpt lat="24.271942" lon="120.532903"/>
<trkpt lat="24.271944" lon="120.532910"/>
<trkpt lat="24.271946" lon="120.532917"/>
<trkpt lat="24.271948" lon="120.532924"/>
<trkpt lat="24.271949" lon="120.532932"/>
<trkpt lat="24.271951" lon="120.532939"/>
<trkpt lat="24.271952" lon="120.532946"/>
<trkpt lat="24.271953" lon="120.532953"/>
<trkpt lat="24.271954" lon="120.532961"/>
<trkpt lat="24.271955" lon="120.532968"/>
<trkpt lat="24.271956" lon="120.532975"/>
<trkpt lat="24.271957" lon="120.532982"/>
<trkpt lat="24.271958" lon="120.532990"/>
<trkpt lat="24.271958" lon="120.532997"/>
<trkpt lat="24.271959" lon="120.533004"/>
<trkpt lat="24.271959" lon="120.533012"/>
<trkpt lat="24.271959" lon="120.533019"/>
<trkpt lat="24.271960" lon="120.533027"/>
<trkpt lat="24.271960" lon="120.533034"/>
<trkpt lat="24.271960" lon="120.533041"/>
<trkpt lat="24.271960" lon="120.533049"/>
<trkpt lat="24.271959" lon="120.533056"/>
<trkpt lat="24.271959" lon="120.533063"/>
<trkpt lat="24.271958" lon="120.533071"/>
<trkpt lat="24.271958" lon="120.533078"/>
<trkpt lat="24.271957" lon="120.533085"/>
<trkpt lat="24.271956" lon="120.533093"/>
<trkpt lat="24.271955" lon="120.533100"/>
<trkpt lat="24.271954" lon="120.533107"/>
<trkpt lat="24.271953" lon="120.533114"/>
<trkpt lat="24.271952" lon="120.533122"/>
<trkpt lat="24.271951" lon="120.533129"/>
<trkpt lat="24.271949" lon="120.533136"/>
<trkpt lat="24.271948" lon="120.533143"/>
<trkpt lat="24.271946" lon="120.533151"/>
<trkpt lat="24.271945" lon="120.533158"/>
<trkpt lat="24.271943" lon="120.533165"/>
<trkpt lat="24.271941" lon="120.533172"/>
<trkpt lat="24.271939" lon="120.533179"/>
<trkpt lat="24.271937" lon="120.533186"/>
<trkpt lat="24.271934" lon="120.533193"/>
<trkpt lat="24.271932" lon="120.533200"/>
<trkpt lat="24.271930" lon="120.533207"/>
<trkpt lat="24.271903" lon="120.533279"/>
<trkpt lat="24.271802" lon="120.533559"/>
<trkpt lat="24.271566" lon="120.534204"/>
<trkpt lat="24.271587" lon="120.534213"/>
<trkpt lat="24.271642" lon="120.534236"/>
<trkpt lat="24.271609" lon="120.534326"/>
<trkpt lat="24.271584" lon="120.534393"/>
<trkpt lat="24.271504" lon="120.534347"/>
<trkpt lat="24.271502" lon="120.534345"/>
<trkpt lat="24.271498" lon="120.534341"/>
<trkpt lat="24.271493" lon="120.534338"/>
<trkpt lat="24.271168" lon="120.534200"/>
<trkpt lat="24.271122" lon="120.534181"/>
<trkpt lat="24.271068" lon="120.534158"/>
<trkpt lat="24.271013" lon="120.534134"/>
<trkpt lat="24.270958" lon="120.534111"/>
<trkpt lat="24.270903" lon="120.534088"/>
<trkpt lat="24.270773" lon="120.534033"/>
<trkpt lat="24.270737" lon="120.534017"/>
<trkpt lat="24.270674" lon="120.533991"/>
<trkpt lat="24.270611" lon="120.533964"/>
<trkpt lat="24.270428" lon="120.533887"/>
<trkpt lat="24.270239" lon="120.533806"/>
<trkpt lat="24.270233" lon="120.533805"/>
<trkpt lat="24.270227" lon="120.533805"/>
<trkpt lat="24.270221" lon="120.533807"/>
<trkpt lat="24.270216" lon="120.533810"/>
<trkpt lat="24.270212" lon="120.533815"/>
<trkpt lat="24.270209" lon="120.533820"/>
<trkpt lat="24.270090" lon="120.534144"/>
<trkpt lat="24.269973" lon="120.534462"/>
<trkpt lat="24.269971" lon="120.534468"/>
<trkpt lat="24.269971" lon="120.534474"/>
<trkpt lat="24.269973" lon="120.534481"/>
<trkpt lat="24.269976" lon="120.534486"/>
<trkpt lat="24.269980" lon="120.534491"/>
<trkpt lat="24.269985" lon="120.534494"/>
<trkpt lat="24.269987" lon="120.534494"/>
<trkpt lat="24.269972" lon="120.534536"/>
<trkpt lat="24.269942" lon="120.534618"/>
<trkpt lat="24.269927" lon="120.534659"/>
<trkpt lat="24.269924" lon="120.534658"/>
<trkpt lat="24.269918" lon="120.534656"/>
<trkpt lat="24.269913" lon="120.534656"/>
<trkpt lat="24.269907" lon="120.534658"/>
<trkpt lat="24.269902" lon="120.534662"/>
<trkpt lat="24.269898" lon="120.534666"/>
<trkpt lat="24.269895" lon="120.534672"/>
<trkpt lat="24.269785" lon="120.534971"/>
<trkpt lat="24.269674" lon="120.535271"/>
<trkpt lat="24.269672" lon="120.535278"/>
<trkpt lat="24.269672" lon="120.535284"/>
<trkpt lat="24.269673" lon="120.535287"/>
<trkpt lat="24.269647" lon="120.535358"/>
<trkpt lat="24.269599" lon="120.535486"/>
<trkpt lat="24.269573" lon="120.535556"/>
<trkpt lat="24.269572" lon="120.535557"/>
<trkpt lat="24.269571" lon="120.535558"/>
<trkpt lat="24.269570" lon="120.535559"/>
<trkpt lat="24.269569" lon="120.535560"/>
<trkpt lat="24.269568" lon="120.535562"/>
<trkpt lat="24.269567" lon="120.535563"/>
<trkpt lat="24.269566" lon="120.535564"/>
<trkpt lat="24.269565" lon="120.535566"/>
<trkpt lat="24.269565" lon="120.535567"/>
<trkpt lat="24.269564" lon="120.535568"/>
<trkpt lat="24.269405" lon="120.535998"/>
<trkpt lat="24.269278" lon="120.536342"/>
<trkpt lat="24.269277" lon="120.536348"/>
<trkpt lat="24.269277" lon="120.536354"/>
<trkpt lat="24.269279" lon="120.536361"/>
<trkpt lat="24.269261" lon="120.536409"/>
<trkpt lat="24.269231" lon="120.536491"/>
<trkpt lat="24.269213" lon="120.536539"/>
<trkpt lat="24.269208" lon="120.536542"/>
<trkpt lat="24.269204" lon="120.536546"/>
<trkpt lat="24.269201" lon="120.536552"/>
<trkpt lat="24.269177" lon="120.536618"/>
<trkpt lat="24.269161" lon="120.536661"/>
<trkpt lat="24.269137" lon="120.536724"/>
<trkpt lat="24.269123" lon="120.536763"/>
<trkpt lat="24.269110" lon="120.536799"/>
<trkpt lat="24.269096" lon="120.536836"/>
<trkpt lat="24.269083" lon="120.536872"/>
<trkpt lat="24.269069" lon="120.536909"/>
<trkpt lat="24.269056" lon="120.536945"/>
<trkpt lat="24.269042" lon="120.536982"/>
<trkpt lat="24.269029" lon="120.537019"/>
<trkpt lat="24.269015" lon="120.537055"/>
<trkpt lat="24.269002" lon="120.537092"/>
<trkpt lat="24.268988" lon="120.537128"/>
<trkpt lat="24.268975" lon="120.537165"/>
<trkpt lat="24.268961" lon="120.537201"/>
<trkpt lat="24.268948" lon="120.537238"/>
<trkpt lat="24.268932" lon="120.537279"/>
<trkpt lat="24.268919" lon="120.537316"/>
<trkpt lat="24.268905" lon="120.537353"/>
<trkpt lat="24.268892" lon="120.537389"/>
<trkpt lat="24.268854" lon="120.537492"/>
<trkpt lat="24.268853" lon="120.537498"/>
<trkpt lat="24.268853" lon="120.537504"/>
<trkpt lat="24.268854" lon="120.537511"/>
<trkpt lat="24.268846" lon="120.537515"/>
<trkpt lat="24.268826" lon="120.537567"/>
<trkpt lat="24.268807" lon="120.537620"/>
<trkpt lat="24.268758" lon="120.537599"/>
<trkpt lat="24.268710" lon="120.537579"/>
<trkpt lat="24.268701" lon="120.537583"/>
<trkpt lat="24.268703" lon="120.537589"/>
<trkpt lat="24.268703" lon="120.537596"/>
<trkpt lat="24.268701" lon="120.537602"/>
<trkpt lat="24.268527" lon="120.538075"/>
<trkpt lat="24.268354" lon="120.538542"/>
<trkpt lat="24.268351" lon="120.538548"/>
<trkpt lat="24.268347" lon="120.538552"/>
<trkpt lat="24.268342" lon="120.538556"/>
<trkpt lat="24.268337" lon="120.538557"/>
<trkpt lat="24.268331" lon="120.538558"/>
<trkpt lat="24.268325" lon="120.538556"/>
<trkpt lat="24.268310" lon="120.538597"/>
<trkpt lat="24.268279" lon="120.538679"/>
<trkpt lat="24.268264" lon="120.538720"/>
<trkpt lat="24.268269" lon="120.538723"/>
<trkpt lat="24.268273" lon="120.538728"/>
<trkpt lat="24.268276" lon="120.538733"/>
<trkpt lat="24.268278" lon="120.538740"/>
<trkpt lat="24.268278" lon="120.538746"/>
<trkpt lat="24.268277" lon="120.538752"/>
<trkpt lat="24.268107" lon="120.539212"/>
<trkpt lat="24.267934" lon="120.539681"/>
<trkpt lat="24.267931" lon="120.539687"/>
<trkpt lat="24.267927" lon="120.539692"/>
<trkpt lat="24.267922" lon="120.539695"/>
<trkpt lat="24.267921" lon="120.539695"/>
<trkpt lat="24.267916" lon="120.539697"/>
<trkpt lat="24.267910" lon="120.539697"/>
<trkpt lat="24.267905" lon="120.539695"/>
<trkpt lat="24.267769" lon="120.539638"/>
<trkpt lat="24.267621" lon="120.539575"/>
<trkpt lat="24.267548" lon="120.539545"/>
<trkpt lat="24.267481" lon="120.539516"/>
<trkpt lat="24.267438" lon="120.539498"/>
<trkpt lat="24.267360" lon="120.539465"/>
<trkpt lat="24.267269" lon="120.539427"/>
<trkpt lat="24.267047" lon="120.539333"/>
<trkpt lat="24.266889" lon="120.539267"/>
<trkpt lat="24.266727" lon="120.539198"/>
<trkpt lat="24.266433" lon="120.539074"/>
<trkpt lat="24.266427" lon="120.539071"/>
<trkpt lat="24.266420" lon="120.539068"/>
<trkpt lat="24.266414" lon="120.539065"/>
<trkpt lat="24.266408" lon="120.539062"/>
<trkpt lat="24.266402" lon="120.539058"/>
<trkpt lat="24.266396" lon="120.539055"/>
<trkpt lat="24.266391" lon="120.539051"/>
<trkpt lat="24.266385" lon="120.539047"/>
<trkpt lat="24.266380" lon="120.539043"/>
<trkpt lat="24.266374" lon="120.539038"/>
<trkpt lat="24.266369" lon="120.539034"/>
<trkpt lat="24.266364" lon="120.539029"/>
<trkpt lat="24.266359" lon="120.539024"/>
<trkpt lat="24.266356" lon="120.539021"/>
<trkpt lat="24.266328" lon="120.539099"/>
<trkpt lat="24.266313" lon="120.539140"/>
<trkpt lat="24.266300" lon="120.539177"/>
<trkpt lat="24.266286" lon="120.539218"/>
<trkpt lat="24.266259" lon="120.539294"/>
<trkpt lat="24.266259" lon="120.539294"/>
<trkpt lat="24.266252" lon="120.539294"/>
<trkpt lat="24.266245" lon="120.539294"/>
<trkpt lat="24.266239" lon="120.539295"/>
<trkpt lat="24.266232" lon="120.539295"/>
<trkpt lat="24.266225" lon="120.539296"/>
<trkpt lat="24.266219" lon="120.539298"/>
<trkpt lat="24.266212" lon="120.539299"/>
<trkpt lat="24.266206" lon="120.539300"/>
<trkpt lat="24.266199" lon="120.539302"/>
<trkpt lat="24.266193" lon="120.539304"/>
<trkpt lat="24.266186" lon="120.539306"/>
<trkpt lat="24.266180" lon="120.539309"/>
<trkpt lat="24.266174" lon="120.539311"/>
<trkpt lat="24.266168" lon="120.539314"/>
<trkpt lat="24.266161" lon="120.539317"/>
<trkpt lat="24.266155" lon="120.539320"/>
<trkpt lat="24.266149" lon="120.539323"/>
<trkpt lat="24.266143" lon="120.539327"/>
<trkpt lat="24.266138" lon="120.539330"/>
<trkpt lat="24.266132" lon="120.539334"/>
<trkpt lat="24.266126" lon="120.539338"/>
<trkpt lat="24.266121" lon="120.539343"/>
<trkpt lat="24.266116" lon="120.539347"/>
<trkpt lat="24.266110" lon="120.539351"/>
<trkpt lat="24.266105" lon="120.539356"/>
<trkpt lat="24.266100" lon="120.539361"/>
<trkpt lat="24.266095" lon="120.539366"/>
<trkpt lat="24.266091" lon="120.539371"/>
<trkpt lat="24.266087" lon="120.539375"/>
<trkpt lat="24.266015" lon="120.539344"/>
<trkpt lat="24.265969" lon="120.539325"/>
<trkpt lat="24.265944" lon="120.539314"/>
<trkpt lat="24.265897" lon="120.539294"/>
<trkpt lat="24.265824" lon="120.539263"/>
<trkpt lat="24.265824" lon="120.539268"/>
<trkpt lat="24.265824" lon="120.539275"/>
<trkpt lat="24.265824" lon="120.539282"/>
<trkpt lat="24.265823" lon="120.539290"/>
<trkpt lat="24.265822" lon="120.539297"/>
<trkpt lat="24.265822" lon="120.539304"/>
<trkpt lat="24.265821" lon="120.539312"/>
<trkpt lat="24.265819" lon="120.539319"/>
<trkpt lat="24.265818" lon="120.539326"/>
<trkpt lat="24.265816" lon="120.539333"/>
<trkpt lat="24.265814" lon="120.539340"/>
<trkpt lat="24.265812" lon="120.539347"/>
<trkpt lat="24.265810" lon="120.539354"/>
<trkpt lat="24.265808" lon="120.539361"/>
<trkpt lat="24.265293" lon="120.540791"/>
<trkpt lat="24.265291" lon="120.540793"/>
<trkpt lat="24.265290" lon="120.540797"/>
<trkpt lat="24.265286" lon="120.540802"/>
<trkpt lat="24.265280" lon="120.540805"/>
<trkpt lat="24.265277" lon="120.540806"/>
<trkpt lat="24.265257" lon="120.540863"/>
<trkpt lat="24.265236" lon="120.540921"/>
<trkpt lat="24.265238" lon="120.540924"/>
<trkpt lat="24.265239" lon="120.540930"/>
<trkpt lat="24.265239" lon="120.540936"/>
<trkpt lat="24.265239" lon="120.540940"/>
<trkpt lat="24.265238" lon="120.540942"/>
<trkpt lat="24.264971" lon="120.541683"/>
<trkpt lat="24.264834" lon="120.542064"/>
<trkpt lat="24.264831" lon="120.542071"/>
<trkpt lat="24.264829" lon="120.542077"/>
<trkpt lat="24.264826" lon="120.542084"/>
<trkpt lat="24.264823" lon="120.542091"/>
<trkpt lat="24.264820" lon="120.542097"/>
<trkpt lat="24.264816" lon="120.542104"/>
<trkpt lat="24.264813" lon="120.542110"/>
<trkpt lat="24.264809" lon="120.542116"/>
<trkpt lat="24.264806" lon="120.542123"/>
<trkpt lat="24.264802" lon="120.542129"/>
<trkpt lat="24.264798" lon="120.542135"/>
<trkpt lat="24.264794" lon="120.542140"/>
<trkpt lat="24.264790" lon="120.542146"/>
<trkpt lat="24.264785" lon="120.542152"/>
<trkpt lat="24.264781" lon="120.542157"/>
<trkpt lat="24.264776" lon="120.542163"/>
<trkpt lat="24.264771" lon="120.542168"/>
<trkpt lat="24.264767" lon="120.542173"/>
<trkpt lat="24.264762" lon="120.542178"/>
<trkpt lat="24.264757" lon="120.542183"/>
<trkpt lat="24.264751" lon="120.542188"/>
<trkpt lat="24.264746" lon="120.542192"/>
<trkpt lat="24.264741" lon="120.542197"/>
<trkpt lat="24.264735" lon="120.542201"/>
<trkpt lat="24.264730" lon="120.542205"/>
<trkpt lat="24.264724" lon="120.542209"/>
<trkpt lat="24.264718" lon="120.542213"/>
<trkpt lat="24.264713" lon="120.542217"/>
<trkpt lat="24.264706" lon="120.542221"/>
<trkpt lat="24.264702" lon="120.542224"/>
<trkpt lat="24.264823" lon="120.542275"/>
<trkpt lat="24.264762" lon="120.542444"/>
<trkpt lat="24.264663" lon="120.542719"/>
<trkpt lat="24.262587" lon="120.541826"/>
<trkpt lat="24.262678" lon="120.541548"/>
<trkpt lat="24.262996" lon="120.541685"/>
<trkpt lat="24.263032" lon="120.541586"/>
<trkpt lat="24.262947" lon="120.541550"/>
<trkpt lat="24.262950" lon="120.541547"/>
<trkpt lat="24.262954" lon="120.541541"/>
<trkpt lat="24.262958" lon="120.541535"/>
<trkpt lat="24.262961" lon="120.541529"/>
<trkpt lat="24.263185" lon="120.540915"/>
<trkpt lat="24.263253" lon="120.540729"/>
<trkpt lat="24.263283" lon="120.540645"/>
<trkpt lat="24.263306" lon="120.540582"/>
<trkpt lat="24.263322" lon="120.540538"/>
<trkpt lat="24.263338" lon="120.540495"/>
<trkpt lat="24.263354" lon="120.540452"/>
<trkpt lat="24.263370" lon="120.540407"/>
<trkpt lat="24.263442" lon="120.540211"/>
<trkpt lat="24.263444" lon="120.540205"/>
<trkpt lat="24.263445" lon="120.540198"/>
<trkpt lat="24.263445" lon="120.540190"/>
<trkpt lat="24.263445" lon="120.540183"/>
<trkpt lat="24.263443" lon="120.540177"/>
<trkpt lat="24.263478" lon="120.540192"/>
<trkpt lat="24.263504" lon="120.540119"/>
<trkpt lat="24.263531" lon="120.540045"/>
<trkpt lat="24.263497" lon="120.540031"/>
<trkpt lat="24.263496" lon="120.540032"/>
<trkpt lat="24.263490" lon="120.540035"/>
<trkpt lat="24.263484" lon="120.540037"/>
<trkpt lat="24.263478" lon="120.540039"/>
<trkpt lat="24.263472" lon="120.540039"/>
<trkpt lat="24.263465" lon="120.540039"/>
<trkpt lat="24.263459" lon="120.540038"/>
<trkpt lat="24.263453" lon="120.540036"/>
<trkpt lat="24.263115" lon="120.539892"/>
<trkpt lat="24.262791" lon="120.539754"/>
<trkpt lat="24.262785" lon="120.539751"/>
<trkpt lat="24.262781" lon="120.539747"/>
<trkpt lat="24.262778" lon="120.539741"/>
<trkpt lat="24.262777" lon="120.539735"/>
<trkpt lat="24.262777" lon="120.539735"/>
<trkpt lat="24.262776" lon="120.539729"/>
<trkpt lat="24.262778" lon="120.539722"/>
<trkpt lat="24.263162" lon="120.538676"/>
<trkpt lat="24.263183" lon="120.538619"/>
<trkpt lat="24.263144" lon="120.538604"/>
<trkpt lat="24.263319" lon="120.538127"/>
<trkpt lat="24.263244" lon="120.538093"/>
<trkpt lat="24.263146" lon="120.538048"/>
<trkpt lat="24.263145" lon="120.538046"/>
<trkpt lat="24.263143" lon="120.538039"/>
<trkpt lat="24.263140" lon="120.538032"/>
<trkpt lat="24.263137" lon="120.538026"/>
<trkpt lat="24.263134" lon="120.538021"/>
<trkpt lat="24.263175" lon="120.537905"/>
<trkpt lat="24.263217" lon="120.537786"/>
<trkpt lat="24.263257" lon="120.537803"/>
<trkpt lat="24.263278" lon="120.537743"/>
<trkpt lat="24.263285" lon="120.537724"/>
<trkpt lat="24.263291" lon="120.537706"/>
<trkpt lat="24.263329" lon="120.537599"/>
<trkpt lat="24.262945" lon="120.537442"/>
<trkpt lat="24.263103" lon="120.536986"/>
<trkpt lat="24.263206" lon="120.536698"/>
<trkpt lat="24.263345" lon="120.536313"/>
<trkpt lat="24.263553" lon="120.536209"/>
<trkpt lat="24.263712" lon="120.535755"/>
<trkpt lat="24.263779" lon="120.535692"/>
<trkpt lat="24.263844" lon="120.535685"/>
<trkpt lat="24.263885" lon="120.535570"/>
<trkpt lat="24.263897" lon="120.535535"/>
<trkpt lat="24.263773" lon="120.535483"/>
<trkpt lat="24.263673" lon="120.535440"/>
<trkpt lat="24.263376" lon="120.535314"/>
<trkpt lat="24.263370" lon="120.535313"/>
<trkpt lat="24.263365" lon="120.535313"/>
<trkpt lat="24.263365" lon="120.535307"/>
<trkpt lat="24.263357" lon="120.535304"/>
<trkpt lat="24.263300" lon="120.535278"/>
<trkpt lat="24.263183" lon="120.535227"/>
<trkpt lat="24.263221" lon="120.535124"/>
<trkpt lat="24.263245" lon="120.535059"/>
<trkpt lat="24.263398" lon="120.534640"/>
<trkpt lat="24.263523" lon="120.534301"/>
<trkpt lat="24.263657" lon="120.533936"/>
<trkpt lat="24.263055" lon="120.533681"/>
</trkseg></trk>
</gpx>