<?xml version="1.0" encoding="UTF-8"?>
<gpx version="1.1" creator="catrun" xmlns="http://www.topografix.com/GPX/1/1">
<metadata><name>烏日區 手繪蹲坐貓（原稿描圖） 圖形路跑路線</name></metadata>
<wpt lat="24.105890" lon="120.616942"><name>兒二公園</name><desc>地標</desc></wpt>
<wpt lat="24.103472" lon="120.619037"><name>賢達公園</name><desc>地標</desc></wpt>
<trk><name>烏日區 手繪蹲坐貓（原稿描圖） 圖形路跑路線</name><trkseg>
<trkpt lat="24.106317" lon="120.613972"/>
<trkpt lat="24.106343" lon="120.613941"/>
<trkpt lat="24.106384" lon="120.613891"/>
<trkpt lat="24.106458" lon="120.613801"/>
<trkpt lat="24.106493" lon="120.613759"/>
<trkpt lat="24.106535" lon="120.613708"/>
<trkpt lat="24.106591" lon="120.613757"/>
<trkpt lat="24.106604" lon="120.613760"/>
<trkpt lat="24.106620" lon="120.613758"/>
<trkpt lat="24.106630" lon="120.613753"/>
<trkpt lat="24.106710" lon="120.613805"/>
<trkpt lat="24.106846" lon="120.613894"/>
<trkpt lat="24.106990" lon="120.613612"/>
<trkpt lat="24.107083" lon="120.613400"/>
<trkpt lat="24.107155" lon="120.613202"/>
<trkpt lat="24.107169" lon="120.613156"/>
<trkpt lat="24.107291" lon="120.613194"/>
<trkpt lat="24.107316" lon="120.613181"/>
<trkpt lat="24.107390" lon="120.613186"/>
<trkpt lat="24.107469" lon="120.613192"/>
<trkpt lat="24.107426" lon="120.613812"/>
<trkpt lat="24.107270" lon="120.613802"/>
<trkpt lat="24.107102" lon="120.613790"/>
<trkpt lat="24.107084" lon="120.614088"/>
<trkpt lat="24.107240" lon="120.614224"/>
<trkpt lat="24.107388" lon="120.614353"/>
<trkpt lat="24.107524" lon="120.614472"/>
<trkpt lat="24.107668" lon="120.614599"/>
<trkpt lat="24.107799" lon="120.614714"/>
<trkpt lat="24.107929" lon="120.614828"/>
<trkpt lat="24.108070" lon="120.614952"/>
<trkpt lat="24.108207" lon="120.615073"/>
<trkpt lat="24.108346" lon="120.615194"/>
<trkpt lat="24.108409" lon="120.615196"/>
<trkpt lat="24.108470" lon="120.615199"/>
<trkpt lat="24.108553" lon="120.615202"/>
<trkpt lat="24.108580" lon="120.614716"/>
<trkpt lat="24.108584" lon="120.614648"/>
<trkpt lat="24.108603" lon="120.614314"/>
<trkpt lat="24.108605" lon="120.614281"/>
<trkpt lat="24.108610" lon="120.614184"/>
<trkpt lat="24.108535" lon="120.614176"/>
<trkpt lat="24.108529" lon="120.614275"/>
<trkpt lat="24.108527" lon="120.614308"/>
<trkpt lat="24.108470" lon="120.615199"/>
<trkpt lat="24.108466" lon="120.615251"/>
<trkpt lat="24.108464" lon="120.615286"/>
<trkpt lat="24.108456" lon="120.615314"/>
<trkpt lat="24.108440" lon="120.615334"/>
<trkpt lat="24.108416" lon="120.615341"/>
<trkpt lat="24.108394" lon="120.615334"/>
<trkpt lat="24.108356" lon="120.615308"/>
<trkpt lat="24.106950" lon="120.614081"/>
<trkpt lat="24.106931" lon="120.614057"/>
<trkpt lat="24.106872" lon="120.614136"/>
<trkpt lat="24.106894" lon="120.614157"/>
<trkpt lat="24.107035" lon="120.614289"/>
<trkpt lat="24.107220" lon="120.614431"/>
<trkpt lat="24.108217" lon="120.615330"/>
<trkpt lat="24.110389" lon="120.617288"/>
<trkpt lat="24.111220" lon="120.618044"/>
<trkpt lat="24.111282" lon="120.618070"/>
<trkpt lat="24.111246" lon="120.618010"/>
<trkpt lat="24.110983" lon="120.617773"/>
<trkpt lat="24.110972" lon="120.617747"/>
<trkpt lat="24.110969" lon="120.617714"/>
<trkpt lat="24.110893" lon="120.617651"/>
<trkpt lat="24.110871" lon="120.617633"/>
<trkpt lat="24.110856" lon="120.617597"/>
<trkpt lat="24.110239" lon="120.616978"/>
<trkpt lat="24.110091" lon="120.616830"/>
<trkpt lat="24.110080" lon="120.616972"/>
<trkpt lat="24.110079" lon="120.616995"/>
<trkpt lat="24.110059" lon="120.617012"/>
<trkpt lat="24.110042" lon="120.617049"/>
<trkpt lat="24.110059" lon="120.616841"/>
<trkpt lat="24.110091" lon="120.616530"/>
<trkpt lat="24.110083" lon="120.616443"/>
<trkpt lat="24.110043" lon="120.616232"/>
<trkpt lat="24.110027" lon="120.616168"/>
<trkpt lat="24.110041" lon="120.616062"/>
<trkpt lat="24.110130" lon="120.615303"/>
<trkpt lat="24.110144" lon="120.615208"/>
<trkpt lat="24.110154" lon="120.615138"/>
<trkpt lat="24.110193" lon="120.614806"/>
<trkpt lat="24.110210" lon="120.614662"/>
<trkpt lat="24.110266" lon="120.613878"/>
<trkpt lat="24.110490" lon="120.611701"/>
<trkpt lat="24.110545" lon="120.611706"/>
<trkpt lat="24.110623" lon="120.611718"/>
<trkpt lat="24.110603" lon="120.611742"/>
<trkpt lat="24.110594" lon="120.611774"/>
<trkpt lat="24.110361" lon="120.613888"/>
<trkpt lat="24.110298" lon="120.614733"/>
<trkpt lat="24.110470" lon="120.614744"/>
<trkpt lat="24.110611" lon="120.614752"/>
<trkpt lat="24.110721" lon="120.614764"/>
<trkpt lat="24.110718" lon="120.614839"/>
<trkpt lat="24.110703" lon="120.615036"/>
<trkpt lat="24.110543" lon="120.615020"/>
<trkpt lat="24.110501" lon="120.614967"/>
<trkpt lat="24.110414" lon="120.615041"/>
<trkpt lat="24.110252" lon="120.615184"/>
<trkpt lat="24.110170" lon="120.615257"/>
<trkpt lat="24.110328" lon="120.615499"/>
<trkpt lat="24.111471" lon="120.615607"/>
<trkpt lat="24.111429" lon="120.616145"/>
<trkpt lat="24.111428" lon="120.616160"/>
<trkpt lat="24.111125" lon="120.616133"/>
<trkpt lat="24.110677" lon="120.616091"/>
<trkpt lat="24.110671" lon="120.616174"/>
<trkpt lat="24.110274" lon="120.616129"/>
<trkpt lat="24.110229" lon="120.616112"/>
<trkpt lat="24.110200" lon="120.616092"/>
<trkpt lat="24.110184" lon="120.616071"/>
<trkpt lat="24.110176" lon="120.616041"/>
<trkpt lat="24.110176" lon="120.616004"/>
<trkpt lat="24.110186" lon="120.615896"/>
<trkpt lat="24.110212" lon="120.615610"/>
<trkpt lat="24.110228" lon="120.615428"/>
<trkpt lat="24.110241" lon="120.615387"/>
<trkpt lat="24.110262" lon="120.615360"/>
<trkpt lat="24.110291" lon="120.615343"/>
<trkpt lat="24.110322" lon="120.615334"/>
<trkpt lat="24.110411" lon="120.615325"/>
<trkpt lat="24.110952" lon="120.615371"/>
<trkpt lat="24.110863" lon="120.615451"/>
<trkpt lat="24.110405" lon="120.615408"/>
<trkpt lat="24.110369" lon="120.615410"/>
<trkpt lat="24.110340" lon="120.615425"/>
<trkpt lat="24.110318" lon="120.615454"/>
<trkpt lat="24.110308" lon="120.615485"/>
<trkpt lat="24.110270" lon="120.616022"/>
<trkpt lat="24.110273" lon="120.616053"/>
<trkpt lat="24.110284" lon="120.616077"/>
<trkpt lat="24.110302" lon="120.616093"/>
<trkpt lat="24.110325" lon="120.616099"/>
<trkpt lat="24.110386" lon="120.616105"/>
<trkpt lat="24.110542" lon="120.616195"/>
<trkpt lat="24.110277" lon="120.616166"/>
<trkpt lat="24.110202" lon="120.616143"/>
<trkpt lat="24.110155" lon="120.616127"/>
<trkpt lat="24.110120" lon="120.616095"/>
<trkpt lat="24.110104" lon="120.616052"/>
<trkpt lat="24.110103" lon="120.615998"/>
<trkpt lat="24.110172" lon="120.615404"/>
<trkpt lat="24.110187" lon="120.615364"/>
<trkpt lat="24.110209" lon="120.615338"/>
<trkpt lat="24.110231" lon="120.615324"/>
<trkpt lat="24.110259" lon="120.615315"/>
<trkpt lat="24.110411" lon="120.615325"/>
<trkpt lat="24.110322" lon="120.615334"/>
<trkpt lat="24.110291" lon="120.615343"/>
<trkpt lat="24.110262" lon="120.615360"/>
<trkpt lat="24.110241" lon="120.615387"/>
<trkpt lat="24.110228" lon="120.615428"/>
<trkpt lat="24.110212" lon="120.615610"/>
<trkpt lat="24.110186" lon="120.615896"/>
<trkpt lat="24.110176" lon="120.616004"/>
<trkpt lat="24.110176" lon="120.616041"/>
<trkpt lat="24.110184" lon="120.616071"/>
<trkpt lat="24.110200" lon="120.616092"/>
<trkpt lat="24.110229" lon="120.616112"/>
<trkpt lat="24.110274" lon="120.616129"/>
<trkpt lat="24.110671" lon="120.616174"/>
<trkpt lat="24.110665" lon="120.616237"/>
<trkpt lat="24.110660" lon="120.616326"/>
<trkpt lat="24.110386" lon="120.616297"/>
<trkpt lat="24.110315" lon="120.616283"/>
<trkpt lat="24.110239" lon="120.616268"/>
<trkpt lat="24.110204" lon="120.616269"/>
<trkpt lat="24.110172" lon="120.616280"/>
<trkpt lat="24.110145" lon="120.616304"/>
<trkpt lat="24.110110" lon="120.616355"/>
<trkpt lat="24.110058" lon="120.616440"/>
<trkpt lat="24.110024" lon="120.616763"/>
<trkpt lat="24.110006" lon="120.616969"/>
<trkpt lat="24.110018" lon="120.617062"/>
<trkpt lat="24.110037" lon="120.617129"/>
<trkpt lat="24.110059" lon="120.617186"/>
<trkpt lat="24.110089" lon="120.617237"/>
<trkpt lat="24.110133" lon="120.617281"/>
<trkpt lat="24.110191" lon="120.617317"/>
<trkpt lat="24.110243" lon="120.617333"/>
<trkpt lat="24.110298" lon="120.617339"/>
<trkpt lat="24.110513" lon="120.617353"/>
<trkpt lat="24.110607" lon="120.617363"/>
<trkpt lat="24.110705" lon="120.617388"/>
<trkpt lat="24.110756" lon="120.617387"/>
<trkpt lat="24.110806" lon="120.617388"/>
<trkpt lat="24.110857" lon="120.617383"/>
<trkpt lat="24.110938" lon="120.617392"/>
<trkpt lat="24.111082" lon="120.617501"/>
<trkpt lat="24.111145" lon="120.617540"/>
<trkpt lat="24.111159" lon="120.617546"/>
<trkpt lat="24.111179" lon="120.617547"/>
<trkpt lat="24.111195" lon="120.617543"/>
<trkpt lat="24.111214" lon="120.617532"/>
<trkpt lat="24.111237" lon="120.617509"/>
<trkpt lat="24.111266" lon="120.617488"/>
<trkpt lat="24.111300" lon="120.617477"/>
<trkpt lat="24.111334" lon="120.617478"/>
<trkpt lat="24.111368" lon="120.617495"/>
<trkpt lat="24.111395" lon="120.617521"/>
<trkpt lat="24.111412" lon="120.617554"/>
<trkpt lat="24.111419" lon="120.617593"/>
<trkpt lat="24.111413" lon="120.617631"/>
<trkpt lat="24.111397" lon="120.617665"/>
<trkpt lat="24.111372" lon="120.617692"/>
<trkpt lat="24.111339" lon="120.617708"/>
<trkpt lat="24.111304" lon="120.617712"/>
<trkpt lat="24.111270" lon="120.617704"/>
<trkpt lat="24.111240" lon="120.617683"/>
<trkpt lat="24.111137" lon="120.617605"/>
<trkpt lat="24.111061" lon="120.617539"/>
<trkpt lat="24.111035" lon="120.617580"/>
<trkpt lat="24.110982" lon="120.617658"/>
<trkpt lat="24.110972" lon="120.617684"/>
<trkpt lat="24.110969" lon="120.617714"/>
<trkpt lat="24.110972" lon="120.617747"/>
<trkpt lat="24.110983" lon="120.617773"/>
<trkpt lat="24.111246" lon="120.618010"/>
<trkpt lat="24.111282" lon="120.618070"/>
<trkpt lat="24.111220" lon="120.618044"/>
<trkpt lat="24.110389" lon="120.617288"/>
<trkpt lat="24.108217" lon="120.615330"/>
<trkpt lat="24.107220" lon="120.614431"/>
<trkpt lat="24.107035" lon="120.614289"/>
<trkpt lat="24.106894" lon="120.614157"/>
<trkpt lat="24.106872" lon="120.614136"/>
<trkpt lat="24.106779" lon="120.614259"/>
<trkpt lat="24.106723" lon="120.614334"/>
<trkpt lat="24.106700" lon="120.614311"/>
<trkpt lat="24.106638" lon="120.614255"/>
<trkpt lat="24.106529" lon="120.614157"/>
<trkpt lat="24.106465" lon="120.614099"/>
<trkpt lat="24.106455" lon="120.614120"/>
<trkpt lat="24.105930" lon="120.615177"/>
<trkpt lat="24.105893" lon="120.615251"/>
<trkpt lat="24.105860" lon="120.615318"/>
<trkpt lat="24.105925" lon="120.615371"/>
<trkpt lat="24.105736" lon="120.615814"/>
<trkpt lat="24.105797" lon="120.615932"/>
<trkpt lat="24.105917" lon="120.616271"/>
<trkpt lat="24.106021" lon="120.616753"/>
<trkpt lat="24.106137" lon="120.617221"/>
<trkpt lat="24.106170" lon="120.617322"/>
<trkpt lat="24.106217" lon="120.617498"/>
<trkpt lat="24.106353" lon="120.617984"/>
<trkpt lat="24.105763" lon="120.618116"/>
<trkpt lat="24.105820" lon="120.618560"/>
<trkpt lat="24.105828" lon="120.618818"/>
<trkpt lat="24.105822" lon="120.619114"/>
<trkpt lat="24.105782" lon="120.619454"/>
<trkpt lat="24.105760" lon="120.619596"/>
<trkpt lat="24.105747" lon="120.619656"/>
<trkpt lat="24.105535" lon="120.620374"/>
<trkpt lat="24.105248" lon="120.621246"/>
<trkpt lat="24.105049" lon="120.621847"/>
<trkpt lat="24.104960" lon="120.621835"/>
<trkpt lat="24.105157" lon="120.621226"/>
<trkpt lat="24.105321" lon="120.620731"/>
<trkpt lat="24.105452" lon="120.620335"/>
<trkpt lat="24.105170" lon="120.620220"/>
<trkpt lat="24.105276" lon="120.619954"/>
<trkpt lat="24.105331" lon="120.619771"/>
<trkpt lat="24.105401" lon="120.619431"/>
<trkpt lat="24.105402" lon="120.619309"/>
<trkpt lat="24.105462" lon="120.619071"/>
<trkpt lat="24.105236" lon="120.618934"/>
<trkpt lat="24.104962" lon="120.618768"/>
<trkpt lat="24.105218" lon="120.618394"/>
<trkpt lat="24.105146" lon="120.618308"/>
<trkpt lat="24.105208" lon="120.618227"/>
<trkpt lat="24.105185" lon="120.617528"/>
<trkpt lat="24.105184" lon="120.617499"/>
<trkpt lat="24.105164" lon="120.617131"/>
<trkpt lat="24.105557" lon="120.617189"/>
<trkpt lat="24.105553" lon="120.616877"/>
<trkpt lat="24.105566" lon="120.616588"/>
<trkpt lat="24.105607" lon="120.616257"/>
<trkpt lat="24.105678" lon="120.615985"/>
<trkpt lat="24.105736" lon="120.615814"/>
<trkpt lat="24.105925" lon="120.615371"/>
<trkpt lat="24.105860" lon="120.615318"/>
<trkpt lat="24.105893" lon="120.615251"/>
<trkpt lat="24.105930" lon="120.615177"/>
<trkpt lat="24.106455" lon="120.614120"/>
<trkpt lat="24.106465" lon="120.614099"/>
<trkpt lat="24.106317" lon="120.613972"/>
</trkseg></trk>
</gpx>