<?xml version="1.0" encoding="UTF-8"?>
<gpx version="1.1" creator="catrun" xmlns="http://www.topografix.com/GPX/1/1">
<metadata><name>烏日區 蜷睡貓咪 圖形路跑路線</name></metadata>
<wpt lat="24.124225" lon="120.638013"><name>麻糍埔公園</name><desc>地標</desc></wpt>
<wpt lat="24.124949" lon="120.638560"><name>麻糍埔考古遺址</name><desc>地標</desc></wpt>
<wpt lat="24.130802" lon="120.642658"><name>豐樂雕塑公園</name><desc>地標</desc></wpt>
<trk><name>烏日區 蜷睡貓咪 圖形路跑路線</name><trkseg>
<trkpt lat="24.120975" lon="120.642357"/>
<trkpt lat="24.121007" lon="120.642403"/>
<trkpt lat="24.121125" lon="120.642298"/>
<trkpt lat="24.121251" lon="120.642181"/>
<trkpt lat="24.121310" lon="120.642253"/>
<trkpt lat="24.121317" lon="120.642228"/>
<trkpt lat="24.121331" lon="120.642201"/>
<trkpt lat="24.121341" lon="120.642192"/>
<trkpt lat="24.121360" lon="120.642217"/>
<trkpt lat="24.121422" lon="120.642159"/>
<trkpt lat="24.121580" lon="120.642018"/>
<trkpt lat="24.121716" lon="120.641897"/>
<trkpt lat="24.121831" lon="120.641792"/>
<trkpt lat="24.121944" lon="120.641693"/>
<trkpt lat="24.122185" lon="120.641483"/>
<trkpt lat="24.122419" lon="120.641273"/>
<trkpt lat="24.122424" lon="120.641268"/>
<trkpt lat="24.122407" lon="120.641246"/>
<trkpt lat="24.122411" lon="120.641241"/>
<trkpt lat="24.122436" lon="120.641229"/>
<trkpt lat="24.122457" lon="120.641227"/>
<trkpt lat="24.122470" lon="120.641227"/>
<trkpt lat="24.122417" lon="120.641155"/>
<trkpt lat="24.122432" lon="120.641143"/>
<trkpt lat="24.122483" lon="120.641099"/>
<trkpt lat="24.122487" lon="120.641096"/>
<trkpt lat="24.122498" lon="120.641087"/>
<trkpt lat="24.122505" lon="120.641082"/>
<trkpt lat="24.122525" lon="120.641066"/>
<trkpt lat="24.122555" lon="120.641043"/>
<trkpt lat="24.122577" lon="120.641027"/>
<trkpt lat="24.122658" lon="120.640958"/>
<trkpt lat="24.122579" lon="120.640861"/>
<trkpt lat="24.122635" lon="120.640803"/>
<trkpt lat="24.122675" lon="120.640766"/>
<trkpt lat="24.122717" lon="120.640767"/>
<trkpt lat="24.122764" lon="120.640725"/>
<trkpt lat="24.123054" lon="120.640474"/>
<trkpt lat="24.123116" lon="120.640419"/>
<trkpt lat="24.123186" lon="120.640356"/>
<trkpt lat="24.123805" lon="120.639806"/>
<trkpt lat="24.123818" lon="120.639759"/>
<trkpt lat="24.123835" lon="120.639762"/>
<trkpt lat="24.123895" lon="120.639694"/>
<trkpt lat="24.123945" lon="120.639635"/>
<trkpt lat="24.124016" lon="120.639645"/>
<trkpt lat="24.124071" lon="120.639596"/>
<trkpt lat="24.124108" lon="120.639645"/>
<trkpt lat="24.124164" lon="120.639718"/>
<trkpt lat="24.124162" lon="120.639728"/>
<trkpt lat="24.124164" lon="120.639756"/>
<trkpt lat="24.124170" lon="120.639776"/>
<trkpt lat="24.124184" lon="120.639797"/>
<trkpt lat="24.124200" lon="120.639809"/>
<trkpt lat="24.124225" lon="120.639818"/>
<trkpt lat="24.124234" lon="120.639819"/>
<trkpt lat="24.124292" lon="120.639892"/>
<trkpt lat="24.124563" lon="120.639649"/>
<trkpt lat="24.124785" lon="120.639449"/>
<trkpt lat="24.124893" lon="120.639356"/>
<trkpt lat="24.125002" lon="120.639262"/>
<trkpt lat="24.125089" lon="120.639188"/>
<trkpt lat="24.125114" lon="120.639166"/>
<trkpt lat="24.125159" lon="120.639126"/>
<trkpt lat="24.125204" lon="120.639184"/>
<trkpt lat="24.125323" lon="120.639087"/>
<trkpt lat="24.125374" lon="120.639063"/>
<trkpt lat="24.125416" lon="120.639052"/>
<trkpt lat="24.125456" lon="120.639047"/>
<trkpt lat="24.125512" lon="120.639055"/>
<trkpt lat="24.125588" lon="120.639072"/>
<trkpt lat="24.125692" lon="120.639067"/>
<trkpt lat="24.125780" lon="120.639049"/>
<trkpt lat="24.125822" lon="120.639049"/>
<trkpt lat="24.125905" lon="120.639070"/>
<trkpt lat="24.125956" lon="120.639092"/>
<trkpt lat="24.125999" lon="120.639131"/>
<trkpt lat="24.126031" lon="120.639094"/>
<trkpt lat="24.126124" lon="120.639161"/>
<trkpt lat="24.126170" lon="120.639216"/>
<trkpt lat="24.126612" lon="120.639739"/>
<trkpt lat="24.126568" lon="120.639786"/>
<trkpt lat="24.126613" lon="120.639839"/>
<trkpt lat="24.126649" lon="120.639881"/>
<trkpt lat="24.126684" lon="120.639884"/>
<trkpt lat="24.126707" lon="120.639900"/>
<trkpt lat="24.126916" lon="120.640155"/>
<trkpt lat="24.126994" lon="120.640257"/>
<trkpt lat="24.127004" lon="120.640286"/>
<trkpt lat="24.127070" lon="120.640243"/>
<trkpt lat="24.127164" lon="120.640169"/>
<trkpt lat="24.127228" lon="120.640258"/>
<trkpt lat="24.127652" lon="120.639884"/>
<trkpt lat="24.127893" lon="120.640176"/>
<trkpt lat="24.128027" lon="120.640330"/>
<trkpt lat="24.128085" lon="120.640375"/>
<trkpt lat="24.128212" lon="120.640452"/>
<trkpt lat="24.128336" lon="120.640524"/>
<trkpt lat="24.128489" lon="120.640580"/>
<trkpt lat="24.128585" lon="120.640594"/>
<trkpt lat="24.128743" lon="120.640613"/>
<trkpt lat="24.128887" lon="120.640616"/>
<trkpt lat="24.129546" lon="120.640625"/>
<trkpt lat="24.129545" lon="120.641343"/>
<trkpt lat="24.129534" lon="120.642470"/>
<trkpt lat="24.129595" lon="120.642472"/>
<trkpt lat="24.129760" lon="120.642473"/>
<trkpt lat="24.129834" lon="120.642468"/>
<trkpt lat="24.129842" lon="120.642417"/>
<trkpt lat="24.129890" lon="120.642366"/>
<trkpt lat="24.130209" lon="120.642367"/>
<trkpt lat="24.130291" lon="120.642367"/>
<trkpt lat="24.130323" lon="120.642368"/>
<trkpt lat="24.130360" lon="120.642370"/>
<trkpt lat="24.130366" lon="120.642309"/>
<trkpt lat="24.130382" lon="120.642264"/>
<trkpt lat="24.130484" lon="120.642395"/>
<trkpt lat="24.130521" lon="120.642435"/>
<trkpt lat="24.130557" lon="120.642456"/>
<trkpt lat="24.130917" lon="120.642860"/>
<trkpt lat="24.131014" lon="120.643000"/>
<trkpt lat="24.130999" lon="120.643136"/>
<trkpt lat="24.130985" lon="120.643269"/>
<trkpt lat="24.130920" lon="120.643326"/>
<trkpt lat="24.130976" lon="120.643314"/>
<trkpt lat="24.131033" lon="120.643300"/>
<trkpt lat="24.131076" lon="120.643293"/>
<trkpt lat="24.131133" lon="120.643297"/>
<trkpt lat="24.131176" lon="120.643335"/>
<trkpt lat="24.131470" lon="120.643718"/>
<trkpt lat="24.131649" lon="120.643528"/>
<trkpt lat="24.131820" lon="120.643679"/>
<trkpt lat="24.131794" lon="120.643727"/>
<trkpt lat="24.131816" lon="120.643758"/>
<trkpt lat="24.131864" lon="120.643772"/>
<trkpt lat="24.131909" lon="120.643770"/>
<trkpt lat="24.131957" lon="120.643828"/>
<trkpt lat="24.132057" lon="120.643959"/>
<trkpt lat="24.133376" lon="120.643972"/>
<trkpt lat="24.134061" lon="120.643978"/>
<trkpt lat="24.134060" lon="120.644124"/>
<trkpt lat="24.134060" lon="120.644173"/>
<trkpt lat="24.133942" lon="120.644172"/>
<trkpt lat="24.133772" lon="120.644170"/>
<trkpt lat="24.133588" lon="120.644167"/>
<trkpt lat="24.133585" lon="120.644394"/>
<trkpt lat="24.133543" lon="120.644394"/>
<trkpt lat="24.133372" lon="120.644394"/>
<trkpt lat="24.133370" lon="120.644671"/>
<trkpt lat="24.133366" lon="120.645075"/>
<trkpt lat="24.133361" lon="120.645650"/>
<trkpt lat="24.133354" lon="120.646363"/>
<trkpt lat="24.133352" lon="120.646584"/>
<trkpt lat="24.134681" lon="120.646604"/>
<trkpt lat="24.134704" lon="120.647288"/>
<trkpt lat="24.134740" lon="120.648367"/>
<trkpt lat="24.134016" lon="120.648350"/>
<trkpt lat="24.134011" lon="120.649138"/>
<trkpt lat="24.133957" lon="120.649203"/>
<trkpt lat="24.133342" lon="120.649192"/>
<trkpt lat="24.133337" lon="120.649977"/>
<trkpt lat="24.133330" lon="120.650717"/>
<trkpt lat="24.133933" lon="120.650722"/>
<trkpt lat="24.133977" lon="120.650755"/>
<trkpt lat="24.134000" lon="120.650798"/>
<trkpt lat="24.133999" lon="120.651319"/>
<trkpt lat="24.133987" lon="120.652281"/>
<trkpt lat="24.133963" lon="120.652339"/>
<trkpt lat="24.133924" lon="120.652377"/>
<trkpt lat="24.133317" lon="120.652405"/>
<trkpt lat="24.133308" lon="120.653029"/>
<trkpt lat="24.133306" lon="120.653121"/>
<trkpt lat="24.133306" lon="120.653208"/>
<trkpt lat="24.133301" lon="120.654061"/>
<trkpt lat="24.133299" lon="120.654506"/>
<trkpt lat="24.133226" lon="120.654509"/>
<trkpt lat="24.133225" lon="120.654588"/>
<trkpt lat="24.132652" lon="120.654588"/>
<trkpt lat="24.131992" lon="120.654585"/>
<trkpt lat="24.131619" lon="120.654585"/>
<trkpt lat="24.131612" lon="120.655141"/>
<trkpt lat="24.131890" lon="120.655141"/>
<trkpt lat="24.132171" lon="120.655141"/>
<trkpt lat="24.132441" lon="120.655141"/>
<trkpt lat="24.132726" lon="120.655141"/>
<trkpt lat="24.132721" lon="120.655676"/>
<trkpt lat="24.132711" lon="120.656159"/>
<trkpt lat="24.132396" lon="120.656152"/>
<trkpt lat="24.132360" lon="120.656152"/>
<trkpt lat="24.132162" lon="120.656154"/>
<trkpt lat="24.131893" lon="120.656156"/>
<trkpt lat="24.131891" lon="120.657255"/>
<trkpt lat="24.131897" lon="120.657356"/>
<trkpt lat="24.130566" lon="120.657357"/>
<trkpt lat="24.130356" lon="120.657517"/>
<trkpt lat="24.130120" lon="120.657827"/>
<trkpt lat="24.130123" lon="120.658779"/>
<trkpt lat="24.130125" lon="120.659169"/>
<trkpt lat="24.130200" lon="120.659171"/>
<trkpt lat="24.130200" lon="120.659203"/>
<trkpt lat="24.130195" lon="120.659226"/>
<trkpt lat="24.130188" lon="120.659248"/>
<trkpt lat="24.130186" lon="120.659504"/>
<trkpt lat="24.130186" lon="120.659549"/>
<trkpt lat="24.130122" lon="120.659549"/>
<trkpt lat="24.130034" lon="120.659547"/>
<trkpt lat="24.130037" lon="120.659639"/>
<trkpt lat="24.129947" lon="120.659612"/>
<trkpt lat="24.129821" lon="120.659608"/>
<trkpt lat="24.129065" lon="120.659609"/>
<trkpt lat="24.128755" lon="120.659606"/>
<trkpt lat="24.128333" lon="120.659603"/>
<trkpt lat="24.128348" lon="120.660929"/>
<trkpt lat="24.128023" lon="120.660930"/>
<trkpt lat="24.128015" lon="120.661716"/>
<trkpt lat="24.128011" lon="120.662050"/>
<trkpt lat="24.128017" lon="120.662343"/>
<trkpt lat="24.127458" lon="120.662533"/>
<trkpt lat="24.127408" lon="120.662550"/>
<trkpt lat="24.127369" lon="120.662565"/>
<trkpt lat="24.126997" lon="120.662691"/>
<trkpt lat="24.126972" lon="120.662634"/>
<trkpt lat="24.126719" lon="120.662039"/>
<trkpt lat="24.126394" lon="120.662159"/>
<trkpt lat="24.126261" lon="120.662209"/>
<trkpt lat="24.125714" lon="120.662230"/>
<trkpt lat="24.125099" lon="120.662221"/>
<trkpt lat="24.124361" lon="120.662223"/>
<trkpt lat="24.124195" lon="120.662456"/>
<trkpt lat="24.123497" lon="120.661941"/>
<trkpt lat="24.123010" lon="120.661571"/>
<trkpt lat="24.122475" lon="120.661141"/>
<trkpt lat="24.121934" lon="120.661404"/>
<trkpt lat="24.121778" lon="120.661569"/>
<trkpt lat="24.121723" lon="120.661646"/>
<trkpt lat="24.121602" lon="120.661765"/>
<trkpt lat="24.121633" lon="120.662236"/>
<trkpt lat="24.121426" lon="120.661929"/>
<trkpt lat="24.121149" lon="120.662190"/>
<trkpt lat="24.121033" lon="120.662299"/>
<trkpt lat="24.120903" lon="120.662417"/>
<trkpt lat="24.120847" lon="120.662338"/>
<trkpt lat="24.120791" lon="120.662258"/>
<trkpt lat="24.120712" lon="120.662336"/>
<trkpt lat="24.120512" lon="120.662083"/>
<trkpt lat="24.120123" lon="120.661571"/>
<trkpt lat="24.119940" lon="120.661662"/>
<trkpt lat="24.119785" lon="120.661712"/>
<trkpt lat="24.119635" lon="120.661734"/>
<trkpt lat="24.120159" lon="120.662406"/>
<trkpt lat="24.119965" lon="120.662595"/>
<trkpt lat="24.118346" lon="120.660600"/>
<trkpt lat="24.117901" lon="120.660052"/>
<trkpt lat="24.117774" lon="120.660160"/>
<trkpt lat="24.117721" lon="120.660205"/>
<trkpt lat="24.117573" lon="120.660164"/>
<trkpt lat="24.116958" lon="120.659980"/>
<trkpt lat="24.116884" lon="120.659975"/>
<trkpt lat="24.116432" lon="120.659871"/>
<trkpt lat="24.116305" lon="120.659862"/>
<trkpt lat="24.116264" lon="120.659883"/>
<trkpt lat="24.116263" lon="120.659553"/>
<trkpt lat="24.116915" lon="120.659588"/>
<trkpt lat="24.116978" lon="120.659331"/>
<trkpt lat="24.117031" lon="120.659178"/>
<trkpt lat="24.117089" lon="120.659055"/>
<trkpt lat="24.117014" lon="120.658932"/>
<trkpt lat="24.116784" lon="120.658632"/>
<trkpt lat="24.116342" lon="120.658072"/>
<trkpt lat="24.116153" lon="120.657842"/>
<trkpt lat="24.115967" lon="120.658016"/>
<trkpt lat="24.115577" lon="120.658367"/>
<trkpt lat="24.115409" lon="120.658132"/>
<trkpt lat="24.115325" lon="120.658011"/>
<trkpt lat="24.115221" lon="120.657880"/>
<trkpt lat="24.115091" lon="120.657730"/>
<trkpt lat="24.114944" lon="120.657623"/>
<trkpt lat="24.114871" lon="120.657570"/>
<trkpt lat="24.114742" lon="120.657471"/>
<trkpt lat="24.114573" lon="120.657381"/>
<trkpt lat="24.114310" lon="120.657322"/>
<trkpt lat="24.114078" lon="120.657333"/>
<trkpt lat="24.113960" lon="120.657357"/>
<trkpt lat="24.113851" lon="120.656691"/>
<trkpt lat="24.113816" lon="120.656547"/>
<trkpt lat="24.113706" lon="120.655965"/>
<trkpt lat="24.113580" lon="120.655216"/>
<trkpt lat="24.113478" lon="120.654640"/>
<trkpt lat="24.113461" lon="120.654466"/>
<trkpt lat="24.113513" lon="120.654203"/>
<trkpt lat="24.113560" lon="120.654058"/>
<trkpt lat="24.113652" lon="120.653880"/>
<trkpt lat="24.113770" lon="120.653650"/>
<trkpt lat="24.113099" lon="120.652794"/>
<trkpt lat="24.112759" lon="120.652254"/>
<trkpt lat="24.112790" lon="120.652145"/>
<trkpt lat="24.112248" lon="120.651202"/>
<trkpt lat="24.112124" lon="120.650964"/>
<trkpt lat="24.111941" lon="120.650652"/>
<trkpt lat="24.111812" lon="120.650425"/>
<trkpt lat="24.111689" lon="120.650177"/>
<trkpt lat="24.111973" lon="120.650053"/>
<trkpt lat="24.112453" lon="120.649827"/>
<trkpt lat="24.112820" lon="120.649620"/>
<trkpt lat="24.112587" lon="120.649087"/>
<trkpt lat="24.112424" lon="120.648710"/>
<trkpt lat="24.112417" lon="120.648654"/>
<trkpt lat="24.112342" lon="120.648480"/>
<trkpt lat="24.112305" lon="120.648308"/>
<trkpt lat="24.112292" lon="120.648171"/>
<trkpt lat="24.112302" lon="120.647968"/>
<trkpt lat="24.112288" lon="120.647665"/>
<trkpt lat="24.112290" lon="120.647414"/>
<trkpt lat="24.112300" lon="120.647103"/>
<trkpt lat="24.112345" lon="120.646653"/>
<trkpt lat="24.112372" lon="120.646384"/>
<trkpt lat="24.112385" lon="120.646323"/>
<trkpt lat="24.111884" lon="120.645701"/>
<trkpt lat="24.111927" lon="120.645650"/>
<trkpt lat="24.111990" lon="120.645579"/>
<trkpt lat="24.112032" lon="120.645523"/>
<trkpt lat="24.112008" lon="120.645501"/>
<trkpt lat="24.112952" lon="120.644560"/>
<trkpt lat="24.113062" lon="120.644446"/>
<trkpt lat="24.113617" lon="120.643873"/>
<trkpt lat="24.113960" lon="120.643551"/>
<trkpt lat="24.113920" lon="120.643507"/>
<trkpt lat="24.114089" lon="120.643337"/>
<trkpt lat="24.114218" lon="120.643144"/>
<trkpt lat="24.114668" lon="120.642693"/>
<trkpt lat="24.114797" lon="120.642629"/>
<trkpt lat="24.114904" lon="120.642564"/>
<trkpt lat="24.116707" lon="120.640740"/>
<trkpt lat="24.116800" lon="120.640696"/>
<trkpt lat="24.115763" lon="120.641770"/>
<trkpt lat="24.115631" lon="120.641905"/>
<trkpt lat="24.115661" lon="120.641954"/>
<trkpt lat="24.115726" lon="120.642068"/>
<trkpt lat="24.115907" lon="120.642366"/>
<trkpt lat="24.116023" lon="120.642555"/>
<trkpt lat="24.116104" lon="120.642687"/>
<trkpt lat="24.116216" lon="120.642866"/>
<trkpt lat="24.116351" lon="120.643082"/>
<trkpt lat="24.116506" lon="120.643329"/>
<trkpt lat="24.116589" lon="120.643463"/>
<trkpt lat="24.116742" lon="120.643722"/>
<trkpt lat="24.116839" lon="120.643883"/>
<trkpt lat="24.116915" lon="120.644002"/>
<trkpt lat="24.117007" lon="120.644147"/>
<trkpt lat="24.117045" lon="120.644207"/>
<trkpt lat="24.117142" lon="120.644366"/>
<trkpt lat="24.117436" lon="120.644844"/>
<trkpt lat="24.117555" lon="120.645037"/>
<trkpt lat="24.117673" lon="120.645224"/>
<trkpt lat="24.117823" lon="120.645458"/>
<trkpt lat="24.117885" lon="120.645557"/>
<trkpt lat="24.117933" lon="120.645634"/>
<trkpt lat="24.117989" lon="120.645723"/>
<trkpt lat="24.118039" lon="120.645804"/>
<trkpt lat="24.118065" lon="120.645848"/>
<trkpt lat="24.118243" lon="120.646149"/>
<trkpt lat="24.118258" lon="120.646174"/>
<trkpt lat="24.118312" lon="120.646264"/>
<trkpt lat="24.118326" lon="120.646288"/>
<trkpt lat="24.118342" lon="120.646315"/>
<trkpt lat="24.118359" lon="120.646342"/>
<trkpt lat="24.118491" lon="120.646554"/>
<trkpt lat="24.118573" lon="120.646686"/>
<trkpt lat="24.118888" lon="120.647194"/>
<trkpt lat="24.119043" lon="120.647444"/>
<trkpt lat="24.119228" lon="120.647747"/>
<trkpt lat="24.119355" lon="120.647955"/>
<trkpt lat="24.119480" lon="120.648158"/>
<trkpt lat="24.119677" lon="120.648485"/>
<trkpt lat="24.119733" lon="120.648578"/>
<trkpt lat="24.119646" lon="120.648637"/>
<trkpt lat="24.119521" lon="120.648724"/>
<trkpt lat="24.119498" lon="120.648740"/>
<trkpt lat="24.119469" lon="120.648760"/>
<trkpt lat="24.119334" lon="120.648852"/>
<trkpt lat="24.119272" lon="120.648894"/>
<trkpt lat="24.119150" lon="120.648951"/>
<trkpt lat="24.119041" lon="120.648997"/>
<trkpt lat="24.118853" lon="120.649058"/>
<trkpt lat="24.118583" lon="120.649134"/>
<trkpt lat="24.118334" lon="120.649210"/>
<trkpt lat="24.118113" lon="120.649284"/>
<trkpt lat="24.117657" lon="120.649407"/>
<trkpt lat="24.116983" lon="120.649605"/>
<trkpt lat="24.117175" lon="120.650409"/>
<trkpt lat="24.117259" lon="120.650725"/>
<trkpt lat="24.117068" lon="120.650985"/>
<trkpt lat="24.117219" lon="120.651074"/>
<trkpt lat="24.117294" lon="120.651179"/>
<trkpt lat="24.117402" lon="120.651584"/>
<trkpt lat="24.117206" lon="120.651696"/>
<trkpt lat="24.117334" lon="120.651856"/>
<trkpt lat="24.117849" lon="120.652511"/>
<trkpt lat="24.117868" lon="120.652477"/>
<trkpt lat="24.117993" lon="120.652464"/>
<trkpt lat="24.118036" lon="120.652518"/>
<trkpt lat="24.118139" lon="120.652648"/>
<trkpt lat="24.118187" lon="120.652709"/>
<trkpt lat="24.118137" lon="120.652779"/>
<trkpt lat="24.118144" lon="120.652842"/>
<trkpt lat="24.118502" lon="120.653232"/>
<trkpt lat="24.118558" lon="120.653315"/>
<trkpt lat="24.118768" lon="120.653575"/>
<trkpt lat="24.118815" lon="120.653606"/>
<trkpt lat="24.118862" lon="120.653659"/>
<trkpt lat="24.119190" lon="120.653334"/>
<trkpt lat="24.119616" lon="120.653804"/>
<trkpt lat="24.120009" lon="120.654308"/>
<trkpt lat="24.120649" lon="120.653704"/>
<trkpt lat="24.120994" lon="120.654201"/>
<trkpt lat="24.121344" lon="120.654711"/>
<trkpt lat="24.121776" lon="120.654306"/>
<trkpt lat="24.122306" lon="120.653838"/>
<trkpt lat="24.122652" lon="120.653540"/>
<trkpt lat="24.122721" lon="120.653481"/>
<trkpt lat="24.123767" lon="120.653435"/>
<trkpt lat="24.123742" lon="120.653406"/>
<trkpt lat="24.123310" lon="120.652690"/>
<trkpt lat="24.123813" lon="120.652668"/>
<trkpt lat="24.124063" lon="120.652657"/>
<trkpt lat="24.124251" lon="120.652650"/>
<trkpt lat="24.125146" lon="120.652621"/>
<trkpt lat="24.125227" lon="120.652603"/>
<trkpt lat="24.125733" lon="120.652322"/>
<trkpt lat="24.125345" lon="120.651820"/>
<trkpt lat="24.125407" lon="120.651679"/>
<trkpt lat="24.125415" lon="120.651658"/>
<trkpt lat="24.125603" lon="120.651209"/>
<trkpt lat="24.125626" lon="120.651185"/>
<trkpt lat="24.125705" lon="120.651114"/>
<trkpt lat="24.124656" lon="120.649762"/>
<trkpt lat="24.125696" lon="120.649063"/>
<trkpt lat="24.125350" lon="120.648473"/>
<trkpt lat="24.125006" lon="120.647897"/>
<trkpt lat="24.124680" lon="120.647346"/>
<trkpt lat="24.124632" lon="120.647376"/>
<trkpt lat="24.124602" lon="120.647375"/>
<trkpt lat="24.124578" lon="120.647385"/>
<trkpt lat="24.124523" lon="120.647422"/>
<trkpt lat="24.124144" lon="120.647691"/>
<trkpt lat="24.123575" lon="120.648110"/>
<trkpt lat="24.123544" lon="120.648181"/>
<trkpt lat="24.123462" lon="120.648243"/>
<trkpt lat="24.123388" lon="120.648180"/>
<trkpt lat="24.123267" lon="120.648030"/>
<trkpt lat="24.123206" lon="120.647940"/>
<trkpt lat="24.123297" lon="120.647872"/>
<trkpt lat="24.123359" lon="120.647861"/>
<trkpt lat="24.123926" lon="120.647466"/>
<trkpt lat="24.124448" lon="120.647071"/>
<trkpt lat="24.124482" lon="120.647045"/>
<trkpt lat="24.124442" lon="120.646979"/>
<trkpt lat="24.124213" lon="120.646589"/>
<trkpt lat="24.124161" lon="120.646506"/>
<trkpt lat="24.123719" lon="120.645770"/>
<trkpt lat="24.123607" lon="120.645585"/>
<trkpt lat="24.123187" lon="120.645910"/>
<trkpt lat="24.122778" lon="120.646221"/>
<trkpt lat="24.122292" lon="120.646590"/>
<trkpt lat="24.122209" lon="120.646652"/>
<trkpt lat="24.122158" lon="120.646586"/>
<trkpt lat="24.122111" lon="120.646626"/>
<trkpt lat="24.122063" lon="120.646667"/>
<trkpt lat="24.121138" lon="120.645476"/>
<trkpt lat="24.121195" lon="120.645441"/>
<trkpt lat="24.121229" lon="120.645406"/>
<trkpt lat="24.121163" lon="120.645323"/>
<trkpt lat="24.121249" lon="120.645251"/>
<trkpt lat="24.121668" lon="120.644899"/>
<trkpt lat="24.121714" lon="120.644861"/>
<trkpt lat="24.121643" lon="120.644772"/>
<trkpt lat="24.121636" lon="120.644762"/>
<trkpt lat="24.121575" lon="120.644684"/>
<trkpt lat="24.121402" lon="120.644464"/>
<trkpt lat="24.121087" lon="120.644063"/>
<trkpt lat="24.120517" lon="120.643335"/>
<trkpt lat="24.120472" lon="120.643278"/>
<trkpt lat="24.120675" lon="120.643093"/>
<trkpt lat="24.121066" lon="120.642756"/>
<trkpt lat="24.121192" lon="120.642638"/>
<trkpt lat="24.121137" lon="120.642559"/>
<trkpt lat="24.121138" lon="120.642544"/>
<trkpt lat="24.121124" lon="120.642520"/>
<trkpt lat="24.121109" lon="120.642498"/>
<trkpt lat="24.121094" lon="120.642485"/>
<trkpt lat="24.121073" lon="120.642477"/>
<trkpt lat="24.121058" lon="120.642473"/>
<trkpt lat="24.121007" lon="120.642403"/>
<trkpt lat="24.120975" lon="120.642357"/>
</trkseg></trk>
</gpx>