<?xml version="1.0" encoding="UTF-8"?>
<gpx version="1.1" creator="catrun" xmlns="http://www.topografix.com/GPX/1/1">
<metadata><name>烏日區 貓臉（正面） 圖形路跑路線</name></metadata>
<wpt lat="24.134495" lon="120.644274"><name>南屯區公所4樓禮堂</name><desc>地標</desc></wpt>
<wpt lat="24.132723" lon="120.647387"><name>南苑公園</name><desc>地標</desc></wpt>
<wpt lat="24.124009" lon="120.651748"><name>慶順公園</name><desc>地標</desc></wpt>
<trk><name>烏日區 貓臉（正面） 圖形路跑路線</name><trkseg>
<trkpt lat="24.132777" lon="120.640683"/>
<trkpt lat="24.133403" lon="120.640703"/>
<trkpt lat="24.133399" lon="120.641369"/>
<trkpt lat="24.133388" lon="120.642616"/>
<trkpt lat="24.134115" lon="120.642654"/>
<trkpt lat="24.134767" lon="120.642688"/>
<trkpt lat="24.134828" lon="120.642692"/>
<trkpt lat="24.134815" lon="120.643039"/>
<trkpt lat="24.134793" lon="120.643809"/>
<trkpt lat="24.134785" lon="120.643975"/>
<trkpt lat="24.134757" lon="120.644676"/>
<trkpt lat="24.134692" lon="120.644679"/>
<trkpt lat="24.134082" lon="120.644675"/>
<trkpt lat="24.134071" lon="120.645484"/>
<trkpt lat="24.134060" lon="120.645564"/>
<trkpt lat="24.134027" lon="120.645617"/>
<trkpt lat="24.133961" lon="120.645658"/>
<trkpt lat="24.133361" lon="120.645650"/>
<trkpt lat="24.133354" lon="120.646363"/>
<trkpt lat="24.133352" lon="120.646584"/>
<trkpt lat="24.133350" lon="120.646823"/>
<trkpt lat="24.133344" lon="120.647304"/>
<trkpt lat="24.133344" lon="120.648344"/>
<trkpt lat="24.132021" lon="120.648306"/>
<trkpt lat="24.132018" lon="120.648830"/>
<trkpt lat="24.132012" lon="120.649988"/>
<trkpt lat="24.130766" lon="120.650000"/>
<trkpt lat="24.130758" lon="120.650735"/>
<trkpt lat="24.130129" lon="120.650742"/>
<trkpt lat="24.129493" lon="120.650746"/>
<trkpt lat="24.129501" lon="120.650012"/>
<trkpt lat="24.128499" lon="120.650136"/>
<trkpt lat="24.127922" lon="120.650194"/>
<trkpt lat="24.127951" lon="120.650283"/>
<trkpt lat="24.127945" lon="120.650375"/>
<trkpt lat="24.127926" lon="120.650380"/>
<trkpt lat="24.127886" lon="120.650390"/>
<trkpt lat="24.127789" lon="120.650414"/>
<trkpt lat="24.127742" lon="120.650425"/>
<trkpt lat="24.127702" lon="120.650443"/>
<trkpt lat="24.127682" lon="120.650365"/>
<trkpt lat="24.127650" lon="120.650278"/>
<trkpt lat="24.127125" lon="120.650611"/>
<trkpt lat="24.125900" lon="120.651354"/>
<trkpt lat="24.125705" lon="120.651114"/>
<trkpt lat="24.125626" lon="120.651185"/>
<trkpt lat="24.125603" lon="120.651209"/>
<trkpt lat="24.125415" lon="120.651658"/>
<trkpt lat="24.125407" lon="120.651679"/>
<trkpt lat="24.124610" lon="120.650654"/>
<trkpt lat="24.124172" lon="120.650094"/>
<trkpt lat="24.123537" lon="120.649290"/>
<trkpt lat="24.122996" lon="120.648617"/>
<trkpt lat="24.123038" lon="120.648542"/>
<trkpt lat="24.122979" lon="120.648474"/>
<trkpt lat="24.122877" lon="120.648335"/>
<trkpt lat="24.122849" lon="120.648330"/>
<trkpt lat="24.122721" lon="120.648437"/>
<trkpt lat="24.122226" lon="120.647826"/>
<trkpt lat="24.121639" lon="120.647070"/>
<trkpt lat="24.121109" lon="120.647483"/>
<trkpt lat="24.120191" lon="120.646126"/>
<trkpt lat="24.120168" lon="120.646069"/>
<trkpt lat="24.119438" lon="120.645019"/>
<trkpt lat="24.119786" lon="120.644728"/>
<trkpt lat="24.119383" lon="120.644215"/>
<trkpt lat="24.119430" lon="120.644171"/>
<trkpt lat="24.119458" lon="120.644127"/>
<trkpt lat="24.119432" lon="120.644110"/>
<trkpt lat="24.119379" lon="120.644046"/>
<trkpt lat="24.119401" lon="120.644025"/>
<trkpt lat="24.119841" lon="120.643645"/>
<trkpt lat="24.119873" lon="120.643411"/>
<trkpt lat="24.119911" lon="120.643375"/>
<trkpt lat="24.120251" lon="120.643072"/>
<trkpt lat="24.120287" lon="120.643040"/>
<trkpt lat="24.120221" lon="120.642956"/>
<trkpt lat="24.119691" lon="120.642271"/>
<trkpt lat="24.120497" lon="120.641536"/>
<trkpt lat="24.119960" lon="120.640870"/>
<trkpt lat="24.119880" lon="120.640771"/>
<trkpt lat="24.119842" lon="120.640723"/>
<trkpt lat="24.119787" lon="120.640654"/>
<trkpt lat="24.119834" lon="120.640615"/>
<trkpt lat="24.119852" lon="120.640600"/>
<trkpt lat="24.119873" lon="120.640455"/>
<trkpt lat="24.119870" lon="120.640416"/>
<trkpt lat="24.119848" lon="120.640369"/>
<trkpt lat="24.119817" lon="120.640329"/>
<trkpt lat="24.119779" lon="120.640296"/>
<trkpt lat="24.119729" lon="120.640243"/>
<trkpt lat="24.119707" lon="120.640203"/>
<trkpt lat="24.119692" lon="120.640150"/>
<trkpt lat="24.119680" lon="120.640064"/>
<trkpt lat="24.119678" lon="120.640056"/>
<trkpt lat="24.119676" lon="120.640041"/>
<trkpt lat="24.119744" lon="120.640006"/>
<trkpt lat="24.119775" lon="120.639992"/>
<trkpt lat="24.119789" lon="120.639992"/>
<trkpt lat="24.119809" lon="120.640019"/>
<trkpt lat="24.119928" lon="120.639964"/>
<trkpt lat="24.120015" lon="120.639915"/>
<trkpt lat="24.120111" lon="120.639846"/>
<trkpt lat="24.120161" lon="120.639799"/>
<trkpt lat="24.120242" lon="120.639750"/>
<trkpt lat="24.120396" lon="120.639689"/>
<trkpt lat="24.120407" lon="120.639694"/>
<trkpt lat="24.120475" lon="120.639707"/>
<trkpt lat="24.120527" lon="120.639719"/>
<trkpt lat="24.120579" lon="120.639721"/>
<trkpt lat="24.120632" lon="120.639723"/>
<trkpt lat="24.120673" lon="120.639720"/>
<trkpt lat="24.120767" lon="120.639793"/>
<trkpt lat="24.120801" lon="120.639761"/>
<trkpt lat="24.121085" lon="120.639497"/>
<trkpt lat="24.121096" lon="120.639476"/>
<trkpt lat="24.121110" lon="120.639495"/>
<trkpt lat="24.121144" lon="120.639455"/>
<trkpt lat="24.121156" lon="120.639466"/>
<trkpt lat="24.121199" lon="120.639521"/>
<trkpt lat="24.121236" lon="120.639576"/>
<trkpt lat="24.121252" lon="120.639599"/>
<trkpt lat="24.121284" lon="120.639596"/>
<trkpt lat="24.121333" lon="120.639607"/>
<trkpt lat="24.121353" lon="120.639582"/>
<trkpt lat="24.121370" lon="120.639567"/>
<trkpt lat="24.121458" lon="120.639487"/>
<trkpt lat="24.121491" lon="120.639457"/>
<trkpt lat="24.121542" lon="120.639426"/>
<trkpt lat="24.121540" lon="120.639390"/>
<trkpt lat="24.121553" lon="120.639358"/>
<trkpt lat="24.121890" lon="120.639051"/>
<trkpt lat="24.121857" lon="120.639051"/>
<trkpt lat="24.121793" lon="120.638970"/>
<trkpt lat="24.121725" lon="120.638883"/>
<trkpt lat="24.121797" lon="120.638816"/>
<trkpt lat="24.121547" lon="120.638514"/>
<trkpt lat="24.121148" lon="120.638028"/>
<trkpt lat="24.120883" lon="120.637702"/>
<trkpt lat="24.120856" lon="120.637675"/>
<trkpt lat="24.121572" lon="120.636954"/>
<trkpt lat="24.122148" lon="120.637633"/>
<trkpt lat="24.122721" lon="120.637097"/>
<trkpt lat="24.123068" lon="120.636778"/>
<trkpt lat="24.123678" lon="120.636190"/>
<trkpt lat="24.123712" lon="120.636172"/>
<trkpt lat="24.123808" lon="120.636098"/>
<trkpt lat="24.124200" lon="120.635719"/>
<trkpt lat="24.123559" lon="120.634955"/>
<trkpt lat="24.123793" lon="120.634719"/>
<trkpt lat="24.124034" lon="120.634474"/>
<trkpt lat="24.124350" lon="120.634154"/>
<trkpt lat="24.124434" lon="120.634073"/>
<trkpt lat="24.124765" lon="120.634366"/>
<trkpt lat="24.124990" lon="120.634543"/>
<trkpt lat="24.125425" lon="120.634886"/>
<trkpt lat="24.125630" lon="120.635050"/>
<trkpt lat="24.125643" lon="120.635060"/>
<trkpt lat="24.125713" lon="120.634953"/>
<trkpt lat="24.125751" lon="120.634894"/>
<trkpt lat="24.125835" lon="120.634960"/>
<trkpt lat="24.125861" lon="120.634980"/>
<trkpt lat="24.125965" lon="120.634854"/>
<trkpt lat="24.125981" lon="120.634825"/>
<trkpt lat="24.126010" lon="120.634782"/>
<trkpt lat="24.126077" lon="120.634683"/>
<trkpt lat="24.126234" lon="120.634783"/>
<trkpt lat="24.126380" lon="120.634891"/>
<trkpt lat="24.126760" lon="120.635136"/>
<trkpt lat="24.126883" lon="120.635219"/>
<trkpt lat="24.126925" lon="120.635248"/>
<trkpt lat="24.127281" lon="120.635466"/>
<trkpt lat="24.127551" lon="120.635627"/>
<trkpt lat="24.127823" lon="120.635780"/>
<trkpt lat="24.128182" lon="120.635961"/>
<trkpt lat="24.128348" lon="120.636027"/>
<trkpt lat="24.128434" lon="120.636064"/>
<trkpt lat="24.128528" lon="120.635963"/>
<trkpt lat="24.128699" lon="120.635788"/>
<trkpt lat="24.129157" lon="120.635328"/>
<trkpt lat="24.129295" lon="120.635192"/>
<trkpt lat="24.129539" lon="120.634944"/>
<trkpt lat="24.129583" lon="120.634969"/>
<trkpt lat="24.130208" lon="120.635314"/>
<trkpt lat="24.130300" lon="120.635364"/>
<trkpt lat="24.130357" lon="120.635398"/>
<trkpt lat="24.131087" lon="120.635795"/>
<trkpt lat="24.131642" lon="120.636152"/>
<trkpt lat="24.131810" lon="120.636248"/>
<trkpt lat="24.132110" lon="120.636415"/>
<trkpt lat="24.132557" lon="120.635537"/>
<trkpt lat="24.133079" lon="120.635737"/>
<trkpt lat="24.132623" lon="120.636717"/>
<trkpt lat="24.133163" lon="120.637007"/>
<trkpt lat="24.132772" lon="120.637981"/>
<trkpt lat="24.132236" lon="120.637776"/>
<trkpt lat="24.132221" lon="120.637830"/>
<trkpt lat="24.132172" lon="120.638017"/>
<trkpt lat="24.132164" lon="120.638049"/>
<trkpt lat="24.132083" lon="120.638775"/>
<trkpt lat="24.132474" lon="120.638920"/>
<trkpt lat="24.132815" lon="120.639045"/>
<trkpt lat="24.132777" lon="120.640683"/>
</trkseg></trk>
</gpx>