<?xml version="1.0" encoding="UTF-8"?>
<gpx version="1.1" creator="catrun" xmlns="http://www.topografix.com/GPX/1/1">
<metadata><name>烏日區 貓咪肉球 圖形路跑路線</name></metadata>
<wpt lat="24.113309" lon="120.646120"><name>復興北公園</name><desc>地標</desc></wpt>
<wpt lat="24.116641" lon="120.664758"><name>永興公園</name><desc>地標</desc></wpt>
<wpt lat="24.117131" lon="120.663715"><name>臺灣火柴故事館</name><desc>地標</desc></wpt>
<trk><name>烏日區 貓咪肉球 圖形路跑路線</name><trkseg>
<trkpt lat="24.112313" lon="120.644775"/>
<trkpt lat="24.111813" lon="120.645267"/>
<trkpt lat="24.111759" lon="120.645302"/>
<trkpt lat="24.111686" lon="120.645368"/>
<trkpt lat="24.111238" lon="120.645802"/>
<trkpt lat="24.111021" lon="120.646019"/>
<trkpt lat="24.110913" lon="120.646126"/>
<trkpt lat="24.110482" lon="120.646569"/>
<trkpt lat="24.110376" lon="120.646663"/>
<trkpt lat="24.110488" lon="120.646965"/>
<trkpt lat="24.110012" lon="120.647414"/>
<trkpt lat="24.109811" lon="120.647609"/>
<trkpt lat="24.108791" lon="120.648607"/>
<trkpt lat="24.108513" lon="120.648879"/>
<trkpt lat="24.108371" lon="120.649018"/>
<trkpt lat="24.108413" lon="120.649318"/>
<trkpt lat="24.108436" lon="120.649398"/>
<trkpt lat="24.108556" lon="120.649452"/>
<trkpt lat="24.108626" lon="120.649483"/>
<trkpt lat="24.108645" lon="120.649582"/>
<trkpt lat="24.108688" lon="120.649693"/>
<trkpt lat="24.108741" lon="120.649783"/>
<trkpt lat="24.108807" lon="120.649831"/>
<trkpt lat="24.108841" lon="120.649861"/>
<trkpt lat="24.108926" lon="120.649928"/>
<trkpt lat="24.109009" lon="120.650035"/>
<trkpt lat="24.109123" lon="120.650175"/>
<trkpt lat="24.109186" lon="120.650247"/>
<trkpt lat="24.109280" lon="120.650346"/>
<trkpt lat="24.109361" lon="120.650411"/>
<trkpt lat="24.109410" lon="120.650498"/>
<trkpt lat="24.109420" lon="120.650673"/>
<trkpt lat="24.109419" lon="120.650704"/>
<trkpt lat="24.109416" lon="120.650757"/>
<trkpt lat="24.109347" lon="120.650761"/>
<trkpt lat="24.108725" lon="120.650654"/>
<trkpt lat="24.108811" lon="120.652873"/>
<trkpt lat="24.108836" lon="120.653536"/>
<trkpt lat="24.108857" lon="120.654508"/>
<trkpt lat="24.108877" lon="120.655074"/>
<trkpt lat="24.108887" lon="120.655491"/>
<trkpt lat="24.108893" lon="120.655704"/>
<trkpt lat="24.109022" lon="120.655737"/>
<trkpt lat="24.109219" lon="120.655751"/>
<trkpt lat="24.109353" lon="120.655771"/>
<trkpt lat="24.109618" lon="120.655828"/>
<trkpt lat="24.109768" lon="120.655850"/>
<trkpt lat="24.109910" lon="120.655863"/>
<trkpt lat="24.109969" lon="120.655874"/>
<trkpt lat="24.110000" lon="120.657197"/>
<trkpt lat="24.110011" lon="120.657781"/>
<trkpt lat="24.110391" lon="120.657785"/>
<trkpt lat="24.110937" lon="120.657782"/>
<trkpt lat="24.111834" lon="120.657776"/>
<trkpt lat="24.111920" lon="120.658389"/>
<trkpt lat="24.111979" lon="120.658525"/>
<trkpt lat="24.110923" lon="120.659628"/>
<trkpt lat="24.110905" lon="120.659883"/>
<trkpt lat="24.110909" lon="120.660798"/>
<trkpt lat="24.110901" lon="120.661160"/>
<trkpt lat="24.110889" lon="120.661738"/>
<trkpt lat="24.110890" lon="120.661837"/>
<trkpt lat="24.110903" lon="120.661882"/>
<trkpt lat="24.110932" lon="120.661912"/>
<trkpt lat="24.110968" lon="120.661928"/>
<trkpt lat="24.111081" lon="120.661931"/>
<trkpt lat="24.111481" lon="120.661913"/>
<trkpt lat="24.111547" lon="120.662011"/>
<trkpt lat="24.111792" lon="120.662031"/>
<trkpt lat="24.112106" lon="120.662057"/>
<trkpt lat="24.112134" lon="120.662857"/>
<trkpt lat="24.112142" lon="120.663012"/>
<trkpt lat="24.112152" lon="120.663133"/>
<trkpt lat="24.112171" lon="120.663218"/>
<trkpt lat="24.112201" lon="120.663271"/>
<trkpt lat="24.112259" lon="120.663317"/>
<trkpt lat="24.112329" lon="120.663338"/>
<trkpt lat="24.112470" lon="120.663356"/>
<trkpt lat="24.112531" lon="120.663365"/>
<trkpt lat="24.112806" lon="120.663402"/>
<trkpt lat="24.112859" lon="120.663410"/>
<trkpt lat="24.113446" lon="120.663464"/>
<trkpt lat="24.113731" lon="120.663456"/>
<trkpt lat="24.113943" lon="120.663479"/>
<trkpt lat="24.114218" lon="120.663572"/>
<trkpt lat="24.114343" lon="120.663619"/>
<trkpt lat="24.114513" lon="120.663708"/>
<trkpt lat="24.114667" lon="120.663785"/>
<trkpt lat="24.114864" lon="120.663854"/>
<trkpt lat="24.115021" lon="120.663882"/>
<trkpt lat="24.115297" lon="120.663889"/>
<trkpt lat="24.115302" lon="120.664847"/>
<trkpt lat="24.115799" lon="120.664841"/>
<trkpt lat="24.116053" lon="120.664838"/>
<trkpt lat="24.116043" lon="120.663878"/>
<trkpt lat="24.116875" lon="120.663871"/>
<trkpt lat="24.117052" lon="120.664003"/>
<trkpt lat="24.117417" lon="120.664091"/>
<trkpt lat="24.118737" lon="120.664373"/>
<trkpt lat="24.119026" lon="120.664437"/>
<trkpt lat="24.119197" lon="120.663987"/>
<trkpt lat="24.119400" lon="120.663648"/>
<trkpt lat="24.119695" lon="120.663337"/>
<trkpt lat="24.119726" lon="120.663398"/>
<trkpt lat="24.119767" lon="120.663492"/>
<trkpt lat="24.120176" lon="120.664001"/>
<trkpt lat="24.120536" lon="120.664460"/>
<trkpt lat="24.120802" lon="120.664798"/>
<trkpt lat="24.120985" lon="120.665042"/>
<trkpt lat="24.121028" lon="120.665101"/>
<trkpt lat="24.121455" lon="120.665622"/>
<trkpt lat="24.121752" lon="120.665338"/>
<trkpt lat="24.121997" lon="120.665102"/>
<trkpt lat="24.122155" lon="120.664953"/>
<trkpt lat="24.122240" lon="120.664873"/>
<trkpt lat="24.122522" lon="120.664607"/>
<trkpt lat="24.122598" lon="120.664546"/>
<trkpt lat="24.122859" lon="120.664299"/>
<trkpt lat="24.123093" lon="120.664078"/>
<trkpt lat="24.123364" lon="120.663796"/>
<trkpt lat="24.124479" lon="120.664600"/>
<trkpt lat="24.124809" lon="120.664075"/>
<trkpt lat="24.124902" lon="120.664003"/>
<trkpt lat="24.126034" lon="120.664859"/>
<trkpt lat="24.126079" lon="120.664775"/>
<trkpt lat="24.126479" lon="120.664151"/>
<trkpt lat="24.126666" lon="120.664286"/>
<trkpt lat="24.127417" lon="120.664832"/>
<trkpt lat="24.127810" lon="120.664606"/>
<trkpt lat="24.127271" lon="120.663365"/>
<trkpt lat="24.127026" lon="120.662761"/>
<trkpt lat="24.126997" lon="120.662691"/>
<trkpt lat="24.127369" lon="120.662565"/>
<trkpt lat="24.127408" lon="120.662550"/>
<trkpt lat="24.127458" lon="120.662533"/>
<trkpt lat="24.127466" lon="120.662553"/>
<trkpt lat="24.127941" lon="120.663702"/>
<trkpt lat="24.127990" lon="120.663702"/>
<trkpt lat="24.128353" lon="120.663704"/>
<trkpt lat="24.128631" lon="120.663706"/>
<trkpt lat="24.128750" lon="120.663707"/>
<trkpt lat="24.129077" lon="120.663709"/>
<trkpt lat="24.129384" lon="120.663714"/>
<trkpt lat="24.129623" lon="120.663713"/>
<trkpt lat="24.130005" lon="120.663725"/>
<trkpt lat="24.130092" lon="120.663716"/>
<trkpt lat="24.130530" lon="120.663719"/>
<trkpt lat="24.130647" lon="120.663719"/>
<trkpt lat="24.131069" lon="120.663722"/>
<trkpt lat="24.131327" lon="120.663724"/>
<trkpt lat="24.131712" lon="120.663726"/>
<trkpt lat="24.131715" lon="120.663309"/>
<trkpt lat="24.131752" lon="120.663196"/>
<trkpt lat="24.131896" lon="120.663059"/>
<trkpt lat="24.132005" lon="120.663170"/>
<trkpt lat="24.132005" lon="120.663101"/>
<trkpt lat="24.132039" lon="120.663060"/>
<trkpt lat="24.132053" lon="120.663020"/>
<trkpt lat="24.132057" lon="120.662651"/>
<trkpt lat="24.132058" lon="120.662614"/>
<trkpt lat="24.132174" lon="120.662737"/>
<trkpt lat="24.132268" lon="120.662836"/>
<trkpt lat="24.132300" lon="120.662834"/>
<trkpt lat="24.132333" lon="120.662784"/>
<trkpt lat="24.132395" lon="120.662740"/>
<trkpt lat="24.132369" lon="120.662645"/>
<trkpt lat="24.132363" lon="120.662603"/>
<trkpt lat="24.132363" lon="120.662589"/>
<trkpt lat="24.132341" lon="120.662589"/>
<trkpt lat="24.132261" lon="120.662505"/>
<trkpt lat="24.132261" lon="120.662463"/>
<trkpt lat="24.132261" lon="120.662108"/>
<trkpt lat="24.132260" lon="120.661879"/>
<trkpt lat="24.132267" lon="120.661872"/>
<trkpt lat="24.132337" lon="120.661809"/>
<trkpt lat="24.132365" lon="120.661787"/>
<trkpt lat="24.132378" lon="120.661688"/>
<trkpt lat="24.132390" lon="120.661589"/>
<trkpt lat="24.132399" lon="120.661571"/>
<trkpt lat="24.132378" lon="120.661486"/>
<trkpt lat="24.132429" lon="120.661390"/>
<trkpt lat="24.132443" lon="120.661366"/>
<trkpt lat="24.132676" lon="120.660948"/>
<trkpt lat="24.132681" lon="120.660938"/>
<trkpt lat="24.132689" lon="120.660924"/>
<trkpt lat="24.132714" lon="120.660873"/>
<trkpt lat="24.132747" lon="120.660811"/>
<trkpt lat="24.132761" lon="120.660786"/>
<trkpt lat="24.132932" lon="120.660471"/>
<trkpt lat="24.133080" lon="120.660195"/>
<trkpt lat="24.133070" lon="120.660196"/>
<trkpt lat="24.133076" lon="120.660182"/>
<trkpt lat="24.133085" lon="120.660165"/>
<trkpt lat="24.133104" lon="120.660165"/>
<trkpt lat="24.133123" lon="120.660134"/>
<trkpt lat="24.133013" lon="120.660135"/>
<trkpt lat="24.132873" lon="120.660380"/>
<trkpt lat="24.132816" lon="120.660346"/>
<trkpt lat="24.132738" lon="120.660298"/>
<trkpt lat="24.132634" lon="120.660249"/>
<trkpt lat="24.132550" lon="120.660275"/>
<trkpt lat="24.132640" lon="120.659814"/>
<trkpt lat="24.132812" lon="120.659672"/>
<trkpt lat="24.132880" lon="120.659611"/>
<trkpt lat="24.132908" lon="120.659566"/>
<trkpt lat="24.132999" lon="120.659481"/>
<trkpt lat="24.133109" lon="120.659357"/>
<trkpt lat="24.133141" lon="120.659188"/>
<trkpt lat="24.133038" lon="120.658915"/>
<trkpt lat="24.133012" lon="120.658692"/>
<trkpt lat="24.133038" lon="120.658490"/>
<trkpt lat="24.133093" lon="120.658356"/>
<trkpt lat="24.133044" lon="120.658243"/>
<trkpt lat="24.132931" lon="120.658140"/>
<trkpt lat="24.132861" lon="120.658136"/>
<trkpt lat="24.132874" lon="120.657356"/>
<trkpt lat="24.131897" lon="120.657356"/>
<trkpt lat="24.131891" lon="120.657255"/>
<trkpt lat="24.131613" lon="120.657255"/>
<trkpt lat="24.131342" lon="120.657255"/>
<trkpt lat="24.130793" lon="120.657256"/>
<trkpt lat="24.130794" lon="120.656165"/>
<trkpt lat="24.130507" lon="120.656168"/>
<trkpt lat="24.130142" lon="120.656171"/>
<trkpt lat="24.129800" lon="120.656174"/>
<trkpt lat="24.129643" lon="120.655618"/>
<trkpt lat="24.129566" lon="120.655346"/>
<trkpt lat="24.129555" lon="120.655308"/>
<trkpt lat="24.129461" lon="120.655338"/>
<trkpt lat="24.129342" lon="120.655375"/>
<trkpt lat="24.129314" lon="120.655277"/>
<trkpt lat="24.129285" lon="120.655292"/>
<trkpt lat="24.128896" lon="120.655488"/>
<trkpt lat="24.128630" lon="120.655619"/>
<trkpt lat="24.128601" lon="120.655633"/>
<trkpt lat="24.128356" lon="120.655755"/>
<trkpt lat="24.128279" lon="120.655794"/>
<trkpt lat="24.128446" lon="120.656221"/>
<trkpt lat="24.128481" lon="120.656270"/>
<trkpt lat="24.128607" lon="120.656559"/>
<trkpt lat="24.128612" lon="120.656600"/>
<trkpt lat="24.128511" lon="120.656836"/>
<trkpt lat="24.128475" lon="120.656954"/>
<trkpt lat="24.128427" lon="120.657321"/>
<trkpt lat="24.128553" lon="120.657321"/>
<trkpt lat="24.129000" lon="120.657792"/>
<trkpt lat="24.129686" lon="120.657443"/>
<trkpt lat="24.129738" lon="120.657265"/>
<trkpt lat="24.129769" lon="120.657177"/>
<trkpt lat="24.129827" lon="120.656996"/>
<trkpt lat="24.129882" lon="120.656820"/>
<trkpt lat="24.129981" lon="120.657208"/>
<trkpt lat="24.130002" lon="120.657286"/>
<trkpt lat="24.130104" lon="120.657257"/>
<trkpt lat="24.130568" lon="120.657256"/>
<trkpt lat="24.130793" lon="120.657256"/>
<trkpt lat="24.130794" lon="120.656165"/>
<trkpt lat="24.131070" lon="120.656163"/>
<trkpt lat="24.131346" lon="120.656161"/>
<trkpt lat="24.131613" lon="120.656159"/>
<trkpt lat="24.131893" lon="120.656156"/>
<trkpt lat="24.132162" lon="120.656154"/>
<trkpt lat="24.132360" lon="120.656152"/>
<trkpt lat="24.132396" lon="120.656152"/>
<trkpt lat="24.132711" lon="120.656159"/>
<trkpt lat="24.132754" lon="120.656159"/>
<trkpt lat="24.133130" lon="120.656160"/>
<trkpt lat="24.133185" lon="120.656161"/>
<trkpt lat="24.133497" lon="120.656168"/>
<trkpt lat="24.133499" lon="120.655328"/>
<trkpt lat="24.133496" lon="120.655141"/>
<trkpt lat="24.134918" lon="120.655141"/>
<trkpt lat="24.134915" lon="120.655068"/>
<trkpt lat="24.134969" lon="120.655067"/>
<trkpt lat="24.134968" lon="120.655053"/>
<trkpt lat="24.134957" lon="120.654689"/>
<trkpt lat="24.134861" lon="120.654661"/>
<trkpt lat="24.134861" lon="120.654644"/>
<trkpt lat="24.134862" lon="120.654590"/>
<trkpt lat="24.134864" lon="120.654507"/>
<trkpt lat="24.134999" lon="120.654507"/>
<trkpt lat="24.134951" lon="120.653164"/>
<trkpt lat="24.135080" lon="120.653160"/>
<trkpt lat="24.135077" lon="120.653048"/>
<trkpt lat="24.135074" lon="120.652931"/>
<trkpt lat="24.134944" lon="120.652934"/>
<trkpt lat="24.134898" lon="120.651462"/>
<trkpt lat="24.135008" lon="120.651459"/>
<trkpt lat="24.135006" lon="120.651382"/>
<trkpt lat="24.135005" lon="120.651290"/>
<trkpt lat="24.134889" lon="120.651288"/>
<trkpt lat="24.134839" lon="120.650123"/>
<trkpt lat="24.134833" lon="120.649973"/>
<trkpt lat="24.134830" lon="120.649829"/>
<trkpt lat="24.134770" lon="120.649268"/>
<trkpt lat="24.134740" lon="120.648367"/>
<trkpt lat="24.134016" lon="120.648350"/>
<trkpt lat="24.133344" lon="120.648344"/>
<trkpt lat="24.132021" lon="120.648306"/>
<trkpt lat="24.131413" lon="120.648289"/>
<trkpt lat="24.130786" lon="120.648274"/>
<trkpt lat="24.130794" lon="120.647290"/>
<trkpt lat="24.130795" lon="120.647198"/>
<trkpt lat="24.131420" lon="120.647206"/>
<trkpt lat="24.132025" lon="120.647204"/>
<trkpt lat="24.132030" lon="120.646562"/>
<trkpt lat="24.132045" lon="120.646346"/>
<trkpt lat="24.132052" lon="120.645077"/>
<trkpt lat="24.132057" lon="120.643959"/>
<trkpt lat="24.132060" lon="120.643323"/>
<trkpt lat="24.132066" lon="120.642257"/>
<trkpt lat="24.131967" lon="120.642253"/>
<trkpt lat="24.131914" lon="120.642150"/>
<trkpt lat="24.131799" lon="120.642085"/>
<trkpt lat="24.131691" lon="120.642045"/>
<trkpt lat="24.131552" lon="120.642049"/>
<trkpt lat="24.131368" lon="120.642026"/>
<trkpt lat="24.131313" lon="120.641937"/>
<trkpt lat="24.131250" lon="120.641871"/>
<trkpt lat="24.131183" lon="120.641808"/>
<trkpt lat="24.131100" lon="120.641813"/>
<trkpt lat="24.131135" lon="120.641725"/>
<trkpt lat="24.131156" lon="120.641551"/>
<trkpt lat="24.131170" lon="120.641362"/>
<trkpt lat="24.130803" lon="120.641353"/>
<trkpt lat="24.130782" lon="120.640648"/>
<trkpt lat="24.130158" lon="120.640636"/>
<trkpt lat="24.129546" lon="120.640625"/>
<trkpt lat="24.128887" lon="120.640616"/>
<trkpt lat="24.128743" lon="120.640613"/>
<trkpt lat="24.128585" lon="120.640594"/>
<trkpt lat="24.128489" lon="120.640580"/>
<trkpt lat="24.128336" lon="120.640524"/>
<trkpt lat="24.128212" lon="120.640452"/>
<trkpt lat="24.128085" lon="120.640375"/>
<trkpt lat="24.128027" lon="120.640330"/>
<trkpt lat="24.127893" lon="120.640176"/>
<trkpt lat="24.127652" lon="120.639884"/>
<trkpt lat="24.127228" lon="120.640258"/>
<trkpt lat="24.127143" lon="120.640334"/>
<trkpt lat="24.127082" lon="120.640385"/>
<trkpt lat="24.125645" lon="120.641599"/>
<trkpt lat="24.125560" lon="120.641671"/>
<trkpt lat="24.125495" lon="120.641724"/>
<trkpt lat="24.124770" lon="120.642322"/>
<trkpt lat="24.124699" lon="120.642380"/>
<trkpt lat="24.124646" lon="120.642424"/>
<trkpt lat="24.124260" lon="120.642741"/>
<trkpt lat="24.124296" lon="120.642795"/>
<trkpt lat="24.124299" lon="120.642813"/>
<trkpt lat="24.124294" lon="120.642829"/>
<trkpt lat="24.124284" lon="120.642848"/>
<trkpt lat="24.124264" lon="120.642871"/>
<trkpt lat="24.124256" lon="120.642887"/>
<trkpt lat="24.124232" lon="120.642905"/>
<trkpt lat="24.124140" lon="120.642983"/>
<trkpt lat="24.124112" lon="120.643008"/>
<trkpt lat="24.124090" lon="120.643013"/>
<trkpt lat="24.124041" lon="120.643000"/>
<trkpt lat="24.124005" lon="120.642957"/>
<trkpt lat="24.123603" lon="120.643293"/>
<trkpt lat="24.123541" lon="120.643344"/>
<trkpt lat="24.123482" lon="120.643395"/>
<trkpt lat="24.122702" lon="120.644060"/>
<trkpt lat="24.122679" lon="120.644077"/>
<trkpt lat="24.122670" lon="120.644084"/>
<trkpt lat="24.122595" lon="120.644135"/>
<trkpt lat="24.122626" lon="120.644172"/>
<trkpt lat="24.122673" lon="120.644227"/>
<trkpt lat="24.123110" lon="120.644870"/>
<trkpt lat="24.123607" lon="120.645585"/>
<trkpt lat="24.124385" lon="120.644989"/>
<trkpt lat="24.124436" lon="120.644949"/>
<trkpt lat="24.124392" lon="120.644863"/>
<trkpt lat="24.124291" lon="120.644664"/>
<trkpt lat="24.124008" lon="120.644144"/>
<trkpt lat="24.123747" lon="120.643661"/>
<trkpt lat="24.123618" lon="120.643424"/>
<trkpt lat="24.123541" lon="120.643344"/>
<trkpt lat="24.123603" lon="120.643293"/>
<trkpt lat="24.124005" lon="120.642957"/>
<trkpt lat="24.124041" lon="120.643000"/>
<trkpt lat="24.124090" lon="120.643013"/>
<trkpt lat="24.124112" lon="120.643008"/>
<trkpt lat="24.124140" lon="120.642983"/>
<trkpt lat="24.124232" lon="120.642905"/>
<trkpt lat="24.124256" lon="120.642887"/>
<trkpt lat="24.124264" lon="120.642871"/>
<trkpt lat="24.124284" lon="120.642848"/>
<trkpt lat="24.124294" lon="120.642829"/>
<trkpt lat="24.124299" lon="120.642813"/>
<trkpt lat="24.124296" lon="120.642795"/>
<trkpt lat="24.124260" lon="120.642741"/>
<trkpt lat="24.124646" lon="120.642424"/>
<trkpt lat="24.124699" lon="120.642380"/>
<trkpt lat="24.124770" lon="120.642322"/>
<trkpt lat="24.125495" lon="120.641724"/>
<trkpt lat="24.125560" lon="120.641671"/>
<trkpt lat="24.125488" lon="120.641585"/>
<trkpt lat="24.125372" lon="120.641447"/>
<trkpt lat="24.125167" lon="120.641204"/>
<trkpt lat="24.125142" lon="120.641175"/>
<trkpt lat="24.125101" lon="120.641126"/>
<trkpt lat="24.125059" lon="120.641077"/>
<trkpt lat="24.124762" lon="120.640727"/>
<trkpt lat="24.124667" lon="120.640610"/>
<trkpt lat="24.124735" lon="120.640543"/>
<trkpt lat="24.124705" lon="120.640502"/>
<trkpt lat="24.124659" lon="120.640451"/>
<trkpt lat="24.124660" lon="120.640428"/>
<trkpt lat="24.124646" lon="120.640427"/>
<trkpt lat="24.124312" lon="120.640021"/>
<trkpt lat="24.124312" lon="120.639972"/>
<trkpt lat="24.124340" lon="120.639947"/>
<trkpt lat="24.125204" lon="120.639184"/>
<trkpt lat="24.125159" lon="120.639126"/>
<trkpt lat="24.125100" lon="120.639048"/>
<trkpt lat="24.125101" lon="120.639038"/>
<trkpt lat="24.125096" lon="120.639016"/>
<trkpt lat="24.125084" lon="120.638995"/>
<trkpt lat="24.125069" lon="120.638976"/>
<trkpt lat="24.125053" lon="120.638961"/>
<trkpt lat="24.125032" lon="120.638954"/>
<trkpt lat="24.125019" lon="120.638955"/>
<trkpt lat="24.124966" lon="120.638884"/>
<trkpt lat="24.124929" lon="120.638835"/>
<trkpt lat="24.124917" lon="120.638818"/>
<trkpt lat="24.124811" lon="120.638895"/>
<trkpt lat="24.124641" lon="120.639026"/>
<trkpt lat="24.124587" lon="120.639004"/>
<trkpt lat="24.124603" lon="120.638970"/>
<trkpt lat="24.124613" lon="120.638954"/>
<trkpt lat="24.124664" lon="120.638870"/>
<trkpt lat="24.124701" lon="120.638813"/>
<trkpt lat="24.124730" lon="120.638780"/>
<trkpt lat="24.124803" lon="120.638710"/>
<trkpt lat="24.124833" lon="120.638671"/>
<trkpt lat="24.124842" lon="120.638616"/>
<trkpt lat="24.124831" lon="120.638554"/>
<trkpt lat="24.124763" lon="120.638415"/>
<trkpt lat="24.124682" lon="120.638259"/>
<trkpt lat="24.124625" lon="120.638159"/>
<trkpt lat="24.124527" lon="120.637996"/>
<trkpt lat="24.124481" lon="120.637908"/>
<trkpt lat="24.124437" lon="120.637870"/>
<trkpt lat="24.124394" lon="120.637844"/>
<trkpt lat="24.124353" lon="120.637841"/>
<trkpt lat="24.124311" lon="120.637843"/>
<trkpt lat="24.124269" lon="120.637861"/>
<trkpt lat="24.124194" lon="120.637925"/>
<trkpt lat="24.124155" lon="120.637939"/>
<trkpt lat="24.124111" lon="120.637922"/>
<trkpt lat="24.123869" lon="120.637817"/>
<trkpt lat="24.123826" lon="120.637814"/>
<trkpt lat="24.123805" lon="120.637826"/>
<trkpt lat="24.123706" lon="120.637786"/>
<trkpt lat="24.123595" lon="120.637741"/>
<trkpt lat="24.123579" lon="120.637733"/>
<trkpt lat="24.123477" lon="120.637685"/>
<trkpt lat="24.123474" lon="120.637653"/>
<trkpt lat="24.123402" lon="120.637616"/>
<trkpt lat="24.123383" lon="120.637614"/>
<trkpt lat="24.123341" lon="120.637659"/>
<trkpt lat="24.123285" lon="120.637704"/>
<trkpt lat="24.123275" lon="120.637741"/>
<trkpt lat="24.122813" lon="120.638175"/>
<trkpt lat="24.122782" lon="120.638200"/>
<trkpt lat="24.122705" lon="120.638110"/>
<trkpt lat="24.122632" lon="120.638025"/>
<trkpt lat="24.122592" lon="120.638010"/>
<trkpt lat="24.122528" lon="120.638075"/>
<trkpt lat="24.122462" lon="120.637995"/>
<trkpt lat="24.122148" lon="120.637633"/>
<trkpt lat="24.121572" lon="120.636954"/>
<trkpt lat="24.120856" lon="120.637675"/>
<trkpt lat="24.120366" lon="120.638150"/>
<trkpt lat="24.119980" lon="120.637700"/>
<trkpt lat="24.119946" lon="120.637659"/>
<trkpt lat="24.119865" lon="120.637737"/>
<trkpt lat="24.119801" lon="120.637664"/>
<trkpt lat="24.119662" lon="120.637800"/>
<trkpt lat="24.119597" lon="120.637722"/>
<trkpt lat="24.119508" lon="120.637613"/>
<trkpt lat="24.119357" lon="120.637438"/>
<trkpt lat="24.119302" lon="120.637489"/>
<trkpt lat="24.118592" lon="120.638227"/>
<trkpt lat="24.118254" lon="120.638560"/>
<trkpt lat="24.118110" lon="120.638793"/>
<trkpt lat="24.117942" lon="120.639095"/>
<trkpt lat="24.117860" lon="120.639195"/>
<trkpt lat="24.117214" lon="120.639871"/>
<trkpt lat="24.117078" lon="120.640017"/>
<trkpt lat="24.116949" lon="120.640131"/>
<trkpt lat="24.116621" lon="120.640455"/>
<trkpt lat="24.116535" lon="120.640590"/>
<trkpt lat="24.114733" lon="120.642371"/>
<trkpt lat="24.114647" lon="120.642478"/>
<trkpt lat="24.114561" lon="120.642650"/>
<trkpt lat="24.114153" lon="120.643079"/>
<trkpt lat="24.113917" lon="120.643208"/>
<trkpt lat="24.113770" lon="120.643344"/>
<trkpt lat="24.113638" lon="120.643466"/>
<trkpt lat="24.113458" lon="120.643644"/>
<trkpt lat="24.112770" lon="120.644323"/>
<trkpt lat="24.112577" lon="120.644514"/>
<trkpt lat="24.112313" lon="120.644775"/>
</trkseg></trk>
</gpx>