<?xml version="1.0" encoding="UTF-8"?>
<gpx version="1.1" creator="catrun" xmlns="http://www.topografix.com/GPX/1/1">
<metadata><name>烏日區 手繪蹲坐貓（原稿描圖） 圖形路跑路線</name></metadata>
<wpt lat="24.123550" lon="120.637647"><name>麻糍埔公園入口意象</name><desc>地標</desc></wpt>
<wpt lat="24.124225" lon="120.638013"><name>麻糍埔公園</name><desc>地標</desc></wpt>
<wpt lat="24.124949" lon="120.638560"><name>麻糍埔考古遺址</name><desc>地標</desc></wpt>
<trk><name>烏日區 手繪蹲坐貓（原稿描圖） 圖形路跑路線</name><trkseg>
<trkpt lat="24.115225" lon="120.635721"/>
<trkpt lat="24.115215" lon="120.635744"/>
<trkpt lat="24.115205" lon="120.635877"/>
<trkpt lat="24.115186" lon="120.636048"/>
<trkpt lat="24.115165" lon="120.636117"/>
<trkpt lat="24.115146" lon="120.636149"/>
<trkpt lat="24.114985" lon="120.636375"/>
<trkpt lat="24.114976" lon="120.636435"/>
<trkpt lat="24.114728" lon="120.636481"/>
<trkpt lat="24.114648" lon="120.636494"/>
<trkpt lat="24.114570" lon="120.636496"/>
<trkpt lat="24.114237" lon="120.636518"/>
<trkpt lat="24.113854" lon="120.636029"/>
<trkpt lat="24.113254" lon="120.635261"/>
<trkpt lat="24.112755" lon="120.634646"/>
<trkpt lat="24.112420" lon="120.634284"/>
<trkpt lat="24.112408" lon="120.634209"/>
<trkpt lat="24.112420" lon="120.634131"/>
<trkpt lat="24.112468" lon="120.633962"/>
<trkpt lat="24.112470" lon="120.633926"/>
<trkpt lat="24.112564" lon="120.633945"/>
<trkpt lat="24.112695" lon="120.633986"/>
<trkpt lat="24.113100" lon="120.634100"/>
<trkpt lat="24.113471" lon="120.634195"/>
<trkpt lat="24.113985" lon="120.634334"/>
<trkpt lat="24.114128" lon="120.634377"/>
<trkpt lat="24.114255" lon="120.634440"/>
<trkpt lat="24.114327" lon="120.634417"/>
<trkpt lat="24.114424" lon="120.634356"/>
<trkpt lat="24.114469" lon="120.634323"/>
<trkpt lat="24.114578" lon="120.634212"/>
<trkpt lat="24.114629" lon="120.634182"/>
<trkpt lat="24.114674" lon="120.634167"/>
<trkpt lat="24.114709" lon="120.634169"/>
<trkpt lat="24.114734" lon="120.634179"/>
<trkpt lat="24.114762" lon="120.634222"/>
<trkpt lat="24.114791" lon="120.634256"/>
<trkpt lat="24.114814" lon="120.634266"/>
<trkpt lat="24.114855" lon="120.634257"/>
<trkpt lat="24.114881" lon="120.634233"/>
<trkpt lat="24.115004" lon="120.634021"/>
<trkpt lat="24.115033" lon="120.634002"/>
<trkpt lat="24.115066" lon="120.634002"/>
<trkpt lat="24.115109" lon="120.634026"/>
<trkpt lat="24.115434" lon="120.634400"/>
<trkpt lat="24.115455" lon="120.634460"/>
<trkpt lat="24.115460" lon="120.634489"/>
<trkpt lat="24.115459" lon="120.634520"/>
<trkpt lat="24.115450" lon="120.634548"/>
<trkpt lat="24.115384" lon="120.634681"/>
<trkpt lat="24.115380" lon="120.634713"/>
<trkpt lat="24.115397" lon="120.634772"/>
<trkpt lat="24.115452" lon="120.634845"/>
<trkpt lat="24.115465" lon="120.634901"/>
<trkpt lat="24.115490" lon="120.634951"/>
<trkpt lat="24.115513" lon="120.634980"/>
<trkpt lat="24.115536" lon="120.634993"/>
<trkpt lat="24.115627" lon="120.634999"/>
<trkpt lat="24.115659" lon="120.635010"/>
<trkpt lat="24.115677" lon="120.635028"/>
<trkpt lat="24.115693" lon="120.635059"/>
<trkpt lat="24.115697" lon="120.635258"/>
<trkpt lat="24.115710" lon="120.635285"/>
<trkpt lat="24.115755" lon="120.635342"/>
<trkpt lat="24.115811" lon="120.635372"/>
<trkpt lat="24.115870" lon="120.635349"/>
<trkpt lat="24.115950" lon="120.635321"/>
<trkpt lat="24.116056" lon="120.635280"/>
<trkpt lat="24.116110" lon="120.635243"/>
<trkpt lat="24.116190" lon="120.635178"/>
<trkpt lat="24.116257" lon="120.635082"/>
<trkpt lat="24.116308" lon="120.634999"/>
<trkpt lat="24.116421" lon="120.634884"/>
<trkpt lat="24.116619" lon="120.634755"/>
<trkpt lat="24.116687" lon="120.634734"/>
<trkpt lat="24.116811" lon="120.634732"/>
<trkpt lat="24.116876" lon="120.634747"/>
<trkpt lat="24.116934" lon="120.634770"/>
<trkpt lat="24.117052" lon="120.634806"/>
<trkpt lat="24.117104" lon="120.634842"/>
<trkpt lat="24.117159" lon="120.634954"/>
<trkpt lat="24.117196" lon="120.634960"/>
<trkpt lat="24.117281" lon="120.634968"/>
<trkpt lat="24.117316" lon="120.634978"/>
<trkpt lat="24.117391" lon="120.635017"/>
<trkpt lat="24.117433" lon="120.635028"/>
<trkpt lat="24.117503" lon="120.635030"/>
<trkpt lat="24.117499" lon="120.635103"/>
<trkpt lat="24.117472" lon="120.635673"/>
<trkpt lat="24.117489" lon="120.635682"/>
<trkpt lat="24.117958" lon="120.635780"/>
<trkpt lat="24.118022" lon="120.635835"/>
<trkpt lat="24.118155" lon="120.635909"/>
<trkpt lat="24.118333" lon="120.635970"/>
<trkpt lat="24.118382" lon="120.635975"/>
<trkpt lat="24.118430" lon="120.635931"/>
<trkpt lat="24.118476" lon="120.635881"/>
<trkpt lat="24.118545" lon="120.635897"/>
<trkpt lat="24.118812" lon="120.635966"/>
<trkpt lat="24.118862" lon="120.635996"/>
<trkpt lat="24.118936" lon="120.636020"/>
<trkpt lat="24.119024" lon="120.636035"/>
<trkpt lat="24.119067" lon="120.636030"/>
<trkpt lat="24.119137" lon="120.636067"/>
<trkpt lat="24.119305" lon="120.636142"/>
<trkpt lat="24.119427" lon="120.636201"/>
<trkpt lat="24.119492" lon="120.636260"/>
<trkpt lat="24.119529" lon="120.636229"/>
<trkpt lat="24.119578" lon="120.636229"/>
<trkpt lat="24.119627" lon="120.636211"/>
<trkpt lat="24.119649" lon="120.636157"/>
<trkpt lat="24.119637" lon="120.635947"/>
<trkpt lat="24.119639" lon="120.635764"/>
<trkpt lat="24.119692" lon="120.635374"/>
<trkpt lat="24.119747" lon="120.635090"/>
<trkpt lat="24.120141" lon="120.635153"/>
<trkpt lat="24.120501" lon="120.635255"/>
<trkpt lat="24.120482" lon="120.636012"/>
<trkpt lat="24.120474" lon="120.636123"/>
<trkpt lat="24.120508" lon="120.636272"/>
<trkpt lat="24.120766" lon="120.636010"/>
<trkpt lat="24.120897" lon="120.636179"/>
<trkpt lat="24.120998" lon="120.636291"/>
<trkpt lat="24.121091" lon="120.636375"/>
<trkpt lat="24.121572" lon="120.636954"/>
<trkpt lat="24.122148" lon="120.637633"/>
<trkpt lat="24.122462" lon="120.637995"/>
<trkpt lat="24.122528" lon="120.638075"/>
<trkpt lat="24.122592" lon="120.638010"/>
<trkpt lat="24.122632" lon="120.638025"/>
<trkpt lat="24.122705" lon="120.638110"/>
<trkpt lat="24.122782" lon="120.638200"/>
<trkpt lat="24.122813" lon="120.638175"/>
<trkpt lat="24.123275" lon="120.637741"/>
<trkpt lat="24.123285" lon="120.637704"/>
<trkpt lat="24.123341" lon="120.637659"/>
<trkpt lat="24.123383" lon="120.637614"/>
<trkpt lat="24.123402" lon="120.637616"/>
<trkpt lat="24.123474" lon="120.637653"/>
<trkpt lat="24.123477" lon="120.637685"/>
<trkpt lat="24.123480" lon="120.637706"/>
<trkpt lat="24.123760" lon="120.638034"/>
<trkpt lat="24.124327" lon="120.638728"/>
<trkpt lat="24.124580" lon="120.639001"/>
<trkpt lat="24.124587" lon="120.639004"/>
<trkpt lat="24.124641" lon="120.639026"/>
<trkpt lat="24.124811" lon="120.638895"/>
<trkpt lat="24.124917" lon="120.638818"/>
<trkpt lat="24.124929" lon="120.638835"/>
<trkpt lat="24.124966" lon="120.638884"/>
<trkpt lat="24.125019" lon="120.638955"/>
<trkpt lat="24.125032" lon="120.638954"/>
<trkpt lat="24.125053" lon="120.638961"/>
<trkpt lat="24.125069" lon="120.638976"/>
<trkpt lat="24.125084" lon="120.638995"/>
<trkpt lat="24.125096" lon="120.639016"/>
<trkpt lat="24.125101" lon="120.639038"/>
<trkpt lat="24.125100" lon="120.639048"/>
<trkpt lat="24.125159" lon="120.639126"/>
<trkpt lat="24.125204" lon="120.639184"/>
<trkpt lat="24.125323" lon="120.639087"/>
<trkpt lat="24.125374" lon="120.639063"/>
<trkpt lat="24.125416" lon="120.639052"/>
<trkpt lat="24.125456" lon="120.639047"/>
<trkpt lat="24.125512" lon="120.639055"/>
<trkpt lat="24.125588" lon="120.639072"/>
<trkpt lat="24.125692" lon="120.639067"/>
<trkpt lat="24.125780" lon="120.639049"/>
<trkpt lat="24.125822" lon="120.639049"/>
<trkpt lat="24.125905" lon="120.639070"/>
<trkpt lat="24.125956" lon="120.639092"/>
<trkpt lat="24.125999" lon="120.639131"/>
<trkpt lat="24.126031" lon="120.639094"/>
<trkpt lat="24.126091" lon="120.639021"/>
<trkpt lat="24.126137" lon="120.638967"/>
<trkpt lat="24.126226" lon="120.639067"/>
<trkpt lat="24.126277" lon="120.639143"/>
<trkpt lat="24.126325" lon="120.639214"/>
<trkpt lat="24.126406" lon="120.639316"/>
<trkpt lat="24.126693" lon="120.639659"/>
<trkpt lat="24.126772" lon="120.639754"/>
<trkpt lat="24.127096" lon="120.640141"/>
<trkpt lat="24.127119" lon="120.640159"/>
<trkpt lat="24.127141" lon="120.640165"/>
<trkpt lat="24.127164" lon="120.640169"/>
<trkpt lat="24.127228" lon="120.640258"/>
<trkpt lat="24.127652" lon="120.639884"/>
<trkpt lat="24.128589" lon="120.639089"/>
<trkpt lat="24.129150" lon="120.638610"/>
<trkpt lat="24.129636" lon="120.638190"/>
<trkpt lat="24.130108" lon="120.637409"/>
<trkpt lat="24.130134" lon="120.637367"/>
<trkpt lat="24.130184" lon="120.637290"/>
<trkpt lat="24.130357" lon="120.637036"/>
<trkpt lat="24.130352" lon="120.637036"/>
<trkpt lat="24.130278" lon="120.637002"/>
<trkpt lat="24.130184" lon="120.636958"/>
<trkpt lat="24.130082" lon="120.636910"/>
<trkpt lat="24.129913" lon="120.636832"/>
<trkpt lat="24.129512" lon="120.636632"/>
<trkpt lat="24.129550" lon="120.636571"/>
<trkpt lat="24.130268" lon="120.635417"/>
<trkpt lat="24.130300" lon="120.635364"/>
<trkpt lat="24.130357" lon="120.635398"/>
<trkpt lat="24.131087" lon="120.635795"/>
<trkpt lat="24.131514" lon="120.635141"/>
<trkpt lat="24.131448" lon="120.635119"/>
<trkpt lat="24.131478" lon="120.635019"/>
<trkpt lat="24.131493" lon="120.635016"/>
<trkpt lat="24.131508" lon="120.635003"/>
<trkpt lat="24.131531" lon="120.634975"/>
<trkpt lat="24.131778" lon="120.634673"/>
<trkpt lat="24.131844" lon="120.634728"/>
<trkpt lat="24.131601" lon="120.635024"/>
<trkpt lat="24.131595" lon="120.635042"/>
<trkpt lat="24.131514" lon="120.635141"/>
<trkpt lat="24.131617" lon="120.635183"/>
<trkpt lat="24.132557" lon="120.635537"/>
<trkpt lat="24.132110" lon="120.636415"/>
<trkpt lat="24.132623" lon="120.636717"/>
<trkpt lat="24.133163" lon="120.637007"/>
<trkpt lat="24.133343" lon="120.636554"/>
<trkpt lat="24.133416" lon="120.636525"/>
<trkpt lat="24.133777" lon="120.636715"/>
<trkpt lat="24.134157" lon="120.636904"/>
<trkpt lat="24.133996" lon="120.637477"/>
<trkpt lat="24.133750" lon="120.638350"/>
<trkpt lat="24.133735" lon="120.638404"/>
<trkpt lat="24.133689" lon="120.638573"/>
<trkpt lat="24.133669" lon="120.638639"/>
<trkpt lat="24.133509" lon="120.639299"/>
<trkpt lat="24.133459" lon="120.639629"/>
<trkpt lat="24.133428" lon="120.639965"/>
<trkpt lat="24.133409" lon="120.640321"/>
<trkpt lat="24.133403" lon="120.640703"/>
<trkpt lat="24.133399" lon="120.641369"/>
<trkpt lat="24.134125" lon="120.641366"/>
<trkpt lat="24.134808" lon="120.641369"/>
<trkpt lat="24.134881" lon="120.641375"/>
<trkpt lat="24.134845" lon="120.642209"/>
<trkpt lat="24.134828" lon="120.642692"/>
<trkpt lat="24.134815" lon="120.643039"/>
<trkpt lat="24.134793" lon="120.643809"/>
<trkpt lat="24.134785" lon="120.643975"/>
<trkpt lat="24.134757" lon="120.644676"/>
<trkpt lat="24.134692" lon="120.644679"/>
<trkpt lat="24.134082" lon="120.644675"/>
<trkpt lat="24.133370" lon="120.644671"/>
<trkpt lat="24.133366" lon="120.645075"/>
<trkpt lat="24.132052" lon="120.645077"/>
<trkpt lat="24.131242" lon="120.645079"/>
<trkpt lat="24.131231" lon="120.646325"/>
<trkpt lat="24.130808" lon="120.646314"/>
<trkpt lat="24.130802" lon="120.646535"/>
<trkpt lat="24.130795" lon="120.647198"/>
<trkpt lat="24.130183" lon="120.647174"/>
<trkpt lat="24.130109" lon="120.647171"/>
<trkpt lat="24.129524" lon="120.647148"/>
<trkpt lat="24.129521" lon="120.647212"/>
<trkpt lat="24.129521" lon="120.647254"/>
<trkpt lat="24.129513" lon="120.648254"/>
<trkpt lat="24.129389" lon="120.648249"/>
<trkpt lat="24.129072" lon="120.648239"/>
<trkpt lat="24.128970" lon="120.648234"/>
<trkpt lat="24.128470" lon="120.648207"/>
<trkpt lat="24.128364" lon="120.648200"/>
<trkpt lat="24.128272" lon="120.648197"/>
<trkpt lat="24.127923" lon="120.648188"/>
<trkpt lat="24.127771" lon="120.648191"/>
<trkpt lat="24.127108" lon="120.648170"/>
<trkpt lat="24.127142" lon="120.648267"/>
<trkpt lat="24.127060" lon="120.648306"/>
<trkpt lat="24.126971" lon="120.648344"/>
<trkpt lat="24.126887" lon="120.648386"/>
<trkpt lat="24.126854" lon="120.648308"/>
<trkpt lat="24.126361" lon="120.648628"/>
<trkpt lat="24.126575" lon="120.649202"/>
<trkpt lat="24.126805" lon="120.649789"/>
<trkpt lat="24.127125" lon="120.650611"/>
<trkpt lat="24.125900" lon="120.651354"/>
<trkpt lat="24.125705" lon="120.651114"/>
<trkpt lat="24.125626" lon="120.651185"/>
<trkpt lat="24.125603" lon="120.651209"/>
<trkpt lat="24.125415" lon="120.651658"/>
<trkpt lat="24.125407" lon="120.651679"/>
<trkpt lat="24.125345" lon="120.651820"/>
<trkpt lat="24.125733" lon="120.652322"/>
<trkpt lat="24.125227" lon="120.652603"/>
<trkpt lat="24.125146" lon="120.652621"/>
<trkpt lat="24.124251" lon="120.652650"/>
<trkpt lat="24.124063" lon="120.652657"/>
<trkpt lat="24.123813" lon="120.652668"/>
<trkpt lat="24.123310" lon="120.652690"/>
<trkpt lat="24.123742" lon="120.653406"/>
<trkpt lat="24.123767" lon="120.653435"/>
<trkpt lat="24.122721" lon="120.653481"/>
<trkpt lat="24.122652" lon="120.653540"/>
<trkpt lat="24.122306" lon="120.653838"/>
<trkpt lat="24.121660" lon="120.652781"/>
<trkpt lat="24.120649" lon="120.653704"/>
<trkpt lat="24.120256" lon="120.653164"/>
<trkpt lat="24.120237" lon="120.653203"/>
<trkpt lat="24.119616" lon="120.653804"/>
<trkpt lat="24.119190" lon="120.653334"/>
<trkpt lat="24.118862" lon="120.653659"/>
<trkpt lat="24.118815" lon="120.653606"/>
<trkpt lat="24.118768" lon="120.653575"/>
<trkpt lat="24.118558" lon="120.653315"/>
<trkpt lat="24.118502" lon="120.653232"/>
<trkpt lat="24.118144" lon="120.652842"/>
<trkpt lat="24.118047" lon="120.652738"/>
<trkpt lat="24.117945" lon="120.652617"/>
<trkpt lat="24.117849" lon="120.652511"/>
<trkpt lat="24.117334" lon="120.651856"/>
<trkpt lat="24.117234" lon="120.651863"/>
<trkpt lat="24.117162" lon="120.651887"/>
<trkpt lat="24.117075" lon="120.651944"/>
<trkpt lat="24.117054" lon="120.651924"/>
<trkpt lat="24.117029" lon="120.651890"/>
<trkpt lat="24.116933" lon="120.651755"/>
<trkpt lat="24.115855" lon="120.650443"/>
<trkpt lat="24.115797" lon="120.650382"/>
<trkpt lat="24.115758" lon="120.650434"/>
<trkpt lat="24.115530" lon="120.650732"/>
<trkpt lat="24.115292" lon="120.651084"/>
<trkpt lat="24.115147" lon="120.651323"/>
<trkpt lat="24.114921" lon="120.651697"/>
<trkpt lat="24.114742" lon="120.652040"/>
<trkpt lat="24.114714" lon="120.652091"/>
<trkpt lat="24.114553" lon="120.652365"/>
<trkpt lat="24.114539" lon="120.652395"/>
<trkpt lat="24.114140" lon="120.652236"/>
<trkpt lat="24.113577" lon="120.651976"/>
<trkpt lat="24.113350" lon="120.651832"/>
<trkpt lat="24.113219" lon="120.651753"/>
<trkpt lat="24.112790" lon="120.652145"/>
<trkpt lat="24.113077" lon="120.652625"/>
<trkpt lat="24.113393" lon="120.653017"/>
<trkpt lat="24.113814" lon="120.653575"/>
<trkpt lat="24.113770" lon="120.653650"/>
<trkpt lat="24.113652" lon="120.653880"/>
<trkpt lat="24.113560" lon="120.654058"/>
<trkpt lat="24.113513" lon="120.654203"/>
<trkpt lat="24.113461" lon="120.654466"/>
<trkpt lat="24.113240" lon="120.654412"/>
<trkpt lat="24.112938" lon="120.654410"/>
<trkpt lat="24.112778" lon="120.654331"/>
<trkpt lat="24.112718" lon="120.654316"/>
<trkpt lat="24.112623" lon="120.654266"/>
<trkpt lat="24.112507" lon="120.654213"/>
<trkpt lat="24.112465" lon="120.654115"/>
<trkpt lat="24.112477" lon="120.654030"/>
<trkpt lat="24.112447" lon="120.653992"/>
<trkpt lat="24.112408" lon="120.653962"/>
<trkpt lat="24.112354" lon="120.653937"/>
<trkpt lat="24.112265" lon="120.653919"/>
<trkpt lat="24.112119" lon="120.653910"/>
<trkpt lat="24.112087" lon="120.654350"/>
<trkpt lat="24.112114" lon="120.654378"/>
<trkpt lat="24.112109" lon="120.655158"/>
<trkpt lat="24.112438" lon="120.655179"/>
<trkpt lat="24.112449" lon="120.655843"/>
<trkpt lat="24.112474" lon="120.655890"/>
<trkpt lat="24.112444" lon="120.657773"/>
<trkpt lat="24.111834" lon="120.657776"/>
<trkpt lat="24.111920" lon="120.658389"/>
<trkpt lat="24.111979" lon="120.658525"/>
<trkpt lat="24.110923" lon="120.659628"/>
<trkpt lat="24.110905" lon="120.659883"/>
<trkpt lat="24.110909" lon="120.660798"/>
<trkpt lat="24.110901" lon="120.661160"/>
<trkpt lat="24.110889" lon="120.661738"/>
<trkpt lat="24.110764" lon="120.661713"/>
<trkpt lat="24.110605" lon="120.661642"/>
<trkpt lat="24.110450" lon="120.661591"/>
<trkpt lat="24.110321" lon="120.661575"/>
<trkpt lat="24.110239" lon="120.661542"/>
<trkpt lat="24.110123" lon="120.661491"/>
<trkpt lat="24.109861" lon="120.661415"/>
<trkpt lat="24.109731" lon="120.661369"/>
<trkpt lat="24.109583" lon="120.661330"/>
<trkpt lat="24.109392" lon="120.661550"/>
<trkpt lat="24.109222" lon="120.661739"/>
<trkpt lat="24.109175" lon="120.661790"/>
<trkpt lat="24.108896" lon="120.662155"/>
<trkpt lat="24.108500" lon="120.662719"/>
<trkpt lat="24.108215" lon="120.663145"/>
<trkpt lat="24.107918" lon="120.663553"/>
<trkpt lat="24.107639" lon="120.663972"/>
<trkpt lat="24.107516" lon="120.663867"/>
<trkpt lat="24.107779" lon="120.663491"/>
<trkpt lat="24.107830" lon="120.663427"/>
<trkpt lat="24.108098" lon="120.663037"/>
<trkpt lat="24.108117" lon="120.663010"/>
<trkpt lat="24.108617" lon="120.662280"/>
<trkpt lat="24.108847" lon="120.661977"/>
<trkpt lat="24.108968" lon="120.661815"/>
<trkpt lat="24.109070" lon="120.661679"/>
<trkpt lat="24.109085" lon="120.661663"/>
<trkpt lat="24.109130" lon="120.661613"/>
<trkpt lat="24.109050" lon="120.661407"/>
<trkpt lat="24.109049" lon="120.661367"/>
<trkpt lat="24.109000" lon="120.659581"/>
<trkpt lat="24.108980" lon="120.658769"/>
<trkpt lat="24.108956" lon="120.657806"/>
<trkpt lat="24.108893" lon="120.655704"/>
<trkpt lat="24.109022" lon="120.655737"/>
<trkpt lat="24.109219" lon="120.655751"/>
<trkpt lat="24.109353" lon="120.655771"/>
<trkpt lat="24.109618" lon="120.655828"/>
<trkpt lat="24.109768" lon="120.655850"/>
<trkpt lat="24.109910" lon="120.655863"/>
<trkpt lat="24.109969" lon="120.655874"/>
<trkpt lat="24.110586" lon="120.655933"/>
<trkpt lat="24.110963" lon="120.655970"/>
<trkpt lat="24.110969" lon="120.655130"/>
<trkpt lat="24.110501" lon="120.655116"/>
<trkpt lat="24.110462" lon="120.655073"/>
<trkpt lat="24.110466" lon="120.655022"/>
<trkpt lat="24.110450" lon="120.654948"/>
<trkpt lat="24.110439" lon="120.654866"/>
<trkpt lat="24.110423" lon="120.654804"/>
<trkpt lat="24.110398" lon="120.654771"/>
<trkpt lat="24.110346" lon="120.654737"/>
<trkpt lat="24.110270" lon="120.654705"/>
<trkpt lat="24.110145" lon="120.654689"/>
<trkpt lat="24.109986" lon="120.654684"/>
<trkpt lat="24.109946" lon="120.654613"/>
<trkpt lat="24.109927" lon="120.654449"/>
<trkpt lat="24.109925" lon="120.653475"/>
<trkpt lat="24.109910" lon="120.652814"/>
<trkpt lat="24.110560" lon="120.652767"/>
<trkpt lat="24.110468" lon="120.651615"/>
<trkpt lat="24.110458" lon="120.651490"/>
<trkpt lat="24.110562" lon="120.651466"/>
<trkpt lat="24.110729" lon="120.651428"/>
<trkpt lat="24.110830" lon="120.651406"/>
<trkpt lat="24.110617" lon="120.650461"/>
<trkpt lat="24.110761" lon="120.650421"/>
<trkpt lat="24.111595" lon="120.650207"/>
<trkpt lat="24.111689" lon="120.650177"/>
<trkpt lat="24.111973" lon="120.650053"/>
<trkpt lat="24.112453" lon="120.649827"/>
<trkpt lat="24.112820" lon="120.649620"/>
<trkpt lat="24.112587" lon="120.649087"/>
<trkpt lat="24.112424" lon="120.648710"/>
<trkpt lat="24.112417" lon="120.648654"/>
<trkpt lat="24.112342" lon="120.648480"/>
<trkpt lat="24.112305" lon="120.648308"/>
<trkpt lat="24.112292" lon="120.648171"/>
<trkpt lat="24.112302" lon="120.647968"/>
<trkpt lat="24.112288" lon="120.647665"/>
<trkpt lat="24.112290" lon="120.647414"/>
<trkpt lat="24.112300" lon="120.647103"/>
<trkpt lat="24.112345" lon="120.646653"/>
<trkpt lat="24.112372" lon="120.646384"/>
<trkpt lat="24.112385" lon="120.646323"/>
<trkpt lat="24.111884" lon="120.645701"/>
<trkpt lat="24.111927" lon="120.645650"/>
<trkpt lat="24.111990" lon="120.645579"/>
<trkpt lat="24.112032" lon="120.645523"/>
<trkpt lat="24.112008" lon="120.645501"/>
<trkpt lat="24.111977" lon="120.645461"/>
<trkpt lat="24.111813" lon="120.645267"/>
<trkpt lat="24.112313" lon="120.644775"/>
<trkpt lat="24.112577" lon="120.644514"/>
<trkpt lat="24.112770" lon="120.644323"/>
<trkpt lat="24.112737" lon="120.644281"/>
<trkpt lat="24.112626" lon="120.644060"/>
<trkpt lat="24.112737" lon="120.643938"/>
<trkpt lat="24.112952" lon="120.643723"/>
<trkpt lat="24.113123" lon="120.643702"/>
<trkpt lat="24.113316" lon="120.643616"/>
<trkpt lat="24.113424" lon="120.643594"/>
<trkpt lat="24.113752" lon="120.643322"/>
<trkpt lat="24.113770" lon="120.643344"/>
<trkpt lat="24.113917" lon="120.643208"/>
<trkpt lat="24.114153" lon="120.643079"/>
<trkpt lat="24.114561" lon="120.642650"/>
<trkpt lat="24.114647" lon="120.642478"/>
<trkpt lat="24.114733" lon="120.642371"/>
<trkpt lat="24.116535" lon="120.640590"/>
<trkpt lat="24.116621" lon="120.640455"/>
<trkpt lat="24.116949" lon="120.640131"/>
<trkpt lat="24.116865" lon="120.640014"/>
<trkpt lat="24.116290" lon="120.639212"/>
<trkpt lat="24.115328" lon="120.637936"/>
<trkpt lat="24.115291" lon="120.637886"/>
<trkpt lat="24.114843" lon="120.637317"/>
<trkpt lat="24.115581" lon="120.637122"/>
<trkpt lat="24.115410" lon="120.637044"/>
<trkpt lat="24.115334" lon="120.636988"/>
<trkpt lat="24.115203" lon="120.636875"/>
<trkpt lat="24.115183" lon="120.636861"/>
<trkpt lat="24.115104" lon="120.636821"/>
<trkpt lat="24.115089" lon="120.636785"/>
<trkpt lat="24.115093" lon="120.636731"/>
<trkpt lat="24.115090" lon="120.636684"/>
<trkpt lat="24.115058" lon="120.636595"/>
<trkpt lat="24.115029" lon="120.636516"/>
<trkpt lat="24.114976" lon="120.636435"/>
<trkpt lat="24.114985" lon="120.636375"/>
<trkpt lat="24.115146" lon="120.636149"/>
<trkpt lat="24.115165" lon="120.636117"/>
<trkpt lat="24.115186" lon="120.636048"/>
<trkpt lat="24.115205" lon="120.635877"/>
<trkpt lat="24.115215" lon="120.635744"/>
<trkpt lat="24.115225" lon="120.635721"/>
</trkseg></trk>
</gpx>