<?xml version="1.0" encoding="UTF-8"?>
<gpx version="1.1" creator="catrun" xmlns="http://www.topografix.com/GPX/1/1">
<metadata><name>烏日區 貓臉（正面） 圖形路跑路線</name></metadata>
<wpt lat="24.134495" lon="120.644274"><name>南屯區公所4樓禮堂</name><desc>地標</desc></wpt>
<wpt lat="24.122247" lon="120.651052"><name>微風廣場</name><desc>地標</desc></wpt>
<wpt lat="24.113309" lon="120.646120"><name>復興北公園</name><desc>地標</desc></wpt>
<trk><name>烏日區 貓臉（正面） 圖形路跑路線</name><trkseg>
<trkpt lat="24.131710" lon="120.636439"/>
<trkpt lat="24.132009" lon="120.636613"/>
<trkpt lat="24.131556" lon="120.637517"/>
<trkpt lat="24.131891" lon="120.637647"/>
<trkpt lat="24.132236" lon="120.637776"/>
<trkpt lat="24.132221" lon="120.637830"/>
<trkpt lat="24.132172" lon="120.638017"/>
<trkpt lat="24.132164" lon="120.638049"/>
<trkpt lat="24.132083" lon="120.638775"/>
<trkpt lat="24.132474" lon="120.638920"/>
<trkpt lat="24.132815" lon="120.639045"/>
<trkpt lat="24.133509" lon="120.639299"/>
<trkpt lat="24.133459" lon="120.639629"/>
<trkpt lat="24.133428" lon="120.639965"/>
<trkpt lat="24.133409" lon="120.640321"/>
<trkpt lat="24.133403" lon="120.640703"/>
<trkpt lat="24.133399" lon="120.641369"/>
<trkpt lat="24.133388" lon="120.642616"/>
<trkpt lat="24.134115" lon="120.642654"/>
<trkpt lat="24.134767" lon="120.642688"/>
<trkpt lat="24.134828" lon="120.642692"/>
<trkpt lat="24.134815" lon="120.643039"/>
<trkpt lat="24.134793" lon="120.643809"/>
<trkpt lat="24.134785" lon="120.643975"/>
<trkpt lat="24.134757" lon="120.644676"/>
<trkpt lat="24.134692" lon="120.644679"/>
<trkpt lat="24.134082" lon="120.644675"/>
<trkpt lat="24.133370" lon="120.644671"/>
<trkpt lat="24.133366" lon="120.645075"/>
<trkpt lat="24.132052" lon="120.645077"/>
<trkpt lat="24.131242" lon="120.645079"/>
<trkpt lat="24.130846" lon="120.645079"/>
<trkpt lat="24.130685" lon="120.645084"/>
<trkpt lat="24.130339" lon="120.645080"/>
<trkpt lat="24.130159" lon="120.645085"/>
<trkpt lat="24.129528" lon="120.645081"/>
<trkpt lat="24.129527" lon="120.645393"/>
<trkpt lat="24.129524" lon="120.646281"/>
<trkpt lat="24.129524" lon="120.646506"/>
<trkpt lat="24.129524" lon="120.647148"/>
<trkpt lat="24.129521" lon="120.647212"/>
<trkpt lat="24.127762" lon="120.647175"/>
<trkpt lat="24.127771" lon="120.648191"/>
<trkpt lat="24.127108" lon="120.648170"/>
<trkpt lat="24.127070" lon="120.648175"/>
<trkpt lat="24.127017" lon="120.648206"/>
<trkpt lat="24.126935" lon="120.648255"/>
<trkpt lat="24.126854" lon="120.648308"/>
<trkpt lat="24.126361" lon="120.648628"/>
<trkpt lat="24.125696" lon="120.649063"/>
<trkpt lat="24.124656" lon="120.649762"/>
<trkpt lat="24.124243" lon="120.649237"/>
<trkpt lat="24.123838" lon="120.648730"/>
<trkpt lat="24.123462" lon="120.648243"/>
<trkpt lat="24.123380" lon="120.648297"/>
<trkpt lat="24.123314" lon="120.648348"/>
<trkpt lat="24.123038" lon="120.648542"/>
<trkpt lat="24.122979" lon="120.648474"/>
<trkpt lat="24.122830" lon="120.648576"/>
<trkpt lat="24.122400" lon="120.648854"/>
<trkpt lat="24.121505" lon="120.649503"/>
<trkpt lat="24.120652" lon="120.650086"/>
<trkpt lat="24.120592" lon="120.650175"/>
<trkpt lat="24.120517" lon="120.650286"/>
<trkpt lat="24.120487" lon="120.650325"/>
<trkpt lat="24.120297" lon="120.650583"/>
<trkpt lat="24.120219" lon="120.650452"/>
<trkpt lat="24.119272" lon="120.648894"/>
<trkpt lat="24.119150" lon="120.648951"/>
<trkpt lat="24.119041" lon="120.648997"/>
<trkpt lat="24.118853" lon="120.649058"/>
<trkpt lat="24.118583" lon="120.649134"/>
<trkpt lat="24.118334" lon="120.649210"/>
<trkpt lat="24.118113" lon="120.649284"/>
<trkpt lat="24.117657" lon="120.649407"/>
<trkpt lat="24.116983" lon="120.649605"/>
<trkpt lat="24.116920" lon="120.649619"/>
<trkpt lat="24.116359" lon="120.649786"/>
<trkpt lat="24.116249" lon="120.649821"/>
<trkpt lat="24.116210" lon="120.649843"/>
<trkpt lat="24.116066" lon="120.650005"/>
<trkpt lat="24.115983" lon="120.650112"/>
<trkpt lat="24.115942" lon="120.650172"/>
<trkpt lat="24.115881" lon="120.650105"/>
<trkpt lat="24.115347" lon="120.649464"/>
<trkpt lat="24.114624" lon="120.648619"/>
<trkpt lat="24.114586" lon="120.648558"/>
<trkpt lat="24.114487" lon="120.648444"/>
<trkpt lat="24.114393" lon="120.648336"/>
<trkpt lat="24.114256" lon="120.648182"/>
<trkpt lat="24.114205" lon="120.648235"/>
<trkpt lat="24.114154" lon="120.648297"/>
<trkpt lat="24.114088" lon="120.648338"/>
<trkpt lat="24.114031" lon="120.648297"/>
<trkpt lat="24.113117" lon="120.647189"/>
<trkpt lat="24.112385" lon="120.646323"/>
<trkpt lat="24.111884" lon="120.645701"/>
<trkpt lat="24.111927" lon="120.645650"/>
<trkpt lat="24.111990" lon="120.645579"/>
<trkpt lat="24.112032" lon="120.645523"/>
<trkpt lat="24.112008" lon="120.645501"/>
<trkpt lat="24.111977" lon="120.645461"/>
<trkpt lat="24.111813" lon="120.645267"/>
<trkpt lat="24.111759" lon="120.645302"/>
<trkpt lat="24.111686" lon="120.645368"/>
<trkpt lat="24.111238" lon="120.645802"/>
<trkpt lat="24.111021" lon="120.646019"/>
<trkpt lat="24.110913" lon="120.646126"/>
<trkpt lat="24.110482" lon="120.646569"/>
<trkpt lat="24.110164" lon="120.645667"/>
<trkpt lat="24.109984" lon="120.645110"/>
<trkpt lat="24.109873" lon="120.644781"/>
<trkpt lat="24.110047" lon="120.644459"/>
<trkpt lat="24.110068" lon="120.644420"/>
<trkpt lat="24.110217" lon="120.644166"/>
<trkpt lat="24.110289" lon="120.644038"/>
<trkpt lat="24.110344" lon="120.643889"/>
<trkpt lat="24.110350" lon="120.643802"/>
<trkpt lat="24.110281" lon="120.643636"/>
<trkpt lat="24.110128" lon="120.643443"/>
<trkpt lat="24.110036" lon="120.643358"/>
<trkpt lat="24.109606" lon="120.643046"/>
<trkpt lat="24.109316" lon="120.642835"/>
<trkpt lat="24.109267" lon="120.642665"/>
<trkpt lat="24.109084" lon="120.642065"/>
<trkpt lat="24.108977" lon="120.641765"/>
<trkpt lat="24.108924" lon="120.641784"/>
<trkpt lat="24.108869" lon="120.641803"/>
<trkpt lat="24.108759" lon="120.641434"/>
<trkpt lat="24.108743" lon="120.641384"/>
<trkpt lat="24.108644" lon="120.641063"/>
<trkpt lat="24.108534" lon="120.641061"/>
<trkpt lat="24.108402" lon="120.640643"/>
<trkpt lat="24.108415" lon="120.640640"/>
<trkpt lat="24.108375" lon="120.640515"/>
<trkpt lat="24.108635" lon="120.640415"/>
<trkpt lat="24.108873" lon="120.640324"/>
<trkpt lat="24.108881" lon="120.640349"/>
<trkpt lat="24.109080" lon="120.640272"/>
<trkpt lat="24.108965" lon="120.639878"/>
<trkpt lat="24.108862" lon="120.639535"/>
<trkpt lat="24.108780" lon="120.639259"/>
<trkpt lat="24.108692" lon="120.638922"/>
<trkpt lat="24.108676" lon="120.638871"/>
<trkpt lat="24.108566" lon="120.638539"/>
<trkpt lat="24.108338" lon="120.637931"/>
<trkpt lat="24.108208" lon="120.637534"/>
<trkpt lat="24.108117" lon="120.637283"/>
<trkpt lat="24.108066" lon="120.637135"/>
<trkpt lat="24.108026" lon="120.637028"/>
<trkpt lat="24.108018" lon="120.636973"/>
<trkpt lat="24.108017" lon="120.636927"/>
<trkpt lat="24.108100" lon="120.636871"/>
<trkpt lat="24.108636" lon="120.636621"/>
<trkpt lat="24.108420" lon="120.636015"/>
<trkpt lat="24.108168" lon="120.635325"/>
<trkpt lat="24.108099" lon="120.635018"/>
<trkpt lat="24.108067" lon="120.634770"/>
<trkpt lat="24.108036" lon="120.634130"/>
<trkpt lat="24.108310" lon="120.632915"/>
<trkpt lat="24.108466" lon="120.632279"/>
<trkpt lat="24.108551" lon="120.631936"/>
<trkpt lat="24.108577" lon="120.631876"/>
<trkpt lat="24.108830" lon="120.631632"/>
<trkpt lat="24.108964" lon="120.631503"/>
<trkpt lat="24.108973" lon="120.631374"/>
<trkpt lat="24.108974" lon="120.631321"/>
<trkpt lat="24.108972" lon="120.631243"/>
<trkpt lat="24.108849" lon="120.630840"/>
<trkpt lat="24.108725" lon="120.630407"/>
<trkpt lat="24.108635" lon="120.630088"/>
<trkpt lat="24.108609" lon="120.630010"/>
<trkpt lat="24.108476" lon="120.629543"/>
<trkpt lat="24.108309" lon="120.628957"/>
<trkpt lat="24.108227" lon="120.628629"/>
<trkpt lat="24.108170" lon="120.628331"/>
<trkpt lat="24.108128" lon="120.628057"/>
<trkpt lat="24.108111" lon="120.627943"/>
<trkpt lat="24.108109" lon="120.627816"/>
<trkpt lat="24.108105" lon="120.627501"/>
<trkpt lat="24.108113" lon="120.626984"/>
<trkpt lat="24.108125" lon="120.626731"/>
<trkpt lat="24.108148" lon="120.626547"/>
<trkpt lat="24.108165" lon="120.626349"/>
<trkpt lat="24.108207" lon="120.625993"/>
<trkpt lat="24.108216" lon="120.625924"/>
<trkpt lat="24.108279" lon="120.625468"/>
<trkpt lat="24.108460" lon="120.625495"/>
<trkpt lat="24.108497" lon="120.625501"/>
<trkpt lat="24.108651" lon="120.625524"/>
<trkpt lat="24.108644" lon="120.625601"/>
<trkpt lat="24.108671" lon="120.625583"/>
<trkpt lat="24.108698" lon="120.625590"/>
<trkpt lat="24.108651" lon="120.626075"/>
<trkpt lat="24.108625" lon="120.626589"/>
<trkpt lat="24.108627" lon="120.626915"/>
<trkpt lat="24.108633" lon="120.627384"/>
<trkpt lat="24.108698" lon="120.628072"/>
<trkpt lat="24.108724" lon="120.628267"/>
<trkpt lat="24.108794" lon="120.628705"/>
<trkpt lat="24.109050" lon="120.629721"/>
<trkpt lat="24.109166" lon="120.629677"/>
<trkpt lat="24.109715" lon="120.629517"/>
<trkpt lat="24.109933" lon="120.629463"/>
<trkpt lat="24.110166" lon="120.629417"/>
<trkpt lat="24.110339" lon="120.629385"/>
<trkpt lat="24.110475" lon="120.628536"/>
<trkpt lat="24.111082" lon="120.628629"/>
<trkpt lat="24.111200" lon="120.627796"/>
<trkpt lat="24.111276" lon="120.627257"/>
<trkpt lat="24.111486" lon="120.627291"/>
<trkpt lat="24.111704" lon="120.627319"/>
<trkpt lat="24.111770" lon="120.627280"/>
<trkpt lat="24.111784" lon="120.627218"/>
<trkpt lat="24.111822" lon="120.626954"/>
<trkpt lat="24.112068" lon="120.626980"/>
<trkpt lat="24.112158" lon="120.626876"/>
<trkpt lat="24.112221" lon="120.626793"/>
<trkpt lat="24.112251" lon="120.626722"/>
<trkpt lat="24.112469" lon="120.626872"/>
<trkpt lat="24.112499" lon="120.626859"/>
<trkpt lat="24.112596" lon="120.626841"/>
<trkpt lat="24.112652" lon="120.626836"/>
<trkpt lat="24.112699" lon="120.626819"/>
<trkpt lat="24.112826" lon="120.626849"/>
<trkpt lat="24.112965" lon="120.626012"/>
<trkpt lat="24.113162" lon="120.625985"/>
<trkpt lat="24.113598" lon="120.624522"/>
<trkpt lat="24.113892" lon="120.624621"/>
<trkpt lat="24.113982" lon="120.624658"/>
<trkpt lat="24.114147" lon="120.624718"/>
<trkpt lat="24.114401" lon="120.624824"/>
<trkpt lat="24.114797" lon="120.624976"/>
<trkpt lat="24.115095" lon="120.623913"/>
<trkpt lat="24.115189" lon="120.623771"/>
<trkpt lat="24.115476" lon="120.623956"/>
<trkpt lat="24.115731" lon="120.624110"/>
<trkpt lat="24.115790" lon="120.624145"/>
<trkpt lat="24.115814" lon="120.624091"/>
<trkpt lat="24.115784" lon="120.623724"/>
<trkpt lat="24.115799" lon="120.623643"/>
<trkpt lat="24.115850" lon="120.623436"/>
<trkpt lat="24.115876" lon="120.623380"/>
<trkpt lat="24.115890" lon="120.623361"/>
<trkpt lat="24.115918" lon="120.623339"/>
<trkpt lat="24.116068" lon="120.623248"/>
<trkpt lat="24.116108" lon="120.623173"/>
<trkpt lat="24.116165" lon="120.623007"/>
<trkpt lat="24.116170" lon="120.622967"/>
<trkpt lat="24.116312" lon="120.622659"/>
<trkpt lat="24.116370" lon="120.622571"/>
<trkpt lat="24.116477" lon="120.622546"/>
<trkpt lat="24.116595" lon="120.622514"/>
<trkpt lat="24.116655" lon="120.622511"/>
<trkpt lat="24.116735" lon="120.622516"/>
<trkpt lat="24.116768" lon="120.622512"/>
<trkpt lat="24.116807" lon="120.622501"/>
<trkpt lat="24.116855" lon="120.622482"/>
<trkpt lat="24.116916" lon="120.622452"/>
<trkpt lat="24.116960" lon="120.622426"/>
<trkpt lat="24.116981" lon="120.622407"/>
<trkpt lat="24.116996" lon="120.622388"/>
<trkpt lat="24.117041" lon="120.622229"/>
<trkpt lat="24.117143" lon="120.621942"/>
<trkpt lat="24.117222" lon="120.622083"/>
<trkpt lat="24.117474" lon="120.622507"/>
<trkpt lat="24.117612" lon="120.622517"/>
<trkpt lat="24.118346" lon="120.622598"/>
<trkpt lat="24.118417" lon="120.622597"/>
<trkpt lat="24.118472" lon="120.622589"/>
<trkpt lat="24.118656" lon="120.622631"/>
<trkpt lat="24.118717" lon="120.622638"/>
<trkpt lat="24.118823" lon="120.622642"/>
<trkpt lat="24.118914" lon="120.622638"/>
<trkpt lat="24.118992" lon="120.622623"/>
<trkpt lat="24.119055" lon="120.622594"/>
<trkpt lat="24.119104" lon="120.622575"/>
<trkpt lat="24.119146" lon="120.622572"/>
<trkpt lat="24.119219" lon="120.622573"/>
<trkpt lat="24.119355" lon="120.622562"/>
<trkpt lat="24.119565" lon="120.622574"/>
<trkpt lat="24.119604" lon="120.622586"/>
<trkpt lat="24.119689" lon="120.622581"/>
<trkpt lat="24.119868" lon="120.622620"/>
<trkpt lat="24.119965" lon="120.622648"/>
<trkpt lat="24.120040" lon="120.622691"/>
<trkpt lat="24.120079" lon="120.622707"/>
<trkpt lat="24.120123" lon="120.622724"/>
<trkpt lat="24.120161" lon="120.622731"/>
<trkpt lat="24.120206" lon="120.622725"/>
<trkpt lat="24.120263" lon="120.622705"/>
<trkpt lat="24.120332" lon="120.622663"/>
<trkpt lat="24.120390" lon="120.622640"/>
<trkpt lat="24.120450" lon="120.622623"/>
<trkpt lat="24.120506" lon="120.622618"/>
<trkpt lat="24.120566" lon="120.622605"/>
<trkpt lat="24.120617" lon="120.622578"/>
<trkpt lat="24.120658" lon="120.622550"/>
<trkpt lat="24.120706" lon="120.622504"/>
<trkpt lat="24.120769" lon="120.622542"/>
<trkpt lat="24.120982" lon="120.622634"/>
<trkpt lat="24.121061" lon="120.622690"/>
<trkpt lat="24.121115" lon="120.622744"/>
<trkpt lat="24.121168" lon="120.622813"/>
<trkpt lat="24.121218" lon="120.622871"/>
<trkpt lat="24.121254" lon="120.622899"/>
<trkpt lat="24.121289" lon="120.622917"/>
<trkpt lat="24.121384" lon="120.622945"/>
<trkpt lat="24.121413" lon="120.622960"/>
<trkpt lat="24.121520" lon="120.623085"/>
<trkpt lat="24.121554" lon="120.623119"/>
<trkpt lat="24.121602" lon="120.623127"/>
<trkpt lat="24.121938" lon="120.623194"/>
<trkpt lat="24.122004" lon="120.623215"/>
<trkpt lat="24.122034" lon="120.623227"/>
<trkpt lat="24.122149" lon="120.623315"/>
<trkpt lat="24.122186" lon="120.623332"/>
<trkpt lat="24.122227" lon="120.623342"/>
<trkpt lat="24.122310" lon="120.623351"/>
<trkpt lat="24.122422" lon="120.623382"/>
<trkpt lat="24.122498" lon="120.623411"/>
<trkpt lat="24.122540" lon="120.623423"/>
<trkpt lat="24.122877" lon="120.623479"/>
<trkpt lat="24.122910" lon="120.623487"/>
<trkpt lat="24.122949" lon="120.623502"/>
<trkpt lat="24.123047" lon="120.623549"/>
<trkpt lat="24.123126" lon="120.623604"/>
<trkpt lat="24.123154" lon="120.623614"/>
<trkpt lat="24.123246" lon="120.623650"/>
<trkpt lat="24.123362" lon="120.623700"/>
<trkpt lat="24.123513" lon="120.623749"/>
<trkpt lat="24.123629" lon="120.623794"/>
<trkpt lat="24.123890" lon="120.623978"/>
<trkpt lat="24.123937" lon="120.624004"/>
<trkpt lat="24.124126" lon="120.623996"/>
<trkpt lat="24.124179" lon="120.624000"/>
<trkpt lat="24.124301" lon="120.624040"/>
<trkpt lat="24.124412" lon="120.624089"/>
<trkpt lat="24.124467" lon="120.624121"/>
<trkpt lat="24.124538" lon="120.624175"/>
<trkpt lat="24.124598" lon="120.624204"/>
<trkpt lat="24.124672" lon="120.624225"/>
<trkpt lat="24.124754" lon="120.624231"/>
<trkpt lat="24.125091" lon="120.624163"/>
<trkpt lat="24.125318" lon="120.624154"/>
<trkpt lat="24.125597" lon="120.624112"/>
<trkpt lat="24.125803" lon="120.624156"/>
<trkpt lat="24.125846" lon="120.624153"/>
<trkpt lat="24.125910" lon="120.624128"/>
<trkpt lat="24.125989" lon="120.624085"/>
<trkpt lat="24.126083" lon="120.624056"/>
<trkpt lat="24.126257" lon="120.624061"/>
<trkpt lat="24.126374" lon="120.624072"/>
<trkpt lat="24.126530" lon="120.624132"/>
<trkpt lat="24.126596" lon="120.624177"/>
<trkpt lat="24.126690" lon="120.624259"/>
<trkpt lat="24.126866" lon="120.624389"/>
<trkpt lat="24.126914" lon="120.624439"/>
<trkpt lat="24.126945" lon="120.624476"/>
<trkpt lat="24.127005" lon="120.624593"/>
<trkpt lat="24.127035" lon="120.624613"/>
<trkpt lat="24.127083" lon="120.624626"/>
<trkpt lat="24.127102" lon="120.624621"/>
<trkpt lat="24.127221" lon="120.624553"/>
<trkpt lat="24.127287" lon="120.624525"/>
<trkpt lat="24.127512" lon="120.624500"/>
<trkpt lat="24.127739" lon="120.624456"/>
<trkpt lat="24.127941" lon="120.624402"/>
<trkpt lat="24.128100" lon="120.624381"/>
<trkpt lat="24.128159" lon="120.624391"/>
<trkpt lat="24.128247" lon="120.624456"/>
<trkpt lat="24.128404" lon="120.624587"/>
<trkpt lat="24.128562" lon="120.624723"/>
<trkpt lat="24.128742" lon="120.624879"/>
<trkpt lat="24.129096" lon="120.625107"/>
<trkpt lat="24.129164" lon="120.625163"/>
<trkpt lat="24.129299" lon="120.625294"/>
<trkpt lat="24.129481" lon="120.625510"/>
<trkpt lat="24.129586" lon="120.625595"/>
<trkpt lat="24.129701" lon="120.625713"/>
<trkpt lat="24.129682" lon="120.625796"/>
<trkpt lat="24.129714" lon="120.626014"/>
<trkpt lat="24.129704" lon="120.626081"/>
<trkpt lat="24.129666" lon="120.626170"/>
<trkpt lat="24.129593" lon="120.626232"/>
<trkpt lat="24.129566" lon="120.626308"/>
<trkpt lat="24.129565" lon="120.626418"/>
<trkpt lat="24.129565" lon="120.626498"/>
<trkpt lat="24.129547" lon="120.626783"/>
<trkpt lat="24.129500" lon="120.627022"/>
<trkpt lat="24.129549" lon="120.627181"/>
<trkpt lat="24.129466" lon="120.627265"/>
<trkpt lat="24.129562" lon="120.627410"/>
<trkpt lat="24.129649" lon="120.627319"/>
<trkpt lat="24.129742" lon="120.627229"/>
<trkpt lat="24.129836" lon="120.627337"/>
<trkpt lat="24.129963" lon="120.627483"/>
<trkpt lat="24.130517" lon="120.626938"/>
<trkpt lat="24.131274" lon="120.627792"/>
<trkpt lat="24.131715" lon="120.628333"/>
<trkpt lat="24.131763" lon="120.628279"/>
<trkpt lat="24.131803" lon="120.628268"/>
<trkpt lat="24.131846" lon="120.628325"/>
<trkpt lat="24.131902" lon="120.628398"/>
<trkpt lat="24.131971" lon="120.628490"/>
<trkpt lat="24.131975" lon="120.628518"/>
<trkpt lat="24.131999" lon="120.628561"/>
<trkpt lat="24.132037" lon="120.628601"/>
<trkpt lat="24.132226" lon="120.628829"/>
<trkpt lat="24.132387" lon="120.628640"/>
<trkpt lat="24.132468" lon="120.628617"/>
<trkpt lat="24.132583" lon="120.628608"/>
<trkpt lat="24.132627" lon="120.628460"/>
<trkpt lat="24.132643" lon="120.628427"/>
<trkpt lat="24.132740" lon="120.628323"/>
<trkpt lat="24.133119" lon="120.628237"/>
<trkpt lat="24.133168" lon="120.628233"/>
<trkpt lat="24.133270" lon="120.628223"/>
<trkpt lat="24.133353" lon="120.628145"/>
<trkpt lat="24.133372" lon="120.628096"/>
<trkpt lat="24.133376" lon="120.628016"/>
<trkpt lat="24.133423" lon="120.627934"/>
<trkpt lat="24.133429" lon="120.627848"/>
<trkpt lat="24.133392" lon="120.627718"/>
<trkpt lat="24.133367" lon="120.627571"/>
<trkpt lat="24.133409" lon="120.627464"/>
<trkpt lat="24.133517" lon="120.627368"/>
<trkpt lat="24.133615" lon="120.627349"/>
<trkpt lat="24.133677" lon="120.627301"/>
<trkpt lat="24.133668" lon="120.627170"/>
<trkpt lat="24.133654" lon="120.627090"/>
<trkpt lat="24.135003" lon="120.626662"/>
<trkpt lat="24.135211" lon="120.627353"/>
<trkpt lat="24.135469" lon="120.628253"/>
<trkpt lat="24.135705" lon="120.629058"/>
<trkpt lat="24.135255" lon="120.629323"/>
<trkpt lat="24.135082" lon="120.629437"/>
<trkpt lat="24.134990" lon="120.629504"/>
<trkpt lat="24.134930" lon="120.629548"/>
<trkpt lat="24.134889" lon="120.629579"/>
<trkpt lat="24.134843" lon="120.629615"/>
<trkpt lat="24.134796" lon="120.629649"/>
<trkpt lat="24.134605" lon="120.629787"/>
<trkpt lat="24.134470" lon="120.629895"/>
<trkpt lat="24.134336" lon="120.630012"/>
<trkpt lat="24.134141" lon="120.630184"/>
<trkpt lat="24.133951" lon="120.630374"/>
<trkpt lat="24.133657" lon="120.630664"/>
<trkpt lat="24.133381" lon="120.630940"/>
<trkpt lat="24.133058" lon="120.631254"/>
<trkpt lat="24.133115" lon="120.631327"/>
<trkpt lat="24.133145" lon="120.631362"/>
<trkpt lat="24.133181" lon="120.631414"/>
<trkpt lat="24.133166" lon="120.631479"/>
<trkpt lat="24.133154" lon="120.631531"/>
<trkpt lat="24.133134" lon="120.631630"/>
<trkpt lat="24.133058" lon="120.631613"/>
<trkpt lat="24.132868" lon="120.631573"/>
<trkpt lat="24.132747" lon="120.631697"/>
<trkpt lat="24.132525" lon="120.631922"/>
<trkpt lat="24.132425" lon="120.632033"/>
<trkpt lat="24.132467" lon="120.632082"/>
<trkpt lat="24.132411" lon="120.632137"/>
<trkpt lat="24.132396" lon="120.632141"/>
<trkpt lat="24.132361" lon="120.632174"/>
<trkpt lat="24.132147" lon="120.632396"/>
<trkpt lat="24.131521" lon="120.633025"/>
<trkpt lat="24.131382" lon="120.633171"/>
<trkpt lat="24.131357" lon="120.633199"/>
<trkpt lat="24.131349" lon="120.633219"/>
<trkpt lat="24.131354" lon="120.633239"/>
<trkpt lat="24.131381" lon="120.633263"/>
<trkpt lat="24.131422" lon="120.633300"/>
<trkpt lat="24.131653" lon="120.633475"/>
<trkpt lat="24.132013" lon="120.633736"/>
<trkpt lat="24.132311" lon="120.633920"/>
<trkpt lat="24.132354" lon="120.633943"/>
<trkpt lat="24.132376" lon="120.633952"/>
<trkpt lat="24.132305" lon="120.634005"/>
<trkpt lat="24.132252" lon="120.634045"/>
<trkpt lat="24.132254" lon="120.634063"/>
<trkpt lat="24.132256" lon="120.634077"/>
<trkpt lat="24.132242" lon="120.634106"/>
<trkpt lat="24.131926" lon="120.634487"/>
<trkpt lat="24.131886" lon="120.634533"/>
<trkpt lat="24.131949" lon="120.634601"/>
<trkpt lat="24.131894" lon="120.634668"/>
<trkpt lat="24.131844" lon="120.634728"/>
<trkpt lat="24.131601" lon="120.635024"/>
<trkpt lat="24.131595" lon="120.635042"/>
<trkpt lat="24.131514" lon="120.635141"/>
<trkpt lat="24.131087" lon="120.635795"/>
<trkpt lat="24.131642" lon="120.636152"/>
<trkpt lat="24.131810" lon="120.636248"/>
<trkpt lat="24.131710" lon="120.636439"/>
</trkseg></trk>
</gpx>