<?xml version="1.0" encoding="UTF-8"?>
<gpx version="1.1" creator="catrun" xmlns="http://www.topografix.com/GPX/1/1">
<metadata><name>烏日區 蹲坐貓咪（側面） 圖形路跑路線</name></metadata>
<wpt lat="24.131690" lon="120.619906"><name>筏子溪河濱公園</name><desc>地標</desc></wpt>
<wpt lat="24.133550" lon="120.628066"><name>高鐵新市鎮生態公園</name><desc>地標</desc></wpt>
<wpt lat="24.132915" lon="120.627898"><name>瑞成堂</name><desc>地標</desc></wpt>
<trk><name>烏日區 蹲坐貓咪（側面） 圖形路跑路線</name><trkseg>
<trkpt lat="24.120494" lon="120.621114"/>
<trkpt lat="24.120574" lon="120.621208"/>
<trkpt lat="24.120673" lon="120.621280"/>
<trkpt lat="24.120772" lon="120.621331"/>
<trkpt lat="24.120886" lon="120.621373"/>
<trkpt lat="24.120998" lon="120.621394"/>
<trkpt lat="24.121138" lon="120.621398"/>
<trkpt lat="24.121224" lon="120.621384"/>
<trkpt lat="24.121325" lon="120.621357"/>
<trkpt lat="24.121435" lon="120.621310"/>
<trkpt lat="24.121541" lon="120.621250"/>
<trkpt lat="24.121639" lon="120.621170"/>
<trkpt lat="24.121726" lon="120.621080"/>
<trkpt lat="24.121812" lon="120.620963"/>
<trkpt lat="24.122054" lon="120.620547"/>
<trkpt lat="24.122129" lon="120.620426"/>
<trkpt lat="24.122197" lon="120.620350"/>
<trkpt lat="24.122275" lon="120.620274"/>
<trkpt lat="24.122340" lon="120.620230"/>
<trkpt lat="24.122419" lon="120.620191"/>
<trkpt lat="24.122512" lon="120.620160"/>
<trkpt lat="24.122607" lon="120.620141"/>
<trkpt lat="24.123532" lon="120.620074"/>
<trkpt lat="24.124620" lon="120.620100"/>
<trkpt lat="24.125700" lon="120.620126"/>
<trkpt lat="24.126362" lon="120.620152"/>
<trkpt lat="24.126693" lon="120.620158"/>
<trkpt lat="24.126673" lon="120.620953"/>
<trkpt lat="24.126720" lon="120.620966"/>
<trkpt lat="24.126841" lon="120.621026"/>
<trkpt lat="24.126879" lon="120.621042"/>
<trkpt lat="24.126919" lon="120.621051"/>
<trkpt lat="24.126949" lon="120.621044"/>
<trkpt lat="24.127055" lon="120.620977"/>
<trkpt lat="24.127085" lon="120.620964"/>
<trkpt lat="24.127118" lon="120.620973"/>
<trkpt lat="24.127133" lon="120.621002"/>
<trkpt lat="24.127161" lon="120.621085"/>
<trkpt lat="24.127166" lon="120.621134"/>
<trkpt lat="24.127164" lon="120.621212"/>
<trkpt lat="24.127239" lon="120.621220"/>
<trkpt lat="24.127533" lon="120.621221"/>
<trkpt lat="24.127647" lon="120.621216"/>
<trkpt lat="24.127676" lon="120.621204"/>
<trkpt lat="24.128237" lon="120.621210"/>
<trkpt lat="24.128408" lon="120.621243"/>
<trkpt lat="24.128565" lon="120.621283"/>
<trkpt lat="24.128636" lon="120.621302"/>
<trkpt lat="24.128720" lon="120.621325"/>
<trkpt lat="24.128773" lon="120.621332"/>
<trkpt lat="24.128811" lon="120.621325"/>
<trkpt lat="24.128861" lon="120.621308"/>
<trkpt lat="24.128888" lon="120.621306"/>
<trkpt lat="24.129072" lon="120.621353"/>
<trkpt lat="24.129103" lon="120.621352"/>
<trkpt lat="24.129152" lon="120.621335"/>
<trkpt lat="24.129277" lon="120.621252"/>
<trkpt lat="24.129509" lon="120.621121"/>
<trkpt lat="24.129528" lon="120.621117"/>
<trkpt lat="24.129548" lon="120.621129"/>
<trkpt lat="24.129570" lon="120.621165"/>
<trkpt lat="24.129606" lon="120.621177"/>
<trkpt lat="24.129663" lon="120.621177"/>
<trkpt lat="24.130523" lon="120.621115"/>
<trkpt lat="24.130539" lon="120.621119"/>
<trkpt lat="24.130589" lon="120.621217"/>
<trkpt lat="24.130644" lon="120.621275"/>
<trkpt lat="24.130699" lon="120.621321"/>
<trkpt lat="24.130824" lon="120.621381"/>
<trkpt lat="24.130908" lon="120.621370"/>
<trkpt lat="24.131148" lon="120.621308"/>
<trkpt lat="24.131191" lon="120.621297"/>
<trkpt lat="24.131230" lon="120.621258"/>
<trkpt lat="24.131266" lon="120.621187"/>
<trkpt lat="24.131409" lon="120.620630"/>
<trkpt lat="24.132359" lon="120.620991"/>
<trkpt lat="24.134173" lon="120.621686"/>
<trkpt lat="24.134453" lon="120.621811"/>
<trkpt lat="24.134464" lon="120.621879"/>
<trkpt lat="24.134487" lon="120.622063"/>
<trkpt lat="24.134612" lon="120.622371"/>
<trkpt lat="24.134691" lon="120.622419"/>
<trkpt lat="24.134726" lon="120.622469"/>
<trkpt lat="24.134924" lon="120.622831"/>
<trkpt lat="24.134925" lon="120.622903"/>
<trkpt lat="24.134865" lon="120.623139"/>
<trkpt lat="24.134805" lon="120.623190"/>
<trkpt lat="24.134650" lon="120.623183"/>
<trkpt lat="24.134493" lon="120.623227"/>
<trkpt lat="24.134378" lon="120.623222"/>
<trkpt lat="24.133945" lon="120.623220"/>
<trkpt lat="24.133475" lon="120.623225"/>
<trkpt lat="24.133155" lon="120.623220"/>
<trkpt lat="24.132847" lon="120.623231"/>
<trkpt lat="24.132376" lon="120.623493"/>
<trkpt lat="24.132283" lon="120.623534"/>
<trkpt lat="24.132115" lon="120.623588"/>
<trkpt lat="24.132058" lon="120.623591"/>
<trkpt lat="24.131971" lon="120.623597"/>
<trkpt lat="24.131473" lon="120.623781"/>
<trkpt lat="24.131168" lon="120.623907"/>
<trkpt lat="24.131059" lon="120.623948"/>
<trkpt lat="24.130985" lon="120.623972"/>
<trkpt lat="24.130949" lon="120.623976"/>
<trkpt lat="24.130760" lon="120.624006"/>
<trkpt lat="24.130627" lon="120.624037"/>
<trkpt lat="24.130504" lon="120.624033"/>
<trkpt lat="24.130483" lon="120.624048"/>
<trkpt lat="24.130425" lon="120.624078"/>
<trkpt lat="24.130361" lon="120.624120"/>
<trkpt lat="24.130325" lon="120.624155"/>
<trkpt lat="24.130293" lon="120.624233"/>
<trkpt lat="24.130216" lon="120.624493"/>
<trkpt lat="24.130221" lon="120.624715"/>
<trkpt lat="24.130213" lon="120.624743"/>
<trkpt lat="24.130138" lon="120.624839"/>
<trkpt lat="24.130178" lon="120.624849"/>
<trkpt lat="24.130214" lon="120.624855"/>
<trkpt lat="24.130327" lon="120.624862"/>
<trkpt lat="24.130408" lon="120.624878"/>
<trkpt lat="24.130453" lon="120.624896"/>
<trkpt lat="24.130540" lon="120.625002"/>
<trkpt lat="24.130607" lon="120.625100"/>
<trkpt lat="24.130673" lon="120.625168"/>
<trkpt lat="24.130730" lon="120.625196"/>
<trkpt lat="24.131344" lon="120.625326"/>
<trkpt lat="24.131432" lon="120.625412"/>
<trkpt lat="24.131842" lon="120.625093"/>
<trkpt lat="24.132194" lon="120.624847"/>
<trkpt lat="24.132230" lon="120.624821"/>
<trkpt lat="24.132331" lon="120.624991"/>
<trkpt lat="24.132394" lon="120.625097"/>
<trkpt lat="24.132480" lon="120.625037"/>
<trkpt lat="24.132597" lon="120.624954"/>
<trkpt lat="24.132695" lon="120.625109"/>
<trkpt lat="24.132725" lon="120.625091"/>
<trkpt lat="24.132811" lon="120.625036"/>
<trkpt lat="24.133244" lon="120.624754"/>
<trkpt lat="24.133875" lon="120.624370"/>
<trkpt lat="24.134143" lon="120.624231"/>
<trkpt lat="24.134275" lon="120.624165"/>
<trkpt lat="24.134633" lon="120.625418"/>
<trkpt lat="24.134978" lon="120.626571"/>
<trkpt lat="24.133804" lon="120.626943"/>
<trkpt lat="24.133669" lon="120.626989"/>
<trkpt lat="24.133628" lon="120.627002"/>
<trkpt lat="24.133654" lon="120.627090"/>
<trkpt lat="24.133668" lon="120.627170"/>
<trkpt lat="24.133677" lon="120.627301"/>
<trkpt lat="24.133615" lon="120.627349"/>
<trkpt lat="24.133517" lon="120.627368"/>
<trkpt lat="24.133409" lon="120.627464"/>
<trkpt lat="24.133367" lon="120.627571"/>
<trkpt lat="24.133392" lon="120.627718"/>
<trkpt lat="24.133429" lon="120.627848"/>
<trkpt lat="24.133423" lon="120.627934"/>
<trkpt lat="24.133376" lon="120.628016"/>
<trkpt lat="24.133372" lon="120.628096"/>
<trkpt lat="24.133353" lon="120.628145"/>
<trkpt lat="24.133270" lon="120.628223"/>
<trkpt lat="24.133168" lon="120.628233"/>
<trkpt lat="24.133119" lon="120.628237"/>
<trkpt lat="24.132740" lon="120.628323"/>
<trkpt lat="24.132643" lon="120.628427"/>
<trkpt lat="24.132627" lon="120.628460"/>
<trkpt lat="24.132583" lon="120.628608"/>
<trkpt lat="24.132468" lon="120.628617"/>
<trkpt lat="24.132387" lon="120.628640"/>
<trkpt lat="24.132226" lon="120.628829"/>
<trkpt lat="24.132037" lon="120.628601"/>
<trkpt lat="24.131999" lon="120.628561"/>
<trkpt lat="24.131975" lon="120.628518"/>
<trkpt lat="24.131971" lon="120.628490"/>
<trkpt lat="24.131903" lon="120.628570"/>
<trkpt lat="24.131853" lon="120.628637"/>
<trkpt lat="24.131808" lon="120.628614"/>
<trkpt lat="24.131773" lon="120.628569"/>
<trkpt lat="24.131756" lon="120.628590"/>
<trkpt lat="24.131006" lon="120.629670"/>
<trkpt lat="24.130841" lon="120.629908"/>
<trkpt lat="24.130625" lon="120.630206"/>
<trkpt lat="24.130552" lon="120.630281"/>
<trkpt lat="24.130453" lon="120.630383"/>
<trkpt lat="24.130346" lon="120.630498"/>
<trkpt lat="24.129434" lon="120.631477"/>
<trkpt lat="24.130290" lon="120.632340"/>
<trkpt lat="24.131180" lon="120.633161"/>
<trkpt lat="24.131113" lon="120.633235"/>
<trkpt lat="24.130821" lon="120.633532"/>
<trkpt lat="24.130222" lon="120.634133"/>
<trkpt lat="24.130066" lon="120.634293"/>
<trkpt lat="24.129982" lon="120.634378"/>
<trkpt lat="24.129920" lon="120.634440"/>
<trkpt lat="24.129996" lon="120.634484"/>
<trkpt lat="24.129834" lon="120.634641"/>
<trkpt lat="24.129539" lon="120.634944"/>
<trkpt lat="24.129295" lon="120.635192"/>
<trkpt lat="24.129157" lon="120.635328"/>
<trkpt lat="24.128699" lon="120.635788"/>
<trkpt lat="24.128528" lon="120.635963"/>
<trkpt lat="24.128434" lon="120.636064"/>
<trkpt lat="24.128315" lon="120.636162"/>
<trkpt lat="24.128397" lon="120.636200"/>
<trkpt lat="24.128496" lon="120.636244"/>
<trkpt lat="24.128599" lon="120.636291"/>
<trkpt lat="24.128622" lon="120.636299"/>
<trkpt lat="24.128619" lon="120.636354"/>
<trkpt lat="24.128618" lon="120.636370"/>
<trkpt lat="24.128672" lon="120.636552"/>
<trkpt lat="24.128670" lon="120.636562"/>
<trkpt lat="24.128652" lon="120.636635"/>
<trkpt lat="24.129118" lon="120.636818"/>
<trkpt lat="24.129613" lon="120.637039"/>
<trkpt lat="24.130051" lon="120.637240"/>
<trkpt lat="24.130184" lon="120.637290"/>
<trkpt lat="24.130134" lon="120.637367"/>
<trkpt lat="24.130108" lon="120.637409"/>
<trkpt lat="24.129636" lon="120.638190"/>
<trkpt lat="24.129150" lon="120.638610"/>
<trkpt lat="24.128589" lon="120.639089"/>
<trkpt lat="24.128961" lon="120.639627"/>
<trkpt lat="24.128085" lon="120.640375"/>
<trkpt lat="24.128212" lon="120.640452"/>
<trkpt lat="24.128336" lon="120.640524"/>
<trkpt lat="24.128489" lon="120.640580"/>
<trkpt lat="24.128585" lon="120.640594"/>
<trkpt lat="24.128743" lon="120.640613"/>
<trkpt lat="24.128887" lon="120.640616"/>
<trkpt lat="24.129546" lon="120.640625"/>
<trkpt lat="24.129545" lon="120.641343"/>
<trkpt lat="24.128762" lon="120.641325"/>
<trkpt lat="24.128685" lon="120.641321"/>
<trkpt lat="24.128591" lon="120.641314"/>
<trkpt lat="24.128401" lon="120.641282"/>
<trkpt lat="24.128217" lon="120.641235"/>
<trkpt lat="24.127968" lon="120.641981"/>
<trkpt lat="24.127956" lon="120.642088"/>
<trkpt lat="24.127893" lon="120.642063"/>
<trkpt lat="24.127759" lon="120.642210"/>
<trkpt lat="24.127742" lon="120.642228"/>
<trkpt lat="24.127322" lon="120.642668"/>
<trkpt lat="24.126798" lon="120.643137"/>
<trkpt lat="24.126176" lon="120.643604"/>
<trkpt lat="24.125621" lon="120.644049"/>
<trkpt lat="24.125162" lon="120.644403"/>
<trkpt lat="24.125185" lon="120.644440"/>
<trkpt lat="24.125186" lon="120.644462"/>
<trkpt lat="24.125163" lon="120.644500"/>
<trkpt lat="24.125812" lon="120.645729"/>
<trkpt lat="24.125912" lon="120.645897"/>
<trkpt lat="24.125952" lon="120.645956"/>
<trkpt lat="24.125982" lon="120.645983"/>
<trkpt lat="24.126019" lon="120.646016"/>
<trkpt lat="24.126059" lon="120.646046"/>
<trkpt lat="24.126150" lon="120.646098"/>
<trkpt lat="24.126149" lon="120.646195"/>
<trkpt lat="24.126146" lon="120.646289"/>
<trkpt lat="24.126164" lon="120.646380"/>
<trkpt lat="24.126188" lon="120.646416"/>
<trkpt lat="24.126244" lon="120.646516"/>
<trkpt lat="24.126420" lon="120.646554"/>
<trkpt lat="24.126435" lon="120.646575"/>
<trkpt lat="24.126466" lon="120.646610"/>
<trkpt lat="24.126453" lon="120.646636"/>
<trkpt lat="24.126428" lon="120.646708"/>
<trkpt lat="24.126417" lon="120.646764"/>
<trkpt lat="24.126414" lon="120.646840"/>
<trkpt lat="24.126443" lon="120.646927"/>
<trkpt lat="24.127039" lon="120.648057"/>
<trkpt lat="24.126968" lon="120.648109"/>
<trkpt lat="24.126883" lon="120.648158"/>
<trkpt lat="24.126805" lon="120.648205"/>
<trkpt lat="24.126854" lon="120.648308"/>
<trkpt lat="24.126361" lon="120.648628"/>
<trkpt lat="24.126575" lon="120.649202"/>
<trkpt lat="24.126805" lon="120.649789"/>
<trkpt lat="24.127125" lon="120.650611"/>
<trkpt lat="24.127650" lon="120.650278"/>
<trkpt lat="24.127682" lon="120.650365"/>
<trkpt lat="24.127702" lon="120.650443"/>
<trkpt lat="24.127742" lon="120.650425"/>
<trkpt lat="24.127789" lon="120.650414"/>
<trkpt lat="24.127886" lon="120.650390"/>
<trkpt lat="24.127926" lon="120.650380"/>
<trkpt lat="24.127945" lon="120.650375"/>
<trkpt lat="24.127951" lon="120.650283"/>
<trkpt lat="24.127922" lon="120.650194"/>
<trkpt lat="24.127823" lon="120.650204"/>
<trkpt lat="24.127725" lon="120.650231"/>
<trkpt lat="24.127650" lon="120.650278"/>
<trkpt lat="24.127624" lon="120.650210"/>
<trkpt lat="24.127603" lon="120.650166"/>
<trkpt lat="24.127592" lon="120.650108"/>
<trkpt lat="24.126887" lon="120.648386"/>
<trkpt lat="24.126854" lon="120.648308"/>
<trkpt lat="24.126361" lon="120.648628"/>
<trkpt lat="24.125696" lon="120.649063"/>
<trkpt lat="24.125350" lon="120.648473"/>
<trkpt lat="24.125006" lon="120.647897"/>
<trkpt lat="24.124680" lon="120.647346"/>
<trkpt lat="24.124632" lon="120.647376"/>
<trkpt lat="24.124602" lon="120.647375"/>
<trkpt lat="24.124578" lon="120.647385"/>
<trkpt lat="24.124523" lon="120.647422"/>
<trkpt lat="24.124144" lon="120.647691"/>
<trkpt lat="24.123575" lon="120.648110"/>
<trkpt lat="24.123544" lon="120.648181"/>
<trkpt lat="24.123462" lon="120.648243"/>
<trkpt lat="24.123380" lon="120.648297"/>
<trkpt lat="24.123314" lon="120.648348"/>
<trkpt lat="24.123038" lon="120.648542"/>
<trkpt lat="24.122979" lon="120.648474"/>
<trkpt lat="24.122877" lon="120.648335"/>
<trkpt lat="24.122849" lon="120.648330"/>
<trkpt lat="24.122792" lon="120.648292"/>
<trkpt lat="24.122351" lon="120.647779"/>
<trkpt lat="24.122325" lon="120.647745"/>
<trkpt lat="24.122226" lon="120.647826"/>
<trkpt lat="24.121639" lon="120.647070"/>
<trkpt lat="24.121109" lon="120.647483"/>
<trkpt lat="24.120492" lon="120.647981"/>
<trkpt lat="24.119930" lon="120.648424"/>
<trkpt lat="24.119733" lon="120.648578"/>
<trkpt lat="24.119646" lon="120.648637"/>
<trkpt lat="24.119521" lon="120.648724"/>
<trkpt lat="24.119498" lon="120.648740"/>
<trkpt lat="24.119469" lon="120.648760"/>
<trkpt lat="24.119334" lon="120.648852"/>
<trkpt lat="24.119272" lon="120.648894"/>
<trkpt lat="24.119150" lon="120.648951"/>
<trkpt lat="24.119041" lon="120.648997"/>
<trkpt lat="24.118853" lon="120.649058"/>
<trkpt lat="24.118583" lon="120.649134"/>
<trkpt lat="24.118334" lon="120.649210"/>
<trkpt lat="24.118113" lon="120.649284"/>
<trkpt lat="24.117657" lon="120.649407"/>
<trkpt lat="24.116983" lon="120.649605"/>
<trkpt lat="24.116920" lon="120.649619"/>
<trkpt lat="24.116359" lon="120.649786"/>
<trkpt lat="24.116249" lon="120.649821"/>
<trkpt lat="24.116210" lon="120.649843"/>
<trkpt lat="24.116066" lon="120.650005"/>
<trkpt lat="24.115983" lon="120.650112"/>
<trkpt lat="24.115942" lon="120.650172"/>
<trkpt lat="24.115881" lon="120.650105"/>
<trkpt lat="24.115826" lon="120.650203"/>
<trkpt lat="24.114946" lon="120.649118"/>
<trkpt lat="24.114606" lon="120.648707"/>
<trkpt lat="24.114573" lon="120.648660"/>
<trkpt lat="24.114624" lon="120.648619"/>
<trkpt lat="24.114586" lon="120.648558"/>
<trkpt lat="24.114487" lon="120.648444"/>
<trkpt lat="24.114393" lon="120.648336"/>
<trkpt lat="24.114256" lon="120.648182"/>
<trkpt lat="24.113273" lon="120.646988"/>
<trkpt lat="24.112032" lon="120.645523"/>
<trkpt lat="24.112008" lon="120.645501"/>
<trkpt lat="24.111977" lon="120.645461"/>
<trkpt lat="24.111813" lon="120.645267"/>
<trkpt lat="24.111759" lon="120.645302"/>
<trkpt lat="24.111793" lon="120.645225"/>
<trkpt lat="24.112565" lon="120.644453"/>
<trkpt lat="24.112737" lon="120.644281"/>
<trkpt lat="24.112626" lon="120.644060"/>
<trkpt lat="24.112598" lon="120.644008"/>
<trkpt lat="24.112583" lon="120.643931"/>
<trkpt lat="24.112539" lon="120.643823"/>
<trkpt lat="24.112436" lon="120.643671"/>
<trkpt lat="24.112150" lon="120.643356"/>
<trkpt lat="24.111888" lon="120.643070"/>
<trkpt lat="24.111787" lon="120.642961"/>
<trkpt lat="24.111612" lon="120.642711"/>
<trkpt lat="24.111383" lon="120.642348"/>
<trkpt lat="24.111331" lon="120.642277"/>
<trkpt lat="24.111255" lon="120.641964"/>
<trkpt lat="24.111206" lon="120.641775"/>
<trkpt lat="24.111177" lon="120.641616"/>
<trkpt lat="24.110335" lon="120.641607"/>
<trkpt lat="24.110144" lon="120.641591"/>
<trkpt lat="24.110138" lon="120.641313"/>
<trkpt lat="24.110124" lon="120.641061"/>
<trkpt lat="24.110092" lon="120.640841"/>
<trkpt lat="24.109931" lon="120.640387"/>
<trkpt lat="24.109841" lon="120.640116"/>
<trkpt lat="24.109672" lon="120.639607"/>
<trkpt lat="24.109454" lon="120.638989"/>
<trkpt lat="24.109211" lon="120.638285"/>
<trkpt lat="24.109010" lon="120.637709"/>
<trkpt lat="24.108849" lon="120.637256"/>
<trkpt lat="24.108724" lon="120.636865"/>
<trkpt lat="24.108636" lon="120.636621"/>
<trkpt lat="24.108420" lon="120.636015"/>
<trkpt lat="24.108168" lon="120.635325"/>
<trkpt lat="24.108099" lon="120.635018"/>
<trkpt lat="24.108067" lon="120.634770"/>
<trkpt lat="24.108036" lon="120.634130"/>
<trkpt lat="24.108310" lon="120.632915"/>
<trkpt lat="24.107925" lon="120.632952"/>
<trkpt lat="24.107833" lon="120.632929"/>
<trkpt lat="24.107644" lon="120.632804"/>
<trkpt lat="24.107678" lon="120.632768"/>
<trkpt lat="24.108006" lon="120.632455"/>
<trkpt lat="24.108345" lon="120.632132"/>
<trkpt lat="24.108551" lon="120.631936"/>
<trkpt lat="24.108577" lon="120.631876"/>
<trkpt lat="24.108830" lon="120.631632"/>
<trkpt lat="24.108964" lon="120.631503"/>
<trkpt lat="24.108973" lon="120.631374"/>
<trkpt lat="24.108974" lon="120.631321"/>
<trkpt lat="24.108972" lon="120.631243"/>
<trkpt lat="24.108849" lon="120.630840"/>
<trkpt lat="24.108725" lon="120.630407"/>
<trkpt lat="24.108635" lon="120.630088"/>
<trkpt lat="24.108609" lon="120.630010"/>
<trkpt lat="24.108476" lon="120.629543"/>
<trkpt lat="24.108309" lon="120.628957"/>
<trkpt lat="24.108227" lon="120.628629"/>
<trkpt lat="24.108170" lon="120.628331"/>
<trkpt lat="24.108128" lon="120.628057"/>
<trkpt lat="24.108111" lon="120.627943"/>
<trkpt lat="24.108109" lon="120.627816"/>
<trkpt lat="24.108105" lon="120.627501"/>
<trkpt lat="24.108113" lon="120.626984"/>
<trkpt lat="24.108125" lon="120.626731"/>
<trkpt lat="24.108148" lon="120.626547"/>
<trkpt lat="24.108165" lon="120.626349"/>
<trkpt lat="24.108207" lon="120.625993"/>
<trkpt lat="24.108216" lon="120.625924"/>
<trkpt lat="24.108279" lon="120.625468"/>
<trkpt lat="24.108460" lon="120.625495"/>
<trkpt lat="24.108497" lon="120.625501"/>
<trkpt lat="24.108651" lon="120.625524"/>
<trkpt lat="24.108644" lon="120.625601"/>
<trkpt lat="24.108671" lon="120.625583"/>
<trkpt lat="24.108698" lon="120.625590"/>
<trkpt lat="24.108831" lon="120.625606"/>
<trkpt lat="24.108778" lon="120.626081"/>
<trkpt lat="24.108745" lon="120.626657"/>
<trkpt lat="24.108751" lon="120.626937"/>
<trkpt lat="24.108759" lon="120.627393"/>
<trkpt lat="24.108776" lon="120.627620"/>
<trkpt lat="24.108818" lon="120.628086"/>
<trkpt lat="24.108836" lon="120.628276"/>
<trkpt lat="24.108867" lon="120.628449"/>
<trkpt lat="24.108909" lon="120.628685"/>
<trkpt lat="24.108989" lon="120.629038"/>
<trkpt lat="24.109166" lon="120.629677"/>
<trkpt lat="24.109715" lon="120.629517"/>
<trkpt lat="24.109933" lon="120.629463"/>
<trkpt lat="24.110166" lon="120.629417"/>
<trkpt lat="24.110339" lon="120.629385"/>
<trkpt lat="24.110985" lon="120.629302"/>
<trkpt lat="24.111425" lon="120.629278"/>
<trkpt lat="24.111599" lon="120.629269"/>
<trkpt lat="24.111716" lon="120.629264"/>
<trkpt lat="24.112169" lon="120.629286"/>
<trkpt lat="24.112419" lon="120.629311"/>
<trkpt lat="24.112536" lon="120.629337"/>
<trkpt lat="24.112578" lon="120.628912"/>
<trkpt lat="24.112610" lon="120.628548"/>
<trkpt lat="24.112674" lon="120.628047"/>
<trkpt lat="24.112944" lon="120.627986"/>
<trkpt lat="24.113154" lon="120.627937"/>
<trkpt lat="24.113231" lon="120.627931"/>
<trkpt lat="24.113593" lon="120.627970"/>
<trkpt lat="24.113892" lon="120.628011"/>
<trkpt lat="24.114044" lon="120.627521"/>
<trkpt lat="24.114134" lon="120.627208"/>
<trkpt lat="24.114257" lon="120.626739"/>
<trkpt lat="24.114407" lon="120.626209"/>
<trkpt lat="24.114602" lon="120.626273"/>
<trkpt lat="24.114804" lon="120.626320"/>
<trkpt lat="24.115156" lon="120.625139"/>
<trkpt lat="24.115401" lon="120.625229"/>
<trkpt lat="24.115658" lon="120.625336"/>
<trkpt lat="24.116048" lon="120.625497"/>
<trkpt lat="24.116328" lon="120.624492"/>
<trkpt lat="24.116472" lon="120.624585"/>
<trkpt lat="24.116604" lon="120.624703"/>
<trkpt lat="24.116878" lon="120.624859"/>
<trkpt lat="24.117379" lon="120.625182"/>
<trkpt lat="24.117890" lon="120.625512"/>
<trkpt lat="24.117918" lon="120.625293"/>
<trkpt lat="24.117884" lon="120.625494"/>
<trkpt lat="24.117877" lon="120.624866"/>
<trkpt lat="24.117862" lon="120.624224"/>
<trkpt lat="24.117861" lon="120.624040"/>
<trkpt lat="24.117860" lon="120.623933"/>
<trkpt lat="24.117868" lon="120.623784"/>
<trkpt lat="24.117897" lon="120.623459"/>
<trkpt lat="24.117905" lon="120.623314"/>
<trkpt lat="24.117902" lon="120.623257"/>
<trkpt lat="24.117887" lon="120.623151"/>
<trkpt lat="24.117869" lon="120.623082"/>
<trkpt lat="24.117854" lon="120.623050"/>
<trkpt lat="24.117782" lon="120.622981"/>
<trkpt lat="24.117721" lon="120.622899"/>
<trkpt lat="24.117573" lon="120.622673"/>
<trkpt lat="24.117474" lon="120.622507"/>
<trkpt lat="24.117612" lon="120.622517"/>
<trkpt lat="24.118346" lon="120.622598"/>
<trkpt lat="24.118417" lon="120.622597"/>
<trkpt lat="24.118472" lon="120.622589"/>
<trkpt lat="24.118656" lon="120.622631"/>
<trkpt lat="24.118717" lon="120.622638"/>
<trkpt lat="24.118823" lon="120.622642"/>
<trkpt lat="24.118914" lon="120.622638"/>
<trkpt lat="24.118992" lon="120.622623"/>
<trkpt lat="24.119055" lon="120.622594"/>
<trkpt lat="24.119104" lon="120.622575"/>
<trkpt lat="24.119146" lon="120.622572"/>
<trkpt lat="24.119219" lon="120.622573"/>
<trkpt lat="24.119355" lon="120.622562"/>
<trkpt lat="24.119565" lon="120.622574"/>
<trkpt lat="24.119604" lon="120.622586"/>
<trkpt lat="24.119689" lon="120.622581"/>
<trkpt lat="24.119868" lon="120.622620"/>
<trkpt lat="24.119965" lon="120.622648"/>
<trkpt lat="24.120040" lon="120.622691"/>
<trkpt lat="24.120079" lon="120.622707"/>
<trkpt lat="24.120123" lon="120.622724"/>
<trkpt lat="24.120161" lon="120.622731"/>
<trkpt lat="24.120206" lon="120.622725"/>
<trkpt lat="24.120263" lon="120.622705"/>
<trkpt lat="24.120332" lon="120.622663"/>
<trkpt lat="24.120390" lon="120.622640"/>
<trkpt lat="24.120450" lon="120.622623"/>
<trkpt lat="24.120506" lon="120.622618"/>
<trkpt lat="24.120566" lon="120.622605"/>
<trkpt lat="24.120617" lon="120.622578"/>
<trkpt lat="24.120658" lon="120.622550"/>
<trkpt lat="24.120706" lon="120.622504"/>
<trkpt lat="24.120750" lon="120.622447"/>
<trkpt lat="24.120867" lon="120.622355"/>
<trkpt lat="24.121011" lon="120.622250"/>
<trkpt lat="24.121084" lon="120.622233"/>
<trkpt lat="24.121198" lon="120.622224"/>
<trkpt lat="24.121223" lon="120.622219"/>
<trkpt lat="24.121246" lon="120.622208"/>
<trkpt lat="24.121265" lon="120.622189"/>
<trkpt lat="24.121281" lon="120.622163"/>
<trkpt lat="24.121388" lon="120.621854"/>
<trkpt lat="24.121400" lon="120.621683"/>
<trkpt lat="24.121397" lon="120.621660"/>
<trkpt lat="24.121390" lon="120.621640"/>
<trkpt lat="24.121376" lon="120.621624"/>
<trkpt lat="24.121360" lon="120.621613"/>
<trkpt lat="24.121192" lon="120.621518"/>
<trkpt lat="24.121170" lon="120.621494"/>
<trkpt lat="24.121157" lon="120.621466"/>
<trkpt lat="24.121138" lon="120.621398"/>
<trkpt lat="24.120998" lon="120.621394"/>
<trkpt lat="24.120886" lon="120.621373"/>
<trkpt lat="24.120772" lon="120.621331"/>
<trkpt lat="24.120673" lon="120.621280"/>
<trkpt lat="24.120574" lon="120.621208"/>
<trkpt lat="24.120494" lon="120.621114"/>
</trkseg></trk>
</gpx>