<?xml version="1.0" encoding="UTF-8"?>
<gpx version="1.1" creator="catrun" xmlns="http://www.topografix.com/GPX/1/1">
<metadata><name>烏日區 蹲坐貓咪（側面） 圖形路跑路線</name></metadata>
<wpt lat="24.121072" lon="120.629377"><name>鎮平公園</name><desc>地標</desc></wpt>
<wpt lat="24.124225" lon="120.638013"><name>麻糍埔公園</name><desc>地標</desc></wpt>
<wpt lat="24.123550" lon="120.637647"><name>麻糍埔公園入口意象</name><desc>地標</desc></wpt>
<trk><name>烏日區 蹲坐貓咪（側面） 圖形路跑路線</name><trkseg>
<trkpt lat="24.119519" lon="120.627505"/>
<trkpt lat="24.119913" lon="120.627675"/>
<trkpt lat="24.120068" lon="120.627747"/>
<trkpt lat="24.120253" lon="120.627817"/>
<trkpt lat="24.120351" lon="120.627853"/>
<trkpt lat="24.120425" lon="120.627844"/>
<trkpt lat="24.120477" lon="120.627759"/>
<trkpt lat="24.120679" lon="120.627357"/>
<trkpt lat="24.121225" lon="120.627710"/>
<trkpt lat="24.121728" lon="120.628050"/>
<trkpt lat="24.122394" lon="120.628499"/>
<trkpt lat="24.122811" lon="120.628766"/>
<trkpt lat="24.123064" lon="120.628925"/>
<trkpt lat="24.123108" lon="120.628850"/>
<trkpt lat="24.123173" lon="120.628794"/>
<trkpt lat="24.123413" lon="120.628413"/>
<trkpt lat="24.123448" lon="120.628377"/>
<trkpt lat="24.123520" lon="120.628336"/>
<trkpt lat="24.123635" lon="120.628282"/>
<trkpt lat="24.123668" lon="120.628246"/>
<trkpt lat="24.124115" lon="120.627626"/>
<trkpt lat="24.124163" lon="120.627565"/>
<trkpt lat="24.124210" lon="120.627524"/>
<trkpt lat="24.124274" lon="120.627482"/>
<trkpt lat="24.124307" lon="120.627477"/>
<trkpt lat="24.124481" lon="120.627501"/>
<trkpt lat="24.125357" lon="120.627656"/>
<trkpt lat="24.125382" lon="120.627668"/>
<trkpt lat="24.125493" lon="120.627692"/>
<trkpt lat="24.126003" lon="120.627789"/>
<trkpt lat="24.126072" lon="120.627830"/>
<trkpt lat="24.126170" lon="120.627878"/>
<trkpt lat="24.126234" lon="120.627902"/>
<trkpt lat="24.126472" lon="120.627972"/>
<trkpt lat="24.126522" lon="120.627964"/>
<trkpt lat="24.126573" lon="120.627929"/>
<trkpt lat="24.126571" lon="120.627992"/>
<trkpt lat="24.126541" lon="120.628129"/>
<trkpt lat="24.126497" lon="120.628294"/>
<trkpt lat="24.126482" lon="120.628350"/>
<trkpt lat="24.126476" lon="120.628370"/>
<trkpt lat="24.126351" lon="120.628769"/>
<trkpt lat="24.126212" lon="120.629243"/>
<trkpt lat="24.126170" lon="120.629396"/>
<trkpt lat="24.126088" lon="120.629818"/>
<trkpt lat="24.126072" lon="120.630044"/>
<trkpt lat="24.126071" lon="120.630148"/>
<trkpt lat="24.126039" lon="120.630331"/>
<trkpt lat="24.125979" lon="120.630583"/>
<trkpt lat="24.126038" lon="120.630734"/>
<trkpt lat="24.125883" lon="120.630913"/>
<trkpt lat="24.125254" lon="120.631530"/>
<trkpt lat="24.124945" lon="120.631846"/>
<trkpt lat="24.124773" lon="120.632017"/>
<trkpt lat="24.124387" lon="120.632399"/>
<trkpt lat="24.123886" lon="120.632901"/>
<trkpt lat="24.124009" lon="120.633024"/>
<trkpt lat="24.123985" lon="120.633048"/>
<trkpt lat="24.123929" lon="120.633099"/>
<trkpt lat="24.124016" lon="120.633195"/>
<trkpt lat="24.124144" lon="120.633332"/>
<trkpt lat="24.124206" lon="120.633400"/>
<trkpt lat="24.124125" lon="120.633485"/>
<trkpt lat="24.124103" lon="120.633508"/>
<trkpt lat="24.124050" lon="120.633561"/>
<trkpt lat="24.124002" lon="120.633610"/>
<trkpt lat="24.124033" lon="120.633711"/>
<trkpt lat="24.124280" lon="120.633933"/>
<trkpt lat="24.124434" lon="120.634073"/>
<trkpt lat="24.124350" lon="120.634154"/>
<trkpt lat="24.124034" lon="120.634474"/>
<trkpt lat="24.123793" lon="120.634719"/>
<trkpt lat="24.123559" lon="120.634955"/>
<trkpt lat="24.124200" lon="120.635719"/>
<trkpt lat="24.123808" lon="120.636098"/>
<trkpt lat="24.123712" lon="120.636172"/>
<trkpt lat="24.123678" lon="120.636190"/>
<trkpt lat="24.124061" lon="120.636652"/>
<trkpt lat="24.124144" lon="120.636759"/>
<trkpt lat="24.124133" lon="120.636917"/>
<trkpt lat="24.124125" lon="120.636987"/>
<trkpt lat="24.124091" lon="120.636983"/>
<trkpt lat="24.123663" lon="120.637380"/>
<trkpt lat="24.123522" lon="120.637533"/>
<trkpt lat="24.123467" lon="120.637597"/>
<trkpt lat="24.123474" lon="120.637653"/>
<trkpt lat="24.123402" lon="120.637616"/>
<trkpt lat="24.123383" lon="120.637614"/>
<trkpt lat="24.123341" lon="120.637659"/>
<trkpt lat="24.123285" lon="120.637704"/>
<trkpt lat="24.123275" lon="120.637741"/>
<trkpt lat="24.122813" lon="120.638175"/>
<trkpt lat="24.122782" lon="120.638200"/>
<trkpt lat="24.122701" lon="120.638284"/>
<trkpt lat="24.122623" lon="120.638364"/>
<trkpt lat="24.122600" lon="120.638375"/>
<trkpt lat="24.122015" lon="120.638927"/>
<trkpt lat="24.122010" lon="120.638908"/>
<trkpt lat="24.121930" lon="120.638982"/>
<trkpt lat="24.121857" lon="120.639051"/>
<trkpt lat="24.121890" lon="120.639051"/>
<trkpt lat="24.121553" lon="120.639358"/>
<trkpt lat="24.121540" lon="120.639390"/>
<trkpt lat="24.121542" lon="120.639426"/>
<trkpt lat="24.121560" lon="120.639470"/>
<trkpt lat="24.122370" lon="120.640451"/>
<trkpt lat="24.122631" lon="120.640764"/>
<trkpt lat="24.122675" lon="120.640766"/>
<trkpt lat="24.122635" lon="120.640803"/>
<trkpt lat="24.122579" lon="120.640861"/>
<trkpt lat="24.122496" lon="120.640930"/>
<trkpt lat="24.122428" lon="120.640986"/>
<trkpt lat="24.122387" lon="120.640913"/>
<trkpt lat="24.122307" lon="120.640809"/>
<trkpt lat="24.121957" lon="120.640358"/>
<trkpt lat="24.121421" lon="120.639706"/>
<trkpt lat="24.121333" lon="120.639607"/>
<trkpt lat="24.121284" lon="120.639596"/>
<trkpt lat="24.121252" lon="120.639599"/>
<trkpt lat="24.121236" lon="120.639576"/>
<trkpt lat="24.121199" lon="120.639521"/>
<trkpt lat="24.121156" lon="120.639466"/>
<trkpt lat="24.121144" lon="120.639455"/>
<trkpt lat="24.121110" lon="120.639495"/>
<trkpt lat="24.121001" lon="120.639597"/>
<trkpt lat="24.120780" lon="120.639803"/>
<trkpt lat="24.120690" lon="120.639887"/>
<trkpt lat="24.120371" lon="120.640208"/>
<trkpt lat="24.119930" lon="120.640624"/>
<trkpt lat="24.119900" lon="120.640641"/>
<trkpt lat="24.119886" lon="120.640641"/>
<trkpt lat="24.119871" lon="120.640641"/>
<trkpt lat="24.119851" lon="120.640630"/>
<trkpt lat="24.119834" lon="120.640615"/>
<trkpt lat="24.119787" lon="120.640654"/>
<trkpt lat="24.119842" lon="120.640723"/>
<trkpt lat="24.119880" lon="120.640771"/>
<trkpt lat="24.119809" lon="120.640838"/>
<trkpt lat="24.119170" lon="120.641439"/>
<trkpt lat="24.119100" lon="120.641506"/>
<trkpt lat="24.119066" lon="120.641463"/>
<trkpt lat="24.119007" lon="120.641387"/>
<trkpt lat="24.118816" lon="120.641141"/>
<trkpt lat="24.118552" lon="120.640799"/>
<trkpt lat="24.118225" lon="120.640376"/>
<trkpt lat="24.117730" lon="120.640889"/>
<trkpt lat="24.117598" lon="120.640729"/>
<trkpt lat="24.117458" lon="120.640562"/>
<trkpt lat="24.117332" lon="120.640410"/>
<trkpt lat="24.117216" lon="120.640270"/>
<trkpt lat="24.116949" lon="120.640131"/>
<trkpt lat="24.116865" lon="120.640014"/>
<trkpt lat="24.116290" lon="120.639212"/>
<trkpt lat="24.115328" lon="120.637936"/>
<trkpt lat="24.115291" lon="120.637886"/>
<trkpt lat="24.115339" lon="120.637852"/>
<trkpt lat="24.115356" lon="120.637833"/>
<trkpt lat="24.115357" lon="120.637557"/>
<trkpt lat="24.115362" lon="120.637525"/>
<trkpt lat="24.115375" lon="120.637518"/>
<trkpt lat="24.115421" lon="120.637510"/>
<trkpt lat="24.115572" lon="120.637488"/>
<trkpt lat="24.115625" lon="120.637475"/>
<trkpt lat="24.115665" lon="120.637453"/>
<trkpt lat="24.115700" lon="120.637423"/>
<trkpt lat="24.115727" lon="120.637333"/>
<trkpt lat="24.115751" lon="120.637272"/>
<trkpt lat="24.115764" lon="120.637248"/>
<trkpt lat="24.115698" lon="120.637206"/>
<trkpt lat="24.115614" lon="120.637138"/>
<trkpt lat="24.115581" lon="120.637122"/>
<trkpt lat="24.115410" lon="120.637044"/>
<trkpt lat="24.115334" lon="120.636988"/>
<trkpt lat="24.115203" lon="120.636875"/>
<trkpt lat="24.115183" lon="120.636861"/>
<trkpt lat="24.115104" lon="120.636821"/>
<trkpt lat="24.115089" lon="120.636785"/>
<trkpt lat="24.115093" lon="120.636731"/>
<trkpt lat="24.115090" lon="120.636684"/>
<trkpt lat="24.115058" lon="120.636595"/>
<trkpt lat="24.115029" lon="120.636516"/>
<trkpt lat="24.114976" lon="120.636435"/>
<trkpt lat="24.114728" lon="120.636481"/>
<trkpt lat="24.114648" lon="120.636494"/>
<trkpt lat="24.114570" lon="120.636496"/>
<trkpt lat="24.114237" lon="120.636518"/>
<trkpt lat="24.113854" lon="120.636029"/>
<trkpt lat="24.113254" lon="120.635261"/>
<trkpt lat="24.112755" lon="120.634646"/>
<trkpt lat="24.112420" lon="120.634284"/>
<trkpt lat="24.112408" lon="120.634209"/>
<trkpt lat="24.112420" lon="120.634131"/>
<trkpt lat="24.112468" lon="120.633962"/>
<trkpt lat="24.112470" lon="120.633926"/>
<trkpt lat="24.112438" lon="120.633823"/>
<trkpt lat="24.112467" lon="120.633746"/>
<trkpt lat="24.112503" lon="120.633693"/>
<trkpt lat="24.112537" lon="120.633651"/>
<trkpt lat="24.112534" lon="120.633514"/>
<trkpt lat="24.112553" lon="120.633417"/>
<trkpt lat="24.112565" lon="120.633330"/>
<trkpt lat="24.112559" lon="120.633275"/>
<trkpt lat="24.112565" lon="120.633206"/>
<trkpt lat="24.112613" lon="120.633018"/>
<trkpt lat="24.112626" lon="120.632986"/>
<trkpt lat="24.112653" lon="120.632951"/>
<trkpt lat="24.112684" lon="120.632921"/>
<trkpt lat="24.112695" lon="120.632880"/>
<trkpt lat="24.112716" lon="120.632855"/>
<trkpt lat="24.112743" lon="120.632809"/>
<trkpt lat="24.112762" lon="120.632760"/>
<trkpt lat="24.112793" lon="120.632620"/>
<trkpt lat="24.112812" lon="120.632556"/>
<trkpt lat="24.112833" lon="120.632519"/>
<trkpt lat="24.112936" lon="120.632439"/>
<trkpt lat="24.113022" lon="120.632360"/>
<trkpt lat="24.113140" lon="120.632261"/>
<trkpt lat="24.113182" lon="120.632218"/>
<trkpt lat="24.113241" lon="120.632123"/>
<trkpt lat="24.113269" lon="120.632116"/>
<trkpt lat="24.113354" lon="120.632096"/>
<trkpt lat="24.113414" lon="120.632040"/>
<trkpt lat="24.113471" lon="120.631971"/>
<trkpt lat="24.113664" lon="120.631714"/>
<trkpt lat="24.113685" lon="120.631649"/>
<trkpt lat="24.113698" lon="120.631636"/>
<trkpt lat="24.113757" lon="120.631592"/>
<trkpt lat="24.113807" lon="120.631544"/>
<trkpt lat="24.113824" lon="120.631511"/>
<trkpt lat="24.113836" lon="120.631475"/>
<trkpt lat="24.113872" lon="120.631395"/>
<trkpt lat="24.114008" lon="120.631414"/>
<trkpt lat="24.114194" lon="120.631459"/>
<trkpt lat="24.114559" lon="120.631587"/>
<trkpt lat="24.114602" lon="120.631597"/>
<trkpt lat="24.114993" lon="120.631598"/>
<trkpt lat="24.115018" lon="120.631086"/>
<trkpt lat="24.115024" lon="120.630980"/>
<trkpt lat="24.115257" lon="120.631018"/>
<trkpt lat="24.115499" lon="120.631031"/>
<trkpt lat="24.115733" lon="120.631011"/>
<trkpt lat="24.115810" lon="120.631003"/>
<trkpt lat="24.115765" lon="120.630697"/>
<trkpt lat="24.116559" lon="120.630459"/>
<trkpt lat="24.116588" lon="120.630451"/>
<trkpt lat="24.117095" lon="120.630286"/>
<trkpt lat="24.117219" lon="120.629734"/>
<trkpt lat="24.117357" lon="120.629163"/>
<trkpt lat="24.117875" lon="120.629360"/>
<trkpt lat="24.117906" lon="120.628859"/>
<trkpt lat="24.117906" lon="120.628459"/>
<trkpt lat="24.117915" lon="120.628234"/>
<trkpt lat="24.117929" lon="120.627571"/>
<trkpt lat="24.118229" lon="120.627697"/>
<trkpt lat="24.118637" lon="120.627866"/>
<trkpt lat="24.119290" lon="120.628145"/>
<trkpt lat="24.119519" lon="120.627505"/>
</trkseg></trk>
</gpx>