<?xml version="1.0" encoding="UTF-8"?>
<gpx version="1.1" creator="catrun" xmlns="http://www.topografix.com/GPX/1/1">
<metadata><name>烏日區 蜷睡貓咪 圖形路跑路線</name></metadata>
<wpt lat="24.129945" lon="120.653891"><name>豐富公園</name><desc>地標</desc></wpt>
<wpt lat="24.120137" lon="120.656179"><name>兒91公園</name><desc>地標</desc></wpt>
<wpt lat="24.119497" lon="120.654092"><name>樹仔腳公園</name><desc>地標</desc></wpt>
<trk><name>烏日區 蜷睡貓咪 圖形路跑路線</name><trkseg>
<trkpt lat="24.126805" lon="120.649789"/>
<trkpt lat="24.127125" lon="120.650611"/>
<trkpt lat="24.127650" lon="120.650278"/>
<trkpt lat="24.127682" lon="120.650365"/>
<trkpt lat="24.127702" lon="120.650443"/>
<trkpt lat="24.127742" lon="120.650425"/>
<trkpt lat="24.127789" lon="120.650414"/>
<trkpt lat="24.127886" lon="120.650390"/>
<trkpt lat="24.127926" lon="120.650380"/>
<trkpt lat="24.127945" lon="120.650375"/>
<trkpt lat="24.128291" lon="120.651557"/>
<trkpt lat="24.128662" lon="120.652753"/>
<trkpt lat="24.128769" lon="120.653129"/>
<trkpt lat="24.128824" lon="120.653208"/>
<trkpt lat="24.128861" lon="120.653274"/>
<trkpt lat="24.128770" lon="120.653278"/>
<trkpt lat="24.128809" lon="120.653372"/>
<trkpt lat="24.128708" lon="120.653375"/>
<trkpt lat="24.128632" lon="120.653376"/>
<trkpt lat="24.128623" lon="120.653410"/>
<trkpt lat="24.128999" lon="120.654331"/>
<trkpt lat="24.129050" lon="120.654473"/>
<trkpt lat="24.129071" lon="120.654527"/>
<trkpt lat="24.129113" lon="120.654610"/>
<trkpt lat="24.129149" lon="120.654667"/>
<trkpt lat="24.129275" lon="120.655008"/>
<trkpt lat="24.129352" lon="120.655020"/>
<trkpt lat="24.129422" lon="120.655223"/>
<trkpt lat="24.129314" lon="120.655277"/>
<trkpt lat="24.129285" lon="120.655292"/>
<trkpt lat="24.128896" lon="120.655488"/>
<trkpt lat="24.128630" lon="120.655619"/>
<trkpt lat="24.128601" lon="120.655633"/>
<trkpt lat="24.128356" lon="120.655755"/>
<trkpt lat="24.128279" lon="120.655794"/>
<trkpt lat="24.128446" lon="120.656221"/>
<trkpt lat="24.128481" lon="120.656270"/>
<trkpt lat="24.128307" lon="120.656280"/>
<trkpt lat="24.128200" lon="120.656280"/>
<trkpt lat="24.128032" lon="120.656232"/>
<trkpt lat="24.128001" lon="120.656221"/>
<trkpt lat="24.127862" lon="120.656231"/>
<trkpt lat="24.127781" lon="120.656285"/>
<trkpt lat="24.127547" lon="120.656297"/>
<trkpt lat="24.127404" lon="120.656341"/>
<trkpt lat="24.127368" lon="120.656251"/>
<trkpt lat="24.126678" lon="120.656595"/>
<trkpt lat="24.126743" lon="120.656644"/>
<trkpt lat="24.126376" lon="120.657231"/>
<trkpt lat="24.126390" lon="120.657272"/>
<trkpt lat="24.126345" lon="120.657270"/>
<trkpt lat="24.125970" lon="120.657256"/>
<trkpt lat="24.125767" lon="120.657381"/>
<trkpt lat="24.125756" lon="120.657383"/>
<trkpt lat="24.125497" lon="120.657574"/>
<trkpt lat="24.125263" lon="120.657747"/>
<trkpt lat="24.125067" lon="120.657395"/>
<trkpt lat="24.124630" lon="120.657627"/>
<trkpt lat="24.124859" lon="120.658023"/>
<trkpt lat="24.124707" lon="120.657892"/>
<trkpt lat="24.124261" lon="120.657627"/>
<trkpt lat="24.123579" lon="120.657274"/>
<trkpt lat="24.123492" lon="120.657193"/>
<trkpt lat="24.123223" lon="120.656945"/>
<trkpt lat="24.123158" lon="120.656962"/>
<trkpt lat="24.122943" lon="120.656919"/>
<trkpt lat="24.122924" lon="120.656980"/>
<trkpt lat="24.122796" lon="120.657224"/>
<trkpt lat="24.122788" lon="120.657236"/>
<trkpt lat="24.121769" lon="120.657080"/>
<trkpt lat="24.121686" lon="120.657032"/>
<trkpt lat="24.121324" lon="120.656985"/>
<trkpt lat="24.120843" lon="120.656922"/>
<trkpt lat="24.120839" lon="120.656909"/>
<trkpt lat="24.120747" lon="120.656568"/>
<trkpt lat="24.120746" lon="120.656543"/>
<trkpt lat="24.120455" lon="120.655806"/>
<trkpt lat="24.120459" lon="120.655773"/>
<trkpt lat="24.120468" lon="120.655709"/>
<trkpt lat="24.120400" lon="120.655596"/>
<trkpt lat="24.121091" lon="120.654949"/>
<trkpt lat="24.121344" lon="120.654711"/>
<trkpt lat="24.120994" lon="120.654201"/>
<trkpt lat="24.120649" lon="120.653704"/>
<trkpt lat="24.120009" lon="120.654308"/>
<trkpt lat="24.119616" lon="120.653804"/>
<trkpt lat="24.120237" lon="120.653203"/>
<trkpt lat="24.120256" lon="120.653164"/>
<trkpt lat="24.119900" lon="120.652653"/>
<trkpt lat="24.120236" lon="120.652328"/>
<trkpt lat="24.120782" lon="120.651774"/>
<trkpt lat="24.120936" lon="120.651630"/>
<trkpt lat="24.120601" lon="120.651093"/>
<trkpt lat="24.120297" lon="120.650583"/>
<trkpt lat="24.120487" lon="120.650325"/>
<trkpt lat="24.120517" lon="120.650286"/>
<trkpt lat="24.120592" lon="120.650175"/>
<trkpt lat="24.120652" lon="120.650086"/>
<trkpt lat="24.120580" lon="120.649969"/>
<trkpt lat="24.121435" lon="120.649378"/>
<trkpt lat="24.121843" lon="120.649074"/>
<trkpt lat="24.122721" lon="120.648437"/>
<trkpt lat="24.122830" lon="120.648576"/>
<trkpt lat="24.122979" lon="120.648474"/>
<trkpt lat="24.123038" lon="120.648542"/>
<trkpt lat="24.123314" lon="120.648348"/>
<trkpt lat="24.123380" lon="120.648297"/>
<trkpt lat="24.123462" lon="120.648243"/>
<trkpt lat="24.123544" lon="120.648181"/>
<trkpt lat="24.123575" lon="120.648110"/>
<trkpt lat="24.124144" lon="120.647691"/>
<trkpt lat="24.124523" lon="120.647422"/>
<trkpt lat="24.124578" lon="120.647385"/>
<trkpt lat="24.124602" lon="120.647375"/>
<trkpt lat="24.124632" lon="120.647376"/>
<trkpt lat="24.124680" lon="120.647346"/>
<trkpt lat="24.125006" lon="120.647897"/>
<trkpt lat="24.125350" lon="120.648473"/>
<trkpt lat="24.124243" lon="120.649237"/>
<trkpt lat="24.123838" lon="120.648730"/>
<trkpt lat="24.123462" lon="120.648243"/>
<trkpt lat="24.123380" lon="120.648297"/>
<trkpt lat="24.123314" lon="120.648348"/>
<trkpt lat="24.123038" lon="120.648542"/>
<trkpt lat="24.122979" lon="120.648474"/>
<trkpt lat="24.122830" lon="120.648576"/>
<trkpt lat="24.122400" lon="120.648854"/>
<trkpt lat="24.121505" lon="120.649503"/>
<trkpt lat="24.120652" lon="120.650086"/>
<trkpt lat="24.120825" lon="120.650369"/>
<trkpt lat="24.121051" lon="120.650745"/>
<trkpt lat="24.121087" lon="120.650805"/>
<trkpt lat="24.121739" lon="120.651886"/>
<trkpt lat="24.121828" lon="120.652033"/>
<trkpt lat="24.121963" lon="120.652256"/>
<trkpt lat="24.122136" lon="120.652544"/>
<trkpt lat="24.122721" lon="120.653481"/>
<trkpt lat="24.123767" lon="120.653435"/>
<trkpt lat="24.124709" lon="120.653408"/>
<trkpt lat="24.125686" lon="120.653380"/>
<trkpt lat="24.126455" lon="120.653352"/>
<trkpt lat="24.126377" lon="120.653251"/>
<trkpt lat="24.126462" lon="120.653243"/>
<trkpt lat="24.125733" lon="120.652322"/>
<trkpt lat="24.125345" lon="120.651820"/>
<trkpt lat="24.125407" lon="120.651679"/>
<trkpt lat="24.125415" lon="120.651658"/>
<trkpt lat="24.125603" lon="120.651209"/>
<trkpt lat="24.125626" lon="120.651185"/>
<trkpt lat="24.125705" lon="120.651114"/>
<trkpt lat="24.125900" lon="120.651354"/>
<trkpt lat="24.127125" lon="120.650611"/>
<trkpt lat="24.126805" lon="120.649789"/>
</trkseg></trk>
</gpx>