<?xml version="1.0" encoding="UTF-8"?>
<gpx version="1.1" creator="catrun" xmlns="http://www.topografix.com/GPX/1/1">
<metadata><name>烏日區 貓咪肉球 圖形路跑路線</name></metadata>
<wpt lat="24.117788" lon="120.653991"><name>樹德公園</name><desc>地標</desc></wpt>
<wpt lat="24.119497" lon="120.654092"><name>樹仔腳公園</name><desc>地標</desc></wpt>
<wpt lat="24.120137" lon="120.656179"><name>兒91公園</name><desc>地標</desc></wpt>
<trk><name>烏日區 貓咪肉球 圖形路跑路線</name><trkseg>
<trkpt lat="24.121639" lon="120.647070"/>
<trkpt lat="24.121109" lon="120.647483"/>
<trkpt lat="24.120492" lon="120.647981"/>
<trkpt lat="24.119930" lon="120.648424"/>
<trkpt lat="24.119733" lon="120.648578"/>
<trkpt lat="24.119646" lon="120.648637"/>
<trkpt lat="24.119521" lon="120.648724"/>
<trkpt lat="24.119498" lon="120.648740"/>
<trkpt lat="24.119469" lon="120.648760"/>
<trkpt lat="24.119334" lon="120.648852"/>
<trkpt lat="24.119272" lon="120.648894"/>
<trkpt lat="24.120219" lon="120.650452"/>
<trkpt lat="24.120297" lon="120.650583"/>
<trkpt lat="24.119183" lon="120.651638"/>
<trkpt lat="24.119556" lon="120.652169"/>
<trkpt lat="24.119900" lon="120.652653"/>
<trkpt lat="24.119190" lon="120.653334"/>
<trkpt lat="24.119616" lon="120.653804"/>
<trkpt lat="24.120009" lon="120.654308"/>
<trkpt lat="24.119730" lon="120.654555"/>
<trkpt lat="24.119668" lon="120.654605"/>
<trkpt lat="24.119737" lon="120.654689"/>
<trkpt lat="24.119746" lon="120.654753"/>
<trkpt lat="24.120077" lon="120.655150"/>
<trkpt lat="24.120279" lon="120.655444"/>
<trkpt lat="24.120326" lon="120.655484"/>
<trkpt lat="24.120400" lon="120.655596"/>
<trkpt lat="24.120468" lon="120.655709"/>
<trkpt lat="24.120459" lon="120.655773"/>
<trkpt lat="24.120455" lon="120.655806"/>
<trkpt lat="24.120746" lon="120.656543"/>
<trkpt lat="24.120862" lon="120.656556"/>
<trkpt lat="24.120953" lon="120.656560"/>
<trkpt lat="24.121558" lon="120.656660"/>
<trkpt lat="24.121590" lon="120.656370"/>
<trkpt lat="24.122231" lon="120.656477"/>
<trkpt lat="24.122382" lon="120.656176"/>
<trkpt lat="24.122828" lon="120.656587"/>
<trkpt lat="24.122977" lon="120.656695"/>
<trkpt lat="24.123044" lon="120.656760"/>
<trkpt lat="24.123158" lon="120.656962"/>
<trkpt lat="24.123223" lon="120.656945"/>
<trkpt lat="24.123959" lon="120.656790"/>
<trkpt lat="24.124037" lon="120.656756"/>
<trkpt lat="24.124071" lon="120.656726"/>
<trkpt lat="24.124298" lon="120.657091"/>
<trkpt lat="24.124575" lon="120.657528"/>
<trkpt lat="24.124630" lon="120.657627"/>
<trkpt lat="24.125067" lon="120.657395"/>
<trkpt lat="24.125263" lon="120.657747"/>
<trkpt lat="24.125497" lon="120.657574"/>
<trkpt lat="24.125756" lon="120.657383"/>
<trkpt lat="24.125767" lon="120.657381"/>
<trkpt lat="24.125970" lon="120.657256"/>
<trkpt lat="24.126345" lon="120.657270"/>
<trkpt lat="24.126376" lon="120.657231"/>
<trkpt lat="24.126390" lon="120.657272"/>
<trkpt lat="24.127249" lon="120.657302"/>
<trkpt lat="24.127324" lon="120.657302"/>
<trkpt lat="24.127688" lon="120.657313"/>
<trkpt lat="24.127946" lon="120.657314"/>
<trkpt lat="24.128099" lon="120.657318"/>
<trkpt lat="24.128171" lon="120.657321"/>
<trkpt lat="24.128427" lon="120.657321"/>
<trkpt lat="24.128553" lon="120.657321"/>
<trkpt lat="24.128852" lon="120.657179"/>
<trkpt lat="24.129118" lon="120.657051"/>
<trkpt lat="24.129317" lon="120.656957"/>
<trkpt lat="24.129243" lon="120.656714"/>
<trkpt lat="24.129166" lon="120.656442"/>
<trkpt lat="24.128896" lon="120.655488"/>
<trkpt lat="24.129285" lon="120.655292"/>
<trkpt lat="24.129314" lon="120.655277"/>
<trkpt lat="24.129422" lon="120.655223"/>
<trkpt lat="24.129352" lon="120.655020"/>
<trkpt lat="24.129275" lon="120.655008"/>
<trkpt lat="24.129149" lon="120.654667"/>
<trkpt lat="24.129113" lon="120.654610"/>
<trkpt lat="24.129075" lon="120.654629"/>
<trkpt lat="24.128862" lon="120.654646"/>
<trkpt lat="24.128689" lon="120.654623"/>
<trkpt lat="24.128552" lon="120.654584"/>
<trkpt lat="24.128464" lon="120.654572"/>
<trkpt lat="24.128330" lon="120.654512"/>
<trkpt lat="24.128179" lon="120.654433"/>
<trkpt lat="24.128049" lon="120.654325"/>
<trkpt lat="24.127956" lon="120.654257"/>
<trkpt lat="24.127860" lon="120.654147"/>
<trkpt lat="24.127758" lon="120.654018"/>
<trkpt lat="24.127452" lon="120.653556"/>
<trkpt lat="24.127378" lon="120.653465"/>
<trkpt lat="24.127321" lon="120.653440"/>
<trkpt lat="24.127274" lon="120.653447"/>
<trkpt lat="24.127278" lon="120.653462"/>
<trkpt lat="24.127017" lon="120.653705"/>
<trkpt lat="24.126849" lon="120.653476"/>
<trkpt lat="24.126791" lon="120.653476"/>
<trkpt lat="24.126783" lon="120.653465"/>
<trkpt lat="24.126739" lon="120.653453"/>
<trkpt lat="24.126730" lon="120.653442"/>
<trkpt lat="24.126651" lon="120.653346"/>
<trkpt lat="24.126677" lon="120.653345"/>
<trkpt lat="24.127257" lon="120.653323"/>
<trkpt lat="24.127408" lon="120.653324"/>
<trkpt lat="24.127985" lon="120.654056"/>
<trkpt lat="24.128045" lon="120.654119"/>
<trkpt lat="24.128125" lon="120.654189"/>
<trkpt lat="24.128229" lon="120.654263"/>
<trkpt lat="24.128306" lon="120.654313"/>
<trkpt lat="24.128384" lon="120.654355"/>
<trkpt lat="24.128456" lon="120.654389"/>
<trkpt lat="24.128511" lon="120.654408"/>
<trkpt lat="24.128586" lon="120.654431"/>
<trkpt lat="24.128666" lon="120.654444"/>
<trkpt lat="24.128795" lon="120.654460"/>
<trkpt lat="24.129014" lon="120.654470"/>
<trkpt lat="24.129050" lon="120.654473"/>
<trkpt lat="24.129143" lon="120.654502"/>
<trkpt lat="24.129287" lon="120.654585"/>
<trkpt lat="24.129622" lon="120.654585"/>
<trkpt lat="24.129724" lon="120.654491"/>
<trkpt lat="24.129872" lon="120.654320"/>
<trkpt lat="24.129937" lon="120.654198"/>
<trkpt lat="24.130094" lon="120.654265"/>
<trkpt lat="24.130324" lon="120.654254"/>
<trkpt lat="24.130469" lon="120.654322"/>
<trkpt lat="24.130553" lon="120.654138"/>
<trkpt lat="24.130521" lon="120.653881"/>
<trkpt lat="24.130424" lon="120.653659"/>
<trkpt lat="24.130454" lon="120.653640"/>
<trkpt lat="24.130597" lon="120.653549"/>
<trkpt lat="24.130651" lon="120.653539"/>
<trkpt lat="24.130727" lon="120.653573"/>
<trkpt lat="24.130769" lon="120.653624"/>
<trkpt lat="24.130819" lon="120.653669"/>
<trkpt lat="24.130849" lon="120.653736"/>
<trkpt lat="24.130869" lon="120.653689"/>
<trkpt lat="24.130871" lon="120.653604"/>
<trkpt lat="24.130864" lon="120.653539"/>
<trkpt lat="24.130838" lon="120.653488"/>
<trkpt lat="24.130825" lon="120.653427"/>
<trkpt lat="24.130823" lon="120.653378"/>
<trkpt lat="24.130836" lon="120.653192"/>
<trkpt lat="24.130732" lon="120.653197"/>
<trkpt lat="24.130741" lon="120.652498"/>
<trkpt lat="24.130758" lon="120.650735"/>
<trkpt lat="24.130129" lon="120.650742"/>
<trkpt lat="24.129493" lon="120.650746"/>
<trkpt lat="24.129501" lon="120.650012"/>
<trkpt lat="24.130766" lon="120.650000"/>
<trkpt lat="24.130774" lon="120.649235"/>
<trkpt lat="24.130222" lon="120.649228"/>
<trkpt lat="24.130163" lon="120.649197"/>
<trkpt lat="24.130133" lon="120.649132"/>
<trkpt lat="24.130122" lon="120.649011"/>
<trkpt lat="24.130135" lon="120.648258"/>
<trkpt lat="24.130094" lon="120.648258"/>
<trkpt lat="24.130107" lon="120.647271"/>
<trkpt lat="24.129521" lon="120.647254"/>
<trkpt lat="24.129521" lon="120.647212"/>
<trkpt lat="24.127762" lon="120.647175"/>
<trkpt lat="24.127771" lon="120.648191"/>
<trkpt lat="24.127108" lon="120.648170"/>
<trkpt lat="24.127089" lon="120.648105"/>
<trkpt lat="24.127039" lon="120.648057"/>
<trkpt lat="24.126443" lon="120.646927"/>
<trkpt lat="24.126414" lon="120.646840"/>
<trkpt lat="24.126417" lon="120.646764"/>
<trkpt lat="24.126428" lon="120.646708"/>
<trkpt lat="24.126453" lon="120.646636"/>
<trkpt lat="24.126466" lon="120.646610"/>
<trkpt lat="24.126435" lon="120.646575"/>
<trkpt lat="24.126420" lon="120.646554"/>
<trkpt lat="24.126244" lon="120.646516"/>
<trkpt lat="24.126188" lon="120.646416"/>
<trkpt lat="24.126164" lon="120.646380"/>
<trkpt lat="24.126146" lon="120.646289"/>
<trkpt lat="24.126149" lon="120.646195"/>
<trkpt lat="24.127900" lon="120.646239"/>
<trkpt lat="24.127914" lon="120.645064"/>
<trkpt lat="24.127914" lon="120.643820"/>
<trkpt lat="24.127685" lon="120.643740"/>
<trkpt lat="24.127381" lon="120.643598"/>
<trkpt lat="24.127290" lon="120.643540"/>
<trkpt lat="24.127057" lon="120.644171"/>
<trkpt lat="24.127059" lon="120.644445"/>
<trkpt lat="24.127064" lon="120.645474"/>
<trkpt lat="24.126999" lon="120.645477"/>
<trkpt lat="24.126881" lon="120.645479"/>
<trkpt lat="24.126779" lon="120.645479"/>
<trkpt lat="24.126659" lon="120.645479"/>
<trkpt lat="24.126606" lon="120.645466"/>
<trkpt lat="24.126557" lon="120.645454"/>
<trkpt lat="24.126502" lon="120.645431"/>
<trkpt lat="24.126403" lon="120.645367"/>
<trkpt lat="24.126283" lon="120.645257"/>
<trkpt lat="24.126096" lon="120.644919"/>
<trkpt lat="24.126052" lon="120.644839"/>
<trkpt lat="24.125621" lon="120.644049"/>
<trkpt lat="24.125162" lon="120.644403"/>
<trkpt lat="24.125185" lon="120.644440"/>
<trkpt lat="24.125186" lon="120.644462"/>
<trkpt lat="24.125163" lon="120.644500"/>
<trkpt lat="24.125138" lon="120.644513"/>
<trkpt lat="24.125096" lon="120.644544"/>
<trkpt lat="24.125018" lon="120.644601"/>
<trkpt lat="24.124983" lon="120.644628"/>
<trkpt lat="24.124961" lon="120.644642"/>
<trkpt lat="24.124931" lon="120.644647"/>
<trkpt lat="24.124899" lon="120.644597"/>
<trkpt lat="24.124488" lon="120.644910"/>
<trkpt lat="24.124436" lon="120.644949"/>
<trkpt lat="24.124385" lon="120.644989"/>
<trkpt lat="24.123607" lon="120.645585"/>
<trkpt lat="24.123187" lon="120.645910"/>
<trkpt lat="24.122778" lon="120.646221"/>
<trkpt lat="24.122292" lon="120.646590"/>
<trkpt lat="24.122209" lon="120.646652"/>
<trkpt lat="24.122258" lon="120.646715"/>
<trkpt lat="24.122223" lon="120.646744"/>
<trkpt lat="24.122164" lon="120.646795"/>
<trkpt lat="24.122798" lon="120.647611"/>
<trkpt lat="24.122325" lon="120.647745"/>
<trkpt lat="24.122226" lon="120.647826"/>
<trkpt lat="24.121639" lon="120.647070"/>
</trkseg></trk>
</gpx>