<?xml version="1.0" encoding="UTF-8"?>
<gpx version="1.1" creator="catrun" xmlns="http://www.topografix.com/GPX/1/1">
<metadata><name>新社區 手繪蹲坐貓（原稿描圖） 圖形路跑路線</name></metadata>
<trk><name>新社區 手繪蹲坐貓（原稿描圖） 圖形路跑路線</name><trkseg>
<trkpt lat="24.206768" lon="120.801973"/>
<trkpt lat="24.207337" lon="120.802525"/>
<trkpt lat="24.207902" lon="120.803137"/>
<trkpt lat="24.207988" lon="120.803218"/>
<trkpt lat="24.208156" lon="120.803218"/>
<trkpt lat="24.209008" lon="120.803180"/>
<trkpt lat="24.209650" lon="120.803176"/>
<trkpt lat="24.210009" lon="120.803185"/>
<trkpt lat="24.210029" lon="120.805038"/>
<trkpt lat="24.211105" lon="120.805062"/>
<trkpt lat="24.212128" lon="120.805081"/>
<trkpt lat="24.213155" lon="120.805094"/>
<trkpt lat="24.214194" lon="120.805108"/>
<trkpt lat="24.215208" lon="120.805122"/>
<trkpt lat="24.215234" lon="120.803238"/>
<trkpt lat="24.216266" lon="120.803260"/>
<trkpt lat="24.217296" lon="120.803264"/>
<trkpt lat="24.217275" lon="120.805138"/>
<trkpt lat="24.218289" lon="120.805156"/>
<trkpt lat="24.218292" lon="120.806981"/>
<trkpt lat="24.219322" lon="120.807000"/>
<trkpt lat="24.219957" lon="120.807008"/>
<trkpt lat="24.220371" lon="120.807002"/>
<trkpt lat="24.220376" lon="120.807357"/>
<trkpt lat="24.220382" lon="120.807576"/>
<trkpt lat="24.219639" lon="120.808003"/>
<trkpt lat="24.219532" lon="120.808067"/>
<trkpt lat="24.219210" lon="120.808368"/>
<trkpt lat="24.218852" lon="120.808703"/>
<trkpt lat="24.218766" lon="120.808767"/>
<trkpt lat="24.218681" lon="120.808810"/>
<trkpt lat="24.218595" lon="120.808832"/>
<trkpt lat="24.218367" lon="120.808830"/>
<trkpt lat="24.217996" lon="120.808826"/>
<trkpt lat="24.217995" lon="120.809767"/>
<trkpt lat="24.217889" lon="120.809729"/>
<trkpt lat="24.217790" lon="120.809724"/>
<trkpt lat="24.217621" lon="120.809732"/>
<trkpt lat="24.217531" lon="120.809765"/>
<trkpt lat="24.217409" lon="120.809849"/>
<trkpt lat="24.217304" lon="120.809956"/>
<trkpt lat="24.217218" lon="120.810028"/>
<trkpt lat="24.217196" lon="120.810127"/>
<trkpt lat="24.217139" lon="120.810289"/>
<trkpt lat="24.217091" lon="120.810437"/>
<trkpt lat="24.217047" lon="120.810555"/>
<trkpt lat="24.216995" lon="120.810626"/>
<trkpt lat="24.216194" lon="120.810623"/>
<trkpt lat="24.215167" lon="120.810630"/>
<trkpt lat="24.214269" lon="120.810617"/>
<trkpt lat="24.214130" lon="120.810620"/>
<trkpt lat="24.213689" lon="120.810608"/>
<trkpt lat="24.213096" lon="120.810608"/>
<trkpt lat="24.212083" lon="120.810586"/>
<trkpt lat="24.212066" lon="120.811508"/>
<trkpt lat="24.212064" lon="120.812427"/>
<trkpt lat="24.211029" lon="120.812420"/>
<trkpt lat="24.208979" lon="120.812372"/>
<trkpt lat="24.207917" lon="120.812389"/>
<trkpt lat="24.206850" lon="120.812378"/>
<trkpt lat="24.206838" lon="120.812378"/>
<trkpt lat="24.205852" lon="120.812368"/>
<trkpt lat="24.204822" lon="120.812358"/>
<trkpt lat="24.203723" lon="120.812347"/>
<trkpt lat="24.202774" lon="120.812337"/>
<trkpt lat="24.202731" lon="120.816007"/>
<trkpt lat="24.202755" lon="120.817332"/>
<trkpt lat="24.201789" lon="120.817323"/>
<trkpt lat="24.200754" lon="120.817302"/>
<trkpt lat="24.200655" lon="120.817268"/>
<trkpt lat="24.200603" lon="120.817326"/>
<trkpt lat="24.199615" lon="120.817294"/>
<trkpt lat="24.199619" lon="120.815985"/>
<trkpt lat="24.199662" lon="120.812294"/>
<trkpt lat="24.201683" lon="120.812322"/>
<trkpt lat="24.202774" lon="120.812337"/>
<trkpt lat="24.202791" lon="120.810974"/>
<trkpt lat="24.202817" lon="120.809054"/>
<trkpt lat="24.202864" lon="120.808751"/>
<trkpt lat="24.202938" lon="120.808526"/>
<trkpt lat="24.202945" lon="120.808196"/>
<trkpt lat="24.202960" lon="120.807576"/>
<trkpt lat="24.202960" lon="120.807407"/>
<trkpt lat="24.202884" lon="120.807220"/>
<trkpt lat="24.202916" lon="120.807201"/>
<trkpt lat="24.203167" lon="120.807093"/>
<trkpt lat="24.203292" lon="120.807039"/>
<trkpt lat="24.203884" lon="120.806830"/>
<trkpt lat="24.205502" lon="120.806003"/>
<trkpt lat="24.206670" lon="120.805412"/>
<trkpt lat="24.206883" lon="120.805019"/>
<trkpt lat="24.206958" lon="120.804879"/>
<trkpt lat="24.207988" lon="120.803218"/>
<trkpt lat="24.207902" lon="120.803137"/>
<trkpt lat="24.207337" lon="120.802525"/>
<trkpt lat="24.206768" lon="120.801973"/>
</trkseg></trk>
</gpx>