<?xml version="1.0" encoding="UTF-8"?>
<gpx version="1.1" creator="catrun" xmlns="http://www.topografix.com/GPX/1/1">
<metadata><name>西屯區 蜷睡貓咪 圖形路跑路線</name></metadata>
<wpt lat="24.177856" lon="120.645714"><name>逢甲夜市</name><desc>地標</desc></wpt>
<wpt lat="24.179270" lon="120.646883"><name>圖書館建都分館</name><desc>地標</desc></wpt>
<wpt lat="24.178362" lon="120.648262"><name>丘逢甲紀念銅像</name><desc>地標</desc></wpt>
<trk><name>西屯區 蜷睡貓咪 圖形路跑路線</name><trkseg>
<trkpt lat="24.174847" lon="120.646215"/>
<trkpt lat="24.174996" lon="120.645875"/>
<trkpt lat="24.175093" lon="120.645657"/>
<trkpt lat="24.175116" lon="120.645613"/>
<trkpt lat="24.175230" lon="120.645358"/>
<trkpt lat="24.175417" lon="120.644988"/>
<trkpt lat="24.175551" lon="120.645100"/>
<trkpt lat="24.175666" lon="120.645224"/>
<trkpt lat="24.175823" lon="120.645392"/>
<trkpt lat="24.175902" lon="120.645479"/>
<trkpt lat="24.176042" lon="120.645636"/>
<trkpt lat="24.176147" lon="120.645812"/>
<trkpt lat="24.176230" lon="120.645999"/>
<trkpt lat="24.176816" lon="120.645574"/>
<trkpt lat="24.177026" lon="120.645388"/>
<trkpt lat="24.177128" lon="120.645281"/>
<trkpt lat="24.177304" lon="120.645155"/>
<trkpt lat="24.177670" lon="120.645140"/>
<trkpt lat="24.177891" lon="120.645137"/>
<trkpt lat="24.178579" lon="120.645112"/>
<trkpt lat="24.178702" lon="120.645098"/>
<trkpt lat="24.178720" lon="120.645097"/>
<trkpt lat="24.178720" lon="120.645205"/>
<trkpt lat="24.178754" lon="120.645228"/>
<trkpt lat="24.178764" lon="120.645250"/>
<trkpt lat="24.178771" lon="120.645665"/>
<trkpt lat="24.178821" lon="120.645665"/>
<trkpt lat="24.178878" lon="120.645665"/>
<trkpt lat="24.178897" lon="120.645693"/>
<trkpt lat="24.178898" lon="120.645726"/>
<trkpt lat="24.178897" lon="120.645772"/>
<trkpt lat="24.178883" lon="120.645809"/>
<trkpt lat="24.178892" lon="120.646407"/>
<trkpt lat="24.178827" lon="120.646408"/>
<trkpt lat="24.178826" lon="120.646484"/>
<trkpt lat="24.178815" lon="120.646561"/>
<trkpt lat="24.178826" lon="120.646604"/>
<trkpt lat="24.178835" lon="120.646659"/>
<trkpt lat="24.178883" lon="120.646646"/>
<trkpt lat="24.178947" lon="120.646638"/>
<trkpt lat="24.178959" lon="120.647226"/>
<trkpt lat="24.178961" lon="120.647365"/>
<trkpt lat="24.178966" lon="120.647377"/>
<trkpt lat="24.179594" lon="120.647362"/>
<trkpt lat="24.179920" lon="120.647350"/>
<trkpt lat="24.180675" lon="120.647344"/>
<trkpt lat="24.180678" lon="120.647679"/>
<trkpt lat="24.180745" lon="120.647678"/>
<trkpt lat="24.180750" lon="120.647899"/>
<trkpt lat="24.181055" lon="120.647891"/>
<trkpt lat="24.181064" lon="120.648238"/>
<trkpt lat="24.181094" lon="120.648226"/>
<trkpt lat="24.181329" lon="120.648180"/>
<trkpt lat="24.181324" lon="120.648229"/>
<trkpt lat="24.181362" lon="120.648195"/>
<trkpt lat="24.181406" lon="120.648185"/>
<trkpt lat="24.181546" lon="120.648165"/>
<trkpt lat="24.181852" lon="120.648239"/>
<trkpt lat="24.181886" lon="120.648237"/>
<trkpt lat="24.181904" lon="120.648235"/>
<trkpt lat="24.181953" lon="120.648229"/>
<trkpt lat="24.182008" lon="120.648227"/>
<trkpt lat="24.182454" lon="120.648218"/>
<trkpt lat="24.182883" lon="120.648210"/>
<trkpt lat="24.182879" lon="120.649113"/>
<trkpt lat="24.182904" lon="120.649753"/>
<trkpt lat="24.182909" lon="120.650081"/>
<trkpt lat="24.182946" lon="120.650080"/>
<trkpt lat="24.183567" lon="120.650058"/>
<trkpt lat="24.183568" lon="120.650112"/>
<trkpt lat="24.183569" lon="120.650192"/>
<trkpt lat="24.183599" lon="120.651704"/>
<trkpt lat="24.183633" lon="120.651737"/>
<trkpt lat="24.183675" lon="120.651779"/>
<trkpt lat="24.183677" lon="120.651850"/>
<trkpt lat="24.183680" lon="120.651975"/>
<trkpt lat="24.183681" lon="120.652012"/>
<trkpt lat="24.184594" lon="120.652011"/>
<trkpt lat="24.184609" lon="120.652191"/>
<trkpt lat="24.184579" lon="120.652199"/>
<trkpt lat="24.184506" lon="120.652408"/>
<trkpt lat="24.184432" lon="120.652671"/>
<trkpt lat="24.184472" lon="120.652816"/>
<trkpt lat="24.184503" lon="120.652952"/>
<trkpt lat="24.184601" lon="120.653044"/>
<trkpt lat="24.184821" lon="120.653194"/>
<trkpt lat="24.184935" lon="120.653246"/>
<trkpt lat="24.184859" lon="120.653427"/>
<trkpt lat="24.184844" lon="120.653489"/>
<trkpt lat="24.184611" lon="120.654059"/>
<trkpt lat="24.184570" lon="120.654171"/>
<trkpt lat="24.184499" lon="120.654415"/>
<trkpt lat="24.184427" lon="120.654750"/>
<trkpt lat="24.184422" lon="120.654873"/>
<trkpt lat="24.184431" lon="120.654958"/>
<trkpt lat="24.184463" lon="120.655535"/>
<trkpt lat="24.184542" lon="120.655534"/>
<trkpt lat="24.184633" lon="120.655533"/>
<trkpt lat="24.184705" lon="120.655531"/>
<trkpt lat="24.184731" lon="120.655518"/>
<trkpt lat="24.184761" lon="120.655510"/>
<trkpt lat="24.184769" lon="120.655505"/>
<trkpt lat="24.185270" lon="120.655154"/>
<trkpt lat="24.185493" lon="120.654999"/>
<trkpt lat="24.185596" lon="120.654948"/>
<trkpt lat="24.185634" lon="120.655029"/>
<trkpt lat="24.185667" lon="120.655100"/>
<trkpt lat="24.185629" lon="120.655148"/>
<trkpt lat="24.185587" lon="120.655170"/>
<trkpt lat="24.185426" lon="120.655249"/>
<trkpt lat="24.185348" lon="120.655294"/>
<trkpt lat="24.184839" lon="120.655686"/>
<trkpt lat="24.184833" lon="120.655690"/>
<trkpt lat="24.184755" lon="120.655780"/>
<trkpt lat="24.184710" lon="120.655839"/>
<trkpt lat="24.184642" lon="120.655826"/>
<trkpt lat="24.184553" lon="120.655831"/>
<trkpt lat="24.184472" lon="120.655837"/>
<trkpt lat="24.184475" lon="120.655884"/>
<trkpt lat="24.184525" lon="120.656625"/>
<trkpt lat="24.184472" lon="120.656699"/>
<trkpt lat="24.184480" lon="120.656819"/>
<trkpt lat="24.184487" lon="120.656926"/>
<trkpt lat="24.184525" lon="120.656957"/>
<trkpt lat="24.184553" lon="120.656999"/>
<trkpt lat="24.184597" lon="120.657717"/>
<trkpt lat="24.184541" lon="120.657789"/>
<trkpt lat="24.184546" lon="120.657875"/>
<trkpt lat="24.184552" lon="120.657979"/>
<trkpt lat="24.184557" lon="120.658060"/>
<trkpt lat="24.184623" lon="120.658112"/>
<trkpt lat="24.184681" lon="120.658109"/>
<trkpt lat="24.184747" lon="120.658102"/>
<trkpt lat="24.184836" lon="120.658100"/>
<trkpt lat="24.184894" lon="120.659038"/>
<trkpt lat="24.184897" lon="120.659073"/>
<trkpt lat="24.184918" lon="120.659098"/>
<trkpt lat="24.184921" lon="120.659175"/>
<trkpt lat="24.184929" lon="120.659240"/>
<trkpt lat="24.184906" lon="120.659254"/>
<trkpt lat="24.184830" lon="120.659249"/>
<trkpt lat="24.184749" lon="120.659260"/>
<trkpt lat="24.184704" lon="120.659262"/>
<trkpt lat="24.184658" lon="120.659244"/>
<trkpt lat="24.184656" lon="120.659186"/>
<trkpt lat="24.184652" lon="120.659107"/>
<trkpt lat="24.184640" lon="120.659115"/>
<trkpt lat="24.183961" lon="120.659178"/>
<trkpt lat="24.183839" lon="120.659185"/>
<trkpt lat="24.183220" lon="120.659196"/>
<trkpt lat="24.183079" lon="120.659204"/>
<trkpt lat="24.183079" lon="120.659276"/>
<trkpt lat="24.183080" lon="120.659347"/>
<trkpt lat="24.182679" lon="120.659358"/>
<trkpt lat="24.182644" lon="120.659374"/>
<trkpt lat="24.182637" lon="120.659401"/>
<trkpt lat="24.182644" lon="120.659938"/>
<trkpt lat="24.182648" lon="120.660050"/>
<trkpt lat="24.182648" lon="120.660118"/>
<trkpt lat="24.182637" lon="120.660129"/>
<trkpt lat="24.182575" lon="120.660130"/>
<trkpt lat="24.182505" lon="120.660132"/>
<trkpt lat="24.182510" lon="120.660529"/>
<trkpt lat="24.182527" lon="120.661774"/>
<trkpt lat="24.182490" lon="120.661823"/>
<trkpt lat="24.181496" lon="120.661846"/>
<trkpt lat="24.181498" lon="120.661914"/>
<trkpt lat="24.181500" lon="120.661970"/>
<trkpt lat="24.181462" lon="120.661994"/>
<trkpt lat="24.181397" lon="120.661995"/>
<trkpt lat="24.181354" lon="120.661995"/>
<trkpt lat="24.181371" lon="120.662928"/>
<trkpt lat="24.181364" lon="120.662955"/>
<trkpt lat="24.181347" lon="120.662966"/>
<trkpt lat="24.181352" lon="120.663042"/>
<trkpt lat="24.181352" lon="120.663133"/>
<trkpt lat="24.180602" lon="120.663154"/>
<trkpt lat="24.180573" lon="120.663202"/>
<trkpt lat="24.180516" lon="120.663202"/>
<trkpt lat="24.180460" lon="120.663202"/>
<trkpt lat="24.180456" lon="120.663745"/>
<trkpt lat="24.180440" lon="120.663785"/>
<trkpt lat="24.180440" lon="120.663856"/>
<trkpt lat="24.180442" lon="120.663919"/>
<trkpt lat="24.180443" lon="120.663934"/>
<trkpt lat="24.180455" lon="120.663975"/>
<trkpt lat="24.180448" lon="120.664469"/>
<trkpt lat="24.180425" lon="120.664511"/>
<trkpt lat="24.180412" lon="120.664525"/>
<trkpt lat="24.179026" lon="120.664536"/>
<trkpt lat="24.179007" lon="120.664508"/>
<trkpt lat="24.178933" lon="120.664509"/>
<trkpt lat="24.178892" lon="120.664509"/>
<trkpt lat="24.178859" lon="120.664528"/>
<trkpt lat="24.178219" lon="120.664539"/>
<trkpt lat="24.178218" lon="120.664648"/>
<trkpt lat="24.178217" lon="120.664743"/>
<trkpt lat="24.178189" lon="120.664783"/>
<trkpt lat="24.178123" lon="120.664783"/>
<trkpt lat="24.178044" lon="120.664783"/>
<trkpt lat="24.178033" lon="120.664765"/>
<trkpt lat="24.178008" lon="120.664768"/>
<trkpt lat="24.176678" lon="120.664761"/>
<trkpt lat="24.176669" lon="120.664653"/>
<trkpt lat="24.176623" lon="120.664637"/>
<trkpt lat="24.176576" lon="120.664618"/>
<trkpt lat="24.176505" lon="120.664928"/>
<trkpt lat="24.176487" lon="120.665165"/>
<trkpt lat="24.176441" lon="120.665283"/>
<trkpt lat="24.176427" lon="120.665490"/>
<trkpt lat="24.176397" lon="120.665933"/>
<trkpt lat="24.176140" lon="120.665897"/>
<trkpt lat="24.176069" lon="120.665888"/>
<trkpt lat="24.175478" lon="120.665804"/>
<trkpt lat="24.175378" lon="120.666071"/>
<trkpt lat="24.174929" lon="120.665919"/>
<trkpt lat="24.174882" lon="120.665892"/>
<trkpt lat="24.174462" lon="120.665707"/>
<trkpt lat="24.174243" lon="120.665854"/>
<trkpt lat="24.174228" lon="120.665830"/>
<trkpt lat="24.174058" lon="120.665919"/>
<trkpt lat="24.174106" lon="120.666021"/>
<trkpt lat="24.173830" lon="120.666294"/>
<trkpt lat="24.173956" lon="120.666439"/>
<trkpt lat="24.174065" lon="120.666564"/>
<trkpt lat="24.174178" lon="120.666693"/>
<trkpt lat="24.174297" lon="120.666830"/>
<trkpt lat="24.174317" lon="120.666852"/>
<trkpt lat="24.174205" lon="120.666996"/>
<trkpt lat="24.173866" lon="120.666757"/>
<trkpt lat="24.173522" lon="120.667301"/>
<trkpt lat="24.173323" lon="120.667195"/>
<trkpt lat="24.173210" lon="120.667075"/>
<trkpt lat="24.173004" lon="120.666984"/>
<trkpt lat="24.172908" lon="120.666956"/>
<trkpt lat="24.172327" lon="120.666828"/>
<trkpt lat="24.171671" lon="120.666739"/>
<trkpt lat="24.171138" lon="120.666727"/>
<trkpt lat="24.170665" lon="120.666680"/>
<trkpt lat="24.170437" lon="120.666586"/>
<trkpt lat="24.170110" lon="120.666428"/>
<trkpt lat="24.169871" lon="120.666348"/>
<trkpt lat="24.169785" lon="120.666308"/>
<trkpt lat="24.169805" lon="120.665674"/>
<trkpt lat="24.169186" lon="120.665471"/>
<trkpt lat="24.168555" lon="120.665299"/>
<trkpt lat="24.167829" lon="120.665037"/>
<trkpt lat="24.167630" lon="120.664631"/>
<trkpt lat="24.167342" lon="120.664085"/>
<trkpt lat="24.167067" lon="120.663570"/>
<trkpt lat="24.166905" lon="120.663655"/>
<trkpt lat="24.166288" lon="120.664006"/>
<trkpt lat="24.166128" lon="120.663700"/>
<trkpt lat="24.165933" lon="120.663799"/>
<trkpt lat="24.165816" lon="120.663876"/>
<trkpt lat="24.165616" lon="120.663997"/>
<trkpt lat="24.165357" lon="120.663484"/>
<trkpt lat="24.165108" lon="120.662983"/>
<trkpt lat="24.164826" lon="120.662436"/>
<trkpt lat="24.165362" lon="120.662216"/>
<trkpt lat="24.165306" lon="120.662104"/>
<trkpt lat="24.165003" lon="120.661490"/>
<trkpt lat="24.164451" lon="120.660393"/>
<trkpt lat="24.164247" lon="120.660522"/>
<trkpt lat="24.164143" lon="120.660645"/>
<trkpt lat="24.164043" lon="120.660567"/>
<trkpt lat="24.163920" lon="120.660482"/>
<trkpt lat="24.163796" lon="120.660380"/>
<trkpt lat="24.163671" lon="120.660166"/>
<trkpt lat="24.163406" lon="120.659671"/>
<trkpt lat="24.163153" lon="120.659118"/>
<trkpt lat="24.162781" lon="120.658440"/>
<trkpt lat="24.162642" lon="120.658107"/>
<trkpt lat="24.162514" lon="120.658009"/>
<trkpt lat="24.162298" lon="120.657874"/>
<trkpt lat="24.162668" lon="120.657199"/>
<trkpt lat="24.163016" lon="120.657329"/>
<trkpt lat="24.163072" lon="120.657350"/>
<trkpt lat="24.163092" lon="120.657282"/>
<trkpt lat="24.163104" lon="120.657258"/>
<trkpt lat="24.163151" lon="120.657262"/>
<trkpt lat="24.163185" lon="120.657241"/>
<trkpt lat="24.163202" lon="120.657200"/>
<trkpt lat="24.163269" lon="120.657244"/>
<trkpt lat="24.163313" lon="120.657173"/>
<trkpt lat="24.163328" lon="120.657142"/>
<trkpt lat="24.163444" lon="120.656895"/>
<trkpt lat="24.162859" lon="120.656686"/>
<trkpt lat="24.162281" lon="120.656481"/>
<trkpt lat="24.162391" lon="120.655928"/>
<trkpt lat="24.162397" lon="120.655834"/>
<trkpt lat="24.162371" lon="120.655723"/>
<trkpt lat="24.162275" lon="120.655475"/>
<trkpt lat="24.162324" lon="120.655391"/>
<trkpt lat="24.162253" lon="120.655325"/>
<trkpt lat="24.162209" lon="120.655193"/>
<trkpt lat="24.162200" lon="120.655071"/>
<trkpt lat="24.161981" lon="120.654909"/>
<trkpt lat="24.161937" lon="120.654776"/>
<trkpt lat="24.161915" lon="120.654634"/>
<trkpt lat="24.162019" lon="120.654548"/>
<trkpt lat="24.162143" lon="120.654394"/>
<trkpt lat="24.162348" lon="120.654094"/>
<trkpt lat="24.162446" lon="120.653925"/>
<trkpt lat="24.162649" lon="120.653606"/>
<trkpt lat="24.162694" lon="120.653532"/>
<trkpt lat="24.162776" lon="120.653402"/>
<trkpt lat="24.163068" lon="120.652907"/>
<trkpt lat="24.162033" lon="120.652236"/>
<trkpt lat="24.162313" lon="120.651738"/>
<trkpt lat="24.162736" lon="120.650945"/>
<trkpt lat="24.162282" lon="120.650631"/>
<trkpt lat="24.162521" lon="120.650202"/>
<trkpt lat="24.162651" lon="120.649954"/>
<trkpt lat="24.162671" lon="120.649917"/>
<trkpt lat="24.162701" lon="120.649935"/>
<trkpt lat="24.162767" lon="120.649915"/>
<trkpt lat="24.162827" lon="120.649813"/>
<trkpt lat="24.162913" lon="120.649667"/>
<trkpt lat="24.162966" lon="120.649578"/>
<trkpt lat="24.162893" lon="120.649531"/>
<trkpt lat="24.162855" lon="120.649508"/>
<trkpt lat="24.163374" lon="120.648560"/>
<trkpt lat="24.163423" lon="120.648589"/>
<trkpt lat="24.164396" lon="120.646774"/>
<trkpt lat="24.164467" lon="120.646662"/>
<trkpt lat="24.164623" lon="120.646427"/>
<trkpt lat="24.164912" lon="120.646602"/>
<trkpt lat="24.165108" lon="120.646712"/>
<trkpt lat="24.165660" lon="120.645705"/>
<trkpt lat="24.165687" lon="120.645684"/>
<trkpt lat="24.165854" lon="120.645711"/>
<trkpt lat="24.166006" lon="120.645741"/>
<trkpt lat="24.166141" lon="120.645772"/>
<trkpt lat="24.166264" lon="120.645797"/>
<trkpt lat="24.166577" lon="120.645355"/>
<trkpt lat="24.166885" lon="120.644920"/>
<trkpt lat="24.166392" lon="120.644325"/>
<trkpt lat="24.166561" lon="120.644128"/>
<trkpt lat="24.166565" lon="120.644067"/>
<trkpt lat="24.166588" lon="120.644038"/>
<trkpt lat="24.166668" lon="120.643935"/>
<trkpt lat="24.166743" lon="120.643838"/>
<trkpt lat="24.166790" lon="120.643780"/>
<trkpt lat="24.167045" lon="120.643450"/>
<trkpt lat="24.167110" lon="120.643404"/>
<trkpt lat="24.167262" lon="120.643398"/>
<trkpt lat="24.167592" lon="120.643399"/>
<trkpt lat="24.167870" lon="120.643411"/>
<trkpt lat="24.167922" lon="120.643433"/>
<trkpt lat="24.168083" lon="120.643518"/>
<trkpt lat="24.168530" lon="120.643981"/>
<trkpt lat="24.168864" lon="120.644326"/>
<trkpt lat="24.169244" lon="120.644720"/>
<trkpt lat="24.169841" lon="120.644013"/>
<trkpt lat="24.169980" lon="120.643848"/>
<trkpt lat="24.170011" lon="120.643811"/>
<trkpt lat="24.170100" lon="120.643705"/>
<trkpt lat="24.170385" lon="120.643368"/>
<trkpt lat="24.170449" lon="120.643292"/>
<trkpt lat="24.170962" lon="120.643807"/>
<trkpt lat="24.171162" lon="120.644008"/>
<trkpt lat="24.171393" lon="120.643728"/>
<trkpt lat="24.171435" lon="120.643721"/>
<trkpt lat="24.171494" lon="120.643762"/>
<trkpt lat="24.171555" lon="120.643760"/>
<trkpt lat="24.171613" lon="120.643749"/>
<trkpt lat="24.171334" lon="120.644181"/>
<trkpt lat="24.171269" lon="120.644256"/>
<trkpt lat="24.170684" lon="120.644927"/>
<trkpt lat="24.170150" lon="120.644347"/>
<trkpt lat="24.169841" lon="120.644013"/>
<trkpt lat="24.169244" lon="120.644720"/>
<trkpt lat="24.169671" lon="120.645233"/>
<trkpt lat="24.169269" lon="120.645650"/>
<trkpt lat="24.169111" lon="120.645476"/>
<trkpt lat="24.168878" lon="120.645686"/>
<trkpt lat="24.169404" lon="120.646399"/>
<trkpt lat="24.168954" lon="120.646916"/>
<trkpt lat="24.168929" lon="120.646944"/>
<trkpt lat="24.168778" lon="120.647086"/>
<trkpt lat="24.168722" lon="120.647140"/>
<trkpt lat="24.168587" lon="120.647274"/>
<trkpt lat="24.168514" lon="120.647350"/>
<trkpt lat="24.168162" lon="120.647757"/>
<trkpt lat="24.167789" lon="120.648248"/>
<trkpt lat="24.167875" lon="120.648296"/>
<trkpt lat="24.168734" lon="120.648802"/>
<trkpt lat="24.168329" lon="120.649183"/>
<trkpt lat="24.168090" lon="120.649384"/>
<trkpt lat="24.167608" lon="120.649811"/>
<trkpt lat="24.168170" lon="120.650511"/>
<trkpt lat="24.167954" lon="120.650742"/>
<trkpt lat="24.167672" lon="120.651046"/>
<trkpt lat="24.167456" lon="120.651256"/>
<trkpt lat="24.167192" lon="120.651553"/>
<trkpt lat="24.167557" lon="120.651963"/>
<trkpt lat="24.167226" lon="120.652299"/>
<trkpt lat="24.167629" lon="120.652764"/>
<trkpt lat="24.167262" lon="120.653152"/>
<trkpt lat="24.167379" lon="120.653294"/>
<trkpt lat="24.167972" lon="120.654011"/>
<trkpt lat="24.167852" lon="120.654138"/>
<trkpt lat="24.167991" lon="120.654321"/>
<trkpt lat="24.168265" lon="120.654679"/>
<trkpt lat="24.168136" lon="120.654785"/>
<trkpt lat="24.167822" lon="120.655099"/>
<trkpt lat="24.167429" lon="120.655479"/>
<trkpt lat="24.167814" lon="120.655913"/>
<trkpt lat="24.168207" lon="120.655519"/>
<trkpt lat="24.168273" lon="120.655601"/>
<trkpt lat="24.169017" lon="120.656544"/>
<trkpt lat="24.169418" lon="120.656202"/>
<trkpt lat="24.169612" lon="120.656078"/>
<trkpt lat="24.170188" lon="120.656995"/>
<trkpt lat="24.170606" lon="120.657820"/>
<trkpt lat="24.170944" lon="120.657623"/>
<trkpt lat="24.171314" lon="120.657565"/>
<trkpt lat="24.171986" lon="120.657511"/>
<trkpt lat="24.172901" lon="120.657471"/>
<trkpt lat="24.172873" lon="120.656516"/>
<trkpt lat="24.173550" lon="120.656481"/>
<trkpt lat="24.174032" lon="120.656456"/>
<trkpt lat="24.174024" lon="120.656357"/>
<trkpt lat="24.174134" lon="120.656340"/>
<trkpt lat="24.175227" lon="120.656192"/>
<trkpt lat="24.175170" lon="120.655930"/>
<trkpt lat="24.175056" lon="120.655409"/>
<trkpt lat="24.174972" lon="120.655430"/>
<trkpt lat="24.174960" lon="120.655332"/>
<trkpt lat="24.174944" lon="120.655204"/>
<trkpt lat="24.175071" lon="120.655182"/>
<trkpt lat="24.176003" lon="120.655058"/>
<trkpt lat="24.176024" lon="120.655036"/>
<trkpt lat="24.176037" lon="120.655007"/>
<trkpt lat="24.175997" lon="120.654978"/>
<trkpt lat="24.175971" lon="120.654940"/>
<trkpt lat="24.175947" lon="120.654884"/>
<trkpt lat="24.175937" lon="120.654838"/>
<trkpt lat="24.175934" lon="120.654613"/>
<trkpt lat="24.175938" lon="120.654530"/>
<trkpt lat="24.175949" lon="120.654465"/>
<trkpt lat="24.175978" lon="120.654413"/>
<trkpt lat="24.176011" lon="120.654376"/>
<trkpt lat="24.176043" lon="120.654353"/>
<trkpt lat="24.176028" lon="120.654336"/>
<trkpt lat="24.176012" lon="120.654324"/>
<trkpt lat="24.175992" lon="120.654321"/>
<trkpt lat="24.175964" lon="120.654309"/>
<trkpt lat="24.175942" lon="120.654290"/>
<trkpt lat="24.175917" lon="120.654253"/>
<trkpt lat="24.175863" lon="120.654190"/>
<trkpt lat="24.175822" lon="120.654127"/>
<trkpt lat="24.175795" lon="120.654063"/>
<trkpt lat="24.175783" lon="120.654007"/>
<trkpt lat="24.175785" lon="120.653950"/>
<trkpt lat="24.175808" lon="120.653915"/>
<trkpt lat="24.175953" lon="120.654031"/>
<trkpt lat="24.176031" lon="120.654032"/>
<trkpt lat="24.176032" lon="120.653923"/>
<trkpt lat="24.176033" lon="120.653813"/>
<trkpt lat="24.176106" lon="120.653814"/>
<trkpt lat="24.176104" lon="120.653761"/>
<trkpt lat="24.176113" lon="120.653301"/>
<trkpt lat="24.176101" lon="120.652606"/>
<trkpt lat="24.175435" lon="120.652598"/>
<trkpt lat="24.175433" lon="120.652075"/>
<trkpt lat="24.175435" lon="120.651657"/>
<trkpt lat="24.175318" lon="120.651210"/>
<trkpt lat="24.175133" lon="120.650503"/>
<trkpt lat="24.175060" lon="120.650503"/>
<trkpt lat="24.174828" lon="120.650502"/>
<trkpt lat="24.174837" lon="120.649969"/>
<trkpt lat="24.174719" lon="120.650049"/>
<trkpt lat="24.174608" lon="120.650080"/>
<trkpt lat="24.174489" lon="120.650063"/>
<trkpt lat="24.174062" lon="120.650358"/>
<trkpt lat="24.173848" lon="120.650094"/>
<trkpt lat="24.173260" lon="120.649668"/>
<trkpt lat="24.173124" lon="120.649619"/>
<trkpt lat="24.172927" lon="120.649591"/>
<trkpt lat="24.172862" lon="120.649550"/>
<trkpt lat="24.172797" lon="120.649479"/>
<trkpt lat="24.173165" lon="120.649046"/>
<trkpt lat="24.173281" lon="120.648909"/>
<trkpt lat="24.173602" lon="120.648531"/>
<trkpt lat="24.173633" lon="120.648494"/>
<trkpt lat="24.173744" lon="120.648364"/>
<trkpt lat="24.174019" lon="120.648039"/>
<trkpt lat="24.174113" lon="120.647929"/>
<trkpt lat="24.174181" lon="120.647855"/>
<trkpt lat="24.174880" lon="120.646892"/>
<trkpt lat="24.174823" lon="120.646729"/>
<trkpt lat="24.174761" lon="120.646516"/>
<trkpt lat="24.174768" lon="120.646445"/>
<trkpt lat="24.174847" lon="120.646215"/>
</trkseg></trk>
</gpx>