<?xml version="1.0" encoding="UTF-8"?>
<gpx version="1.1" creator="catrun" xmlns="http://www.topografix.com/GPX/1/1">
<metadata><name>西屯區 蹲坐貓咪（側面） 圖形路跑路線</name></metadata>
<wpt lat="24.168049" lon="120.651073"><name>洛陽公園</name><desc>地標</desc></wpt>
<wpt lat="24.168709" lon="120.651972"><name>櫻花棒球場(西苑高中棒球練習場)</name><desc>地標</desc></wpt>
<wpt lat="24.172227" lon="120.648968"><name>福星公園</name><desc>地標</desc></wpt>
<trk><name>西屯區 蹲坐貓咪（側面） 圖形路跑路線</name><trkseg>
<trkpt lat="24.165365" lon="120.653040"/>
<trkpt lat="24.165420" lon="120.652926"/>
<trkpt lat="24.166025" lon="120.653276"/>
<trkpt lat="24.166260" lon="120.653390"/>
<trkpt lat="24.166506" lon="120.652598"/>
<trkpt lat="24.166552" lon="120.652427"/>
<trkpt lat="24.166742" lon="120.651741"/>
<trkpt lat="24.167226" lon="120.652299"/>
<trkpt lat="24.167557" lon="120.651963"/>
<trkpt lat="24.168065" lon="120.651456"/>
<trkpt lat="24.169186" lon="120.650336"/>
<trkpt lat="24.169543" lon="120.651005"/>
<trkpt lat="24.169684" lon="120.650778"/>
<trkpt lat="24.170380" lon="120.651555"/>
<trkpt lat="24.170590" lon="120.651340"/>
<trkpt lat="24.170890" lon="120.651596"/>
<trkpt lat="24.171103" lon="120.651773"/>
<trkpt lat="24.171435" lon="120.651952"/>
<trkpt lat="24.171518" lon="120.651997"/>
<trkpt lat="24.171591" lon="120.651978"/>
<trkpt lat="24.171827" lon="120.651632"/>
<trkpt lat="24.172183" lon="120.651098"/>
<trkpt lat="24.172553" lon="120.650581"/>
<trkpt lat="24.173182" lon="120.650974"/>
<trkpt lat="24.173421" lon="120.650802"/>
<trkpt lat="24.173770" lon="120.651244"/>
<trkpt lat="24.173994" lon="120.651638"/>
<trkpt lat="24.174298" lon="120.652182"/>
<trkpt lat="24.174797" lon="120.652178"/>
<trkpt lat="24.174807" lon="120.651631"/>
<trkpt lat="24.175435" lon="120.651657"/>
<trkpt lat="24.175925" lon="120.651667"/>
<trkpt lat="24.176078" lon="120.651671"/>
<trkpt lat="24.176059" lon="120.651576"/>
<trkpt lat="24.176150" lon="120.651560"/>
<trkpt lat="24.176183" lon="120.651554"/>
<trkpt lat="24.176210" lon="120.651703"/>
<trkpt lat="24.176264" lon="120.651753"/>
<trkpt lat="24.176305" lon="120.651774"/>
<trkpt lat="24.176366" lon="120.651773"/>
<trkpt lat="24.177043" lon="120.651762"/>
<trkpt lat="24.177080" lon="120.651735"/>
<trkpt lat="24.177088" lon="120.651722"/>
<trkpt lat="24.177099" lon="120.651705"/>
<trkpt lat="24.177110" lon="120.651640"/>
<trkpt lat="24.177078" lon="120.650481"/>
<trkpt lat="24.177120" lon="120.650480"/>
<trkpt lat="24.177159" lon="120.650480"/>
<trkpt lat="24.177180" lon="120.650455"/>
<trkpt lat="24.177998" lon="120.650445"/>
<trkpt lat="24.178054" lon="120.650461"/>
<trkpt lat="24.178060" lon="120.651732"/>
<trkpt lat="24.178040" lon="120.651748"/>
<trkpt lat="24.178022" lon="120.651762"/>
<trkpt lat="24.178017" lon="120.651844"/>
<trkpt lat="24.178012" lon="120.651953"/>
<trkpt lat="24.178013" lon="120.652014"/>
<trkpt lat="24.177261" lon="120.652021"/>
<trkpt lat="24.177152" lon="120.652021"/>
<trkpt lat="24.177152" lon="120.652078"/>
<trkpt lat="24.177172" lon="120.653705"/>
<trkpt lat="24.177172" lon="120.653753"/>
<trkpt lat="24.177163" lon="120.653783"/>
<trkpt lat="24.177146" lon="120.653810"/>
<trkpt lat="24.177129" lon="120.653830"/>
<trkpt lat="24.177108" lon="120.653841"/>
<trkpt lat="24.177079" lon="120.653841"/>
<trkpt lat="24.176314" lon="120.653866"/>
<trkpt lat="24.176285" lon="120.653868"/>
<trkpt lat="24.176287" lon="120.653916"/>
<trkpt lat="24.176258" lon="120.653918"/>
<trkpt lat="24.176201" lon="120.653921"/>
<trkpt lat="24.176111" lon="120.653922"/>
<trkpt lat="24.176032" lon="120.653923"/>
<trkpt lat="24.176031" lon="120.654032"/>
<trkpt lat="24.175953" lon="120.654031"/>
<trkpt lat="24.175808" lon="120.653915"/>
<trkpt lat="24.175785" lon="120.653950"/>
<trkpt lat="24.175783" lon="120.654007"/>
<trkpt lat="24.175795" lon="120.654063"/>
<trkpt lat="24.175822" lon="120.654127"/>
<trkpt lat="24.175863" lon="120.654190"/>
<trkpt lat="24.175917" lon="120.654253"/>
<trkpt lat="24.175942" lon="120.654290"/>
<trkpt lat="24.175964" lon="120.654309"/>
<trkpt lat="24.175992" lon="120.654321"/>
<trkpt lat="24.176012" lon="120.654324"/>
<trkpt lat="24.176028" lon="120.654336"/>
<trkpt lat="24.176043" lon="120.654353"/>
<trkpt lat="24.176011" lon="120.654376"/>
<trkpt lat="24.175978" lon="120.654413"/>
<trkpt lat="24.175949" lon="120.654465"/>
<trkpt lat="24.175938" lon="120.654530"/>
<trkpt lat="24.175934" lon="120.654613"/>
<trkpt lat="24.175937" lon="120.654838"/>
<trkpt lat="24.175947" lon="120.654884"/>
<trkpt lat="24.175971" lon="120.654940"/>
<trkpt lat="24.175997" lon="120.654978"/>
<trkpt lat="24.176037" lon="120.655007"/>
<trkpt lat="24.176104" lon="120.655006"/>
<trkpt lat="24.176198" lon="120.655002"/>
<trkpt lat="24.176325" lon="120.654998"/>
<trkpt lat="24.176356" lon="120.655017"/>
<trkpt lat="24.176390" lon="120.655025"/>
<trkpt lat="24.176379" lon="120.655122"/>
<trkpt lat="24.176370" lon="120.655222"/>
<trkpt lat="24.176592" lon="120.655255"/>
<trkpt lat="24.178024" lon="120.655438"/>
<trkpt lat="24.178056" lon="120.655479"/>
<trkpt lat="24.178126" lon="120.655493"/>
<trkpt lat="24.178187" lon="120.655506"/>
<trkpt lat="24.178236" lon="120.655464"/>
<trkpt lat="24.178243" lon="120.655340"/>
<trkpt lat="24.178248" lon="120.655250"/>
<trkpt lat="24.178214" lon="120.655209"/>
<trkpt lat="24.178468" lon="120.655271"/>
<trkpt lat="24.178546" lon="120.655261"/>
<trkpt lat="24.178589" lon="120.655256"/>
<trkpt lat="24.178671" lon="120.655219"/>
<trkpt lat="24.178748" lon="120.655189"/>
<trkpt lat="24.178808" lon="120.655188"/>
<trkpt lat="24.178876" lon="120.655247"/>
<trkpt lat="24.178939" lon="120.655292"/>
<trkpt lat="24.179007" lon="120.655303"/>
<trkpt lat="24.179077" lon="120.655276"/>
<trkpt lat="24.179111" lon="120.655290"/>
<trkpt lat="24.179202" lon="120.655323"/>
<trkpt lat="24.179355" lon="120.655325"/>
<trkpt lat="24.179463" lon="120.655316"/>
<trkpt lat="24.179501" lon="120.655313"/>
<trkpt lat="24.179594" lon="120.655294"/>
<trkpt lat="24.179757" lon="120.655250"/>
<trkpt lat="24.179844" lon="120.655269"/>
<trkpt lat="24.179929" lon="120.655294"/>
<trkpt lat="24.180062" lon="120.655294"/>
<trkpt lat="24.179960" lon="120.655550"/>
<trkpt lat="24.179921" lon="120.655648"/>
<trkpt lat="24.179898" lon="120.655736"/>
<trkpt lat="24.179881" lon="120.655801"/>
<trkpt lat="24.179903" lon="120.655935"/>
<trkpt lat="24.179783" lon="120.656123"/>
<trkpt lat="24.179634" lon="120.656321"/>
<trkpt lat="24.179507" lon="120.656394"/>
<trkpt lat="24.179350" lon="120.656378"/>
<trkpt lat="24.179133" lon="120.656233"/>
<trkpt lat="24.179020" lon="120.656177"/>
<trkpt lat="24.178903" lon="120.656190"/>
<trkpt lat="24.178717" lon="120.656337"/>
<trkpt lat="24.178555" lon="120.656501"/>
<trkpt lat="24.178171" lon="120.656551"/>
<trkpt lat="24.178174" lon="120.658521"/>
<trkpt lat="24.178200" lon="120.658556"/>
<trkpt lat="24.178216" lon="120.658553"/>
<trkpt lat="24.178213" lon="120.658654"/>
<trkpt lat="24.178210" lon="120.658737"/>
<trkpt lat="24.178207" lon="120.658818"/>
<trkpt lat="24.178190" lon="120.658839"/>
<trkpt lat="24.178169" lon="120.658864"/>
<trkpt lat="24.178099" lon="120.658886"/>
<trkpt lat="24.178048" lon="120.658902"/>
<trkpt lat="24.178043" lon="120.660419"/>
<trkpt lat="24.178003" lon="120.660464"/>
<trkpt lat="24.177533" lon="120.660457"/>
<trkpt lat="24.177536" lon="120.660512"/>
<trkpt lat="24.177538" lon="120.660554"/>
<trkpt lat="24.177505" lon="120.660580"/>
<trkpt lat="24.177425" lon="120.660581"/>
<trkpt lat="24.177363" lon="120.660582"/>
<trkpt lat="24.176471" lon="120.660567"/>
<trkpt lat="24.176472" lon="120.660503"/>
<trkpt lat="24.176324" lon="120.660502"/>
<trkpt lat="24.176320" lon="120.661275"/>
<trkpt lat="24.176319" lon="120.661535"/>
<trkpt lat="24.176318" lon="120.661690"/>
<trkpt lat="24.176315" lon="120.661950"/>
<trkpt lat="24.176314" lon="120.662012"/>
<trkpt lat="24.176314" lon="120.662070"/>
<trkpt lat="24.176309" lon="120.662533"/>
<trkpt lat="24.176306" lon="120.662737"/>
<trkpt lat="24.176304" lon="120.662981"/>
<trkpt lat="24.176303" lon="120.663014"/>
<trkpt lat="24.176303" lon="120.663090"/>
<trkpt lat="24.176302" lon="120.663183"/>
<trkpt lat="24.176301" lon="120.663274"/>
<trkpt lat="24.176300" lon="120.663317"/>
<trkpt lat="24.176299" lon="120.663456"/>
<trkpt lat="24.176298" lon="120.663488"/>
<trkpt lat="24.176297" lon="120.663585"/>
<trkpt lat="24.176293" lon="120.663753"/>
<trkpt lat="24.176292" lon="120.664038"/>
<trkpt lat="24.176292" lon="120.664080"/>
<trkpt lat="24.176292" lon="120.664122"/>
<trkpt lat="24.176299" lon="120.664194"/>
<trkpt lat="24.176315" lon="120.664266"/>
<trkpt lat="24.176348" lon="120.664354"/>
<trkpt lat="24.176244" lon="120.664460"/>
<trkpt lat="24.176140" lon="120.664608"/>
<trkpt lat="24.176014" lon="120.664791"/>
<trkpt lat="24.176230" lon="120.665037"/>
<trkpt lat="24.176487" lon="120.665165"/>
<trkpt lat="24.176441" lon="120.665283"/>
<trkpt lat="24.176427" lon="120.665490"/>
<trkpt lat="24.176397" lon="120.665933"/>
<trkpt lat="24.176507" lon="120.665953"/>
<trkpt lat="24.176395" lon="120.666649"/>
<trkpt lat="24.176357" lon="120.667019"/>
<trkpt lat="24.175695" lon="120.666919"/>
<trkpt lat="24.175556" lon="120.667499"/>
<trkpt lat="24.175822" lon="120.667575"/>
<trkpt lat="24.175672" lon="120.668192"/>
<trkpt lat="24.175612" lon="120.668447"/>
<trkpt lat="24.175702" lon="120.668592"/>
<trkpt lat="24.175746" lon="120.668654"/>
<trkpt lat="24.175776" lon="120.668683"/>
<trkpt lat="24.175863" lon="120.668790"/>
<trkpt lat="24.175876" lon="120.668930"/>
<trkpt lat="24.175917" lon="120.669056"/>
<trkpt lat="24.176150" lon="120.669422"/>
<trkpt lat="24.176516" lon="120.669899"/>
<trkpt lat="24.176471" lon="120.669934"/>
<trkpt lat="24.176578" lon="120.670023"/>
<trkpt lat="24.176410" lon="120.670134"/>
<trkpt lat="24.176285" lon="120.670226"/>
<trkpt lat="24.175893" lon="120.670500"/>
<trkpt lat="24.175675" lon="120.670667"/>
<trkpt lat="24.175434" lon="120.670841"/>
<trkpt lat="24.175493" lon="120.670956"/>
<trkpt lat="24.175544" lon="120.671001"/>
<trkpt lat="24.175681" lon="120.671122"/>
<trkpt lat="24.175723" lon="120.671154"/>
<trkpt lat="24.175781" lon="120.671395"/>
<trkpt lat="24.175315" lon="120.671590"/>
<trkpt lat="24.175445" lon="120.671856"/>
<trkpt lat="24.175579" lon="120.672091"/>
<trkpt lat="24.174818" lon="120.672555"/>
<trkpt lat="24.174723" lon="120.672667"/>
<trkpt lat="24.174691" lon="120.672485"/>
<trkpt lat="24.174163" lon="120.672577"/>
<trkpt lat="24.174227" lon="120.673020"/>
<trkpt lat="24.174224" lon="120.673169"/>
<trkpt lat="24.174214" lon="120.673413"/>
<trkpt lat="24.174163" lon="120.673780"/>
<trkpt lat="24.174157" lon="120.673849"/>
<trkpt lat="24.174071" lon="120.673841"/>
<trkpt lat="24.173848" lon="120.673899"/>
<trkpt lat="24.173752" lon="120.673915"/>
<trkpt lat="24.173771" lon="120.673988"/>
<trkpt lat="24.173778" lon="120.674074"/>
<trkpt lat="24.173555" lon="120.675024"/>
<trkpt lat="24.173545" lon="120.675074"/>
<trkpt lat="24.173534" lon="120.675122"/>
<trkpt lat="24.173378" lon="120.675971"/>
<trkpt lat="24.173339" lon="120.676030"/>
<trkpt lat="24.173433" lon="120.676050"/>
<trkpt lat="24.173599" lon="120.676079"/>
<trkpt lat="24.173583" lon="120.676157"/>
<trkpt lat="24.173682" lon="120.676175"/>
<trkpt lat="24.173977" lon="120.676226"/>
<trkpt lat="24.173886" lon="120.676829"/>
<trkpt lat="24.173882" lon="120.676856"/>
<trkpt lat="24.173826" lon="120.677233"/>
<trkpt lat="24.174299" lon="120.677318"/>
<trkpt lat="24.174291" lon="120.677390"/>
<trkpt lat="24.174191" lon="120.678234"/>
<trkpt lat="24.174185" lon="120.678301"/>
<trkpt lat="24.174174" lon="120.678377"/>
<trkpt lat="24.174113" lon="120.678881"/>
<trkpt lat="24.174103" lon="120.678961"/>
<trkpt lat="24.174098" lon="120.679011"/>
<trkpt lat="24.174074" lon="120.679254"/>
<trkpt lat="24.174048" lon="120.679520"/>
<trkpt lat="24.174042" lon="120.679577"/>
<trkpt lat="24.174034" lon="120.679646"/>
<trkpt lat="24.174010" lon="120.679848"/>
<trkpt lat="24.174094" lon="120.679869"/>
<trkpt lat="24.174342" lon="120.679931"/>
<trkpt lat="24.174541" lon="120.679985"/>
<trkpt lat="24.174807" lon="120.680056"/>
<trkpt lat="24.175104" lon="120.680198"/>
<trkpt lat="24.175153" lon="120.680226"/>
<trkpt lat="24.175316" lon="120.680327"/>
<trkpt lat="24.175535" lon="120.680517"/>
<trkpt lat="24.175718" lon="120.680706"/>
<trkpt lat="24.175750" lon="120.680747"/>
<trkpt lat="24.175702" lon="120.680803"/>
<trkpt lat="24.175760" lon="120.680866"/>
<trkpt lat="24.175803" lon="120.680913"/>
<trkpt lat="24.175846" lon="120.680864"/>
<trkpt lat="24.175802" lon="120.680815"/>
<trkpt lat="24.175750" lon="120.680747"/>
<trkpt lat="24.175718" lon="120.680706"/>
<trkpt lat="24.175535" lon="120.680517"/>
<trkpt lat="24.175316" lon="120.680327"/>
<trkpt lat="24.175153" lon="120.680226"/>
<trkpt lat="24.175104" lon="120.680198"/>
<trkpt lat="24.175091" lon="120.680287"/>
<trkpt lat="24.175212" lon="120.680352"/>
<trkpt lat="24.175209" lon="120.680206"/>
<trkpt lat="24.175221" lon="120.680017"/>
<trkpt lat="24.175172" lon="120.679992"/>
<trkpt lat="24.175135" lon="120.679974"/>
<trkpt lat="24.175075" lon="120.679931"/>
<trkpt lat="24.175089" lon="120.679868"/>
<trkpt lat="24.174867" lon="120.679791"/>
<trkpt lat="24.174735" lon="120.679747"/>
<trkpt lat="24.174642" lon="120.679729"/>
<trkpt lat="24.174583" lon="120.679723"/>
<trkpt lat="24.174125" lon="120.679600"/>
<trkpt lat="24.174042" lon="120.679577"/>
<trkpt lat="24.173996" lon="120.679569"/>
<trkpt lat="24.173510" lon="120.679479"/>
<trkpt lat="24.173137" lon="120.679422"/>
<trkpt lat="24.173052" lon="120.679409"/>
<trkpt lat="24.172873" lon="120.679391"/>
<trkpt lat="24.172769" lon="120.679380"/>
<trkpt lat="24.172248" lon="120.679330"/>
<trkpt lat="24.172166" lon="120.679316"/>
<trkpt lat="24.172176" lon="120.679229"/>
<trkpt lat="24.172100" lon="120.679218"/>
<trkpt lat="24.172182" lon="120.678502"/>
<trkpt lat="24.172249" lon="120.677812"/>
<trkpt lat="24.171332" lon="120.677694"/>
<trkpt lat="24.171302" lon="120.678208"/>
<trkpt lat="24.171237" lon="120.678205"/>
<trkpt lat="24.171234" lon="120.678279"/>
<trkpt lat="24.170548" lon="120.678120"/>
<trkpt lat="24.169947" lon="120.677972"/>
<trkpt lat="24.169939" lon="120.678009"/>
<trkpt lat="24.169911" lon="120.678034"/>
<trkpt lat="24.169865" lon="120.678033"/>
<trkpt lat="24.169805" lon="120.678012"/>
<trkpt lat="24.169794" lon="120.677934"/>
<trkpt lat="24.169197" lon="120.677790"/>
<trkpt lat="24.168924" lon="120.677724"/>
<trkpt lat="24.168602" lon="120.677647"/>
<trkpt lat="24.168591" lon="120.678164"/>
<trkpt lat="24.168610" lon="120.678457"/>
<trkpt lat="24.168615" lon="120.678529"/>
<trkpt lat="24.168606" lon="120.678606"/>
<trkpt lat="24.168592" lon="120.678784"/>
<trkpt lat="24.168582" lon="120.678863"/>
<trkpt lat="24.168346" lon="120.678761"/>
<trkpt lat="24.167963" lon="120.678601"/>
<trkpt lat="24.167544" lon="120.678468"/>
<trkpt lat="24.167417" lon="120.679347"/>
<trkpt lat="24.167207" lon="120.679345"/>
<trkpt lat="24.167103" lon="120.679346"/>
<trkpt lat="24.166283" lon="120.679316"/>
<trkpt lat="24.166210" lon="120.679316"/>
<trkpt lat="24.165473" lon="120.679292"/>
<trkpt lat="24.165471" lon="120.679323"/>
<trkpt lat="24.165428" lon="120.679324"/>
<trkpt lat="24.165392" lon="120.680412"/>
<trkpt lat="24.165341" lon="120.680406"/>
<trkpt lat="24.165340" lon="120.680491"/>
<trkpt lat="24.165113" lon="120.680459"/>
<trkpt lat="24.165091" lon="120.681746"/>
<trkpt lat="24.164819" lon="120.681716"/>
<trkpt lat="24.164512" lon="120.681684"/>
<trkpt lat="24.164457" lon="120.681674"/>
<trkpt lat="24.163935" lon="120.681672"/>
<trkpt lat="24.163941" lon="120.681495"/>
<trkpt lat="24.163627" lon="120.681479"/>
<trkpt lat="24.163539" lon="120.681410"/>
<trkpt lat="24.163507" lon="120.681393"/>
<trkpt lat="24.163351" lon="120.681358"/>
<trkpt lat="24.163159" lon="120.681358"/>
<trkpt lat="24.163163" lon="120.681130"/>
<trkpt lat="24.163059" lon="120.681130"/>
<trkpt lat="24.162995" lon="120.681130"/>
<trkpt lat="24.162982" lon="120.681104"/>
<trkpt lat="24.162957" lon="120.681092"/>
<trkpt lat="24.162961" lon="120.680980"/>
<trkpt lat="24.162522" lon="120.680976"/>
<trkpt lat="24.162463" lon="120.680975"/>
<trkpt lat="24.162481" lon="120.680910"/>
<trkpt lat="24.162505" lon="120.680743"/>
<trkpt lat="24.162546" lon="120.679977"/>
<trkpt lat="24.161640" lon="120.679978"/>
<trkpt lat="24.161652" lon="120.679423"/>
<trkpt lat="24.161657" lon="120.679226"/>
<trkpt lat="24.161664" lon="120.678461"/>
<trkpt lat="24.161225" lon="120.678510"/>
<trkpt lat="24.160939" lon="120.678537"/>
<trkpt lat="24.160377" lon="120.678591"/>
<trkpt lat="24.160388" lon="120.677846"/>
<trkpt lat="24.160390" lon="120.677472"/>
<trkpt lat="24.160407" lon="120.676600"/>
<trkpt lat="24.160411" lon="120.676341"/>
<trkpt lat="24.159896" lon="120.676299"/>
<trkpt lat="24.159194" lon="120.676251"/>
<trkpt lat="24.159196" lon="120.676005"/>
<trkpt lat="24.159197" lon="120.675887"/>
<trkpt lat="24.159198" lon="120.675743"/>
<trkpt lat="24.159195" lon="120.675579"/>
<trkpt lat="24.159197" lon="120.675434"/>
<trkpt lat="24.159114" lon="120.675434"/>
<trkpt lat="24.158317" lon="120.675434"/>
<trkpt lat="24.158369" lon="120.674771"/>
<trkpt lat="24.158382" lon="120.674575"/>
<trkpt lat="24.158451" lon="120.673647"/>
<trkpt lat="24.157940" lon="120.673639"/>
<trkpt lat="24.157501" lon="120.673632"/>
<trkpt lat="24.157446" lon="120.673633"/>
<trkpt lat="24.157449" lon="120.672082"/>
<trkpt lat="24.157299" lon="120.672082"/>
<trkpt lat="24.157227" lon="120.672082"/>
<trkpt lat="24.157225" lon="120.671271"/>
<trkpt lat="24.156548" lon="120.671272"/>
<trkpt lat="24.156546" lon="120.671394"/>
<trkpt lat="24.156194" lon="120.671079"/>
<trkpt lat="24.155805" lon="120.670734"/>
<trkpt lat="24.155773" lon="120.670696"/>
<trkpt lat="24.155725" lon="120.670683"/>
<trkpt lat="24.155723" lon="120.670620"/>
<trkpt lat="24.155621" lon="120.670615"/>
<trkpt lat="24.155623" lon="120.670502"/>
<trkpt lat="24.155622" lon="120.670392"/>
<trkpt lat="24.155630" lon="120.670381"/>
<trkpt lat="24.155726" lon="120.670384"/>
<trkpt lat="24.155724" lon="120.669947"/>
<trkpt lat="24.155723" lon="120.669695"/>
<trkpt lat="24.155719" lon="120.669667"/>
<trkpt lat="24.155709" lon="120.669626"/>
<trkpt lat="24.155686" lon="120.669560"/>
<trkpt lat="24.155863" lon="120.669364"/>
<trkpt lat="24.155846" lon="120.668991"/>
<trkpt lat="24.155740" lon="120.668799"/>
<trkpt lat="24.155793" lon="120.668775"/>
<trkpt lat="24.155926" lon="120.668680"/>
<trkpt lat="24.155726" lon="120.668366"/>
<trkpt lat="24.155910" lon="120.667677"/>
<trkpt lat="24.155807" lon="120.667587"/>
<trkpt lat="24.155348" lon="120.667122"/>
<trkpt lat="24.155292" lon="120.667191"/>
<trkpt lat="24.155186" lon="120.667070"/>
<trkpt lat="24.155154" lon="120.667034"/>
<trkpt lat="24.155203" lon="120.666986"/>
<trkpt lat="24.155273" lon="120.666917"/>
<trkpt lat="24.155331" lon="120.666968"/>
<trkpt lat="24.155544" lon="120.666671"/>
<trkpt lat="24.155844" lon="120.666278"/>
<trkpt lat="24.155894" lon="120.666205"/>
<trkpt lat="24.155837" lon="120.666155"/>
<trkpt lat="24.155883" lon="120.666096"/>
<trkpt lat="24.155867" lon="120.666062"/>
<trkpt lat="24.154876" lon="120.664410"/>
<trkpt lat="24.154860" lon="120.664377"/>
<trkpt lat="24.154767" lon="120.664357"/>
<trkpt lat="24.154713" lon="120.664327"/>
<trkpt lat="24.154849" lon="120.664067"/>
<trkpt lat="24.154914" lon="120.664135"/>
<trkpt lat="24.154943" lon="120.664075"/>
<trkpt lat="24.154993" lon="120.663994"/>
<trkpt lat="24.155251" lon="120.664165"/>
<trkpt lat="24.155521" lon="120.664340"/>
<trkpt lat="24.155817" lon="120.664544"/>
<trkpt lat="24.156270" lon="120.663683"/>
<trkpt lat="24.156559" lon="120.663191"/>
<trkpt lat="24.157000" lon="120.662366"/>
<trkpt lat="24.157203" lon="120.661998"/>
<trkpt lat="24.157441" lon="120.661572"/>
<trkpt lat="24.157457" lon="120.661542"/>
<trkpt lat="24.157612" lon="120.661254"/>
<trkpt lat="24.157628" lon="120.661221"/>
<trkpt lat="24.158154" lon="120.661572"/>
<trkpt lat="24.158446" lon="120.661767"/>
<trkpt lat="24.158646" lon="120.661901"/>
<trkpt lat="24.158853" lon="120.661549"/>
<trkpt lat="24.158936" lon="120.661402"/>
<trkpt lat="24.159126" lon="120.661062"/>
<trkpt lat="24.159164" lon="120.660977"/>
<trkpt lat="24.159371" lon="120.660604"/>
<trkpt lat="24.159564" lon="120.660248"/>
<trkpt lat="24.159749" lon="120.659923"/>
<trkpt lat="24.159940" lon="120.659567"/>
<trkpt lat="24.159976" lon="120.659500"/>
<trkpt lat="24.160177" lon="120.659142"/>
<trkpt lat="24.160379" lon="120.658782"/>
<trkpt lat="24.160461" lon="120.658643"/>
<trkpt lat="24.160795" lon="120.658092"/>
<trkpt lat="24.160340" lon="120.657782"/>
<trkpt lat="24.160674" lon="120.657189"/>
<trkpt lat="24.160991" lon="120.656643"/>
<trkpt lat="24.161489" lon="120.656799"/>
<trkpt lat="24.161538" lon="120.656814"/>
<trkpt lat="24.161593" lon="120.656832"/>
<trkpt lat="24.161617" lon="120.656760"/>
<trkpt lat="24.161609" lon="120.656729"/>
<trkpt lat="24.161570" lon="120.656717"/>
<trkpt lat="24.161618" lon="120.656633"/>
<trkpt lat="24.161801" lon="120.656310"/>
<trkpt lat="24.162162" lon="120.655664"/>
<trkpt lat="24.162275" lon="120.655475"/>
<trkpt lat="24.162324" lon="120.655391"/>
<trkpt lat="24.162466" lon="120.655153"/>
<trkpt lat="24.162667" lon="120.655250"/>
<trkpt lat="24.162939" lon="120.655535"/>
<trkpt lat="24.163182" lon="120.655799"/>
<trkpt lat="24.163350" lon="120.656045"/>
<trkpt lat="24.163630" lon="120.656514"/>
<trkpt lat="24.163979" lon="120.655850"/>
<trkpt lat="24.164310" lon="120.655160"/>
<trkpt lat="24.164859" lon="120.654049"/>
<trkpt lat="24.165120" lon="120.653541"/>
<trkpt lat="24.165365" lon="120.653040"/>
</trkseg></trk>
</gpx>