<?xml version="1.0" encoding="UTF-8"?>
<gpx version="1.1" creator="catrun" xmlns="http://www.topografix.com/GPX/1/1">
<metadata><name>西屯區 蹲坐貓咪（側面） 圖形路跑路線</name></metadata>
<wpt lat="24.178280" lon="120.670114"><name>清平公園</name><desc>地標</desc></wpt>
<wpt lat="24.176750" lon="120.672353"><name>瀋陽公園</name><desc>地標</desc></wpt>
<wpt lat="24.170910" lon="120.676066"><name>山西公園</name><desc>地標</desc></wpt>
<trk><name>西屯區 蹲坐貓咪（側面） 圖形路跑路線</name><trkseg>
<trkpt lat="24.175718" lon="120.661836"/>
<trkpt lat="24.175888" lon="120.661869"/>
<trkpt lat="24.175938" lon="120.661879"/>
<trkpt lat="24.176074" lon="120.661904"/>
<trkpt lat="24.176315" lon="120.661950"/>
<trkpt lat="24.176314" lon="120.662012"/>
<trkpt lat="24.176314" lon="120.662070"/>
<trkpt lat="24.176309" lon="120.662533"/>
<trkpt lat="24.176306" lon="120.662737"/>
<trkpt lat="24.176304" lon="120.662981"/>
<trkpt lat="24.176303" lon="120.663014"/>
<trkpt lat="24.176303" lon="120.663090"/>
<trkpt lat="24.176417" lon="120.663087"/>
<trkpt lat="24.176441" lon="120.663080"/>
<trkpt lat="24.176775" lon="120.663072"/>
<trkpt lat="24.176880" lon="120.663070"/>
<trkpt lat="24.176994" lon="120.663067"/>
<trkpt lat="24.177405" lon="120.663058"/>
<trkpt lat="24.177438" lon="120.663014"/>
<trkpt lat="24.177469" lon="120.663013"/>
<trkpt lat="24.177543" lon="120.663010"/>
<trkpt lat="24.177570" lon="120.663043"/>
<trkpt lat="24.177992" lon="120.663036"/>
<trkpt lat="24.178011" lon="120.663023"/>
<trkpt lat="24.178026" lon="120.662997"/>
<trkpt lat="24.178096" lon="120.662998"/>
<trkpt lat="24.178176" lon="120.662998"/>
<trkpt lat="24.178176" lon="120.663019"/>
<trkpt lat="24.178198" lon="120.663038"/>
<trkpt lat="24.178199" lon="120.663130"/>
<trkpt lat="24.178201" lon="120.663238"/>
<trkpt lat="24.178239" lon="120.663215"/>
<trkpt lat="24.178845" lon="120.663196"/>
<trkpt lat="24.178874" lon="120.663206"/>
<trkpt lat="24.178920" lon="120.663202"/>
<trkpt lat="24.178926" lon="120.663824"/>
<trkpt lat="24.178981" lon="120.663826"/>
<trkpt lat="24.178982" lon="120.663886"/>
<trkpt lat="24.178983" lon="120.663961"/>
<trkpt lat="24.178927" lon="120.663961"/>
<trkpt lat="24.178933" lon="120.664509"/>
<trkpt lat="24.178934" lon="120.664645"/>
<trkpt lat="24.178832" lon="120.665233"/>
<trkpt lat="24.179028" lon="120.665325"/>
<trkpt lat="24.179202" lon="120.665407"/>
<trkpt lat="24.179373" lon="120.664981"/>
<trkpt lat="24.179755" lon="120.664913"/>
<trkpt lat="24.179946" lon="120.664922"/>
<trkpt lat="24.180069" lon="120.665140"/>
<trkpt lat="24.180254" lon="120.665018"/>
<trkpt lat="24.180308" lon="120.665125"/>
<trkpt lat="24.180398" lon="120.665305"/>
<trkpt lat="24.180449" lon="120.665405"/>
<trkpt lat="24.180590" lon="120.665323"/>
<trkpt lat="24.180923" lon="120.665341"/>
<trkpt lat="24.180940" lon="120.665087"/>
<trkpt lat="24.181376" lon="120.665129"/>
<trkpt lat="24.181380" lon="120.665145"/>
<trkpt lat="24.181446" lon="120.665429"/>
<trkpt lat="24.181442" lon="120.665466"/>
<trkpt lat="24.181471" lon="120.665739"/>
<trkpt lat="24.181479" lon="120.665822"/>
<trkpt lat="24.181070" lon="120.665881"/>
<trkpt lat="24.180739" lon="120.665985"/>
<trkpt lat="24.180154" lon="120.666105"/>
<trkpt lat="24.179927" lon="120.666287"/>
<trkpt lat="24.179646" lon="120.666520"/>
<trkpt lat="24.180020" lon="120.666859"/>
<trkpt lat="24.180196" lon="120.667052"/>
<trkpt lat="24.179888" lon="120.667294"/>
<trkpt lat="24.179666" lon="120.667454"/>
<trkpt lat="24.179750" lon="120.667535"/>
<trkpt lat="24.180093" lon="120.667867"/>
<trkpt lat="24.180325" lon="120.668092"/>
<trkpt lat="24.180504" lon="120.668224"/>
<trkpt lat="24.180744" lon="120.668396"/>
<trkpt lat="24.180681" lon="120.668444"/>
<trkpt lat="24.180031" lon="120.668947"/>
<trkpt lat="24.179968" lon="120.668853"/>
<trkpt lat="24.179880" lon="120.668722"/>
<trkpt lat="24.179755" lon="120.668525"/>
<trkpt lat="24.179728" lon="120.668495"/>
<trkpt lat="24.179420" lon="120.668739"/>
<trkpt lat="24.179377" lon="120.668863"/>
<trkpt lat="24.179010" lon="120.669138"/>
<trkpt lat="24.178616" lon="120.669434"/>
<trkpt lat="24.178566" lon="120.669357"/>
<trkpt lat="24.178458" lon="120.669192"/>
<trkpt lat="24.178393" lon="120.669094"/>
<trkpt lat="24.178115" lon="120.669314"/>
<trkpt lat="24.178067" lon="120.669435"/>
<trkpt lat="24.177883" lon="120.669587"/>
<trkpt lat="24.177830" lon="120.669521"/>
<trkpt lat="24.177655" lon="120.669637"/>
<trkpt lat="24.177494" lon="120.669785"/>
<trkpt lat="24.177274" lon="120.669499"/>
<trkpt lat="24.176879" lon="120.669809"/>
<trkpt lat="24.176658" lon="120.669968"/>
<trkpt lat="24.176618" lon="120.669997"/>
<trkpt lat="24.176578" lon="120.670023"/>
<trkpt lat="24.176410" lon="120.670134"/>
<trkpt lat="24.176285" lon="120.670226"/>
<trkpt lat="24.176582" lon="120.670633"/>
<trkpt lat="24.176392" lon="120.670799"/>
<trkpt lat="24.176573" lon="120.671026"/>
<trkpt lat="24.176586" lon="120.671042"/>
<trkpt lat="24.176472" lon="120.671166"/>
<trkpt lat="24.176376" lon="120.671262"/>
<trkpt lat="24.176304" lon="120.671309"/>
<trkpt lat="24.176187" lon="120.671430"/>
<trkpt lat="24.175997" lon="120.671266"/>
<trkpt lat="24.175954" lon="120.671312"/>
<trkpt lat="24.175730" lon="120.671550"/>
<trkpt lat="24.175445" lon="120.671856"/>
<trkpt lat="24.175579" lon="120.672091"/>
<trkpt lat="24.174818" lon="120.672555"/>
<trkpt lat="24.174723" lon="120.672667"/>
<trkpt lat="24.174691" lon="120.672485"/>
<trkpt lat="24.174163" lon="120.672577"/>
<trkpt lat="24.174227" lon="120.673020"/>
<trkpt lat="24.174224" lon="120.673169"/>
<trkpt lat="24.174214" lon="120.673413"/>
<trkpt lat="24.174163" lon="120.673780"/>
<trkpt lat="24.174079" lon="120.673768"/>
<trkpt lat="24.173874" lon="120.673739"/>
<trkpt lat="24.173821" lon="120.673731"/>
<trkpt lat="24.173801" lon="120.673750"/>
<trkpt lat="24.173772" lon="120.673767"/>
<trkpt lat="24.173752" lon="120.673788"/>
<trkpt lat="24.173744" lon="120.673848"/>
<trkpt lat="24.173752" lon="120.673915"/>
<trkpt lat="24.173017" lon="120.674074"/>
<trkpt lat="24.173005" lon="120.674008"/>
<trkpt lat="24.172945" lon="120.674021"/>
<trkpt lat="24.172860" lon="120.673400"/>
<trkpt lat="24.172797" lon="120.672951"/>
<trkpt lat="24.172612" lon="120.672994"/>
<trkpt lat="24.172309" lon="120.673066"/>
<trkpt lat="24.172274" lon="120.673074"/>
<trkpt lat="24.171709" lon="120.673207"/>
<trkpt lat="24.171612" lon="120.673912"/>
<trkpt lat="24.171606" lon="120.673945"/>
<trkpt lat="24.171553" lon="120.674414"/>
<trkpt lat="24.171493" lon="120.675174"/>
<trkpt lat="24.171457" lon="120.675818"/>
<trkpt lat="24.171453" lon="120.675902"/>
<trkpt lat="24.171446" lon="120.675989"/>
<trkpt lat="24.171380" lon="120.675983"/>
<trkpt lat="24.171387" lon="120.675894"/>
<trkpt lat="24.170708" lon="120.675815"/>
<trkpt lat="24.170739" lon="120.675123"/>
<trkpt lat="24.170772" lon="120.674382"/>
<trkpt lat="24.170472" lon="120.674364"/>
<trkpt lat="24.170043" lon="120.674371"/>
<trkpt lat="24.169491" lon="120.674318"/>
<trkpt lat="24.169330" lon="120.674311"/>
<trkpt lat="24.169372" lon="120.673632"/>
<trkpt lat="24.169375" lon="120.673590"/>
<trkpt lat="24.169357" lon="120.673324"/>
<trkpt lat="24.169315" lon="120.673116"/>
<trkpt lat="24.169190" lon="120.672620"/>
<trkpt lat="24.168895" lon="120.672709"/>
<trkpt lat="24.168828" lon="120.672726"/>
<trkpt lat="24.168767" lon="120.672742"/>
<trkpt lat="24.168455" lon="120.672848"/>
<trkpt lat="24.167967" lon="120.673017"/>
<trkpt lat="24.167529" lon="120.673154"/>
<trkpt lat="24.167069" lon="120.673290"/>
<trkpt lat="24.167056" lon="120.673176"/>
<trkpt lat="24.166921" lon="120.673233"/>
<trkpt lat="24.166917" lon="120.673115"/>
<trkpt lat="24.166896" lon="120.672170"/>
<trkpt lat="24.166895" lon="120.672118"/>
<trkpt lat="24.166806" lon="120.672116"/>
<trkpt lat="24.166527" lon="120.672111"/>
<trkpt lat="24.166280" lon="120.672128"/>
<trkpt lat="24.166276" lon="120.671339"/>
<trkpt lat="24.166278" lon="120.670548"/>
<trkpt lat="24.166270" lon="120.669433"/>
<trkpt lat="24.166271" lon="120.669216"/>
<trkpt lat="24.166080" lon="120.669219"/>
<trkpt lat="24.166104" lon="120.668323"/>
<trkpt lat="24.166121" lon="120.667561"/>
<trkpt lat="24.166148" lon="120.666812"/>
<trkpt lat="24.166159" lon="120.666462"/>
<trkpt lat="24.166810" lon="120.666597"/>
<trkpt lat="24.166798" lon="120.665779"/>
<trkpt lat="24.166801" lon="120.665614"/>
<trkpt lat="24.166807" lon="120.665462"/>
<trkpt lat="24.166811" lon="120.665369"/>
<trkpt lat="24.166828" lon="120.665079"/>
<trkpt lat="24.166540" lon="120.664525"/>
<trkpt lat="24.166288" lon="120.664006"/>
<trkpt lat="24.166905" lon="120.663655"/>
<trkpt lat="24.167067" lon="120.663570"/>
<trkpt lat="24.167600" lon="120.663294"/>
<trkpt lat="24.167428" lon="120.662953"/>
<trkpt lat="24.167271" lon="120.662650"/>
<trkpt lat="24.167451" lon="120.662541"/>
<trkpt lat="24.167736" lon="120.662368"/>
<trkpt lat="24.167812" lon="120.662515"/>
<trkpt lat="24.167890" lon="120.662669"/>
<trkpt lat="24.168084" lon="120.663028"/>
<trkpt lat="24.168602" lon="120.662735"/>
<trkpt lat="24.169081" lon="120.662485"/>
<trkpt lat="24.169267" lon="120.662879"/>
<trkpt lat="24.169394" lon="120.663150"/>
<trkpt lat="24.169487" lon="120.663346"/>
<trkpt lat="24.169563" lon="120.663512"/>
<trkpt lat="24.169857" lon="120.663376"/>
<trkpt lat="24.170077" lon="120.663274"/>
<trkpt lat="24.170540" lon="120.663060"/>
<trkpt lat="24.170363" lon="120.662540"/>
<trkpt lat="24.170118" lon="120.661953"/>
<trkpt lat="24.171455" lon="120.661213"/>
<trkpt lat="24.171471" lon="120.661272"/>
<trkpt lat="24.171522" lon="120.661249"/>
<trkpt lat="24.171642" lon="120.661208"/>
<trkpt lat="24.171755" lon="120.661213"/>
<trkpt lat="24.172212" lon="120.662698"/>
<trkpt lat="24.172879" lon="120.662425"/>
<trkpt lat="24.172784" lon="120.662109"/>
<trkpt lat="24.173022" lon="120.662088"/>
<trkpt lat="24.173672" lon="120.662201"/>
<trkpt lat="24.173841" lon="120.662226"/>
<trkpt lat="24.174172" lon="120.662285"/>
<trkpt lat="24.174292" lon="120.662306"/>
<trkpt lat="24.174666" lon="120.662374"/>
<trkpt lat="24.174864" lon="120.663324"/>
<trkpt lat="24.175066" lon="120.663341"/>
<trkpt lat="24.174921" lon="120.662704"/>
<trkpt lat="24.174908" lon="120.662165"/>
<trkpt lat="24.175130" lon="120.662200"/>
<trkpt lat="24.175494" lon="120.662255"/>
<trkpt lat="24.175659" lon="120.662354"/>
<trkpt lat="24.175884" lon="120.662490"/>
<trkpt lat="24.176109" lon="120.662646"/>
<trkpt lat="24.176306" lon="120.662737"/>
<trkpt lat="24.176309" lon="120.662533"/>
<trkpt lat="24.176314" lon="120.662070"/>
<trkpt lat="24.176314" lon="120.662012"/>
<trkpt lat="24.176315" lon="120.661950"/>
<trkpt lat="24.176074" lon="120.661904"/>
<trkpt lat="24.175938" lon="120.661879"/>
<trkpt lat="24.175888" lon="120.661869"/>
<trkpt lat="24.175718" lon="120.661836"/>
</trkseg></trk>
</gpx>