<?xml version="1.0" encoding="UTF-8"?>
<gpx version="1.1" creator="catrun" xmlns="http://www.topografix.com/GPX/1/1">
<metadata><name>西屯區 貓咪肉球 圖形路跑路線</name></metadata>
<wpt lat="24.180338" lon="120.660101"><name>中國醫藥大學水湳校區</name><desc>地標</desc></wpt>
<wpt lat="24.175546" lon="120.666286"><name>大福公園</name><desc>地標</desc></wpt>
<wpt lat="24.176766" lon="120.675704"><name>水湳公園</name><desc>地標</desc></wpt>
<trk><name>西屯區 貓咪肉球 圖形路跑路線</name><trkseg>
<trkpt lat="24.179163" lon="120.661266"/>
<trkpt lat="24.179133" lon="120.661299"/>
<trkpt lat="24.179133" lon="120.661401"/>
<trkpt lat="24.179160" lon="120.661431"/>
<trkpt lat="24.179160" lon="120.661493"/>
<trkpt lat="24.178965" lon="120.661494"/>
<trkpt lat="24.178883" lon="120.661443"/>
<trkpt lat="24.178666" lon="120.661440"/>
<trkpt lat="24.178628" lon="120.661467"/>
<trkpt lat="24.178546" lon="120.661465"/>
<trkpt lat="24.178452" lon="120.661511"/>
<trkpt lat="24.178231" lon="120.661505"/>
<trkpt lat="24.178233" lon="120.661855"/>
<trkpt lat="24.178192" lon="120.661921"/>
<trkpt lat="24.178173" lon="120.661895"/>
<trkpt lat="24.178104" lon="120.661894"/>
<trkpt lat="24.178041" lon="120.661894"/>
<trkpt lat="24.178006" lon="120.661932"/>
<trkpt lat="24.178007" lon="120.662002"/>
<trkpt lat="24.178007" lon="120.662057"/>
<trkpt lat="24.177565" lon="120.662071"/>
<trkpt lat="24.177528" lon="120.662108"/>
<trkpt lat="24.177543" lon="120.663010"/>
<trkpt lat="24.177469" lon="120.663013"/>
<trkpt lat="24.177438" lon="120.663014"/>
<trkpt lat="24.177405" lon="120.663058"/>
<trkpt lat="24.176994" lon="120.663067"/>
<trkpt lat="24.176880" lon="120.663070"/>
<trkpt lat="24.176775" lon="120.663072"/>
<trkpt lat="24.176441" lon="120.663080"/>
<trkpt lat="24.176417" lon="120.663087"/>
<trkpt lat="24.176417" lon="120.663179"/>
<trkpt lat="24.176416" lon="120.663275"/>
<trkpt lat="24.176301" lon="120.663274"/>
<trkpt lat="24.176300" lon="120.663317"/>
<trkpt lat="24.176299" lon="120.663456"/>
<trkpt lat="24.176298" lon="120.663488"/>
<trkpt lat="24.176297" lon="120.663585"/>
<trkpt lat="24.176293" lon="120.663753"/>
<trkpt lat="24.176154" lon="120.664017"/>
<trkpt lat="24.176136" lon="120.664051"/>
<trkpt lat="24.175872" lon="120.664753"/>
<trkpt lat="24.175534" lon="120.664717"/>
<trkpt lat="24.175374" lon="120.664700"/>
<trkpt lat="24.175302" lon="120.664692"/>
<trkpt lat="24.174882" lon="120.665892"/>
<trkpt lat="24.174929" lon="120.665919"/>
<trkpt lat="24.175378" lon="120.666071"/>
<trkpt lat="24.175116" lon="120.666767"/>
<trkpt lat="24.174858" lon="120.667457"/>
<trkpt lat="24.174789" lon="120.667639"/>
<trkpt lat="24.174607" lon="120.668125"/>
<trkpt lat="24.174540" lon="120.668042"/>
<trkpt lat="24.173864" lon="120.668341"/>
<trkpt lat="24.173921" lon="120.668895"/>
<trkpt lat="24.174071" lon="120.669218"/>
<trkpt lat="24.174263" lon="120.669586"/>
<trkpt lat="24.174279" lon="120.669616"/>
<trkpt lat="24.174531" lon="120.670097"/>
<trkpt lat="24.174561" lon="120.670156"/>
<trkpt lat="24.174108" lon="120.670274"/>
<trkpt lat="24.174187" lon="120.670697"/>
<trkpt lat="24.174207" lon="120.670819"/>
<trkpt lat="24.174283" lon="120.671222"/>
<trkpt lat="24.174059" lon="120.671272"/>
<trkpt lat="24.174010" lon="120.671278"/>
<trkpt lat="24.174030" lon="120.671392"/>
<trkpt lat="24.174043" lon="120.671478"/>
<trkpt lat="24.173991" lon="120.671556"/>
<trkpt lat="24.174163" lon="120.672577"/>
<trkpt lat="24.174227" lon="120.673020"/>
<trkpt lat="24.174224" lon="120.673169"/>
<trkpt lat="24.174214" lon="120.673413"/>
<trkpt lat="24.174163" lon="120.673780"/>
<trkpt lat="24.174157" lon="120.673849"/>
<trkpt lat="24.174343" lon="120.673956"/>
<trkpt lat="24.174560" lon="120.674017"/>
<trkpt lat="24.175043" lon="120.674107"/>
<trkpt lat="24.175124" lon="120.674122"/>
<trkpt lat="24.175092" lon="120.674164"/>
<trkpt lat="24.175082" lon="120.674177"/>
<trkpt lat="24.174990" lon="120.674307"/>
<trkpt lat="24.174975" lon="120.674328"/>
<trkpt lat="24.174939" lon="120.674379"/>
<trkpt lat="24.174897" lon="120.674428"/>
<trkpt lat="24.174609" lon="120.674756"/>
<trkpt lat="24.174540" lon="120.674856"/>
<trkpt lat="24.174421" lon="120.676065"/>
<trkpt lat="24.174405" lon="120.676232"/>
<trkpt lat="24.174473" lon="120.676241"/>
<trkpt lat="24.174492" lon="120.676273"/>
<trkpt lat="24.174481" lon="120.676352"/>
<trkpt lat="24.174984" lon="120.676472"/>
<trkpt lat="24.175368" lon="120.676541"/>
<trkpt lat="24.175506" lon="120.676571"/>
<trkpt lat="24.175562" lon="120.676583"/>
<trkpt lat="24.175449" lon="120.677470"/>
<trkpt lat="24.175502" lon="120.677477"/>
<trkpt lat="24.175495" lon="120.677544"/>
<trkpt lat="24.176037" lon="120.677641"/>
<trkpt lat="24.176027" lon="120.677708"/>
<trkpt lat="24.176081" lon="120.677717"/>
<trkpt lat="24.176043" lon="120.678083"/>
<trkpt lat="24.176018" lon="120.678592"/>
<trkpt lat="24.176092" lon="120.678607"/>
<trkpt lat="24.176083" lon="120.678674"/>
<trkpt lat="24.176613" lon="120.678798"/>
<trkpt lat="24.176609" lon="120.678848"/>
<trkpt lat="24.176631" lon="120.678869"/>
<trkpt lat="24.176683" lon="120.678872"/>
<trkpt lat="24.176751" lon="120.678881"/>
<trkpt lat="24.176776" lon="120.678870"/>
<trkpt lat="24.177027" lon="120.678914"/>
<trkpt lat="24.177260" lon="120.679012"/>
<trkpt lat="24.177282" lon="120.679047"/>
<trkpt lat="24.177312" lon="120.679062"/>
<trkpt lat="24.177341" lon="120.679072"/>
<trkpt lat="24.177216" lon="120.680061"/>
<trkpt lat="24.177232" lon="120.680093"/>
<trkpt lat="24.177273" lon="120.680113"/>
<trkpt lat="24.177993" lon="120.680193"/>
<trkpt lat="24.178036" lon="120.680187"/>
<trkpt lat="24.178027" lon="120.680252"/>
<trkpt lat="24.178021" lon="120.680298"/>
<trkpt lat="24.178046" lon="120.680360"/>
<trkpt lat="24.177888" lon="120.681539"/>
<trkpt lat="24.177953" lon="120.681551"/>
<trkpt lat="24.178006" lon="120.681561"/>
<trkpt lat="24.178082" lon="120.681591"/>
<trkpt lat="24.178569" lon="120.681683"/>
<trkpt lat="24.179222" lon="120.681758"/>
<trkpt lat="24.179308" lon="120.681759"/>
<trkpt lat="24.179392" lon="120.681763"/>
<trkpt lat="24.179392" lon="120.681855"/>
<trkpt lat="24.179388" lon="120.681943"/>
<trkpt lat="24.179385" lon="120.682025"/>
<trkpt lat="24.180282" lon="120.682077"/>
<trkpt lat="24.180322" lon="120.682090"/>
<trkpt lat="24.180373" lon="120.682110"/>
<trkpt lat="24.180428" lon="120.682112"/>
<trkpt lat="24.180401" lon="120.682650"/>
<trkpt lat="24.180398" lon="120.682718"/>
<trkpt lat="24.180395" lon="120.682787"/>
<trkpt lat="24.180464" lon="120.682790"/>
<trkpt lat="24.180466" lon="120.682720"/>
<trkpt lat="24.181005" lon="120.682754"/>
<trkpt lat="24.181076" lon="120.682758"/>
<trkpt lat="24.181166" lon="120.682765"/>
<trkpt lat="24.181666" lon="120.682806"/>
<trkpt lat="24.181674" lon="120.682709"/>
<trkpt lat="24.181721" lon="120.682210"/>
<trkpt lat="24.181802" lon="120.682215"/>
<trkpt lat="24.181888" lon="120.682221"/>
<trkpt lat="24.181965" lon="120.682225"/>
<trkpt lat="24.181987" lon="120.682205"/>
<trkpt lat="24.182044" lon="120.682188"/>
<trkpt lat="24.182117" lon="120.682192"/>
<trkpt lat="24.182730" lon="120.682221"/>
<trkpt lat="24.182788" lon="120.682234"/>
<trkpt lat="24.182706" lon="120.682867"/>
<trkpt lat="24.183038" lon="120.682884"/>
<trkpt lat="24.183572" lon="120.682911"/>
<trkpt lat="24.183646" lon="120.682915"/>
<trkpt lat="24.183719" lon="120.682919"/>
<trkpt lat="24.183944" lon="120.682934"/>
<trkpt lat="24.184248" lon="120.682947"/>
<trkpt lat="24.184841" lon="120.682993"/>
<trkpt lat="24.184854" lon="120.682330"/>
<trkpt lat="24.184924" lon="120.682328"/>
<trkpt lat="24.184942" lon="120.682325"/>
<trkpt lat="24.185323" lon="120.682350"/>
<trkpt lat="24.185363" lon="120.682373"/>
<trkpt lat="24.185380" lon="120.682402"/>
<trkpt lat="24.185481" lon="120.682405"/>
<trkpt lat="24.185578" lon="120.682408"/>
<trkpt lat="24.185646" lon="120.682410"/>
<trkpt lat="24.185714" lon="120.682369"/>
<trkpt lat="24.186834" lon="120.682424"/>
<trkpt lat="24.186871" lon="120.682446"/>
<trkpt lat="24.186958" lon="120.682451"/>
<trkpt lat="24.187033" lon="120.682455"/>
<trkpt lat="24.187068" lon="120.682436"/>
<trkpt lat="24.188122" lon="120.682488"/>
<trkpt lat="24.188161" lon="120.682512"/>
<trkpt lat="24.188183" lon="120.682551"/>
<trkpt lat="24.188176" lon="120.683307"/>
<trkpt lat="24.188302" lon="120.683308"/>
<trkpt lat="24.188398" lon="120.683309"/>
<trkpt lat="24.188398" lon="120.683368"/>
<trkpt lat="24.188634" lon="120.683368"/>
<trkpt lat="24.188619" lon="120.684476"/>
<trkpt lat="24.188614" lon="120.684827"/>
<trkpt lat="24.188763" lon="120.684840"/>
<trkpt lat="24.189019" lon="120.684862"/>
<trkpt lat="24.189319" lon="120.684940"/>
<trkpt lat="24.189557" lon="120.684969"/>
<trkpt lat="24.189805" lon="120.685026"/>
<trkpt lat="24.190427" lon="120.684144"/>
<trkpt lat="24.190926" lon="120.683439"/>
<trkpt lat="24.190971" lon="120.683378"/>
<trkpt lat="24.191052" lon="120.683451"/>
<trkpt lat="24.191442" lon="120.683435"/>
<trkpt lat="24.191573" lon="120.683474"/>
<trkpt lat="24.191717" lon="120.683517"/>
<trkpt lat="24.191881" lon="120.683532"/>
<trkpt lat="24.192425" lon="120.683581"/>
<trkpt lat="24.193661" lon="120.683710"/>
<trkpt lat="24.194218" lon="120.683766"/>
<trkpt lat="24.195020" lon="120.683836"/>
<trkpt lat="24.195135" lon="120.683828"/>
<trkpt lat="24.194442" lon="120.682949"/>
<trkpt lat="24.194698" lon="120.682875"/>
<trkpt lat="24.194799" lon="120.682824"/>
<trkpt lat="24.194816" lon="120.682813"/>
<trkpt lat="24.194899" lon="120.682755"/>
<trkpt lat="24.194940" lon="120.682828"/>
<trkpt lat="24.194979" lon="120.682853"/>
<trkpt lat="24.195021" lon="120.682858"/>
<trkpt lat="24.195217" lon="120.682883"/>
<trkpt lat="24.195745" lon="120.682965"/>
<trkpt lat="24.195797" lon="120.682775"/>
<trkpt lat="24.195845" lon="120.682792"/>
<trkpt lat="24.196719" lon="120.683101"/>
<trkpt lat="24.196742" lon="120.683017"/>
<trkpt lat="24.196767" lon="120.682926"/>
<trkpt lat="24.196793" lon="120.682880"/>
<trkpt lat="24.196790" lon="120.681983"/>
<trkpt lat="24.196781" lon="120.681943"/>
<trkpt lat="24.196808" lon="120.681905"/>
<trkpt lat="24.196843" lon="120.681860"/>
<trkpt lat="24.196280" lon="120.681367"/>
<trkpt lat="24.196270" lon="120.681340"/>
<trkpt lat="24.196279" lon="120.681312"/>
<trkpt lat="24.196672" lon="120.680854"/>
<trkpt lat="24.196861" lon="120.680634"/>
<trkpt lat="24.196899" lon="120.680600"/>
<trkpt lat="24.196939" lon="120.680585"/>
<trkpt lat="24.197114" lon="120.680579"/>
<trkpt lat="24.197113" lon="120.680486"/>
<trkpt lat="24.197113" lon="120.680382"/>
<trkpt lat="24.197131" lon="120.680334"/>
<trkpt lat="24.197355" lon="120.680076"/>
<trkpt lat="24.197424" lon="120.680002"/>
<trkpt lat="24.197504" lon="120.679909"/>
<trkpt lat="24.197462" lon="120.679867"/>
<trkpt lat="24.197407" lon="120.679813"/>
<trkpt lat="24.197440" lon="120.679773"/>
<trkpt lat="24.197473" lon="120.679734"/>
<trkpt lat="24.197250" lon="120.679516"/>
<trkpt lat="24.197236" lon="120.679461"/>
<trkpt lat="24.197243" lon="120.678362"/>
<trkpt lat="24.197268" lon="120.678338"/>
<trkpt lat="24.197211" lon="120.678337"/>
<trkpt lat="24.197146" lon="120.678336"/>
<trkpt lat="24.197148" lon="120.678230"/>
<trkpt lat="24.197149" lon="120.678131"/>
<trkpt lat="24.197127" lon="120.678141"/>
<trkpt lat="24.196755" lon="120.678142"/>
<trkpt lat="24.196725" lon="120.678140"/>
<trkpt lat="24.196621" lon="120.678140"/>
<trkpt lat="24.196531" lon="120.678140"/>
<trkpt lat="24.196550" lon="120.678112"/>
<trkpt lat="24.196558" lon="120.676992"/>
<trkpt lat="24.196559" lon="120.676904"/>
<trkpt lat="24.195977" lon="120.676906"/>
<trkpt lat="24.195378" lon="120.676907"/>
<trkpt lat="24.195355" lon="120.676913"/>
<trkpt lat="24.195374" lon="120.676841"/>
<trkpt lat="24.195328" lon="120.676828"/>
<trkpt lat="24.195292" lon="120.676817"/>
<trkpt lat="24.195398" lon="120.676259"/>
<trkpt lat="24.195290" lon="120.676260"/>
<trkpt lat="24.195290" lon="120.676140"/>
<trkpt lat="24.195289" lon="120.676015"/>
<trkpt lat="24.194907" lon="120.676022"/>
<trkpt lat="24.194596" lon="120.676043"/>
<trkpt lat="24.194419" lon="120.676050"/>
<trkpt lat="24.193958" lon="120.676111"/>
<trkpt lat="24.193516" lon="120.676161"/>
<trkpt lat="24.193445" lon="120.676179"/>
<trkpt lat="24.193355" lon="120.676206"/>
<trkpt lat="24.193275" lon="120.676229"/>
<trkpt lat="24.193286" lon="120.675636"/>
<trkpt lat="24.193279" lon="120.675550"/>
<trkpt lat="24.193353" lon="120.675549"/>
<trkpt lat="24.193442" lon="120.675544"/>
<trkpt lat="24.193444" lon="120.676140"/>
<trkpt lat="24.193445" lon="120.676179"/>
<trkpt lat="24.193516" lon="120.676161"/>
<trkpt lat="24.193958" lon="120.676111"/>
<trkpt lat="24.194419" lon="120.676050"/>
<trkpt lat="24.194596" lon="120.676043"/>
<trkpt lat="24.194907" lon="120.676022"/>
<trkpt lat="24.195289" lon="120.676015"/>
<trkpt lat="24.195401" lon="120.676014"/>
<trkpt lat="24.195506" lon="120.676014"/>
<trkpt lat="24.195593" lon="120.676021"/>
<trkpt lat="24.196538" lon="120.676018"/>
<trkpt lat="24.196539" lon="120.676141"/>
<trkpt lat="24.196541" lon="120.676254"/>
<trkpt lat="24.196647" lon="120.676253"/>
<trkpt lat="24.196760" lon="120.676252"/>
<trkpt lat="24.196728" lon="120.676280"/>
<trkpt lat="24.196724" lon="120.676849"/>
<trkpt lat="24.196736" lon="120.676885"/>
<trkpt lat="24.196758" lon="120.676892"/>
<trkpt lat="24.197158" lon="120.676895"/>
<trkpt lat="24.197262" lon="120.676894"/>
<trkpt lat="24.197776" lon="120.676893"/>
<trkpt lat="24.197801" lon="120.676840"/>
<trkpt lat="24.197902" lon="120.676842"/>
<trkpt lat="24.198002" lon="120.676844"/>
<trkpt lat="24.198010" lon="120.676331"/>
<trkpt lat="24.198033" lon="120.676274"/>
<trkpt lat="24.198035" lon="120.676146"/>
<trkpt lat="24.198037" lon="120.676020"/>
<trkpt lat="24.198080" lon="120.676032"/>
<trkpt lat="24.199081" lon="120.676036"/>
<trkpt lat="24.199139" lon="120.676022"/>
<trkpt lat="24.199237" lon="120.676021"/>
<trkpt lat="24.199240" lon="120.674831"/>
<trkpt lat="24.199247" lon="120.673710"/>
<trkpt lat="24.199434" lon="120.673713"/>
<trkpt lat="24.199514" lon="120.673712"/>
<trkpt lat="24.199552" lon="120.673682"/>
<trkpt lat="24.200623" lon="120.673695"/>
<trkpt lat="24.200686" lon="120.673713"/>
<trkpt lat="24.200690" lon="120.673592"/>
<trkpt lat="24.200694" lon="120.673490"/>
<trkpt lat="24.200765" lon="120.673491"/>
<trkpt lat="24.200741" lon="120.672675"/>
<trkpt lat="24.200723" lon="120.671091"/>
<trkpt lat="24.200671" lon="120.671091"/>
<trkpt lat="24.200651" lon="120.671071"/>
<trkpt lat="24.200650" lon="120.670971"/>
<trkpt lat="24.200649" lon="120.670895"/>
<trkpt lat="24.200650" lon="120.670770"/>
<trkpt lat="24.200592" lon="120.670787"/>
<trkpt lat="24.199536" lon="120.670802"/>
<trkpt lat="24.199519" lon="120.670751"/>
<trkpt lat="24.199459" lon="120.670751"/>
<trkpt lat="24.199258" lon="120.670749"/>
<trkpt lat="24.199166" lon="120.670749"/>
<trkpt lat="24.199183" lon="120.670709"/>
<trkpt lat="24.199188" lon="120.669834"/>
<trkpt lat="24.199187" lon="120.669775"/>
<trkpt lat="24.199187" lon="120.669727"/>
<trkpt lat="24.199188" lon="120.669643"/>
<trkpt lat="24.199187" lon="120.669608"/>
<trkpt lat="24.199191" lon="120.669572"/>
<trkpt lat="24.199188" lon="120.668656"/>
<trkpt lat="24.199182" lon="120.668594"/>
<trkpt lat="24.199141" lon="120.668577"/>
<trkpt lat="24.199102" lon="120.668557"/>
<trkpt lat="24.198118" lon="120.668550"/>
<trkpt lat="24.198066" lon="120.668567"/>
<trkpt lat="24.198066" lon="120.668493"/>
<trkpt lat="24.198065" lon="120.668252"/>
<trkpt lat="24.198056" lon="120.668186"/>
<trkpt lat="24.197952" lon="120.668186"/>
<trkpt lat="24.197850" lon="120.668186"/>
<trkpt lat="24.197771" lon="120.668193"/>
<trkpt lat="24.196815" lon="120.668194"/>
<trkpt lat="24.196797" lon="120.668188"/>
<trkpt lat="24.196774" lon="120.668132"/>
<trkpt lat="24.196784" lon="120.667570"/>
<trkpt lat="24.196779" lon="120.667541"/>
<trkpt lat="24.196700" lon="120.667539"/>
<trkpt lat="24.196602" lon="120.667537"/>
<trkpt lat="24.196569" lon="120.667528"/>
<trkpt lat="24.196113" lon="120.667530"/>
<trkpt lat="24.196009" lon="120.667530"/>
<trkpt lat="24.195542" lon="120.667533"/>
<trkpt lat="24.195513" lon="120.667541"/>
<trkpt lat="24.195422" lon="120.667541"/>
<trkpt lat="24.195340" lon="120.667542"/>
<trkpt lat="24.195346" lon="120.667603"/>
<trkpt lat="24.195338" lon="120.668171"/>
<trkpt lat="24.195319" lon="120.668190"/>
<trkpt lat="24.195318" lon="120.668282"/>
<trkpt lat="24.195316" lon="120.668503"/>
<trkpt lat="24.195316" lon="120.668586"/>
<trkpt lat="24.195411" lon="120.668587"/>
<trkpt lat="24.195499" lon="120.668588"/>
<trkpt lat="24.195512" lon="120.668575"/>
<trkpt lat="24.195532" lon="120.668570"/>
<trkpt lat="24.195532" lon="120.668502"/>
<trkpt lat="24.195534" lon="120.668284"/>
<trkpt lat="24.195535" lon="120.668193"/>
<trkpt lat="24.195555" lon="120.668196"/>
<trkpt lat="24.196556" lon="120.668191"/>
<trkpt lat="24.196575" lon="120.668188"/>
<trkpt lat="24.196693" lon="120.668188"/>
<trkpt lat="24.196797" lon="120.668188"/>
<trkpt lat="24.196815" lon="120.668194"/>
<trkpt lat="24.197771" lon="120.668193"/>
<trkpt lat="24.197850" lon="120.668186"/>
<trkpt lat="24.197865" lon="120.668114"/>
<trkpt lat="24.197999" lon="120.667159"/>
<trkpt lat="24.198007" lon="120.667079"/>
<trkpt lat="24.198011" lon="120.667005"/>
<trkpt lat="24.198017" lon="120.666981"/>
<trkpt lat="24.198084" lon="120.666554"/>
<trkpt lat="24.198174" lon="120.666573"/>
<trkpt lat="24.198270" lon="120.666594"/>
<trkpt lat="24.198300" lon="120.666440"/>
<trkpt lat="24.198345" lon="120.666349"/>
<trkpt lat="24.198526" lon="120.666147"/>
<trkpt lat="24.198774" lon="120.665849"/>
<trkpt lat="24.199102" lon="120.665459"/>
<trkpt lat="24.199173" lon="120.665391"/>
<trkpt lat="24.199210" lon="120.665388"/>
<trkpt lat="24.199124" lon="120.665297"/>
<trkpt lat="24.199050" lon="120.665218"/>
<trkpt lat="24.199202" lon="120.665021"/>
<trkpt lat="24.199308" lon="120.664876"/>
<trkpt lat="24.199430" lon="120.664471"/>
<trkpt lat="24.199465" lon="120.664363"/>
<trkpt lat="24.199300" lon="120.664298"/>
<trkpt lat="24.198914" lon="120.664145"/>
<trkpt lat="24.199082" lon="120.663588"/>
<trkpt lat="24.199330" lon="120.662832"/>
<trkpt lat="24.198678" lon="120.662711"/>
<trkpt lat="24.198317" lon="120.662463"/>
<trkpt lat="24.197920" lon="120.662227"/>
<trkpt lat="24.198097" lon="120.661890"/>
<trkpt lat="24.198266" lon="120.661567"/>
<trkpt lat="24.197593" lon="120.661322"/>
<trkpt lat="24.197724" lon="120.660722"/>
<trkpt lat="24.197107" lon="120.660535"/>
<trkpt lat="24.196785" lon="120.660403"/>
<trkpt lat="24.196431" lon="120.660291"/>
<trkpt lat="24.196075" lon="120.660178"/>
<trkpt lat="24.195728" lon="120.660223"/>
<trkpt lat="24.195394" lon="120.660266"/>
<trkpt lat="24.195225" lon="120.661210"/>
<trkpt lat="24.195150" lon="120.661515"/>
<trkpt lat="24.195105" lon="120.661598"/>
<trkpt lat="24.194993" lon="120.661438"/>
<trkpt lat="24.194958" lon="120.661417"/>
<trkpt lat="24.194876" lon="120.661364"/>
<trkpt lat="24.194950" lon="120.660482"/>
<trkpt lat="24.194818" lon="120.660444"/>
<trkpt lat="24.194686" lon="120.660394"/>
<trkpt lat="24.194413" lon="120.660290"/>
<trkpt lat="24.194088" lon="120.660167"/>
<trkpt lat="24.193766" lon="120.660044"/>
<trkpt lat="24.193437" lon="120.659918"/>
<trkpt lat="24.193253" lon="120.660461"/>
<trkpt lat="24.193551" lon="120.660601"/>
<trkpt lat="24.193160" lon="120.660823"/>
<trkpt lat="24.192661" lon="120.661108"/>
<trkpt lat="24.192587" lon="120.661150"/>
<trkpt lat="24.192511" lon="120.661192"/>
<trkpt lat="24.192107" lon="120.661420"/>
<trkpt lat="24.191615" lon="120.661681"/>
<trkpt lat="24.191569" lon="120.661689"/>
<trkpt lat="24.191468" lon="120.661640"/>
<trkpt lat="24.191302" lon="120.662068"/>
<trkpt lat="24.191381" lon="120.662131"/>
<trkpt lat="24.191161" lon="120.662623"/>
<trkpt lat="24.191105" lon="120.662650"/>
<trkpt lat="24.191107" lon="120.663514"/>
<trkpt lat="24.190793" lon="120.663521"/>
<trkpt lat="24.190464" lon="120.663529"/>
<trkpt lat="24.190262" lon="120.663555"/>
<trkpt lat="24.190162" lon="120.663568"/>
<trkpt lat="24.190071" lon="120.663627"/>
<trkpt lat="24.190033" lon="120.663520"/>
<trkpt lat="24.190121" lon="120.663474"/>
<trkpt lat="24.190162" lon="120.663568"/>
<trkpt lat="24.190262" lon="120.663555"/>
<trkpt lat="24.190464" lon="120.663529"/>
<trkpt lat="24.190793" lon="120.663521"/>
<trkpt lat="24.191107" lon="120.663514"/>
<trkpt lat="24.191105" lon="120.662650"/>
<trkpt lat="24.191161" lon="120.662623"/>
<trkpt lat="24.191381" lon="120.662131"/>
<trkpt lat="24.191576" lon="120.662278"/>
<trkpt lat="24.191569" lon="120.661689"/>
<trkpt lat="24.191615" lon="120.661681"/>
<trkpt lat="24.192107" lon="120.661420"/>
<trkpt lat="24.192511" lon="120.661192"/>
<trkpt lat="24.192587" lon="120.661150"/>
<trkpt lat="24.192661" lon="120.661108"/>
<trkpt lat="24.193160" lon="120.660823"/>
<trkpt lat="24.193039" lon="120.660553"/>
<trkpt lat="24.192839" lon="120.660445"/>
<trkpt lat="24.192815" lon="120.660408"/>
<trkpt lat="24.192608" lon="120.660034"/>
<trkpt lat="24.192640" lon="120.660016"/>
<trkpt lat="24.192663" lon="120.660005"/>
<trkpt lat="24.192615" lon="120.659907"/>
<trkpt lat="24.192591" lon="120.659855"/>
<trkpt lat="24.192853" lon="120.659697"/>
<trkpt lat="24.192885" lon="120.659623"/>
<trkpt lat="24.192880" lon="120.659595"/>
<trkpt lat="24.192659" lon="120.658443"/>
<trkpt lat="24.192694" lon="120.658417"/>
<trkpt lat="24.192782" lon="120.658350"/>
<trkpt lat="24.192851" lon="120.658298"/>
<trkpt lat="24.192874" lon="120.658264"/>
<trkpt lat="24.192851" lon="120.658169"/>
<trkpt lat="24.192826" lon="120.658064"/>
<trkpt lat="24.192793" lon="120.658041"/>
<trkpt lat="24.192722" lon="120.657662"/>
<trkpt lat="24.192727" lon="120.657643"/>
<trkpt lat="24.192713" lon="120.657578"/>
<trkpt lat="24.192690" lon="120.657464"/>
<trkpt lat="24.192666" lon="120.657434"/>
<trkpt lat="24.192601" lon="120.657045"/>
<trkpt lat="24.192646" lon="120.656975"/>
<trkpt lat="24.192618" lon="120.656914"/>
<trkpt lat="24.192566" lon="120.656804"/>
<trkpt lat="24.192517" lon="120.656701"/>
<trkpt lat="24.192446" lon="120.656672"/>
<trkpt lat="24.192325" lon="120.656762"/>
<trkpt lat="24.192250" lon="120.656819"/>
<trkpt lat="24.192022" lon="120.656429"/>
<trkpt lat="24.191993" lon="120.656417"/>
<trkpt lat="24.191969" lon="120.656408"/>
<trkpt lat="24.191903" lon="120.656413"/>
<trkpt lat="24.191863" lon="120.656301"/>
<trkpt lat="24.191817" lon="120.656174"/>
<trkpt lat="24.191760" lon="120.656204"/>
<trkpt lat="24.191696" lon="120.656226"/>
<trkpt lat="24.190340" lon="120.656331"/>
<trkpt lat="24.190303" lon="120.656300"/>
<trkpt lat="24.190284" lon="120.656284"/>
<trkpt lat="24.190179" lon="120.656283"/>
<trkpt lat="24.190120" lon="120.656282"/>
<trkpt lat="24.190069" lon="120.656353"/>
<trkpt lat="24.189451" lon="120.656392"/>
<trkpt lat="24.189379" lon="120.656353"/>
<trkpt lat="24.189342" lon="120.655611"/>
<trkpt lat="24.189274" lon="120.655611"/>
<trkpt lat="24.189222" lon="120.655615"/>
<trkpt lat="24.189207" lon="120.655569"/>
<trkpt lat="24.188483" lon="120.655611"/>
<trkpt lat="24.188442" lon="120.655657"/>
<trkpt lat="24.188407" lon="120.655660"/>
<trkpt lat="24.188371" lon="120.655661"/>
<trkpt lat="24.188288" lon="120.655665"/>
<trkpt lat="24.188263" lon="120.655666"/>
<trkpt lat="24.188216" lon="120.655666"/>
<trkpt lat="24.188171" lon="120.655646"/>
<trkpt lat="24.187270" lon="120.655708"/>
<trkpt lat="24.187251" lon="120.655708"/>
<trkpt lat="24.187231" lon="120.655709"/>
<trkpt lat="24.187205" lon="120.655731"/>
<trkpt lat="24.187179" lon="120.655732"/>
<trkpt lat="24.187127" lon="120.655735"/>
<trkpt lat="24.187052" lon="120.655738"/>
<trkpt lat="24.187001" lon="120.655741"/>
<trkpt lat="24.186962" lon="120.655743"/>
<trkpt lat="24.186998" lon="120.656460"/>
<trkpt lat="24.186940" lon="120.656544"/>
<trkpt lat="24.185746" lon="120.656608"/>
<trkpt lat="24.185711" lon="120.656751"/>
<trkpt lat="24.185688" lon="120.656845"/>
<trkpt lat="24.185648" lon="120.656919"/>
<trkpt lat="24.185586" lon="120.656921"/>
<trkpt lat="24.185544" lon="120.656923"/>
<trkpt lat="24.185531" lon="120.656892"/>
<trkpt lat="24.185509" lon="120.656862"/>
<trkpt lat="24.185469" lon="120.656835"/>
<trkpt lat="24.184900" lon="120.656881"/>
<trkpt lat="24.184837" lon="120.656894"/>
<trkpt lat="24.184812" lon="120.656919"/>
<trkpt lat="24.184778" lon="120.656982"/>
<trkpt lat="24.184761" lon="120.657045"/>
<trkpt lat="24.184799" lon="120.657700"/>
<trkpt lat="24.184731" lon="120.657703"/>
<trkpt lat="24.184658" lon="120.657711"/>
<trkpt lat="24.184597" lon="120.657717"/>
<trkpt lat="24.184541" lon="120.657789"/>
<trkpt lat="24.184546" lon="120.657875"/>
<trkpt lat="24.184552" lon="120.657979"/>
<trkpt lat="24.184508" lon="120.657982"/>
<trkpt lat="24.183253" lon="120.658063"/>
<trkpt lat="24.182650" lon="120.658095"/>
<trkpt lat="24.182656" lon="120.658197"/>
<trkpt lat="24.182605" lon="120.658249"/>
<trkpt lat="24.182626" lon="120.659218"/>
<trkpt lat="24.182556" lon="120.659221"/>
<trkpt lat="24.182484" lon="120.659224"/>
<trkpt lat="24.182484" lon="120.659380"/>
<trkpt lat="24.182499" lon="120.659938"/>
<trkpt lat="24.182505" lon="120.660132"/>
<trkpt lat="24.182510" lon="120.660529"/>
<trkpt lat="24.182527" lon="120.661774"/>
<trkpt lat="24.182490" lon="120.661823"/>
<trkpt lat="24.181496" lon="120.661846"/>
<trkpt lat="24.181329" lon="120.661850"/>
<trkpt lat="24.180995" lon="120.661858"/>
<trkpt lat="24.180573" lon="120.661867"/>
<trkpt lat="24.180387" lon="120.661872"/>
<trkpt lat="24.179159" lon="120.661923"/>
<trkpt lat="24.179160" lon="120.661845"/>
<trkpt lat="24.179160" lon="120.661493"/>
<trkpt lat="24.179160" lon="120.661431"/>
<trkpt lat="24.179133" lon="120.661401"/>
<trkpt lat="24.179133" lon="120.661299"/>
<trkpt lat="24.179163" lon="120.661266"/>
</trkseg></trk>
</gpx>