<?xml version="1.0" encoding="UTF-8"?>
<gpx version="1.1" creator="catrun" xmlns="http://www.topografix.com/GPX/1/1">
<metadata><name>西屯區 手繪蹲坐貓（原稿描圖） 圖形路跑路線</name></metadata>
<wpt lat="24.164251" lon="120.653314"><name>青海公園</name><desc>地標</desc></wpt>
<wpt lat="24.165842" lon="120.655783"><name>重慶公園</name><desc>地標</desc></wpt>
<wpt lat="24.168970" lon="120.656895"><name>甘肅公園</name><desc>地標</desc></wpt>
<trk><name>西屯區 手繪蹲坐貓（原稿描圖） 圖形路跑路線</name><trkseg>
<trkpt lat="24.163480" lon="120.655572"/>
<trkpt lat="24.163435" lon="120.655516"/>
<trkpt lat="24.162964" lon="120.654907"/>
<trkpt lat="24.163302" lon="120.654470"/>
<trkpt lat="24.163712" lon="120.654748"/>
<trkpt lat="24.164310" lon="120.655160"/>
<trkpt lat="24.164859" lon="120.654049"/>
<trkpt lat="24.165317" lon="120.654423"/>
<trkpt lat="24.165905" lon="120.654614"/>
<trkpt lat="24.166421" lon="120.654762"/>
<trkpt lat="24.166671" lon="120.654522"/>
<trkpt lat="24.167256" lon="120.655266"/>
<trkpt lat="24.167429" lon="120.655479"/>
<trkpt lat="24.167814" lon="120.655913"/>
<trkpt lat="24.168590" lon="120.656882"/>
<trkpt lat="24.168702" lon="120.656803"/>
<trkpt lat="24.168813" lon="120.656718"/>
<trkpt lat="24.168911" lon="120.656638"/>
<trkpt lat="24.169017" lon="120.656544"/>
<trkpt lat="24.169418" lon="120.656202"/>
<trkpt lat="24.170021" lon="120.657140"/>
<trkpt lat="24.170456" lon="120.657931"/>
<trkpt lat="24.170606" lon="120.657820"/>
<trkpt lat="24.170944" lon="120.657623"/>
<trkpt lat="24.171314" lon="120.657565"/>
<trkpt lat="24.171610" lon="120.658445"/>
<trkpt lat="24.172618" lon="120.658603"/>
<trkpt lat="24.172964" lon="120.658657"/>
<trkpt lat="24.173633" lon="120.658762"/>
<trkpt lat="24.174218" lon="120.658866"/>
<trkpt lat="24.175535" lon="120.659075"/>
<trkpt lat="24.175576" lon="120.659082"/>
<trkpt lat="24.175593" lon="120.659380"/>
<trkpt lat="24.175633" lon="120.659367"/>
<trkpt lat="24.175666" lon="120.659446"/>
<trkpt lat="24.175713" lon="120.659405"/>
<trkpt lat="24.175844" lon="120.659306"/>
<trkpt lat="24.175958" lon="120.659162"/>
<trkpt lat="24.176071" lon="120.658962"/>
<trkpt lat="24.176163" lon="120.658983"/>
<trkpt lat="24.176265" lon="120.658997"/>
<trkpt lat="24.176299" lon="120.659100"/>
<trkpt lat="24.176313" lon="120.659160"/>
<trkpt lat="24.176317" lon="120.659186"/>
<trkpt lat="24.176455" lon="120.659183"/>
<trkpt lat="24.176463" lon="120.659126"/>
<trkpt lat="24.176473" lon="120.659094"/>
<trkpt lat="24.176491" lon="120.659077"/>
<trkpt lat="24.177967" lon="120.658843"/>
<trkpt lat="24.178023" lon="120.658849"/>
<trkpt lat="24.178014" lon="120.658766"/>
<trkpt lat="24.178004" lon="120.658685"/>
<trkpt lat="24.177993" lon="120.658589"/>
<trkpt lat="24.178031" lon="120.658555"/>
<trkpt lat="24.178057" lon="120.658527"/>
<trkpt lat="24.178044" lon="120.656531"/>
<trkpt lat="24.178099" lon="120.656560"/>
<trkpt lat="24.178174" lon="120.656515"/>
<trkpt lat="24.178199" lon="120.656500"/>
<trkpt lat="24.178269" lon="120.656418"/>
<trkpt lat="24.178362" lon="120.656286"/>
<trkpt lat="24.178405" lon="120.656131"/>
<trkpt lat="24.178465" lon="120.655970"/>
<trkpt lat="24.178591" lon="120.655789"/>
<trkpt lat="24.178742" lon="120.655568"/>
<trkpt lat="24.178759" lon="120.655551"/>
<trkpt lat="24.178236" lon="120.655464"/>
<trkpt lat="24.178243" lon="120.655340"/>
<trkpt lat="24.178248" lon="120.655250"/>
<trkpt lat="24.178214" lon="120.655209"/>
<trkpt lat="24.178468" lon="120.655271"/>
<trkpt lat="24.178546" lon="120.655261"/>
<trkpt lat="24.178589" lon="120.655256"/>
<trkpt lat="24.178671" lon="120.655219"/>
<trkpt lat="24.178748" lon="120.655189"/>
<trkpt lat="24.178808" lon="120.655188"/>
<trkpt lat="24.178876" lon="120.655247"/>
<trkpt lat="24.178939" lon="120.655292"/>
<trkpt lat="24.179007" lon="120.655303"/>
<trkpt lat="24.179077" lon="120.655276"/>
<trkpt lat="24.179111" lon="120.655290"/>
<trkpt lat="24.179202" lon="120.655323"/>
<trkpt lat="24.179355" lon="120.655325"/>
<trkpt lat="24.179463" lon="120.655316"/>
<trkpt lat="24.179501" lon="120.655313"/>
<trkpt lat="24.179594" lon="120.655294"/>
<trkpt lat="24.179757" lon="120.655250"/>
<trkpt lat="24.179844" lon="120.655269"/>
<trkpt lat="24.179929" lon="120.655294"/>
<trkpt lat="24.180062" lon="120.655294"/>
<trkpt lat="24.180150" lon="120.655374"/>
<trkpt lat="24.180253" lon="120.655635"/>
<trkpt lat="24.179960" lon="120.655550"/>
<trkpt lat="24.179921" lon="120.655648"/>
<trkpt lat="24.179898" lon="120.655736"/>
<trkpt lat="24.180260" lon="120.655820"/>
<trkpt lat="24.180590" lon="120.655956"/>
<trkpt lat="24.180766" lon="120.656036"/>
<trkpt lat="24.182281" lon="120.656768"/>
<trkpt lat="24.182559" lon="120.656891"/>
<trkpt lat="24.182816" lon="120.656979"/>
<trkpt lat="24.182983" lon="120.657011"/>
<trkpt lat="24.183115" lon="120.657028"/>
<trkpt lat="24.184487" lon="120.656926"/>
<trkpt lat="24.184525" lon="120.656957"/>
<trkpt lat="24.184553" lon="120.656999"/>
<trkpt lat="24.184597" lon="120.657717"/>
<trkpt lat="24.184541" lon="120.657789"/>
<trkpt lat="24.184546" lon="120.657875"/>
<trkpt lat="24.184552" lon="120.657979"/>
<trkpt lat="24.184557" lon="120.658060"/>
<trkpt lat="24.184623" lon="120.658112"/>
<trkpt lat="24.184678" lon="120.659094"/>
<trkpt lat="24.184652" lon="120.659107"/>
<trkpt lat="24.184640" lon="120.659115"/>
<trkpt lat="24.183961" lon="120.659178"/>
<trkpt lat="24.183839" lon="120.659185"/>
<trkpt lat="24.183220" lon="120.659196"/>
<trkpt lat="24.183223" lon="120.659268"/>
<trkpt lat="24.183226" lon="120.659347"/>
<trkpt lat="24.183142" lon="120.659347"/>
<trkpt lat="24.183181" lon="120.660235"/>
<trkpt lat="24.183268" lon="120.660268"/>
<trkpt lat="24.183250" lon="120.660335"/>
<trkpt lat="24.183750" lon="120.660522"/>
<trkpt lat="24.183936" lon="120.660551"/>
<trkpt lat="24.183987" lon="120.660550"/>
<trkpt lat="24.184046" lon="120.660543"/>
<trkpt lat="24.184742" lon="120.660470"/>
<trkpt lat="24.184752" lon="120.660549"/>
<trkpt lat="24.184762" lon="120.660595"/>
<trkpt lat="24.184779" lon="120.660917"/>
<trkpt lat="24.184807" lon="120.661464"/>
<trkpt lat="24.184903" lon="120.661465"/>
<trkpt lat="24.184985" lon="120.661462"/>
<trkpt lat="24.185069" lon="120.661457"/>
<trkpt lat="24.185069" lon="120.661551"/>
<trkpt lat="24.185081" lon="120.661640"/>
<trkpt lat="24.185677" lon="120.661208"/>
<trkpt lat="24.185750" lon="120.661319"/>
<trkpt lat="24.185804" lon="120.661377"/>
<trkpt lat="24.185776" lon="120.661418"/>
<trkpt lat="24.185725" lon="120.661504"/>
<trkpt lat="24.185725" lon="120.661595"/>
<trkpt lat="24.185750" lon="120.661692"/>
<trkpt lat="24.185799" lon="120.661762"/>
<trkpt lat="24.185872" lon="120.661794"/>
<trkpt lat="24.185918" lon="120.661833"/>
<trkpt lat="24.185899" lon="120.661848"/>
<trkpt lat="24.185878" lon="120.661889"/>
<trkpt lat="24.185870" lon="120.661936"/>
<trkpt lat="24.185878" lon="120.661982"/>
<trkpt lat="24.185905" lon="120.662027"/>
<trkpt lat="24.185874" lon="120.662062"/>
<trkpt lat="24.185818" lon="120.662126"/>
<trkpt lat="24.185742" lon="120.662185"/>
<trkpt lat="24.185686" lon="120.662242"/>
<trkpt lat="24.185659" lon="120.662344"/>
<trkpt lat="24.185664" lon="120.662411"/>
<trkpt lat="24.185689" lon="120.662483"/>
<trkpt lat="24.185698" lon="120.662553"/>
<trkpt lat="24.185693" lon="120.662620"/>
<trkpt lat="24.185669" lon="120.662687"/>
<trkpt lat="24.185642" lon="120.662762"/>
<trkpt lat="24.185649" lon="120.662762"/>
<trkpt lat="24.185701" lon="120.662786"/>
<trkpt lat="24.185765" lon="120.662867"/>
<trkpt lat="24.185664" lon="120.662950"/>
<trkpt lat="24.185576" lon="120.662998"/>
<trkpt lat="24.185517" lon="120.663067"/>
<trkpt lat="24.185489" lon="120.663125"/>
<trkpt lat="24.185450" lon="120.663229"/>
<trkpt lat="24.185404" lon="120.663339"/>
<trkpt lat="24.185347" lon="120.663338"/>
<trkpt lat="24.185301" lon="120.663368"/>
<trkpt lat="24.185237" lon="120.663407"/>
<trkpt lat="24.185186" lon="120.663437"/>
<trkpt lat="24.185178" lon="120.663470"/>
<trkpt lat="24.185216" lon="120.663556"/>
<trkpt lat="24.185189" lon="120.663573"/>
<trkpt lat="24.184781" lon="120.663810"/>
<trkpt lat="24.184377" lon="120.664063"/>
<trkpt lat="24.184065" lon="120.664259"/>
<trkpt lat="24.183906" lon="120.664362"/>
<trkpt lat="24.183748" lon="120.664444"/>
<trkpt lat="24.183650" lon="120.664493"/>
<trkpt lat="24.183612" lon="120.664512"/>
<trkpt lat="24.183561" lon="120.664537"/>
<trkpt lat="24.183607" lon="120.664628"/>
<trkpt lat="24.183629" lon="120.664671"/>
<trkpt lat="24.183015" lon="120.665035"/>
<trkpt lat="24.182693" lon="120.665231"/>
<trkpt lat="24.182695" lon="120.665313"/>
<trkpt lat="24.182562" lon="120.665327"/>
<trkpt lat="24.182326" lon="120.665256"/>
<trkpt lat="24.182115" lon="120.665130"/>
<trkpt lat="24.181471" lon="120.665739"/>
<trkpt lat="24.181479" lon="120.665822"/>
<trkpt lat="24.181070" lon="120.665881"/>
<trkpt lat="24.180739" lon="120.665985"/>
<trkpt lat="24.180154" lon="120.666105"/>
<trkpt lat="24.179927" lon="120.666287"/>
<trkpt lat="24.179646" lon="120.666520"/>
<trkpt lat="24.179249" lon="120.666178"/>
<trkpt lat="24.179213" lon="120.666189"/>
<trkpt lat="24.179120" lon="120.666384"/>
<trkpt lat="24.179000" lon="120.666635"/>
<trkpt lat="24.178522" lon="120.667018"/>
<trkpt lat="24.178673" lon="120.667247"/>
<trkpt lat="24.178312" lon="120.667534"/>
<trkpt lat="24.178178" lon="120.667548"/>
<trkpt lat="24.178172" lon="120.667182"/>
<trkpt lat="24.177501" lon="120.667187"/>
<trkpt lat="24.177118" lon="120.667190"/>
<trkpt lat="24.177174" lon="120.668603"/>
<trkpt lat="24.176906" lon="120.668610"/>
<trkpt lat="24.176631" lon="120.668617"/>
<trkpt lat="24.175863" lon="120.668790"/>
<trkpt lat="24.175876" lon="120.668930"/>
<trkpt lat="24.175514" lon="120.669038"/>
<trkpt lat="24.175505" lon="120.669209"/>
<trkpt lat="24.175247" lon="120.669293"/>
<trkpt lat="24.175022" lon="120.669367"/>
<trkpt lat="24.174787" lon="120.669449"/>
<trkpt lat="24.174841" lon="120.669619"/>
<trkpt lat="24.174841" lon="120.669654"/>
<trkpt lat="24.174874" lon="120.669844"/>
<trkpt lat="24.174856" lon="120.669879"/>
<trkpt lat="24.174872" lon="120.669965"/>
<trkpt lat="24.174943" lon="120.670182"/>
<trkpt lat="24.174992" lon="120.670281"/>
<trkpt lat="24.175112" lon="120.670510"/>
<trkpt lat="24.175096" lon="120.670521"/>
<trkpt lat="24.174843" lon="120.670694"/>
<trkpt lat="24.175007" lon="120.670997"/>
<trkpt lat="24.174797" lon="120.671073"/>
<trkpt lat="24.174459" lon="120.671171"/>
<trkpt lat="24.174283" lon="120.671222"/>
<trkpt lat="24.174059" lon="120.671272"/>
<trkpt lat="24.174010" lon="120.671278"/>
<trkpt lat="24.174030" lon="120.671392"/>
<trkpt lat="24.174043" lon="120.671478"/>
<trkpt lat="24.173991" lon="120.671556"/>
<trkpt lat="24.173936" lon="120.671566"/>
<trkpt lat="24.173751" lon="120.671603"/>
<trkpt lat="24.173707" lon="120.671607"/>
<trkpt lat="24.173666" lon="120.671565"/>
<trkpt lat="24.173646" lon="120.671470"/>
<trkpt lat="24.173613" lon="120.671477"/>
<trkpt lat="24.173547" lon="120.671492"/>
<trkpt lat="24.173458" lon="120.671510"/>
<trkpt lat="24.173419" lon="120.671517"/>
<trkpt lat="24.173500" lon="120.672064"/>
<trkpt lat="24.173506" lon="120.672105"/>
<trkpt lat="24.173601" lon="120.672761"/>
<trkpt lat="24.172797" lon="120.672951"/>
<trkpt lat="24.172612" lon="120.672994"/>
<trkpt lat="24.172309" lon="120.673066"/>
<trkpt lat="24.172274" lon="120.673074"/>
<trkpt lat="24.171709" lon="120.673207"/>
<trkpt lat="24.170814" lon="120.673418"/>
<trkpt lat="24.170792" lon="120.673922"/>
<trkpt lat="24.170772" lon="120.674382"/>
<trkpt lat="24.170472" lon="120.674364"/>
<trkpt lat="24.170043" lon="120.674371"/>
<trkpt lat="24.169491" lon="120.674318"/>
<trkpt lat="24.169330" lon="120.674311"/>
<trkpt lat="24.169372" lon="120.673632"/>
<trkpt lat="24.169375" lon="120.673590"/>
<trkpt lat="24.169357" lon="120.673324"/>
<trkpt lat="24.169315" lon="120.673116"/>
<trkpt lat="24.169190" lon="120.672620"/>
<trkpt lat="24.168895" lon="120.672709"/>
<trkpt lat="24.168828" lon="120.672726"/>
<trkpt lat="24.168767" lon="120.672742"/>
<trkpt lat="24.168455" lon="120.672848"/>
<trkpt lat="24.167967" lon="120.673017"/>
<trkpt lat="24.167529" lon="120.673154"/>
<trkpt lat="24.167069" lon="120.673290"/>
<trkpt lat="24.167056" lon="120.673176"/>
<trkpt lat="24.166921" lon="120.673233"/>
<trkpt lat="24.166917" lon="120.673115"/>
<trkpt lat="24.166896" lon="120.672170"/>
<trkpt lat="24.166895" lon="120.672118"/>
<trkpt lat="24.166806" lon="120.672116"/>
<trkpt lat="24.166527" lon="120.672111"/>
<trkpt lat="24.166280" lon="120.672128"/>
<trkpt lat="24.166279" lon="120.672641"/>
<trkpt lat="24.166250" lon="120.672687"/>
<trkpt lat="24.166182" lon="120.672719"/>
<trkpt lat="24.165716" lon="120.672723"/>
<trkpt lat="24.165150" lon="120.672744"/>
<trkpt lat="24.165152" lon="120.672182"/>
<trkpt lat="24.164909" lon="120.672176"/>
<trkpt lat="24.164894" lon="120.672695"/>
<trkpt lat="24.164486" lon="120.672761"/>
<trkpt lat="24.164256" lon="120.672742"/>
<trkpt lat="24.164174" lon="120.672730"/>
<trkpt lat="24.163908" lon="120.672676"/>
<trkpt lat="24.163698" lon="120.672618"/>
<trkpt lat="24.163036" lon="120.672615"/>
<trkpt lat="24.162964" lon="120.672616"/>
<trkpt lat="24.162964" lon="120.672487"/>
<trkpt lat="24.162965" lon="120.672350"/>
<trkpt lat="24.162845" lon="120.672346"/>
<trkpt lat="24.162750" lon="120.672349"/>
<trkpt lat="24.162655" lon="120.672330"/>
<trkpt lat="24.162667" lon="120.672208"/>
<trkpt lat="24.162672" lon="120.672144"/>
<trkpt lat="24.162655" lon="120.672051"/>
<trkpt lat="24.162630" lon="120.671968"/>
<trkpt lat="24.162573" lon="120.671882"/>
<trkpt lat="24.162510" lon="120.671837"/>
<trkpt lat="24.162441" lon="120.671817"/>
<trkpt lat="24.162172" lon="120.671766"/>
<trkpt lat="24.161998" lon="120.671731"/>
<trkpt lat="24.161960" lon="120.671985"/>
<trkpt lat="24.161870" lon="120.672570"/>
<trkpt lat="24.161869" lon="120.672599"/>
<trkpt lat="24.161874" lon="120.672621"/>
<trkpt lat="24.161898" lon="120.672641"/>
<trkpt lat="24.162378" lon="120.672728"/>
<trkpt lat="24.162455" lon="120.672727"/>
<trkpt lat="24.162516" lon="120.672708"/>
<trkpt lat="24.162567" lon="120.672672"/>
<trkpt lat="24.162593" lon="120.672610"/>
<trkpt lat="24.162606" lon="120.672552"/>
<trkpt lat="24.162655" lon="120.672330"/>
<trkpt lat="24.162750" lon="120.672349"/>
<trkpt lat="24.162845" lon="120.672346"/>
<trkpt lat="24.162842" lon="120.672561"/>
<trkpt lat="24.162753" lon="120.672602"/>
<trkpt lat="24.162658" lon="120.672933"/>
<trkpt lat="24.162471" lon="120.674212"/>
<trkpt lat="24.161849" lon="120.674100"/>
<trkpt lat="24.161639" lon="120.674048"/>
<trkpt lat="24.161630" lon="120.674261"/>
<trkpt lat="24.161616" lon="120.674611"/>
<trkpt lat="24.161618" lon="120.674779"/>
<trkpt lat="24.161652" lon="120.674944"/>
<trkpt lat="24.161692" lon="120.675072"/>
<trkpt lat="24.161713" lon="120.675570"/>
<trkpt lat="24.161698" lon="120.676162"/>
<trkpt lat="24.161694" lon="120.676446"/>
<trkpt lat="24.161691" lon="120.676674"/>
<trkpt lat="24.161316" lon="120.676647"/>
<trkpt lat="24.161019" lon="120.676626"/>
<trkpt lat="24.161000" lon="120.677400"/>
<trkpt lat="24.160685" lon="120.677434"/>
<trkpt lat="24.160390" lon="120.677472"/>
<trkpt lat="24.160388" lon="120.677846"/>
<trkpt lat="24.160377" lon="120.678591"/>
<trkpt lat="24.160361" lon="120.679220"/>
<trkpt lat="24.160358" lon="120.679973"/>
<trkpt lat="24.159579" lon="120.679964"/>
<trkpt lat="24.159125" lon="120.679959"/>
<trkpt lat="24.159112" lon="120.680648"/>
<trkpt lat="24.159103" lon="120.680969"/>
<trkpt lat="24.159093" lon="120.681492"/>
<trkpt lat="24.159091" lon="120.681704"/>
<trkpt lat="24.159089" lon="120.681884"/>
<trkpt lat="24.159084" lon="120.682350"/>
<trkpt lat="24.159076" lon="120.683051"/>
<trkpt lat="24.159076" lon="120.683097"/>
<trkpt lat="24.159074" lon="120.683186"/>
<trkpt lat="24.159219" lon="120.683183"/>
<trkpt lat="24.159188" lon="120.683317"/>
<trkpt lat="24.159179" lon="120.683604"/>
<trkpt lat="24.159066" lon="120.683605"/>
<trkpt lat="24.158987" lon="120.683605"/>
<trkpt lat="24.158987" lon="120.683675"/>
<trkpt lat="24.158642" lon="120.683673"/>
<trkpt lat="24.158625" lon="120.683672"/>
<trkpt lat="24.158421" lon="120.683671"/>
<trkpt lat="24.158374" lon="120.683798"/>
<trkpt lat="24.158309" lon="120.683868"/>
<trkpt lat="24.158068" lon="120.684098"/>
<trkpt lat="24.158012" lon="120.684200"/>
<trkpt lat="24.157969" lon="120.684321"/>
<trkpt lat="24.157906" lon="120.684374"/>
<trkpt lat="24.157643" lon="120.684409"/>
<trkpt lat="24.157649" lon="120.683738"/>
<trkpt lat="24.157442" lon="120.683735"/>
<trkpt lat="24.157300" lon="120.683733"/>
<trkpt lat="24.157233" lon="120.683556"/>
<trkpt lat="24.156993" lon="120.682924"/>
<trkpt lat="24.156255" lon="120.683262"/>
<trkpt lat="24.156236" lon="120.683210"/>
<trkpt lat="24.156270" lon="120.683174"/>
<trkpt lat="24.156204" lon="120.683037"/>
<trkpt lat="24.156153" lon="120.682929"/>
<trkpt lat="24.156220" lon="120.682874"/>
<trkpt lat="24.156270" lon="120.682764"/>
<trkpt lat="24.156356" lon="120.682755"/>
<trkpt lat="24.156523" lon="120.682702"/>
<trkpt lat="24.156630" lon="120.682680"/>
<trkpt lat="24.156750" lon="120.682619"/>
<trkpt lat="24.156828" lon="120.682530"/>
<trkpt lat="24.156900" lon="120.682485"/>
<trkpt lat="24.156709" lon="120.681958"/>
<trkpt lat="24.156685" lon="120.681890"/>
<trkpt lat="24.156525" lon="120.681460"/>
<trkpt lat="24.156488" lon="120.681363"/>
<trkpt lat="24.156548" lon="120.681349"/>
<trkpt lat="24.156846" lon="120.681441"/>
<trkpt lat="24.157269" lon="120.681349"/>
<trkpt lat="24.157323" lon="120.681343"/>
<trkpt lat="24.157341" lon="120.681288"/>
<trkpt lat="24.157406" lon="120.681277"/>
<trkpt lat="24.157482" lon="120.681270"/>
<trkpt lat="24.157689" lon="120.681207"/>
<trkpt lat="24.157668" lon="120.681084"/>
<trkpt lat="24.157927" lon="120.681023"/>
<trkpt lat="24.157922" lon="120.680359"/>
<trkpt lat="24.157796" lon="120.680098"/>
<trkpt lat="24.157775" lon="120.679957"/>
<trkpt lat="24.157511" lon="120.679959"/>
<trkpt lat="24.157509" lon="120.679015"/>
<trkpt lat="24.157509" lon="120.678987"/>
<trkpt lat="24.157575" lon="120.678991"/>
<trkpt lat="24.157595" lon="120.678958"/>
<trkpt lat="24.157592" lon="120.678890"/>
<trkpt lat="24.157636" lon="120.678885"/>
<trkpt lat="24.157871" lon="120.678851"/>
<trkpt lat="24.157872" lon="120.678286"/>
<trkpt lat="24.157872" lon="120.677726"/>
<trkpt lat="24.158209" lon="120.677700"/>
<trkpt lat="24.158227" lon="120.676982"/>
<trkpt lat="24.158230" lon="120.676896"/>
<trkpt lat="24.158233" lon="120.676630"/>
<trkpt lat="24.158240" lon="120.676370"/>
<trkpt lat="24.158410" lon="120.676394"/>
<trkpt lat="24.158467" lon="120.676326"/>
<trkpt lat="24.158417" lon="120.676287"/>
<trkpt lat="24.158245" lon="120.676171"/>
<trkpt lat="24.158255" lon="120.676057"/>
<trkpt lat="24.158267" lon="120.675931"/>
<trkpt lat="24.158317" lon="120.675434"/>
<trkpt lat="24.158369" lon="120.674771"/>
<trkpt lat="24.158382" lon="120.674575"/>
<trkpt lat="24.158451" lon="120.673647"/>
<trkpt lat="24.158610" lon="120.673646"/>
<trkpt lat="24.158817" lon="120.673644"/>
<trkpt lat="24.159204" lon="120.673641"/>
<trkpt lat="24.159208" lon="120.673170"/>
<trkpt lat="24.159204" lon="120.672164"/>
<trkpt lat="24.159205" lon="120.672083"/>
<trkpt lat="24.159205" lon="120.672020"/>
<trkpt lat="24.159206" lon="120.671383"/>
<trkpt lat="24.159207" lon="120.671053"/>
<trkpt lat="24.159202" lon="120.670947"/>
<trkpt lat="24.159201" lon="120.670634"/>
<trkpt lat="24.159122" lon="120.670634"/>
<trkpt lat="24.159123" lon="120.670509"/>
<trkpt lat="24.159123" lon="120.670365"/>
<trkpt lat="24.159201" lon="120.670366"/>
<trkpt lat="24.159201" lon="120.670098"/>
<trkpt lat="24.159209" lon="120.669817"/>
<trkpt lat="24.159704" lon="120.669817"/>
<trkpt lat="24.159935" lon="120.669817"/>
<trkpt lat="24.160432" lon="120.669816"/>
<trkpt lat="24.160433" lon="120.669203"/>
<trkpt lat="24.160425" lon="120.668658"/>
<trkpt lat="24.160429" lon="120.668063"/>
<trkpt lat="24.160426" lon="120.667979"/>
<trkpt lat="24.160429" lon="120.667472"/>
<trkpt lat="24.160431" lon="120.666758"/>
<trkpt lat="24.161008" lon="120.666601"/>
<trkpt lat="24.161594" lon="120.666437"/>
<trkpt lat="24.161593" lon="120.666254"/>
<trkpt lat="24.161591" lon="120.665269"/>
<trkpt lat="24.161493" lon="120.665108"/>
<trkpt lat="24.161266" lon="120.664736"/>
<trkpt lat="24.161551" lon="120.664525"/>
<trkpt lat="24.161651" lon="120.664451"/>
<trkpt lat="24.161309" lon="120.663889"/>
<trkpt lat="24.161006" lon="120.663407"/>
<trkpt lat="24.161397" lon="120.663106"/>
<trkpt lat="24.161490" lon="120.663017"/>
<trkpt lat="24.161460" lon="120.662968"/>
<trkpt lat="24.161315" lon="120.662751"/>
<trkpt lat="24.161302" lon="120.662732"/>
<trkpt lat="24.161687" lon="120.662446"/>
<trkpt lat="24.161956" lon="120.662242"/>
<trkpt lat="24.162265" lon="120.662009"/>
<trkpt lat="24.161791" lon="120.661269"/>
<trkpt lat="24.161717" lon="120.661215"/>
<trkpt lat="24.161957" lon="120.660788"/>
<trkpt lat="24.162152" lon="120.660433"/>
<trkpt lat="24.162421" lon="120.659920"/>
<trkpt lat="24.162614" lon="120.660053"/>
<trkpt lat="24.162706" lon="120.660087"/>
<trkpt lat="24.162828" lon="120.660025"/>
<trkpt lat="24.163406" lon="120.659671"/>
<trkpt lat="24.163153" lon="120.659118"/>
<trkpt lat="24.163638" lon="120.658841"/>
<trkpt lat="24.163551" lon="120.658613"/>
<trkpt lat="24.163953" lon="120.658492"/>
<trkpt lat="24.164123" lon="120.658569"/>
<trkpt lat="24.164304" lon="120.658651"/>
<trkpt lat="24.164683" lon="120.658822"/>
<trkpt lat="24.164834" lon="120.658313"/>
<trkpt lat="24.164774" lon="120.658221"/>
<trkpt lat="24.164278" lon="120.657969"/>
<trkpt lat="24.164561" lon="120.657238"/>
<trkpt lat="24.164082" lon="120.656947"/>
<trkpt lat="24.163580" lon="120.656617"/>
<trkpt lat="24.163630" lon="120.656514"/>
<trkpt lat="24.163350" lon="120.656045"/>
<trkpt lat="24.163182" lon="120.655799"/>
<trkpt lat="24.163435" lon="120.655516"/>
<trkpt lat="24.163480" lon="120.655572"/>
</trkseg></trk>
</gpx>