<?xml version="1.0" encoding="UTF-8"?>
<gpx version="1.1" creator="catrun" xmlns="http://www.topografix.com/GPX/1/1">
<metadata><name>西屯區 貓臉（正面） 圖形路跑路線</name></metadata>
<wpt lat="24.194266" lon="120.660906"><name>同順公園</name><desc>地標</desc></wpt>
<wpt lat="24.197516" lon="120.663278"><name>同榮公園</name><desc>地標</desc></wpt>
<wpt lat="24.187795" lon="120.666470"><name>敦化公園</name><desc>地標</desc></wpt>
<trk><name>西屯區 貓臉（正面） 圖形路跑路線</name><trkseg>
<trkpt lat="24.196246" lon="120.659511"/>
<trkpt lat="24.196075" lon="120.660178"/>
<trkpt lat="24.195909" lon="120.660889"/>
<trkpt lat="24.195780" lon="120.661446"/>
<trkpt lat="24.195648" lon="120.661933"/>
<trkpt lat="24.195506" lon="120.661912"/>
<trkpt lat="24.195340" lon="120.661888"/>
<trkpt lat="24.194816" lon="120.662282"/>
<trkpt lat="24.195055" lon="120.662571"/>
<trkpt lat="24.195459" lon="120.663108"/>
<trkpt lat="24.195504" lon="120.663116"/>
<trkpt lat="24.195704" lon="120.663269"/>
<trkpt lat="24.195843" lon="120.663465"/>
<trkpt lat="24.196076" lon="120.663794"/>
<trkpt lat="24.196054" lon="120.663843"/>
<trkpt lat="24.195984" lon="120.663929"/>
<trkpt lat="24.195984" lon="120.663966"/>
<trkpt lat="24.196009" lon="120.664006"/>
<trkpt lat="24.196026" lon="120.664040"/>
<trkpt lat="24.196032" lon="120.664074"/>
<trkpt lat="24.196029" lon="120.664160"/>
<trkpt lat="24.196024" lon="120.664209"/>
<trkpt lat="24.196047" lon="120.664431"/>
<trkpt lat="24.196050" lon="120.664498"/>
<trkpt lat="24.196066" lon="120.664615"/>
<trkpt lat="24.196103" lon="120.664582"/>
<trkpt lat="24.196144" lon="120.664580"/>
<trkpt lat="24.196248" lon="120.664620"/>
<trkpt lat="24.196388" lon="120.664708"/>
<trkpt lat="24.196725" lon="120.665031"/>
<trkpt lat="24.196762" lon="120.665179"/>
<trkpt lat="24.196770" lon="120.665281"/>
<trkpt lat="24.196721" lon="120.665488"/>
<trkpt lat="24.196721" lon="120.665654"/>
<trkpt lat="24.196629" lon="120.665653"/>
<trkpt lat="24.196579" lon="120.665641"/>
<trkpt lat="24.196311" lon="120.665380"/>
<trkpt lat="24.196129" lon="120.665377"/>
<trkpt lat="24.196128" lon="120.665419"/>
<trkpt lat="24.196127" lon="120.665470"/>
<trkpt lat="24.196157" lon="120.665457"/>
<trkpt lat="24.196278" lon="120.665460"/>
<trkpt lat="24.196607" lon="120.665780"/>
<trkpt lat="24.196628" lon="120.665821"/>
<trkpt lat="24.196628" lon="120.665991"/>
<trkpt lat="24.196611" lon="120.667381"/>
<trkpt lat="24.196604" lon="120.667421"/>
<trkpt lat="24.196603" lon="120.667473"/>
<trkpt lat="24.196602" lon="120.667537"/>
<trkpt lat="24.196700" lon="120.667539"/>
<trkpt lat="24.196779" lon="120.667541"/>
<trkpt lat="24.196784" lon="120.667570"/>
<trkpt lat="24.196774" lon="120.668132"/>
<trkpt lat="24.196797" lon="120.668188"/>
<trkpt lat="24.196797" lon="120.668279"/>
<trkpt lat="24.196797" lon="120.668488"/>
<trkpt lat="24.196796" lon="120.668572"/>
<trkpt lat="24.196768" lon="120.668611"/>
<trkpt lat="24.196763" lon="120.669660"/>
<trkpt lat="24.196692" lon="120.669659"/>
<trkpt lat="24.196597" lon="120.669661"/>
<trkpt lat="24.196598" lon="120.669180"/>
<trkpt lat="24.196604" lon="120.668604"/>
<trkpt lat="24.196575" lon="120.668572"/>
<trkpt lat="24.195532" lon="120.668570"/>
<trkpt lat="24.195512" lon="120.668575"/>
<trkpt lat="24.195499" lon="120.668588"/>
<trkpt lat="24.195411" lon="120.668587"/>
<trkpt lat="24.195316" lon="120.668586"/>
<trkpt lat="24.195277" lon="120.668567"/>
<trkpt lat="24.194727" lon="120.668574"/>
<trkpt lat="24.193973" lon="120.668574"/>
<trkpt lat="24.193542" lon="120.668623"/>
<trkpt lat="24.193488" lon="120.668641"/>
<trkpt lat="24.193434" lon="120.668664"/>
<trkpt lat="24.193364" lon="120.668689"/>
<trkpt lat="24.193326" lon="120.668695"/>
<trkpt lat="24.192885" lon="120.668866"/>
<trkpt lat="24.192867" lon="120.668876"/>
<trkpt lat="24.192858" lon="120.668803"/>
<trkpt lat="24.192821" lon="120.668599"/>
<trkpt lat="24.192799" lon="120.668500"/>
<trkpt lat="24.192691" lon="120.668544"/>
<trkpt lat="24.192600" lon="120.668586"/>
<trkpt lat="24.192549" lon="120.668624"/>
<trkpt lat="24.192394" lon="120.668696"/>
<trkpt lat="24.192370" lon="120.668709"/>
<trkpt lat="24.192331" lon="120.668678"/>
<trkpt lat="24.191813" lon="120.667799"/>
<trkpt lat="24.191743" lon="120.667683"/>
<trkpt lat="24.191706" lon="120.667710"/>
<trkpt lat="24.191564" lon="120.667464"/>
<trkpt lat="24.191470" lon="120.667288"/>
<trkpt lat="24.190980" lon="120.666495"/>
<trkpt lat="24.190806" lon="120.666614"/>
<trkpt lat="24.190550" lon="120.666801"/>
<trkpt lat="24.190924" lon="120.667404"/>
<trkpt lat="24.190601" lon="120.667592"/>
<trkpt lat="24.190423" lon="120.667699"/>
<trkpt lat="24.190540" lon="120.667752"/>
<trkpt lat="24.190575" lon="120.667775"/>
<trkpt lat="24.190469" lon="120.667873"/>
<trkpt lat="24.190458" lon="120.667907"/>
<trkpt lat="24.190417" lon="120.667960"/>
<trkpt lat="24.190412" lon="120.668004"/>
<trkpt lat="24.190358" lon="120.668081"/>
<trkpt lat="24.190301" lon="120.668125"/>
<trkpt lat="24.190248" lon="120.668153"/>
<trkpt lat="24.190189" lon="120.668189"/>
<trkpt lat="24.190143" lon="120.668220"/>
<trkpt lat="24.190024" lon="120.668279"/>
<trkpt lat="24.189801" lon="120.668380"/>
<trkpt lat="24.189698" lon="120.668392"/>
<trkpt lat="24.189634" lon="120.668296"/>
<trkpt lat="24.189595" lon="120.668219"/>
<trkpt lat="24.189528" lon="120.668259"/>
<trkpt lat="24.188910" lon="120.668647"/>
<trkpt lat="24.188883" lon="120.668592"/>
<trkpt lat="24.188559" lon="120.668792"/>
<trkpt lat="24.188636" lon="120.668948"/>
<trkpt lat="24.188300" lon="120.669145"/>
<trkpt lat="24.187931" lon="120.668416"/>
<trkpt lat="24.187579" lon="120.667722"/>
<trkpt lat="24.187541" lon="120.667777"/>
<trkpt lat="24.187268" lon="120.667949"/>
<trkpt lat="24.186865" lon="120.668205"/>
<trkpt lat="24.187041" lon="120.668541"/>
<trkpt lat="24.187120" lon="120.668681"/>
<trkpt lat="24.186877" lon="120.668820"/>
<trkpt lat="24.186659" lon="120.668944"/>
<trkpt lat="24.186262" lon="120.669177"/>
<trkpt lat="24.185789" lon="120.669516"/>
<trkpt lat="24.185329" lon="120.669900"/>
<trkpt lat="24.184955" lon="120.670190"/>
<trkpt lat="24.184667" lon="120.670090"/>
<trkpt lat="24.184283" lon="120.669968"/>
<trkpt lat="24.184224" lon="120.669950"/>
<trkpt lat="24.183680" lon="120.669809"/>
<trkpt lat="24.183484" lon="120.669760"/>
<trkpt lat="24.183309" lon="120.669673"/>
<trkpt lat="24.183142" lon="120.669573"/>
<trkpt lat="24.183094" lon="120.669543"/>
<trkpt lat="24.182964" lon="120.669468"/>
<trkpt lat="24.182776" lon="120.669382"/>
<trkpt lat="24.182535" lon="120.669279"/>
<trkpt lat="24.182262" lon="120.669180"/>
<trkpt lat="24.182097" lon="120.669121"/>
<trkpt lat="24.181944" lon="120.669008"/>
<trkpt lat="24.181855" lon="120.668911"/>
<trkpt lat="24.181709" lon="120.668883"/>
<trkpt lat="24.181518" lon="120.668836"/>
<trkpt lat="24.181115" lon="120.668661"/>
<trkpt lat="24.180834" lon="120.668459"/>
<trkpt lat="24.180744" lon="120.668396"/>
<trkpt lat="24.180504" lon="120.668224"/>
<trkpt lat="24.180325" lon="120.668092"/>
<trkpt lat="24.179755" lon="120.668525"/>
<trkpt lat="24.179728" lon="120.668495"/>
<trkpt lat="24.179582" lon="120.668277"/>
<trkpt lat="24.179501" lon="120.668157"/>
<trkpt lat="24.179311" lon="120.667874"/>
<trkpt lat="24.178791" lon="120.668276"/>
<trkpt lat="24.178418" lon="120.668574"/>
<trkpt lat="24.178342" lon="120.668473"/>
<trkpt lat="24.178300" lon="120.668418"/>
<trkpt lat="24.178194" lon="120.668495"/>
<trkpt lat="24.178193" lon="120.668468"/>
<trkpt lat="24.178187" lon="120.668080"/>
<trkpt lat="24.178184" lon="120.667900"/>
<trkpt lat="24.178181" lon="120.667706"/>
<trkpt lat="24.178179" lon="120.667625"/>
<trkpt lat="24.178178" lon="120.667548"/>
<trkpt lat="24.178172" lon="120.667182"/>
<trkpt lat="24.177501" lon="120.667187"/>
<trkpt lat="24.177118" lon="120.667190"/>
<trkpt lat="24.177077" lon="120.667156"/>
<trkpt lat="24.176743" lon="120.667087"/>
<trkpt lat="24.176800" lon="120.666734"/>
<trkpt lat="24.176879" lon="120.666263"/>
<trkpt lat="24.176921" lon="120.666005"/>
<trkpt lat="24.176573" lon="120.665961"/>
<trkpt lat="24.176507" lon="120.665953"/>
<trkpt lat="24.176397" lon="120.665933"/>
<trkpt lat="24.176427" lon="120.665490"/>
<trkpt lat="24.176441" lon="120.665283"/>
<trkpt lat="24.176487" lon="120.665165"/>
<trkpt lat="24.176230" lon="120.665037"/>
<trkpt lat="24.176014" lon="120.664791"/>
<trkpt lat="24.175940" lon="120.664856"/>
<trkpt lat="24.175797" lon="120.664953"/>
<trkpt lat="24.175872" lon="120.664753"/>
<trkpt lat="24.175534" lon="120.664717"/>
<trkpt lat="24.175374" lon="120.664700"/>
<trkpt lat="24.175302" lon="120.664692"/>
<trkpt lat="24.175105" lon="120.664671"/>
<trkpt lat="24.174864" lon="120.664646"/>
<trkpt lat="24.174671" lon="120.664612"/>
<trkpt lat="24.174293" lon="120.664505"/>
<trkpt lat="24.173994" lon="120.664440"/>
<trkpt lat="24.173838" lon="120.663779"/>
<trkpt lat="24.173851" lon="120.663554"/>
<trkpt lat="24.173871" lon="120.663206"/>
<trkpt lat="24.173552" lon="120.663115"/>
<trkpt lat="24.173610" lon="120.662658"/>
<trkpt lat="24.173672" lon="120.662201"/>
<trkpt lat="24.173022" lon="120.662088"/>
<trkpt lat="24.172784" lon="120.662109"/>
<trkpt lat="24.172698" lon="120.661822"/>
<trkpt lat="24.172669" lon="120.661726"/>
<trkpt lat="24.172567" lon="120.661383"/>
<trkpt lat="24.172425" lon="120.660912"/>
<trkpt lat="24.172504" lon="120.660882"/>
<trkpt lat="24.172483" lon="120.660813"/>
<trkpt lat="24.172450" lon="120.660708"/>
<trkpt lat="24.173088" lon="120.660468"/>
<trkpt lat="24.173071" lon="120.660401"/>
<trkpt lat="24.172902" lon="120.659727"/>
<trkpt lat="24.172820" lon="120.659398"/>
<trkpt lat="24.172618" lon="120.658603"/>
<trkpt lat="24.171610" lon="120.658445"/>
<trkpt lat="24.171314" lon="120.657565"/>
<trkpt lat="24.171986" lon="120.657511"/>
<trkpt lat="24.171812" lon="120.655750"/>
<trkpt lat="24.171749" lon="120.655757"/>
<trkpt lat="24.171725" lon="120.655097"/>
<trkpt lat="24.171395" lon="120.655127"/>
<trkpt lat="24.171374" lon="120.654628"/>
<trkpt lat="24.171351" lon="120.654140"/>
<trkpt lat="24.171896" lon="120.654106"/>
<trkpt lat="24.171879" lon="120.653502"/>
<trkpt lat="24.171863" lon="120.652904"/>
<trkpt lat="24.172300" lon="120.652936"/>
<trkpt lat="24.172274" lon="120.651962"/>
<trkpt lat="24.172235" lon="120.651913"/>
<trkpt lat="24.171827" lon="120.651632"/>
<trkpt lat="24.172183" lon="120.651098"/>
<trkpt lat="24.172553" lon="120.650581"/>
<trkpt lat="24.172071" lon="120.650233"/>
<trkpt lat="24.172104" lon="120.650187"/>
<trkpt lat="24.172230" lon="120.650003"/>
<trkpt lat="24.172261" lon="120.649963"/>
<trkpt lat="24.172341" lon="120.650017"/>
<trkpt lat="24.172457" lon="120.649880"/>
<trkpt lat="24.172797" lon="120.649479"/>
<trkpt lat="24.173165" lon="120.649046"/>
<trkpt lat="24.173101" lon="120.648961"/>
<trkpt lat="24.172421" lon="120.648060"/>
<trkpt lat="24.172354" lon="120.647976"/>
<trkpt lat="24.172807" lon="120.647453"/>
<trkpt lat="24.173327" lon="120.646905"/>
<trkpt lat="24.173395" lon="120.646809"/>
<trkpt lat="24.173792" lon="120.646414"/>
<trkpt lat="24.174485" lon="120.645922"/>
<trkpt lat="24.174520" lon="120.645731"/>
<trkpt lat="24.174996" lon="120.645875"/>
<trkpt lat="24.175093" lon="120.645657"/>
<trkpt lat="24.175116" lon="120.645613"/>
<trkpt lat="24.175230" lon="120.645358"/>
<trkpt lat="24.175417" lon="120.644988"/>
<trkpt lat="24.175887" lon="120.644020"/>
<trkpt lat="24.175952" lon="120.643970"/>
<trkpt lat="24.176034" lon="120.643906"/>
<trkpt lat="24.176500" lon="120.643470"/>
<trkpt lat="24.176699" lon="120.643293"/>
<trkpt lat="24.176714" lon="120.643279"/>
<trkpt lat="24.176776" lon="120.643226"/>
<trkpt lat="24.176823" lon="120.643185"/>
<trkpt lat="24.176917" lon="120.643221"/>
<trkpt lat="24.176936" lon="120.643229"/>
<trkpt lat="24.176953" lon="120.643212"/>
<trkpt lat="24.177056" lon="120.643107"/>
<trkpt lat="24.177073" lon="120.643089"/>
<trkpt lat="24.177130" lon="120.643107"/>
<trkpt lat="24.177321" lon="120.643152"/>
<trkpt lat="24.177523" lon="120.643179"/>
<trkpt lat="24.177691" lon="120.643194"/>
<trkpt lat="24.178038" lon="120.643208"/>
<trkpt lat="24.178138" lon="120.643205"/>
<trkpt lat="24.178209" lon="120.643195"/>
<trkpt lat="24.178248" lon="120.643185"/>
<trkpt lat="24.178231" lon="120.643160"/>
<trkpt lat="24.178215" lon="120.643132"/>
<trkpt lat="24.178293" lon="120.643086"/>
<trkpt lat="24.178273" lon="120.643054"/>
<trkpt lat="24.178208" lon="120.642944"/>
<trkpt lat="24.178327" lon="120.642869"/>
<trkpt lat="24.178342" lon="120.642725"/>
<trkpt lat="24.178402" lon="120.642473"/>
<trkpt lat="24.178408" lon="120.642423"/>
<trkpt lat="24.178372" lon="120.642384"/>
<trkpt lat="24.178402" lon="120.642321"/>
<trkpt lat="24.178560" lon="120.642041"/>
<trkpt lat="24.178595" lon="120.641981"/>
<trkpt lat="24.178700" lon="120.642067"/>
<trkpt lat="24.178926" lon="120.642216"/>
<trkpt lat="24.179147" lon="120.642342"/>
<trkpt lat="24.179296" lon="120.642410"/>
<trkpt lat="24.179430" lon="120.642476"/>
<trkpt lat="24.179617" lon="120.642531"/>
<trkpt lat="24.179783" lon="120.642563"/>
<trkpt lat="24.179941" lon="120.642593"/>
<trkpt lat="24.179941" lon="120.642213"/>
<trkpt lat="24.179985" lon="120.641769"/>
<trkpt lat="24.180011" lon="120.641690"/>
<trkpt lat="24.180095" lon="120.641466"/>
<trkpt lat="24.180299" lon="120.641506"/>
<trkpt lat="24.180336" lon="120.641456"/>
<trkpt lat="24.180643" lon="120.641217"/>
<trkpt lat="24.180840" lon="120.640754"/>
<trkpt lat="24.180880" lon="120.640711"/>
<trkpt lat="24.180933" lon="120.640715"/>
<trkpt lat="24.181089" lon="120.640775"/>
<trkpt lat="24.181359" lon="120.640774"/>
<trkpt lat="24.181338" lon="120.640440"/>
<trkpt lat="24.182252" lon="120.640374"/>
<trkpt lat="24.182995" lon="120.640346"/>
<trkpt lat="24.183005" lon="120.639587"/>
<trkpt lat="24.183016" lon="120.639258"/>
<trkpt lat="24.183665" lon="120.639526"/>
<trkpt lat="24.183782" lon="120.639562"/>
<trkpt lat="24.184453" lon="120.639778"/>
<trkpt lat="24.184902" lon="120.639895"/>
<trkpt lat="24.184945" lon="120.639908"/>
<trkpt lat="24.184967" lon="120.639814"/>
<trkpt lat="24.184998" lon="120.639810"/>
<trkpt lat="24.185065" lon="120.639827"/>
<trkpt lat="24.185151" lon="120.639850"/>
<trkpt lat="24.185233" lon="120.639872"/>
<trkpt lat="24.185353" lon="120.639362"/>
<trkpt lat="24.185458" lon="120.638800"/>
<trkpt lat="24.185482" lon="120.638728"/>
<trkpt lat="24.185543" lon="120.638757"/>
<trkpt lat="24.186400" lon="120.639164"/>
<trkpt lat="24.186478" lon="120.639201"/>
<trkpt lat="24.186537" lon="120.639229"/>
<trkpt lat="24.186626" lon="120.639272"/>
<trkpt lat="24.186682" lon="120.639298"/>
<trkpt lat="24.187296" lon="120.639590"/>
<trkpt lat="24.187402" lon="120.639623"/>
<trkpt lat="24.187429" lon="120.639556"/>
<trkpt lat="24.188669" lon="120.640132"/>
<trkpt lat="24.188714" lon="120.640115"/>
<trkpt lat="24.188554" lon="120.639534"/>
<trkpt lat="24.188519" lon="120.639476"/>
<trkpt lat="24.188508" lon="120.639457"/>
<trkpt lat="24.188452" lon="120.639412"/>
<trkpt lat="24.187543" lon="120.638792"/>
<trkpt lat="24.187493" lon="120.638796"/>
<trkpt lat="24.187427" lon="120.638778"/>
<trkpt lat="24.187510" lon="120.638622"/>
<trkpt lat="24.187610" lon="120.638434"/>
<trkpt lat="24.187633" lon="120.638391"/>
<trkpt lat="24.187735" lon="120.638200"/>
<trkpt lat="24.188489" lon="120.638692"/>
<trkpt lat="24.188941" lon="120.638981"/>
<trkpt lat="24.189659" lon="120.639480"/>
<trkpt lat="24.190001" lon="120.639688"/>
<trkpt lat="24.190768" lon="120.640204"/>
<trkpt lat="24.191156" lon="120.640473"/>
<trkpt lat="24.191609" lon="120.640824"/>
<trkpt lat="24.191959" lon="120.641170"/>
<trkpt lat="24.192108" lon="120.641294"/>
<trkpt lat="24.192434" lon="120.641566"/>
<trkpt lat="24.192617" lon="120.641710"/>
<trkpt lat="24.192756" lon="120.641706"/>
<trkpt lat="24.192997" lon="120.641793"/>
<trkpt lat="24.193238" lon="120.641853"/>
<trkpt lat="24.193549" lon="120.641897"/>
<trkpt lat="24.193904" lon="120.641936"/>
<trkpt lat="24.194079" lon="120.641961"/>
<trkpt lat="24.194249" lon="120.641980"/>
<trkpt lat="24.194603" lon="120.642009"/>
<trkpt lat="24.194682" lon="120.642035"/>
<trkpt lat="24.194818" lon="120.642107"/>
<trkpt lat="24.194907" lon="120.642183"/>
<trkpt lat="24.195034" lon="120.642317"/>
<trkpt lat="24.195080" lon="120.642356"/>
<trkpt lat="24.195157" lon="120.642413"/>
<trkpt lat="24.195400" lon="120.642637"/>
<trkpt lat="24.195917" lon="120.643127"/>
<trkpt lat="24.195995" lon="120.643170"/>
<trkpt lat="24.196760" lon="120.643927"/>
<trkpt lat="24.196779" lon="120.643981"/>
<trkpt lat="24.196775" lon="120.644040"/>
<trkpt lat="24.196771" lon="120.644179"/>
<trkpt lat="24.196744" lon="120.644479"/>
<trkpt lat="24.196679" lon="120.645460"/>
<trkpt lat="24.196675" lon="120.645604"/>
<trkpt lat="24.196646" lon="120.646017"/>
<trkpt lat="24.196631" lon="120.646142"/>
<trkpt lat="24.196616" lon="120.646419"/>
<trkpt lat="24.196616" lon="120.646436"/>
<trkpt lat="24.196602" lon="120.646829"/>
<trkpt lat="24.196618" lon="120.646887"/>
<trkpt lat="24.196630" lon="120.646901"/>
<trkpt lat="24.196645" lon="120.646943"/>
<trkpt lat="24.196749" lon="120.647308"/>
<trkpt lat="24.196954" lon="120.647988"/>
<trkpt lat="24.197007" lon="120.648155"/>
<trkpt lat="24.196884" lon="120.648198"/>
<trkpt lat="24.197394" lon="120.649377"/>
<trkpt lat="24.197414" lon="120.649426"/>
<trkpt lat="24.197557" lon="120.649768"/>
<trkpt lat="24.197942" lon="120.650691"/>
<trkpt lat="24.197899" lon="120.650719"/>
<trkpt lat="24.197984" lon="120.650932"/>
<trkpt lat="24.198568" lon="120.652370"/>
<trkpt lat="24.198561" lon="120.652177"/>
<trkpt lat="24.198565" lon="120.652107"/>
<trkpt lat="24.198650" lon="120.652004"/>
<trkpt lat="24.198694" lon="120.651921"/>
<trkpt lat="24.198747" lon="120.651828"/>
<trkpt lat="24.198805" lon="120.651743"/>
<trkpt lat="24.198854" lon="120.651692"/>
<trkpt lat="24.198933" lon="120.651636"/>
<trkpt lat="24.199107" lon="120.651546"/>
<trkpt lat="24.199471" lon="120.651319"/>
<trkpt lat="24.199725" lon="120.651084"/>
<trkpt lat="24.199821" lon="120.650970"/>
<trkpt lat="24.199903" lon="120.650867"/>
<trkpt lat="24.200172" lon="120.650450"/>
<trkpt lat="24.200329" lon="120.650457"/>
<trkpt lat="24.200784" lon="120.650386"/>
<trkpt lat="24.200816" lon="120.649813"/>
<trkpt lat="24.200813" lon="120.649354"/>
<trkpt lat="24.200849" lon="120.649321"/>
<trkpt lat="24.201102" lon="120.649073"/>
<trkpt lat="24.202145" lon="120.650684"/>
<trkpt lat="24.202160" lon="120.650710"/>
<trkpt lat="24.202199" lon="120.650768"/>
<trkpt lat="24.202271" lon="120.650894"/>
<trkpt lat="24.202319" lon="120.650980"/>
<trkpt lat="24.202361" lon="120.651055"/>
<trkpt lat="24.202407" lon="120.651137"/>
<trkpt lat="24.202494" lon="120.651298"/>
<trkpt lat="24.202618" lon="120.651529"/>
<trkpt lat="24.202848" lon="120.651934"/>
<trkpt lat="24.203091" lon="120.652383"/>
<trkpt lat="24.203533" lon="120.653184"/>
<trkpt lat="24.203563" lon="120.653262"/>
<trkpt lat="24.203605" lon="120.653239"/>
<trkpt lat="24.203671" lon="120.653376"/>
<trkpt lat="24.203700" lon="120.653437"/>
<trkpt lat="24.203493" lon="120.653557"/>
<trkpt lat="24.203144" lon="120.653761"/>
<trkpt lat="24.202214" lon="120.654303"/>
<trkpt lat="24.202035" lon="120.654408"/>
<trkpt lat="24.200613" lon="120.655238"/>
<trkpt lat="24.200517" lon="120.655294"/>
<trkpt lat="24.200072" lon="120.655553"/>
<trkpt lat="24.200033" lon="120.655609"/>
<trkpt lat="24.200023" lon="120.655673"/>
<trkpt lat="24.199970" lon="120.655531"/>
<trkpt lat="24.199903" lon="120.655570"/>
<trkpt lat="24.199713" lon="120.655683"/>
<trkpt lat="24.199610" lon="120.655745"/>
<trkpt lat="24.199510" lon="120.655805"/>
<trkpt lat="24.199558" lon="120.655915"/>
<trkpt lat="24.199588" lon="120.655910"/>
<trkpt lat="24.199704" lon="120.656270"/>
<trkpt lat="24.199684" lon="120.656317"/>
<trkpt lat="24.199604" lon="120.656299"/>
<trkpt lat="24.199624" lon="120.656337"/>
<trkpt lat="24.199674" lon="120.656493"/>
<trkpt lat="24.199643" lon="120.656494"/>
<trkpt lat="24.198980" lon="120.656497"/>
<trkpt lat="24.198758" lon="120.656508"/>
<trkpt lat="24.198437" lon="120.656559"/>
<trkpt lat="24.198133" lon="120.656630"/>
<trkpt lat="24.198113" lon="120.656642"/>
<trkpt lat="24.197115" lon="120.657231"/>
<trkpt lat="24.197035" lon="120.657278"/>
<trkpt lat="24.197068" lon="120.657333"/>
<trkpt lat="24.197031" lon="120.657355"/>
<trkpt lat="24.196845" lon="120.657472"/>
<trkpt lat="24.196816" lon="120.657424"/>
<trkpt lat="24.196765" lon="120.657457"/>
<trkpt lat="24.196658" lon="120.657525"/>
<trkpt lat="24.196624" lon="120.657547"/>
<trkpt lat="24.195798" lon="120.658068"/>
<trkpt lat="24.196023" lon="120.658549"/>
<trkpt lat="24.196199" lon="120.658878"/>
<trkpt lat="24.196322" lon="120.659119"/>
<trkpt lat="24.196344" lon="120.659188"/>
<trkpt lat="24.196295" lon="120.659354"/>
<trkpt lat="24.196246" lon="120.659511"/>
</trkseg></trk>
</gpx>