<?xml version="1.0" encoding="UTF-8"?>
<gpx version="1.1" creator="catrun" xmlns="http://www.topografix.com/GPX/1/1">
<metadata><name>西屯區 貓臉（正面） 圖形路跑路線</name></metadata>
<wpt lat="24.165561" lon="120.670244"><name>太原公園</name><desc>地標</desc></wpt>
<wpt lat="24.158618" lon="120.677372"><name>尚德公園</name><desc>地標</desc></wpt>
<wpt lat="24.157367" lon="120.676076"><name>育德園道</name><desc>地標</desc></wpt>
<trk><name>西屯區 貓臉（正面） 圖形路跑路線</name><trkseg>
<trkpt lat="24.165766" lon="120.670550"/>
<trkpt lat="24.165602" lon="120.670557"/>
<trkpt lat="24.165593" lon="120.671347"/>
<trkpt lat="24.165885" lon="120.671340"/>
<trkpt lat="24.165883" lon="120.671790"/>
<trkpt lat="24.165874" lon="120.672132"/>
<trkpt lat="24.166280" lon="120.672128"/>
<trkpt lat="24.166279" lon="120.672641"/>
<trkpt lat="24.166385" lon="120.672640"/>
<trkpt lat="24.166432" lon="120.672661"/>
<trkpt lat="24.166429" lon="120.672739"/>
<trkpt lat="24.166248" lon="120.673446"/>
<trkpt lat="24.166486" lon="120.673357"/>
<trkpt lat="24.166795" lon="120.673269"/>
<trkpt lat="24.166808" lon="120.673373"/>
<trkpt lat="24.166926" lon="120.673346"/>
<trkpt lat="24.166934" lon="120.673495"/>
<trkpt lat="24.166939" lon="120.673581"/>
<trkpt lat="24.166948" lon="120.674439"/>
<trkpt lat="24.166948" lon="120.674451"/>
<trkpt lat="24.166968" lon="120.675176"/>
<trkpt lat="24.166177" lon="120.675304"/>
<trkpt lat="24.165463" lon="120.675417"/>
<trkpt lat="24.165198" lon="120.675551"/>
<trkpt lat="24.165144" lon="120.675267"/>
<trkpt lat="24.164980" lon="120.674629"/>
<trkpt lat="24.164552" lon="120.674757"/>
<trkpt lat="24.164039" lon="120.674932"/>
<trkpt lat="24.163692" lon="120.675040"/>
<trkpt lat="24.163139" lon="120.675230"/>
<trkpt lat="24.163106" lon="120.675069"/>
<trkpt lat="24.163024" lon="120.674747"/>
<trkpt lat="24.162908" lon="120.674786"/>
<trkpt lat="24.162923" lon="120.674834"/>
<trkpt lat="24.163001" lon="120.675099"/>
<trkpt lat="24.162948" lon="120.675042"/>
<trkpt lat="24.162891" lon="120.674988"/>
<trkpt lat="24.162830" lon="120.674940"/>
<trkpt lat="24.162767" lon="120.674897"/>
<trkpt lat="24.162694" lon="120.674856"/>
<trkpt lat="24.162618" lon="120.674822"/>
<trkpt lat="24.162540" lon="120.674795"/>
<trkpt lat="24.162319" lon="120.674868"/>
<trkpt lat="24.161692" lon="120.675072"/>
<trkpt lat="24.161713" lon="120.675570"/>
<trkpt lat="24.161489" lon="120.675793"/>
<trkpt lat="24.161385" lon="120.675878"/>
<trkpt lat="24.161257" lon="120.675919"/>
<trkpt lat="24.161085" lon="120.675947"/>
<trkpt lat="24.160414" lon="120.675985"/>
<trkpt lat="24.160411" lon="120.676341"/>
<trkpt lat="24.159896" lon="120.676299"/>
<trkpt lat="24.159194" lon="120.676251"/>
<trkpt lat="24.159196" lon="120.676005"/>
<trkpt lat="24.159197" lon="120.675887"/>
<trkpt lat="24.159072" lon="120.675927"/>
<trkpt lat="24.158673" lon="120.676049"/>
<trkpt lat="24.158414" lon="120.676123"/>
<trkpt lat="24.158377" lon="120.676086"/>
<trkpt lat="24.158392" lon="120.676012"/>
<trkpt lat="24.158415" lon="120.675904"/>
<trkpt lat="24.158267" lon="120.675931"/>
<trkpt lat="24.158239" lon="120.675937"/>
<trkpt lat="24.158183" lon="120.675942"/>
<trkpt lat="24.158066" lon="120.675895"/>
<trkpt lat="24.158013" lon="120.675971"/>
<trkpt lat="24.157505" lon="120.675790"/>
<trkpt lat="24.157418" lon="120.675787"/>
<trkpt lat="24.157233" lon="120.675780"/>
<trkpt lat="24.157233" lon="120.675439"/>
<trkpt lat="24.156969" lon="120.675440"/>
<trkpt lat="24.156743" lon="120.675431"/>
<trkpt lat="24.156358" lon="120.675319"/>
<trkpt lat="24.156353" lon="120.675199"/>
<trkpt lat="24.156355" lon="120.674845"/>
<trkpt lat="24.156358" lon="120.674410"/>
<trkpt lat="24.156360" lon="120.673779"/>
<trkpt lat="24.156263" lon="120.673636"/>
<trkpt lat="24.155997" lon="120.673644"/>
<trkpt lat="24.155841" lon="120.673644"/>
<trkpt lat="24.155841" lon="120.673716"/>
<trkpt lat="24.155725" lon="120.673716"/>
<trkpt lat="24.155626" lon="120.673716"/>
<trkpt lat="24.155626" lon="120.673644"/>
<trkpt lat="24.155403" lon="120.673644"/>
<trkpt lat="24.155090" lon="120.673639"/>
<trkpt lat="24.154656" lon="120.673641"/>
<trkpt lat="24.154182" lon="120.673643"/>
<trkpt lat="24.154168" lon="120.673374"/>
<trkpt lat="24.154138" lon="120.673269"/>
<trkpt lat="24.154094" lon="120.673203"/>
<trkpt lat="24.154046" lon="120.673151"/>
<trkpt lat="24.153974" lon="120.673085"/>
<trkpt lat="24.153785" lon="120.673027"/>
<trkpt lat="24.153785" lon="120.672566"/>
<trkpt lat="24.153787" lon="120.672067"/>
<trkpt lat="24.153787" lon="120.671782"/>
<trkpt lat="24.153790" lon="120.670668"/>
<trkpt lat="24.153802" lon="120.670615"/>
<trkpt lat="24.153824" lon="120.670501"/>
<trkpt lat="24.153848" lon="120.670419"/>
<trkpt lat="24.153788" lon="120.670228"/>
<trkpt lat="24.153850" lon="120.670185"/>
<trkpt lat="24.153801" lon="120.669850"/>
<trkpt lat="24.153705" lon="120.669447"/>
<trkpt lat="24.153662" lon="120.669041"/>
<trkpt lat="24.153568" lon="120.668937"/>
<trkpt lat="24.153630" lon="120.668865"/>
<trkpt lat="24.153638" lon="120.668567"/>
<trkpt lat="24.153260" lon="120.668169"/>
<trkpt lat="24.153426" lon="120.667990"/>
<trkpt lat="24.153613" lon="120.667775"/>
<trkpt lat="24.153692" lon="120.667684"/>
<trkpt lat="24.153728" lon="120.667641"/>
<trkpt lat="24.153682" lon="120.667593"/>
<trkpt lat="24.153748" lon="120.667518"/>
<trkpt lat="24.153707" lon="120.667475"/>
<trkpt lat="24.153690" lon="120.667460"/>
<trkpt lat="24.153595" lon="120.667362"/>
<trkpt lat="24.153406" lon="120.667171"/>
<trkpt lat="24.153287" lon="120.667050"/>
<trkpt lat="24.153317" lon="120.667001"/>
<trkpt lat="24.153252" lon="120.666936"/>
<trkpt lat="24.153295" lon="120.666867"/>
<trkpt lat="24.153275" lon="120.666845"/>
<trkpt lat="24.153393" lon="120.666658"/>
<trkpt lat="24.153656" lon="120.666239"/>
<trkpt lat="24.153939" lon="120.665715"/>
<trkpt lat="24.153876" lon="120.665634"/>
<trkpt lat="24.153817" lon="120.665559"/>
<trkpt lat="24.153745" lon="120.665485"/>
<trkpt lat="24.154441" lon="120.664232"/>
<trkpt lat="24.154474" lon="120.664173"/>
<trkpt lat="24.154551" lon="120.664222"/>
<trkpt lat="24.154610" lon="120.664260"/>
<trkpt lat="24.154768" lon="120.663980"/>
<trkpt lat="24.154715" lon="120.663925"/>
<trkpt lat="24.154764" lon="120.663833"/>
<trkpt lat="24.154794" lon="120.663781"/>
<trkpt lat="24.155435" lon="120.662672"/>
<trkpt lat="24.155486" lon="120.662705"/>
<trkpt lat="24.155527" lon="120.662732"/>
<trkpt lat="24.155572" lon="120.662792"/>
<trkpt lat="24.155668" lon="120.662618"/>
<trkpt lat="24.156144" lon="120.662929"/>
<trkpt lat="24.156559" lon="120.663191"/>
<trkpt lat="24.157000" lon="120.662366"/>
<trkpt lat="24.157203" lon="120.661998"/>
<trkpt lat="24.157441" lon="120.661572"/>
<trkpt lat="24.157457" lon="120.661542"/>
<trkpt lat="24.157612" lon="120.661254"/>
<trkpt lat="24.157628" lon="120.661221"/>
<trkpt lat="24.158154" lon="120.661572"/>
<trkpt lat="24.158346" lon="120.661193"/>
<trkpt lat="24.158651" lon="120.661395"/>
<trkpt lat="24.158911" lon="120.660923"/>
<trkpt lat="24.159126" lon="120.661062"/>
<trkpt lat="24.159164" lon="120.660977"/>
<trkpt lat="24.159371" lon="120.660604"/>
<trkpt lat="24.159564" lon="120.660248"/>
<trkpt lat="24.160603" lon="120.660948"/>
<trkpt lat="24.160785" lon="120.660616"/>
<trkpt lat="24.161090" lon="120.660812"/>
<trkpt lat="24.161320" lon="120.660959"/>
<trkpt lat="24.161506" lon="120.661079"/>
<trkpt lat="24.161717" lon="120.661215"/>
<trkpt lat="24.161791" lon="120.661269"/>
<trkpt lat="24.162265" lon="120.662009"/>
<trkpt lat="24.162510" lon="120.661823"/>
<trkpt lat="24.162548" lon="120.661794"/>
<trkpt lat="24.162902" lon="120.661527"/>
<trkpt lat="24.163372" lon="120.661235"/>
<trkpt lat="24.163454" lon="120.661338"/>
<trkpt lat="24.163890" lon="120.661507"/>
<trkpt lat="24.163933" lon="120.661364"/>
<trkpt lat="24.164352" lon="120.661489"/>
<trkpt lat="24.164494" lon="120.661792"/>
<trkpt lat="24.165003" lon="120.661490"/>
<trkpt lat="24.165306" lon="120.662104"/>
<trkpt lat="24.165362" lon="120.662216"/>
<trkpt lat="24.164826" lon="120.662436"/>
<trkpt lat="24.165108" lon="120.662983"/>
<trkpt lat="24.165357" lon="120.663484"/>
<trkpt lat="24.165616" lon="120.663997"/>
<trkpt lat="24.165746" lon="120.664262"/>
<trkpt lat="24.165891" lon="120.664553"/>
<trkpt lat="24.165919" lon="120.664615"/>
<trkpt lat="24.165906" lon="120.664663"/>
<trkpt lat="24.165825" lon="120.664885"/>
<trkpt lat="24.166538" lon="120.665247"/>
<trkpt lat="24.166811" lon="120.665369"/>
<trkpt lat="24.166807" lon="120.665462"/>
<trkpt lat="24.166801" lon="120.665614"/>
<trkpt lat="24.166798" lon="120.665779"/>
<trkpt lat="24.167439" lon="120.665996"/>
<trkpt lat="24.167624" lon="120.666054"/>
<trkpt lat="24.168015" lon="120.666190"/>
<trkpt lat="24.168396" lon="120.666320"/>
<trkpt lat="24.168746" lon="120.666417"/>
<trkpt lat="24.168748" lon="120.667242"/>
<trkpt lat="24.168745" lon="120.667761"/>
<trkpt lat="24.168011" lon="120.667753"/>
<trkpt lat="24.168018" lon="120.668317"/>
<trkpt lat="24.167413" lon="120.668318"/>
<trkpt lat="24.166808" lon="120.668323"/>
<trkpt lat="24.166828" lon="120.669226"/>
<trkpt lat="24.166271" lon="120.669216"/>
<trkpt lat="24.166270" lon="120.669433"/>
<trkpt lat="24.166278" lon="120.670548"/>
<trkpt lat="24.165766" lon="120.670550"/>
</trkseg></trk>
</gpx>