<?xml version="1.0" encoding="UTF-8"?>
<gpx version="1.1" creator="catrun" xmlns="http://www.topografix.com/GPX/1/1">
<metadata><name>西屯區 蜷睡貓咪 圖形路跑路線</name></metadata>
<wpt lat="24.173827" lon="120.662947"><name>大鵬公園</name><desc>地標</desc></wpt>
<wpt lat="24.178280" lon="120.670114"><name>清平公園</name><desc>地標</desc></wpt>
<wpt lat="24.176750" lon="120.672353"><name>瀋陽公園</name><desc>地標</desc></wpt>
<trk><name>西屯區 蜷睡貓咪 圖形路跑路線</name><trkseg>
<trkpt lat="24.173610" lon="120.662658"/>
<trkpt lat="24.173552" lon="120.663115"/>
<trkpt lat="24.173871" lon="120.663206"/>
<trkpt lat="24.174071" lon="120.663238"/>
<trkpt lat="24.174285" lon="120.663250"/>
<trkpt lat="24.174367" lon="120.663255"/>
<trkpt lat="24.174473" lon="120.663299"/>
<trkpt lat="24.174798" lon="120.663320"/>
<trkpt lat="24.174864" lon="120.663324"/>
<trkpt lat="24.175066" lon="120.663341"/>
<trkpt lat="24.174921" lon="120.662704"/>
<trkpt lat="24.174908" lon="120.662165"/>
<trkpt lat="24.175130" lon="120.662200"/>
<trkpt lat="24.175494" lon="120.662255"/>
<trkpt lat="24.175659" lon="120.662354"/>
<trkpt lat="24.175884" lon="120.662490"/>
<trkpt lat="24.176109" lon="120.662646"/>
<trkpt lat="24.176306" lon="120.662737"/>
<trkpt lat="24.176304" lon="120.662981"/>
<trkpt lat="24.176303" lon="120.663014"/>
<trkpt lat="24.176303" lon="120.663090"/>
<trkpt lat="24.176417" lon="120.663087"/>
<trkpt lat="24.176441" lon="120.663080"/>
<trkpt lat="24.176775" lon="120.663072"/>
<trkpt lat="24.176880" lon="120.663070"/>
<trkpt lat="24.176879" lon="120.663167"/>
<trkpt lat="24.176877" lon="120.663262"/>
<trkpt lat="24.176921" lon="120.663262"/>
<trkpt lat="24.176993" lon="120.663262"/>
<trkpt lat="24.177406" lon="120.663262"/>
<trkpt lat="24.177427" lon="120.663264"/>
<trkpt lat="24.177476" lon="120.663262"/>
<trkpt lat="24.177553" lon="120.663260"/>
<trkpt lat="24.177567" lon="120.663227"/>
<trkpt lat="24.177990" lon="120.663231"/>
<trkpt lat="24.178000" lon="120.663231"/>
<trkpt lat="24.178014" lon="120.663241"/>
<trkpt lat="24.178042" lon="120.664508"/>
<trkpt lat="24.178008" lon="120.664554"/>
<trkpt lat="24.178008" lon="120.664650"/>
<trkpt lat="24.178008" lon="120.664768"/>
<trkpt lat="24.178033" lon="120.664765"/>
<trkpt lat="24.178044" lon="120.664783"/>
<trkpt lat="24.178067" lon="120.665925"/>
<trkpt lat="24.178069" lon="120.665992"/>
<trkpt lat="24.178070" lon="120.666048"/>
<trkpt lat="24.178149" lon="120.666043"/>
<trkpt lat="24.178151" lon="120.666167"/>
<trkpt lat="24.178385" lon="120.666179"/>
<trkpt lat="24.178487" lon="120.666202"/>
<trkpt lat="24.178573" lon="120.666241"/>
<trkpt lat="24.178804" lon="120.666454"/>
<trkpt lat="24.179000" lon="120.666635"/>
<trkpt lat="24.179066" lon="120.666736"/>
<trkpt lat="24.179109" lon="120.666798"/>
<trkpt lat="24.179163" lon="120.666858"/>
<trkpt lat="24.179288" lon="120.666996"/>
<trkpt lat="24.179432" lon="120.667173"/>
<trkpt lat="24.178897" lon="120.667596"/>
<trkpt lat="24.178770" lon="120.667400"/>
<trkpt lat="24.178673" lon="120.667247"/>
<trkpt lat="24.178312" lon="120.667534"/>
<trkpt lat="24.178178" lon="120.667548"/>
<trkpt lat="24.178179" lon="120.667625"/>
<trkpt lat="24.178181" lon="120.667706"/>
<trkpt lat="24.178184" lon="120.667900"/>
<trkpt lat="24.178187" lon="120.668080"/>
<trkpt lat="24.178193" lon="120.668468"/>
<trkpt lat="24.178194" lon="120.668495"/>
<trkpt lat="24.178196" lon="120.668588"/>
<trkpt lat="24.178265" lon="120.668696"/>
<trkpt lat="24.178172" lon="120.668755"/>
<trkpt lat="24.178223" lon="120.668834"/>
<trkpt lat="24.178393" lon="120.669094"/>
<trkpt lat="24.178458" lon="120.669192"/>
<trkpt lat="24.178566" lon="120.669357"/>
<trkpt lat="24.178196" lon="120.669644"/>
<trkpt lat="24.178134" lon="120.669618"/>
<trkpt lat="24.177984" lon="120.669715"/>
<trkpt lat="24.177883" lon="120.669587"/>
<trkpt lat="24.177830" lon="120.669521"/>
<trkpt lat="24.177655" lon="120.669637"/>
<trkpt lat="24.177494" lon="120.669785"/>
<trkpt lat="24.177947" lon="120.670189"/>
<trkpt lat="24.177638" lon="120.670598"/>
<trkpt lat="24.177416" lon="120.670893"/>
<trkpt lat="24.177074" lon="120.671227"/>
<trkpt lat="24.176807" lon="120.671470"/>
<trkpt lat="24.176877" lon="120.671680"/>
<trkpt lat="24.176688" lon="120.671799"/>
<trkpt lat="24.176671" lon="120.671809"/>
<trkpt lat="24.176449" lon="120.671952"/>
<trkpt lat="24.176237" lon="120.672081"/>
<trkpt lat="24.176001" lon="120.672222"/>
<trkpt lat="24.175815" lon="120.672329"/>
<trkpt lat="24.175758" lon="120.672396"/>
<trkpt lat="24.175747" lon="120.672409"/>
<trkpt lat="24.175579" lon="120.672091"/>
<trkpt lat="24.174818" lon="120.672555"/>
<trkpt lat="24.174723" lon="120.672667"/>
<trkpt lat="24.174691" lon="120.672485"/>
<trkpt lat="24.174163" lon="120.672577"/>
<trkpt lat="24.173991" lon="120.671556"/>
<trkpt lat="24.173936" lon="120.671566"/>
<trkpt lat="24.173751" lon="120.671603"/>
<trkpt lat="24.173707" lon="120.671607"/>
<trkpt lat="24.173843" lon="120.672564"/>
<trkpt lat="24.173860" lon="120.672762"/>
<trkpt lat="24.173813" lon="120.672765"/>
<trkpt lat="24.173604" lon="120.672781"/>
<trkpt lat="24.173601" lon="120.672761"/>
<trkpt lat="24.172797" lon="120.672951"/>
<trkpt lat="24.172612" lon="120.672994"/>
<trkpt lat="24.172309" lon="120.673066"/>
<trkpt lat="24.172274" lon="120.673074"/>
<trkpt lat="24.171709" lon="120.673207"/>
<trkpt lat="24.171774" lon="120.672656"/>
<trkpt lat="24.170853" lon="120.672862"/>
<trkpt lat="24.170099" lon="120.672876"/>
<trkpt lat="24.170119" lon="120.672453"/>
<trkpt lat="24.170112" lon="120.672326"/>
<trkpt lat="24.170110" lon="120.672204"/>
<trkpt lat="24.170106" lon="120.672087"/>
<trkpt lat="24.170103" lon="120.672036"/>
<trkpt lat="24.170074" lon="120.671710"/>
<trkpt lat="24.168960" lon="120.671722"/>
<trkpt lat="24.168762" lon="120.671740"/>
<trkpt lat="24.168761" lon="120.671251"/>
<trkpt lat="24.168754" lon="120.670614"/>
<trkpt lat="24.168573" lon="120.670612"/>
<trkpt lat="24.168011" lon="120.670606"/>
<trkpt lat="24.168005" lon="120.670029"/>
<trkpt lat="24.167950" lon="120.670028"/>
<trkpt lat="24.167959" lon="120.669470"/>
<trkpt lat="24.167960" lon="120.669249"/>
<trkpt lat="24.167962" lon="120.668911"/>
<trkpt lat="24.167414" lon="120.668914"/>
<trkpt lat="24.167413" lon="120.668318"/>
<trkpt lat="24.166808" lon="120.668323"/>
<trkpt lat="24.166809" lon="120.667623"/>
<trkpt lat="24.166809" lon="120.667576"/>
<trkpt lat="24.166810" lon="120.666597"/>
<trkpt lat="24.166798" lon="120.665779"/>
<trkpt lat="24.166801" lon="120.665614"/>
<trkpt lat="24.166807" lon="120.665462"/>
<trkpt lat="24.166811" lon="120.665369"/>
<trkpt lat="24.166828" lon="120.665079"/>
<trkpt lat="24.167261" lon="120.664830"/>
<trkpt lat="24.167630" lon="120.664631"/>
<trkpt lat="24.167342" lon="120.664085"/>
<trkpt lat="24.167067" lon="120.663570"/>
<trkpt lat="24.167600" lon="120.663294"/>
<trkpt lat="24.168084" lon="120.663028"/>
<trkpt lat="24.168602" lon="120.662735"/>
<trkpt lat="24.169081" lon="120.662485"/>
<trkpt lat="24.169543" lon="120.662237"/>
<trkpt lat="24.169363" lon="120.661852"/>
<trkpt lat="24.169347" lon="120.661817"/>
<trkpt lat="24.169919" lon="120.661534"/>
<trkpt lat="24.169774" lon="120.661277"/>
<trkpt lat="24.169100" lon="120.660073"/>
<trkpt lat="24.169202" lon="120.660017"/>
<trkpt lat="24.169256" lon="120.660137"/>
<trkpt lat="24.169342" lon="120.660336"/>
<trkpt lat="24.169356" lon="120.660326"/>
<trkpt lat="24.169411" lon="120.660293"/>
<trkpt lat="24.169411" lon="120.660354"/>
<trkpt lat="24.169539" lon="120.660590"/>
<trkpt lat="24.169655" lon="120.660812"/>
<trkpt lat="24.169711" lon="120.660784"/>
<trkpt lat="24.169855" lon="120.660710"/>
<trkpt lat="24.169945" lon="120.660664"/>
<trkpt lat="24.170040" lon="120.660616"/>
<trkpt lat="24.170568" lon="120.660346"/>
<trkpt lat="24.171074" lon="120.660077"/>
<trkpt lat="24.171099" lon="120.660064"/>
<trkpt lat="24.171138" lon="120.660045"/>
<trkpt lat="24.171274" lon="120.660484"/>
<trkpt lat="24.171408" lon="120.661035"/>
<trkpt lat="24.171463" lon="120.661012"/>
<trkpt lat="24.171663" lon="120.660915"/>
<trkpt lat="24.171736" lon="120.660881"/>
<trkpt lat="24.171776" lon="120.661010"/>
<trkpt lat="24.171714" lon="120.661080"/>
<trkpt lat="24.171497" lon="120.661192"/>
<trkpt lat="24.171455" lon="120.661213"/>
<trkpt lat="24.170118" lon="120.661953"/>
<trkpt lat="24.170363" lon="120.662540"/>
<trkpt lat="24.170540" lon="120.663060"/>
<trkpt lat="24.170077" lon="120.663274"/>
<trkpt lat="24.169857" lon="120.663376"/>
<trkpt lat="24.169563" lon="120.663512"/>
<trkpt lat="24.169749" lon="120.664428"/>
<trkpt lat="24.169839" lon="120.664904"/>
<trkpt lat="24.169860" lon="120.665089"/>
<trkpt lat="24.169805" lon="120.665674"/>
<trkpt lat="24.169785" lon="120.666308"/>
<trkpt lat="24.169871" lon="120.666348"/>
<trkpt lat="24.170110" lon="120.666428"/>
<trkpt lat="24.170437" lon="120.666586"/>
<trkpt lat="24.170354" lon="120.666931"/>
<trkpt lat="24.170272" lon="120.666910"/>
<trkpt lat="24.170267" lon="120.667021"/>
<trkpt lat="24.170273" lon="120.667657"/>
<trkpt lat="24.170960" lon="120.667666"/>
<trkpt lat="24.171633" lon="120.667664"/>
<trkpt lat="24.171638" lon="120.668283"/>
<trkpt lat="24.172190" lon="120.668271"/>
<trkpt lat="24.172832" lon="120.668271"/>
<trkpt lat="24.172927" lon="120.668255"/>
<trkpt lat="24.173131" lon="120.668214"/>
<trkpt lat="24.173225" lon="120.668192"/>
<trkpt lat="24.173387" lon="120.668104"/>
<trkpt lat="24.173346" lon="120.667781"/>
<trkpt lat="24.173874" lon="120.667542"/>
<trkpt lat="24.173522" lon="120.667301"/>
<trkpt lat="24.173866" lon="120.666757"/>
<trkpt lat="24.174205" lon="120.666996"/>
<trkpt lat="24.174317" lon="120.666852"/>
<trkpt lat="24.174297" lon="120.666830"/>
<trkpt lat="24.174178" lon="120.666693"/>
<trkpt lat="24.174065" lon="120.666564"/>
<trkpt lat="24.173956" lon="120.666439"/>
<trkpt lat="24.173830" lon="120.666294"/>
<trkpt lat="24.174106" lon="120.666021"/>
<trkpt lat="24.174058" lon="120.665919"/>
<trkpt lat="24.173600" lon="120.666158"/>
<trkpt lat="24.173486" lon="120.665800"/>
<trkpt lat="24.173211" lon="120.664932"/>
<trkpt lat="24.173209" lon="120.664806"/>
<trkpt lat="24.173607" lon="120.664608"/>
<trkpt lat="24.173311" lon="120.663868"/>
<trkpt lat="24.173170" lon="120.663397"/>
<trkpt lat="24.173137" lon="120.663286"/>
<trkpt lat="24.173552" lon="120.663115"/>
<trkpt lat="24.173610" lon="120.662658"/>
</trkseg></trk>
</gpx>