<?xml version="1.0" encoding="UTF-8"?>
<gpx version="1.1" creator="catrun" xmlns="http://www.topografix.com/GPX/1/1">
<metadata><name>西屯區 貓咪肉球 圖形路跑路線</name></metadata>
<wpt lat="24.169035" lon="120.665140"><name>成都公園</name><desc>地標</desc></wpt>
<wpt lat="24.169037" lon="120.668006"><name>武昌公園</name><desc>地標</desc></wpt>
<wpt lat="24.168170" lon="120.670919"><name>曉明公園</name><desc>地標</desc></wpt>
<trk><name>西屯區 貓咪肉球 圖形路跑路線</name><trkseg>
<trkpt lat="24.170437" lon="120.666586"/>
<trkpt lat="24.170110" lon="120.666428"/>
<trkpt lat="24.169871" lon="120.666348"/>
<trkpt lat="24.169785" lon="120.666308"/>
<trkpt lat="24.169781" lon="120.666431"/>
<trkpt lat="24.169774" lon="120.666622"/>
<trkpt lat="24.169763" lon="120.666744"/>
<trkpt lat="24.169272" lon="120.666574"/>
<trkpt lat="24.169135" lon="120.666519"/>
<trkpt lat="24.168954" lon="120.666465"/>
<trkpt lat="24.168746" lon="120.666417"/>
<trkpt lat="24.168748" lon="120.667242"/>
<trkpt lat="24.168745" lon="120.667761"/>
<trkpt lat="24.168770" lon="120.668324"/>
<trkpt lat="24.168766" lon="120.668905"/>
<trkpt lat="24.168742" lon="120.669468"/>
<trkpt lat="24.168751" lon="120.670039"/>
<trkpt lat="24.168754" lon="120.670614"/>
<trkpt lat="24.168761" lon="120.671251"/>
<trkpt lat="24.168762" lon="120.671740"/>
<trkpt lat="24.168811" lon="120.672542"/>
<trkpt lat="24.168816" lon="120.672612"/>
<trkpt lat="24.168879" lon="120.672592"/>
<trkpt lat="24.168895" lon="120.672709"/>
<trkpt lat="24.169190" lon="120.672620"/>
<trkpt lat="24.169315" lon="120.673116"/>
<trkpt lat="24.169357" lon="120.673324"/>
<trkpt lat="24.169375" lon="120.673590"/>
<trkpt lat="24.169372" lon="120.673632"/>
<trkpt lat="24.169330" lon="120.674311"/>
<trkpt lat="24.169491" lon="120.674318"/>
<trkpt lat="24.170043" lon="120.674371"/>
<trkpt lat="24.170472" lon="120.674364"/>
<trkpt lat="24.170772" lon="120.674382"/>
<trkpt lat="24.171085" lon="120.674394"/>
<trkpt lat="24.171553" lon="120.674414"/>
<trkpt lat="24.172321" lon="120.674241"/>
<trkpt lat="24.172418" lon="120.674220"/>
<trkpt lat="24.172908" lon="120.674099"/>
<trkpt lat="24.172921" lon="120.674172"/>
<trkpt lat="24.172964" lon="120.674162"/>
<trkpt lat="24.173019" lon="120.674538"/>
<trkpt lat="24.173058" lon="120.675094"/>
<trkpt lat="24.173545" lon="120.675074"/>
<trkpt lat="24.173555" lon="120.675024"/>
<trkpt lat="24.173778" lon="120.674074"/>
<trkpt lat="24.173827" lon="120.674097"/>
<trkpt lat="24.174004" lon="120.674137"/>
<trkpt lat="24.174080" lon="120.674175"/>
<trkpt lat="24.174102" lon="120.674126"/>
<trkpt lat="24.174497" lon="120.674266"/>
<trkpt lat="24.174863" lon="120.674360"/>
<trkpt lat="24.174939" lon="120.674379"/>
<trkpt lat="24.175021" lon="120.674389"/>
<trkpt lat="24.175202" lon="120.674412"/>
<trkpt lat="24.175353" lon="120.674459"/>
<trkpt lat="24.175417" lon="120.674485"/>
<trkpt lat="24.175659" lon="120.674647"/>
<trkpt lat="24.175920" lon="120.674878"/>
<trkpt lat="24.176086" lon="120.674714"/>
<trkpt lat="24.176335" lon="120.674475"/>
<trkpt lat="24.176656" lon="120.674149"/>
<trkpt lat="24.176878" lon="120.674553"/>
<trkpt lat="24.177157" lon="120.674369"/>
<trkpt lat="24.177479" lon="120.674196"/>
<trkpt lat="24.177590" lon="120.673935"/>
<trkpt lat="24.177607" lon="120.673881"/>
<trkpt lat="24.177765" lon="120.673392"/>
<trkpt lat="24.177463" lon="120.673274"/>
<trkpt lat="24.177392" lon="120.673188"/>
<trkpt lat="24.177472" lon="120.672904"/>
<trkpt lat="24.176988" lon="120.672941"/>
<trkpt lat="24.176890" lon="120.672818"/>
<trkpt lat="24.176882" lon="120.672808"/>
<trkpt lat="24.176911" lon="120.672771"/>
<trkpt lat="24.176940" lon="120.672620"/>
<trkpt lat="24.177484" lon="120.672576"/>
<trkpt lat="24.177425" lon="120.672100"/>
<trkpt lat="24.177382" lon="120.672062"/>
<trkpt lat="24.176954" lon="120.672096"/>
<trkpt lat="24.176947" lon="120.671849"/>
<trkpt lat="24.176877" lon="120.671680"/>
<trkpt lat="24.176688" lon="120.671799"/>
<trkpt lat="24.176671" lon="120.671809"/>
<trkpt lat="24.176449" lon="120.671952"/>
<trkpt lat="24.176541" lon="120.672128"/>
<trkpt lat="24.176954" lon="120.672096"/>
<trkpt lat="24.177382" lon="120.672062"/>
<trkpt lat="24.177425" lon="120.672100"/>
<trkpt lat="24.177484" lon="120.672576"/>
<trkpt lat="24.177749" lon="120.672537"/>
<trkpt lat="24.177916" lon="120.672558"/>
<trkpt lat="24.177952" lon="120.672571"/>
<trkpt lat="24.178020" lon="120.672597"/>
<trkpt lat="24.178044" lon="120.672500"/>
<trkpt lat="24.178053" lon="120.672460"/>
<trkpt lat="24.178327" lon="120.671710"/>
<trkpt lat="24.178499" lon="120.671290"/>
<trkpt lat="24.178515" lon="120.671251"/>
<trkpt lat="24.178707" lon="120.670787"/>
<trkpt lat="24.178807" lon="120.670573"/>
<trkpt lat="24.178873" lon="120.670421"/>
<trkpt lat="24.178886" lon="120.670327"/>
<trkpt lat="24.178890" lon="120.670258"/>
<trkpt lat="24.178961" lon="120.670053"/>
<trkpt lat="24.179016" lon="120.669896"/>
<trkpt lat="24.178806" lon="120.669742"/>
<trkpt lat="24.178739" lon="120.669630"/>
<trkpt lat="24.178683" lon="120.669537"/>
<trkpt lat="24.178616" lon="120.669434"/>
<trkpt lat="24.178566" lon="120.669357"/>
<trkpt lat="24.178458" lon="120.669192"/>
<trkpt lat="24.178393" lon="120.669094"/>
<trkpt lat="24.178223" lon="120.668834"/>
<trkpt lat="24.178172" lon="120.668755"/>
<trkpt lat="24.178265" lon="120.668696"/>
<trkpt lat="24.178196" lon="120.668588"/>
<trkpt lat="24.178194" lon="120.668495"/>
<trkpt lat="24.178193" lon="120.668468"/>
<trkpt lat="24.178187" lon="120.668080"/>
<trkpt lat="24.178184" lon="120.667900"/>
<trkpt lat="24.178181" lon="120.667706"/>
<trkpt lat="24.178179" lon="120.667625"/>
<trkpt lat="24.178178" lon="120.667548"/>
<trkpt lat="24.178172" lon="120.667182"/>
<trkpt lat="24.178164" lon="120.666817"/>
<trkpt lat="24.178162" lon="120.666678"/>
<trkpt lat="24.178155" lon="120.666380"/>
<trkpt lat="24.177748" lon="120.666392"/>
<trkpt lat="24.177513" lon="120.666396"/>
<trkpt lat="24.177511" lon="120.666013"/>
<trkpt lat="24.177297" lon="120.666056"/>
<trkpt lat="24.176921" lon="120.666005"/>
<trkpt lat="24.176573" lon="120.665961"/>
<trkpt lat="24.176507" lon="120.665953"/>
<trkpt lat="24.176397" lon="120.665933"/>
<trkpt lat="24.176140" lon="120.665897"/>
<trkpt lat="24.176069" lon="120.665888"/>
<trkpt lat="24.175478" lon="120.665804"/>
<trkpt lat="24.175542" lon="120.665632"/>
<trkpt lat="24.175797" lon="120.664953"/>
<trkpt lat="24.175872" lon="120.664753"/>
<trkpt lat="24.175534" lon="120.664717"/>
<trkpt lat="24.175374" lon="120.664700"/>
<trkpt lat="24.175302" lon="120.664692"/>
<trkpt lat="24.175105" lon="120.664671"/>
<trkpt lat="24.174864" lon="120.664646"/>
<trkpt lat="24.174671" lon="120.664612"/>
<trkpt lat="24.174293" lon="120.664505"/>
<trkpt lat="24.173994" lon="120.664440"/>
<trkpt lat="24.173607" lon="120.664608"/>
<trkpt lat="24.173311" lon="120.663868"/>
<trkpt lat="24.172989" lon="120.663976"/>
<trkpt lat="24.172682" lon="120.664079"/>
<trkpt lat="24.172604" lon="120.664106"/>
<trkpt lat="24.172627" lon="120.664205"/>
<trkpt lat="24.172434" lon="120.664261"/>
<trkpt lat="24.172409" lon="120.664174"/>
<trkpt lat="24.172331" lon="120.664197"/>
<trkpt lat="24.171520" lon="120.664470"/>
<trkpt lat="24.171583" lon="120.664999"/>
<trkpt lat="24.172093" lon="120.664899"/>
<trkpt lat="24.172257" lon="120.665578"/>
<trkpt lat="24.172337" lon="120.665991"/>
<trkpt lat="24.171902" lon="120.666127"/>
<trkpt lat="24.171760" lon="120.666130"/>
<trkpt lat="24.171101" lon="120.666067"/>
<trkpt lat="24.171138" lon="120.666727"/>
<trkpt lat="24.170665" lon="120.666680"/>
<trkpt lat="24.170437" lon="120.666586"/>
</trkseg></trk>
</gpx>