<?xml version="1.0" encoding="UTF-8"?>
<gpx version="1.1" creator="catrun" xmlns="http://www.topografix.com/GPX/1/1">
<metadata><name>西屯區 手繪蹲坐貓（原稿描圖） 圖形路跑路線</name></metadata>
<wpt lat="24.169037" lon="120.668006"><name>武昌公園</name><desc>地標</desc></wpt>
<wpt lat="24.171871" lon="120.669180"><name>中清公園</name><desc>地標</desc></wpt>
<wpt lat="24.175546" lon="120.666286"><name>大福公園</name><desc>地標</desc></wpt>
<trk><name>西屯區 手繪蹲坐貓（原稿描圖） 圖形路跑路線</name><trkseg>
<trkpt lat="24.167417" lon="120.669238"/>
<trkpt lat="24.167414" lon="120.668914"/>
<trkpt lat="24.167413" lon="120.668318"/>
<trkpt lat="24.168018" lon="120.668317"/>
<trkpt lat="24.168011" lon="120.667753"/>
<trkpt lat="24.168745" lon="120.667761"/>
<trkpt lat="24.168770" lon="120.668324"/>
<trkpt lat="24.169272" lon="120.668315"/>
<trkpt lat="24.169763" lon="120.668310"/>
<trkpt lat="24.169763" lon="120.668249"/>
<trkpt lat="24.169783" lon="120.668225"/>
<trkpt lat="24.169808" lon="120.668224"/>
<trkpt lat="24.169810" lon="120.668309"/>
<trkpt lat="24.170041" lon="120.668307"/>
<trkpt lat="24.170112" lon="120.668304"/>
<trkpt lat="24.170281" lon="120.668296"/>
<trkpt lat="24.170280" lon="120.668189"/>
<trkpt lat="24.170282" lon="120.667920"/>
<trkpt lat="24.170273" lon="120.667657"/>
<trkpt lat="24.170960" lon="120.667666"/>
<trkpt lat="24.171633" lon="120.667664"/>
<trkpt lat="24.171634" lon="120.667143"/>
<trkpt lat="24.171636" lon="120.667054"/>
<trkpt lat="24.171640" lon="120.666800"/>
<trkpt lat="24.171671" lon="120.666739"/>
<trkpt lat="24.172327" lon="120.666828"/>
<trkpt lat="24.172908" lon="120.666956"/>
<trkpt lat="24.173004" lon="120.666984"/>
<trkpt lat="24.173210" lon="120.667075"/>
<trkpt lat="24.173323" lon="120.667195"/>
<trkpt lat="24.173522" lon="120.667301"/>
<trkpt lat="24.173866" lon="120.666757"/>
<trkpt lat="24.174205" lon="120.666996"/>
<trkpt lat="24.174317" lon="120.666852"/>
<trkpt lat="24.174297" lon="120.666830"/>
<trkpt lat="24.174178" lon="120.666693"/>
<trkpt lat="24.174065" lon="120.666564"/>
<trkpt lat="24.173956" lon="120.666439"/>
<trkpt lat="24.174343" lon="120.666010"/>
<trkpt lat="24.174243" lon="120.665854"/>
<trkpt lat="24.174228" lon="120.665830"/>
<trkpt lat="24.174088" lon="120.665605"/>
<trkpt lat="24.173957" lon="120.665358"/>
<trkpt lat="24.173791" lon="120.665047"/>
<trkpt lat="24.173607" lon="120.664608"/>
<trkpt lat="24.173994" lon="120.664440"/>
<trkpt lat="24.173838" lon="120.663779"/>
<trkpt lat="24.173851" lon="120.663554"/>
<trkpt lat="24.173871" lon="120.663206"/>
<trkpt lat="24.174071" lon="120.663238"/>
<trkpt lat="24.174285" lon="120.663250"/>
<trkpt lat="24.174367" lon="120.663255"/>
<trkpt lat="24.174473" lon="120.663299"/>
<trkpt lat="24.174798" lon="120.663320"/>
<trkpt lat="24.174864" lon="120.663324"/>
<trkpt lat="24.175066" lon="120.663341"/>
<trkpt lat="24.175218" lon="120.663370"/>
<trkpt lat="24.175377" lon="120.663396"/>
<trkpt lat="24.175553" lon="120.663418"/>
<trkpt lat="24.175676" lon="120.663435"/>
<trkpt lat="24.175877" lon="120.663459"/>
<trkpt lat="24.175919" lon="120.663472"/>
<trkpt lat="24.176297" lon="120.663585"/>
<trkpt lat="24.176293" lon="120.663753"/>
<trkpt lat="24.176292" lon="120.664038"/>
<trkpt lat="24.176393" lon="120.664036"/>
<trkpt lat="24.176405" lon="120.664185"/>
<trkpt lat="24.176439" lon="120.664302"/>
<trkpt lat="24.176503" lon="120.664422"/>
<trkpt lat="24.176593" lon="120.664506"/>
<trkpt lat="24.176706" lon="120.664565"/>
<trkpt lat="24.176825" lon="120.664578"/>
<trkpt lat="24.177409" lon="120.664568"/>
<trkpt lat="24.177437" lon="120.664533"/>
<trkpt lat="24.177486" lon="120.664531"/>
<trkpt lat="24.177486" lon="120.664654"/>
<trkpt lat="24.177959" lon="120.664650"/>
<trkpt lat="24.178008" lon="120.664650"/>
<trkpt lat="24.178008" lon="120.664554"/>
<trkpt lat="24.178042" lon="120.664508"/>
<trkpt lat="24.178118" lon="120.664507"/>
<trkpt lat="24.178214" lon="120.664506"/>
<trkpt lat="24.178219" lon="120.664539"/>
<trkpt lat="24.178859" lon="120.664528"/>
<trkpt lat="24.178892" lon="120.664509"/>
<trkpt lat="24.178889" lon="120.664645"/>
<trkpt lat="24.178934" lon="120.664645"/>
<trkpt lat="24.178832" lon="120.665233"/>
<trkpt lat="24.178712" lon="120.665657"/>
<trkpt lat="24.178606" lon="120.665987"/>
<trkpt lat="24.178487" lon="120.666202"/>
<trkpt lat="24.178489" lon="120.666552"/>
<trkpt lat="24.178491" lon="120.666812"/>
<trkpt lat="24.178164" lon="120.666817"/>
<trkpt lat="24.178172" lon="120.667182"/>
<trkpt lat="24.177501" lon="120.667187"/>
<trkpt lat="24.177118" lon="120.667190"/>
<trkpt lat="24.177174" lon="120.668603"/>
<trkpt lat="24.177185" lon="120.668950"/>
<trkpt lat="24.177209" lon="120.669389"/>
<trkpt lat="24.177274" lon="120.669499"/>
<trkpt lat="24.176879" lon="120.669809"/>
<trkpt lat="24.176658" lon="120.669968"/>
<trkpt lat="24.176618" lon="120.669997"/>
<trkpt lat="24.176578" lon="120.670023"/>
<trkpt lat="24.176410" lon="120.670134"/>
<trkpt lat="24.176285" lon="120.670226"/>
<trkpt lat="24.176582" lon="120.670633"/>
<trkpt lat="24.176392" lon="120.670799"/>
<trkpt lat="24.176573" lon="120.671026"/>
<trkpt lat="24.176586" lon="120.671042"/>
<trkpt lat="24.176472" lon="120.671166"/>
<trkpt lat="24.176574" lon="120.671374"/>
<trkpt lat="24.176807" lon="120.671470"/>
<trkpt lat="24.176877" lon="120.671680"/>
<trkpt lat="24.176688" lon="120.671799"/>
<trkpt lat="24.176671" lon="120.671809"/>
<trkpt lat="24.176449" lon="120.671952"/>
<trkpt lat="24.176541" lon="120.672128"/>
<trkpt lat="24.176504" lon="120.672131"/>
<trkpt lat="24.176469" lon="120.672161"/>
<trkpt lat="24.176518" lon="120.672601"/>
<trkpt lat="24.176525" lon="120.672663"/>
<trkpt lat="24.176316" lon="120.672678"/>
<trkpt lat="24.176254" lon="120.672724"/>
<trkpt lat="24.176061" lon="120.672843"/>
<trkpt lat="24.176007" lon="120.672886"/>
<trkpt lat="24.175947" lon="120.672970"/>
<trkpt lat="24.175157" lon="120.674076"/>
<trkpt lat="24.175124" lon="120.674122"/>
<trkpt lat="24.175092" lon="120.674164"/>
<trkpt lat="24.175082" lon="120.674177"/>
<trkpt lat="24.174990" lon="120.674307"/>
<trkpt lat="24.174975" lon="120.674328"/>
<trkpt lat="24.174939" lon="120.674379"/>
<trkpt lat="24.174897" lon="120.674428"/>
<trkpt lat="24.174609" lon="120.674756"/>
<trkpt lat="24.174540" lon="120.674856"/>
<trkpt lat="24.174421" lon="120.676065"/>
<trkpt lat="24.174405" lon="120.676232"/>
<trkpt lat="24.174350" lon="120.676224"/>
<trkpt lat="24.174339" lon="120.676290"/>
<trkpt lat="24.173977" lon="120.676226"/>
<trkpt lat="24.173682" lon="120.676175"/>
<trkpt lat="24.173583" lon="120.676157"/>
<trkpt lat="24.173599" lon="120.676079"/>
<trkpt lat="24.173433" lon="120.676050"/>
<trkpt lat="24.173339" lon="120.676030"/>
<trkpt lat="24.173315" lon="120.676044"/>
<trkpt lat="24.173305" lon="120.676117"/>
<trkpt lat="24.172898" lon="120.676070"/>
<trkpt lat="24.172448" lon="120.676007"/>
<trkpt lat="24.172428" lon="120.676166"/>
<trkpt lat="24.172370" lon="120.676607"/>
<trkpt lat="24.171407" lon="120.676531"/>
<trkpt lat="24.171376" lon="120.676969"/>
<trkpt lat="24.171448" lon="120.676975"/>
<trkpt lat="24.171443" lon="120.677041"/>
<trkpt lat="24.171438" lon="120.677096"/>
<trkpt lat="24.171368" lon="120.677089"/>
<trkpt lat="24.171332" lon="120.677694"/>
<trkpt lat="24.171302" lon="120.678208"/>
<trkpt lat="24.171346" lon="120.678211"/>
<trkpt lat="24.171364" lon="120.678246"/>
<trkpt lat="24.171359" lon="120.678309"/>
<trkpt lat="24.172182" lon="120.678502"/>
<trkpt lat="24.172100" lon="120.679218"/>
<trkpt lat="24.172051" lon="120.679210"/>
<trkpt lat="24.172040" lon="120.679293"/>
<trkpt lat="24.172036" lon="120.679324"/>
<trkpt lat="24.172054" lon="120.679348"/>
<trkpt lat="24.172033" lon="120.679485"/>
<trkpt lat="24.172027" lon="120.679556"/>
<trkpt lat="24.172288" lon="120.679615"/>
<trkpt lat="24.172535" lon="120.679640"/>
<trkpt lat="24.172829" lon="120.679657"/>
<trkpt lat="24.172816" lon="120.679749"/>
<trkpt lat="24.172987" lon="120.679770"/>
<trkpt lat="24.173035" lon="120.679776"/>
<trkpt lat="24.172861" lon="120.680818"/>
<trkpt lat="24.172830" lon="120.680976"/>
<trkpt lat="24.172809" lon="120.681143"/>
<trkpt lat="24.172749" lon="120.681600"/>
<trkpt lat="24.172809" lon="120.681647"/>
<trkpt lat="24.172802" lon="120.681708"/>
<trkpt lat="24.172795" lon="120.681781"/>
<trkpt lat="24.173665" lon="120.681889"/>
<trkpt lat="24.173685" lon="120.681906"/>
<trkpt lat="24.173692" lon="120.681932"/>
<trkpt lat="24.173625" lon="120.682553"/>
<trkpt lat="24.173609" lon="120.682705"/>
<trkpt lat="24.173529" lon="120.683463"/>
<trkpt lat="24.173516" lon="120.683477"/>
<trkpt lat="24.173509" lon="120.683549"/>
<trkpt lat="24.172989" lon="120.683519"/>
<trkpt lat="24.172552" lon="120.683491"/>
<trkpt lat="24.172444" lon="120.683487"/>
<trkpt lat="24.172280" lon="120.683477"/>
<trkpt lat="24.172293" lon="120.683388"/>
<trkpt lat="24.172212" lon="120.683376"/>
<trkpt lat="24.172171" lon="120.683407"/>
<trkpt lat="24.172165" lon="120.683467"/>
<trkpt lat="24.171715" lon="120.683438"/>
<trkpt lat="24.171718" lon="120.683390"/>
<trkpt lat="24.171697" lon="120.683374"/>
<trkpt lat="24.171674" lon="120.683372"/>
<trkpt lat="24.171749" lon="120.682461"/>
<trkpt lat="24.171839" lon="120.681611"/>
<trkpt lat="24.171493" lon="120.681562"/>
<trkpt lat="24.171181" lon="120.681549"/>
<trkpt lat="24.171187" lon="120.681456"/>
<trkpt lat="24.171128" lon="120.681453"/>
<trkpt lat="24.171150" lon="120.680956"/>
<trkpt lat="24.171167" lon="120.680543"/>
<trkpt lat="24.171232" lon="120.680547"/>
<trkpt lat="24.171237" lon="120.680472"/>
<trkpt lat="24.171240" lon="120.680406"/>
<trkpt lat="24.171174" lon="120.680402"/>
<trkpt lat="24.171229" lon="120.679467"/>
<trkpt lat="24.171174" lon="120.679467"/>
<trkpt lat="24.171177" lon="120.679355"/>
<trkpt lat="24.171235" lon="120.679360"/>
<trkpt lat="24.171237" lon="120.679299"/>
<trkpt lat="24.171243" lon="120.679201"/>
<trkpt lat="24.171248" lon="120.679110"/>
<trkpt lat="24.171184" lon="120.679100"/>
<trkpt lat="24.171035" lon="120.679077"/>
<trkpt lat="24.170877" lon="120.679069"/>
<trkpt lat="24.170816" lon="120.679074"/>
<trkpt lat="24.170504" lon="120.679102"/>
<trkpt lat="24.170548" lon="120.678120"/>
<trkpt lat="24.169947" lon="120.677972"/>
<trkpt lat="24.169949" lon="120.677918"/>
<trkpt lat="24.169921" lon="120.677887"/>
<trkpt lat="24.169872" lon="120.677879"/>
<trkpt lat="24.169913" lon="120.676945"/>
<trkpt lat="24.169825" lon="120.676938"/>
<trkpt lat="24.169829" lon="120.676882"/>
<trkpt lat="24.169833" lon="120.676820"/>
<trkpt lat="24.169919" lon="120.676827"/>
<trkpt lat="24.169977" lon="120.675845"/>
<trkpt lat="24.169982" lon="120.675748"/>
<trkpt lat="24.169899" lon="120.675743"/>
<trkpt lat="24.169499" lon="120.675724"/>
<trkpt lat="24.169469" lon="120.675720"/>
<trkpt lat="24.169094" lon="120.675699"/>
<trkpt lat="24.169121" lon="120.675028"/>
<trkpt lat="24.169171" lon="120.674305"/>
<trkpt lat="24.169330" lon="120.674311"/>
<trkpt lat="24.169372" lon="120.673632"/>
<trkpt lat="24.169375" lon="120.673590"/>
<trkpt lat="24.169357" lon="120.673324"/>
<trkpt lat="24.169315" lon="120.673116"/>
<trkpt lat="24.169190" lon="120.672620"/>
<trkpt lat="24.168895" lon="120.672709"/>
<trkpt lat="24.168828" lon="120.672726"/>
<trkpt lat="24.168767" lon="120.672742"/>
<trkpt lat="24.168755" lon="120.672633"/>
<trkpt lat="24.168460" lon="120.672724"/>
<trkpt lat="24.168421" lon="120.672588"/>
<trkpt lat="24.168312" lon="120.672170"/>
<trkpt lat="24.168243" lon="120.671884"/>
<trkpt lat="24.167961" lon="120.672035"/>
<trkpt lat="24.167968" lon="120.671233"/>
<trkpt lat="24.167970" lon="120.670618"/>
<trkpt lat="24.168011" lon="120.670606"/>
<trkpt lat="24.168573" lon="120.670612"/>
<trkpt lat="24.168754" lon="120.670614"/>
<trkpt lat="24.168751" lon="120.670039"/>
<trkpt lat="24.168742" lon="120.669468"/>
<trkpt lat="24.168340" lon="120.669469"/>
<trkpt lat="24.167959" lon="120.669470"/>
<trkpt lat="24.167950" lon="120.670028"/>
<trkpt lat="24.167693" lon="120.670030"/>
<trkpt lat="24.167445" lon="120.670063"/>
<trkpt lat="24.167417" lon="120.669238"/>
</trkseg></trk>
</gpx>