<?xml version="1.0" encoding="UTF-8"?>
<kml xmlns="http://www.opengis.net/kml/2.2"><Document>
<name>北屯區 手繪蹲坐貓（原稿描圖） 圖形路跑路線</name>
<Style id="r"><LineStyle><color>ff2000d6</color><width>4</width></LineStyle></Style>
<Placemark><name>賴明公園</name><description>地標</description><Point><coordinates>120.678885,24.167308,0</coordinates></Point></Placemark>
<Placemark><name>山西公園</name><description>地標</description><Point><coordinates>120.676066,24.170910,0</coordinates></Point></Placemark>
<Placemark><name>梅川公園</name><description>地標</description><Point><coordinates>120.678975,24.170207,0</coordinates></Point></Placemark>
<Placemark><name>北屯區 手繪蹲坐貓（原稿描圖） 圖形路跑路線</name><styleUrl>#r</styleUrl><LineString><tessellate>1</tessellate><coordinates>
120.677472,24.160390,0 120.676600,24.160407,0 120.676341,24.160411,0 120.675985,24.160414,0 120.675947,24.161085,0 120.675919,24.161257,0 120.675878,24.161385,0 120.676017,24.161511,0 120.676162,24.161698,0 120.676296,24.161898,0 120.676463,24.162096,0 120.676533,24.163023,0 120.676542,24.163151,0 120.676399,24.163155,0 120.676401,24.163247,0 120.676554,24.163240,0 120.676565,24.163315,0 120.676566,24.163384,0 120.676590,24.163559,0 120.676598,24.163652,0 120.676616,24.163815,0 120.676659,24.164331,0 120.676680,24.164536,0 120.676764,24.164806,0 120.676889,24.165112,0 120.676914,24.165173,0 120.677008,24.165440,0 120.676915,24.165442,0 120.676961,24.165520,0 120.677043,24.165531,0 120.677155,24.165822,0 120.677233,24.166010,0 120.677349,24.166239,0 120.677463,24.166384,0 120.677489,24.166419,0 120.677205,24.166599,0 120.676419,24.166580,0 120.676553,24.167005,0 120.676613,24.167007,0 120.676635,24.167251,0 120.676664,24.167540,0 120.676699,24.167831,0 120.676490,24.167852,0 120.675596,24.168146,0 120.675644,24.168279,0 120.675690,24.168683,0 120.674853,24.168664,0 120.674293,24.168854,0 120.674305,24.169171,0 120.674311,24.169330,0 120.674318,24.169491,0 120.674371,24.170043,0 120.674364,24.170472,0 120.674382,24.170772,0 120.674394,24.171085,0 120.674414,24.171553,0 120.675174,24.171493,0 120.675818,24.171457,0 120.675826,24.171534,0 120.675910,24.171527,0 120.675989,24.172277,0 120.676007,24.172448,0 120.675130,24.172375,0 120.675094,24.173058,0 120.675074,24.173545,0 120.675122,24.173534,0 120.675971,24.173378,0 120.676030,24.173339,0 120.676044,24.173315,0 120.676117,24.173305,0 120.676070,24.172898,0 120.677191,24.172729,0 120.677135,24.172380,0 120.677195,24.172373,0 120.677186,24.172314,0 120.677812,24.172249,0 120.678502,24.172182,0 120.679218,24.172100,0 120.679210,24.172051,0 120.679293,24.172040,0 120.679218,24.171665,0 120.679132,24.171332,0 120.679026,24.171344,0 120.679018,24.171254,0 120.679110,24.171248,0 120.679201,24.171243,0 120.679299,24.171237,0 120.679360,24.171235,0 120.679355,24.171177,0 120.679333,24.170928,0 120.679337,24.170804,0 120.679401,24.170506,0 120.680456,24.170485,0 120.680432,24.170117,0 120.680431,24.169829,0 120.680511,24.169823,0 120.680503,24.169736,0 120.680679,24.169728,0 120.681188,24.169708,0 120.681279,24.169704,0 120.681405,24.169696,0 120.681910,24.169669,0 120.682195,24.169660,0 120.682188,24.169581,0 120.682257,24.169570,0 120.682205,24.169050,0 120.682256,24.169023,0 120.682586,24.168989,0 120.682707,24.168979,0 120.682736,24.169211,0 120.682879,24.169194,0 120.683058,24.169176,0 120.682959,24.168543,0 120.683007,24.168543,0 120.683006,24.168467,0 120.683539,24.168446,0 120.683605,24.168443,0 120.683697,24.168442,0 120.685058,24.168414,0 120.685054,24.168340,0 120.685072,24.168324,0 120.685051,24.168024,0 120.685031,24.167726,0 120.684987,24.167092,0 120.684963,24.167082,0 120.684950,24.166996,0 120.684961,24.166894,0 120.684987,24.166858,0 120.685070,24.166854,0 120.685169,24.166855,0 120.685248,24.166854,0 120.685250,24.166062,0 120.685249,24.165994,0 120.685249,24.165942,0 120.685220,24.165385,0 120.685233,24.165356,0 120.685238,24.165306,0 120.685221,24.165248,0 120.685213,24.165108,0 120.685207,24.165032,0 120.685205,24.164977,0 120.685204,24.164956,0 120.685196,24.164472,0 120.685196,24.164448,0 120.685196,24.164422,0 120.685189,24.163975,0 120.685191,24.163950,0 120.685191,24.163898,0 120.685551,24.163895,0 120.685767,24.163888,0 120.685750,24.163575,0 120.685188,24.163579,0 120.685194,24.163504,0 120.685220,24.163473,0 120.685253,24.163418,0 120.685297,24.163361,0 120.685327,24.163320,0 120.685345,24.163306,0 120.685335,24.163294,0 120.685295,24.163255,0 120.685268,24.163235,0 120.685253,24.163225,0 120.685244,24.163162,0 120.685240,24.163093,0 120.685243,24.162993,0 120.685245,24.162934,0 120.685249,24.162884,0 120.685327,24.162890,0 120.685357,24.162858,0 120.685392,24.162830,0 120.685349,24.162788,0 120.685348,24.162764,0 120.685344,24.162726,0 120.685466,24.162719,0 120.685727,24.162714,0 120.686385,24.162709,0 120.686692,24.162720,0 120.686690,24.162151,0 120.686944,24.162142,0 120.686980,24.162142,0 120.687166,24.162141,0 120.687428,24.162135,0 120.687669,24.162130,0 120.688096,24.162136,0 120.688327,24.162138,0 120.688341,24.162351,0 120.688378,24.162400,0 120.688357,24.162548,0 120.688383,24.162481,0 120.688418,24.162416,0 120.688493,24.162350,0 120.688559,24.162300,0 120.688687,24.162258,0 120.688785,24.162236,0 120.689095,24.162242,0 120.689760,24.162203,0 120.689823,24.162199,0 120.689836,24.162591,0 120.689845,24.162845,0 120.689844,24.162946,0 120.690412,24.162942,0 120.690719,24.162933,0 120.690773,24.162932,0 120.690980,24.162921,0 120.691057,24.162913,0 120.691182,24.162901,0 120.691307,24.162881,0 120.691430,24.162855,0 120.691569,24.162818,0 120.691705,24.162772,0 120.691838,24.162718,0 120.691966,24.162656,0 120.692282,24.162487,0 120.692524,24.162363,0 120.692573,24.162443,0 120.692612,24.162510,0 120.692628,24.162576,0 120.692676,24.162538,0 120.692742,24.162505,0 120.692842,24.162455,0 120.692898,24.162427,0 120.692938,24.162388,0 120.692995,24.162456,0 120.693024,24.162467,0 120.693059,24.162407,0 120.693133,24.162296,0 120.693013,24.162220,0 120.692875,24.162291,0 120.692831,24.162211,0 120.693020,24.162118,0 120.693239,24.162019,0 120.693284,24.161884,0 120.693345,24.161696,0 120.693408,24.161489,0 120.693315,24.161506,0 120.693070,24.161548,0 120.692973,24.161317,0 120.692898,24.161154,0 120.692474,24.161350,0 120.692450,24.161290,0 120.692387,24.161250,0 120.692313,24.161278,0 120.692222,24.161313,0 120.692150,24.161142,0 120.691952,24.161220,0 120.691684,24.161290,0 120.691277,24.161350,0 120.691106,24.161400,0 120.691053,24.161469,0 120.690975,24.161471,0 120.690886,24.161473,0 120.690791,24.161476,0 120.690220,24.161476,0 120.689812,24.161476,0 120.689252,24.161488,0 120.688529,24.161505,0 120.688515,24.161505,0 120.688409,24.161505,0 120.688357,24.161506,0 120.688277,24.161507,0 120.687749,24.161509,0 120.687602,24.161515,0 120.687568,24.161432,0 120.687502,24.161406,0 120.687309,24.161352,0 120.686959,24.161287,0 120.686721,24.161202,0 120.686686,24.161207,0 120.686611,24.161208,0 120.686532,24.161198,0 120.686417,24.161147,0 120.686353,24.161071,0 120.686120,24.161070,0 120.685185,24.161090,0 120.685186,24.161126,0 120.685188,24.161458,0 120.685106,24.161460,0 120.685012,24.161462,0 120.684920,24.161463,0 120.684917,24.161148,0 120.684916,24.161099,0 120.683989,24.161098,0 120.683683,24.161101,0 120.683680,24.160761,0 120.683323,24.160761,0 120.682352,24.160760,0 120.681087,24.160768,0 120.680971,24.160766,0 120.680970,24.160337,0 120.679973,24.160358,0 120.679220,24.160361,0 120.679225,24.160801,0 120.679224,24.160934,0 120.678537,24.160939,0 120.677851,24.160986,0 120.677400,24.161000,0 120.677434,24.160685,0 120.677472,24.160390,0
</coordinates></LineString></Placemark>
</Document></kml>