<?xml version="1.0" encoding="UTF-8"?>
<kml xmlns="http://www.opengis.net/kml/2.2"><Document>
<name>中區 手繪蹲坐貓（原稿描圖） 圖形路跑路線</name>
<Style id="r"><LineStyle><color>ff2000d6</color><width>4</width></LineStyle></Style>
<Placemark><name>東昇公園(細兒215公園)</name><description>地標</description><Point><coordinates>120.670836,24.135280,0</coordinates></Point></Placemark>
<Placemark><name>Painted Animation Lane</name><description>地標</description><Point><coordinates>120.670483,24.138168,0</coordinates></Point></Placemark>
<Placemark><name>圖根點</name><description>地標</description><Point><coordinates>120.671211,24.138694,0</coordinates></Point></Placemark>
<Placemark><name>中區 手繪蹲坐貓（原稿描圖） 圖形路跑路線</name><styleUrl>#r</styleUrl><LineString><tessellate>1</tessellate><coordinates>
120.671994,24.135122,0 120.671505,24.135549,0 120.671043,24.135951,0 120.671416,24.136308,0 120.671710,24.136591,0 120.671651,24.136643,0 120.671746,24.136731,0 120.671273,24.137150,0 120.670911,24.137469,0 120.671022,24.137582,0 120.670976,24.137623,0 120.671268,24.137905,0 120.671631,24.138261,0 120.671878,24.138496,0 120.671799,24.138564,0 120.671457,24.138859,0 120.671626,24.139021,0 120.671716,24.139107,0 120.671954,24.139335,0 120.671625,24.139620,0 120.671374,24.139837,0 120.671295,24.139906,0 120.671357,24.139959,0 120.671315,24.139993,0 120.671110,24.140167,0 120.671084,24.140190,0 120.671086,24.140204,0 120.671130,24.140232,0 120.671161,24.140244,0 120.671216,24.140270,0 120.671229,24.140279,0 120.671237,24.140268,0 120.671273,24.140205,0 120.671300,24.140198,0 120.671361,24.140212,0 120.671412,24.140274,0 120.671454,24.140295,0 120.671526,24.140301,0 120.671613,24.140365,0 120.671676,24.140400,0 120.671776,24.140420,0 120.671826,24.140428,0 120.671894,24.140446,0 120.671950,24.140533,0 120.671964,24.140530,0 120.672039,24.140535,0 120.672061,24.140523,0 120.672247,24.140351,0 120.672267,24.140326,0 120.672274,24.140307,0 120.672325,24.140303,0 120.672395,24.140318,0 120.672329,24.140379,0 120.672137,24.140546,0 120.671984,24.140680,0 120.671480,24.141127,0 120.671087,24.141461,0 120.671439,24.141802,0 120.671201,24.142005,0 120.670942,24.142234,0 120.671002,24.142298,0 120.670502,24.142738,0 120.670231,24.142483,0 120.670073,24.142328,0 120.669950,24.142208,0 120.669809,24.142071,0 120.669319,24.142508,0 120.669206,24.142408,0 120.668844,24.142051,0 120.668585,24.142277,0 120.668366,24.142458,0 120.668454,24.142547,0 120.668384,24.142612,0 120.668315,24.142675,0 120.668227,24.142757,0 120.668208,24.142739,0 120.668126,24.142662,0 120.668118,24.142669,0 120.668016,24.142760,0 120.667947,24.142827,0 120.668604,24.143458,0 120.668624,24.143487,0 120.668636,24.143516,0 120.668644,24.143550,0 120.668648,24.143617,0 120.668639,24.144084,0 120.668635,24.144288,0 120.668635,24.144334,0 120.668635,24.144405,0 120.668640,24.144516,0 120.668650,24.144728,0 120.668675,24.144793,0 120.668750,24.144868,0 120.668995,24.144645,0 120.669142,24.144516,0 120.669178,24.144485,0 120.669321,24.144362,0 120.669824,24.144852,0 120.669724,24.144935,0 120.669713,24.144950,0 120.669707,24.144967,0 120.669800,24.145133,0 120.669972,24.145393,0 120.670253,24.145815,0 120.670282,24.145855,0 120.670288,24.145872,0 120.670287,24.145895,0 120.670263,24.145935,0 120.670380,24.146046,0 120.670331,24.146089,0 120.670213,24.146191,0 120.670165,24.146233,0 120.669862,24.145939,0 120.669791,24.146019,0 120.669712,24.146101,0 120.669762,24.146236,0 120.669813,24.146332,0 120.669901,24.146453,0 120.669995,24.146549,0 120.670166,24.146387,0 120.670269,24.146489,0 120.670353,24.146415,0 120.670445,24.146505,0 120.670814,24.146854,0 120.670925,24.146966,0 120.670948,24.147006,0 120.671245,24.146882,0 120.671586,24.146573,0 120.671970,24.146227,0 120.672047,24.146172,0 120.672602,24.145698,0 120.673095,24.145258,0 120.673405,24.144994,0 120.673825,24.144629,0 120.674147,24.144962,0 120.674433,24.144747,0 120.674869,24.144421,0 120.674907,24.144395,0 120.675158,24.144174,0 120.675364,24.144001,0 120.675454,24.143925,0 120.675789,24.144249,0 120.676313,24.143785,0 120.676565,24.143575,0 120.676980,24.143230,0 120.677016,24.143270,0 120.677093,24.143212,0 120.677179,24.143156,0 120.677217,24.143124,0 120.677441,24.142931,0 120.677505,24.142918,0 120.677570,24.142849,0 120.677606,24.142805,0 120.677611,24.142747,0 120.677587,24.142704,0 120.677832,24.142496,0 120.678168,24.142851,0 120.678397,24.142635,0 120.678422,24.142631,0 120.678541,24.142538,0 120.678560,24.142557,0 120.678755,24.142388,0 120.678781,24.142366,0 120.678806,24.142345,0 120.678993,24.142198,0 120.679083,24.142109,0 120.679175,24.142050,0 120.679721,24.141581,0 120.679322,24.141202,0 120.679533,24.141022,0 120.679866,24.140743,0 120.680247,24.140420,0 120.679782,24.139959,0 120.679486,24.139694,0 120.679888,24.139349,0 120.680166,24.139112,0 120.680266,24.139027,0 120.680717,24.138646,0 120.680333,24.138282,0 120.680182,24.138134,0 120.680040,24.137997,0 120.680110,24.137939,0 120.680110,24.137903,0 120.680035,24.137829,0 120.680360,24.137525,0 120.680696,24.137231,0 120.680773,24.137307,0 120.680827,24.137262,0 120.680842,24.137277,0 120.681077,24.137500,0 120.681152,24.137571,0 120.681546,24.137229,0 120.681908,24.137586,0 120.682279,24.137936,0 120.682642,24.138293,0 120.682872,24.138094,0 120.682910,24.138061,0 120.683020,24.137966,0 120.683047,24.137943,0 120.683189,24.137836,0 120.683248,24.137792,0 120.683646,24.138182,0 120.683946,24.138442,0 120.684036,24.138528,0 120.684127,24.138617,0 120.684407,24.138888,0 120.684860,24.138489,0 120.685205,24.138818,0 120.685635,24.138425,0 120.685699,24.138373,0 120.685867,24.138244,0 120.686064,24.138091,0 120.686114,24.138052,0 120.686371,24.138070,0 120.686491,24.138059,0 120.686532,24.138046,0 120.686577,24.138022,0 120.686599,24.137961,0 120.686667,24.137984,0 120.686726,24.138037,0 120.686768,24.138098,0 120.687014,24.138103,0 120.687125,24.138101,0 120.687509,24.138102,0 120.687744,24.138105,0 120.687765,24.137840,0 120.687762,24.137766,0 120.687760,24.137728,0 120.687848,24.137762,0 120.687848,24.137753,0 120.687847,24.137654,0 120.687846,24.137233,0 120.687814,24.137220,0 120.687724,24.137185,0 120.687627,24.137140,0 120.687625,24.137158,0 120.687637,24.137256,0 120.687623,24.137251,0 120.687616,24.137165,0 120.687614,24.137135,0 120.687624,24.137096,0 120.687602,24.137028,0 120.687063,24.136806,0 120.687023,24.136900,0 120.686767,24.137404,0 120.686758,24.137421,0 120.686600,24.137374,0 120.686407,24.137333,0 120.686183,24.137312,0 120.686046,24.137310,0 120.685873,24.137364,0 120.685545,24.137286,0 120.684991,24.137072,0 120.684640,24.136900,0 120.684433,24.136741,0 120.684391,24.136704,0 120.684323,24.136647,0 120.684223,24.136591,0 120.684059,24.136511,0 120.683722,24.136369,0 120.683435,24.136268,0 120.683395,24.136323,0 120.683346,24.136396,0 120.683296,24.136374,0 120.683258,24.136417,0 120.682936,24.136734,0 120.682560,24.136403,0 120.682193,24.136732,0 120.681873,24.136416,0 120.681836,24.136388,0 120.681796,24.136420,0 120.681776,24.136420,0 120.681762,24.136432,0 120.681658,24.136525,0 120.681644,24.136537,0 120.681573,24.136469,0 120.681522,24.136423,0 120.681460,24.136393,0 120.681433,24.136417,0 120.681402,24.136393,0 120.681314,24.136306,0 120.681243,24.136238,0 120.681223,24.136219,0 120.681119,24.136122,0 120.680736,24.136458,0 120.680350,24.136793,0 120.679984,24.136436,0 120.679645,24.136112,0 120.679239,24.135722,0 120.678421,24.136431,0 120.678352,24.136371,0 120.677938,24.135973,0 120.677711,24.135754,0 120.677499,24.135549,0 120.676937,24.135004,0 120.676115,24.135719,0 120.675903,24.135905,0 120.675840,24.135955,0 120.675721,24.136058,0 120.675558,24.136197,0 120.675349,24.136376,0 120.674407,24.135474,0 120.674103,24.135736,0 120.673651,24.136120,0 120.673321,24.136402,0 120.672877,24.135974,0 120.672743,24.135846,0 120.672838,24.135766,0 120.672748,24.135676,0 120.672652,24.135760,0 120.671994,24.135122,0
</coordinates></LineString></Placemark>
</Document></kml>