<?xml version="1.0" encoding="UTF-8"?>
<kml xmlns="http://www.opengis.net/kml/2.2"><Document>
<name>大安區 手繪蹲坐貓（原稿描圖） 圖形路跑路線</name>
<Style id="r"><LineStyle><color>ff2000d6</color><width>4</width></LineStyle></Style>
<Placemark><name>文武公園</name><description>地標</description><Point><coordinates>120.621803,24.355158,0</coordinates></Point></Placemark>
<Placemark><name>國有非公用土地委託管理綠美化設施(110.06.20-116.06.19)</name><description>地標</description><Point><coordinates>120.628000,24.347521,0</coordinates></Point></Placemark>
<Placemark><name>大甲車站站前公園(藺草道)</name><description>地標</description><Point><coordinates>120.626612,24.344090,0</coordinates></Point></Placemark>
<Placemark><name>大安區 手繪蹲坐貓（原稿描圖） 圖形路跑路線</name><styleUrl>#r</styleUrl><LineString><tessellate>1</tessellate><coordinates>
120.619326,24.344000,0 120.619386,24.344058,0 120.619440,24.344110,0 120.619621,24.344332,0 120.619725,24.344443,0 120.618739,24.345021,0 120.618553,24.345176,0 120.618251,24.345412,0 120.618565,24.345964,0 120.618217,24.346186,0 120.618419,24.346674,0 120.618979,24.346509,0 120.619276,24.346428,0 120.619410,24.346413,0 120.619701,24.346373,0 120.619742,24.346468,0 120.619962,24.346989,0 120.620011,24.347104,0 120.619879,24.347159,0 120.619784,24.347337,0 120.619775,24.347368,0 120.619764,24.347412,0 120.619793,24.347508,0 120.619859,24.347673,0 120.619874,24.347748,0 120.619980,24.347916,0 120.620034,24.348277,0 120.620194,24.348498,0 120.620327,24.348718,0 120.620459,24.349010,0 120.620646,24.349416,0 120.620259,24.349550,0 120.619688,24.349748,0 120.619719,24.349821,0 120.620106,24.350760,0 120.619720,24.350900,0 120.619139,24.351111,0 120.618887,24.351200,0 120.618651,24.351277,0 120.618615,24.351291,0 120.618179,24.351430,0 120.617698,24.351617,0 120.617592,24.351653,0 120.618334,24.353395,0 120.618559,24.353926,0 120.618732,24.354380,0 120.618846,24.354335,0 120.619309,24.354181,0 120.619658,24.354065,0 120.619874,24.353994,0 120.620289,24.353855,0 120.620495,24.354466,0 120.620506,24.354494,0 120.620595,24.354719,0 120.620638,24.354807,0 120.620693,24.354862,0 120.620543,24.354893,0 120.620296,24.354926,0 120.620331,24.355103,0 120.620354,24.355117,0 120.620380,24.355123,0 120.620445,24.355118,0 120.620916,24.355163,0 120.621228,24.355214,0 120.621558,24.355233,0 120.621559,24.354919,0 120.621589,24.354920,0 120.622084,24.354917,0 120.621940,24.354104,0 120.621807,24.353351,0 120.622408,24.353134,0 120.622505,24.353099,0 120.623132,24.352872,0 120.623578,24.352711,0 120.623414,24.352309,0 120.623223,24.351840,0 120.624146,24.351521,0 120.624591,24.351367,0 120.624446,24.351037,0 120.624486,24.351024,0 120.624386,24.350777,0 120.624379,24.350762,0 120.624659,24.350666,0 120.626065,24.350166,0 120.625840,24.349828,0 120.626450,24.349483,0 120.626975,24.349185,0 120.627570,24.348867,0 120.627600,24.348667,0 120.627647,24.347991,0 120.627679,24.347589,0 120.627728,24.347174,0 120.627768,24.346813,0 120.627785,24.346661,0 120.627788,24.346603,0 120.627744,24.346353,0 120.627681,24.346198,0 120.627589,24.346071,0 120.627453,24.345880,0 120.627105,24.345361,0 120.626837,24.344969,0 120.626697,24.344765,0 120.626731,24.344746,0 120.626786,24.344698,0 120.626802,24.344658,0 120.626807,24.344619,0 120.626785,24.344573,0 120.626755,24.344535,0 120.626716,24.344520,0 120.626846,24.344361,0 120.626778,24.344259,0 120.626941,24.344163,0 120.627484,24.343821,0 120.627602,24.343750,0 120.627930,24.344229,0 120.628397,24.344947,0 120.628586,24.344886,0 120.628764,24.344875,0 120.628939,24.344885,0 120.629072,24.344890,0 120.629300,24.344921,0 120.629458,24.344963,0 120.629249,24.344503,0 120.629397,24.344403,0 120.629512,24.344308,0 120.629571,24.344258,0 120.629661,24.344171,0 120.629714,24.344094,0 120.629748,24.344032,0 120.629785,24.343965,0 120.629810,24.343878,0 120.629922,24.343473,0 120.630007,24.343144,0 120.630067,24.342912,0 120.630124,24.342909,0 120.630522,24.343575,0 120.630674,24.343520,0 120.630981,24.343383,0 120.631260,24.343848,0 120.631340,24.343973,0 120.631670,24.343822,0 120.632045,24.343650,0 120.631891,24.343389,0 120.631764,24.343147,0 120.631642,24.342949,0 120.631366,24.342463,0 120.631764,24.342271,0 120.632071,24.342119,0 120.632287,24.342486,0 120.632526,24.342913,0 120.632753,24.343279,0 120.633372,24.342990,0 120.633094,24.342540,0 120.633045,24.342450,0 120.632856,24.342119,0 120.632669,24.341800,0 120.632112,24.342105,0 120.632071,24.342119,0 120.631764,24.342271,0 120.631366,24.342463,0 120.631152,24.342566,0 120.630636,24.342816,0 120.630380,24.342897,0 120.630324,24.342899,0 120.630124,24.342909,0 120.630067,24.342912,0 120.629699,24.342926,0 120.629922,24.343473,0 120.629810,24.343878,0 120.629785,24.343965,0 120.629748,24.344032,0 120.629714,24.344094,0 120.629661,24.344171,0 120.629571,24.344258,0 120.629512,24.344308,0 120.629397,24.344403,0 120.629249,24.344503,0 120.628690,24.343371,0 120.628504,24.343416,0 120.628292,24.343370,0 120.628210,24.343314,0 120.627966,24.343224,0 120.627926,24.343217,0 120.627662,24.343169,0 120.627463,24.343165,0 120.627300,24.343309,0 120.627602,24.343750,0 120.627484,24.343821,0 120.626941,24.344163,0 120.626778,24.344259,0 120.626349,24.343609,0 120.626039,24.343780,0 120.626005,24.343728,0 120.625878,24.343538,0 120.625300,24.343698,0 120.624959,24.343809,0 120.624636,24.343890,0 120.623789,24.344112,0 120.623604,24.344112,0 120.623481,24.344126,0 120.623486,24.344003,0 120.623573,24.343646,0 120.623635,24.343394,0 120.623735,24.342985,0 120.623655,24.342975,0 120.623571,24.343038,0 120.623479,24.343160,0 120.623227,24.343295,0 120.623098,24.343352,0 120.622807,24.343428,0 120.622738,24.343486,0 120.622715,24.343567,0 120.622211,24.343726,0 120.622100,24.343957,0 120.622028,24.344131,0 120.621946,24.344227,0 120.621911,24.344088,0 120.621834,24.343934,0 120.621537,24.343510,0 120.621166,24.343706,0 120.620879,24.343310,0 120.620698,24.343439,0 120.620446,24.343612,0 120.620753,24.343944,0 120.620953,24.344223,0 120.621096,24.344352,0 120.621060,24.344367,0 120.620917,24.344452,0 120.620851,24.344494,0 120.620307,24.344840,0 120.620130,24.344959,0 120.619887,24.344634,0 120.619725,24.344443,0 120.619621,24.344332,0 120.619440,24.344110,0 120.619386,24.344058,0 120.619326,24.344000,0
</coordinates></LineString></Placemark>
</Document></kml>