<?xml version="1.0" encoding="UTF-8"?>
<kml xmlns="http://www.opengis.net/kml/2.2"><Document>
<name>大肚區 手繪蹲坐貓（原稿描圖） 圖形路跑路線</name>
<Style id="r"><LineStyle><color>ff2000d6</color><width>4</width></LineStyle></Style>
<Placemark><name>大肚區環保運動公園</name><description>地標</description><Point><coordinates>120.553052,24.157910,0</coordinates></Point></Placemark>
<Placemark><name>大肚藍色公路</name><description>地標</description><Point><coordinates>120.559428,24.155806,0</coordinates></Point></Placemark>
<Placemark><name>大肚區 手繪蹲坐貓（原稿描圖） 圖形路跑路線</name><styleUrl>#r</styleUrl><LineString><tessellate>1</tessellate><coordinates>
120.551928,24.151091,0 120.551804,24.151446,0 120.551766,24.151482,0 120.551702,24.151711,0 120.551644,24.151914,0 120.551964,24.151981,0 120.552136,24.152001,0 120.552614,24.151979,0 120.552788,24.151996,0 120.553018,24.152029,0 120.552828,24.152176,0 120.552678,24.152284,0 120.552517,24.152382,0 120.552225,24.152504,0 120.552101,24.152535,0 120.551914,24.152554,0 120.551699,24.152556,0 120.551342,24.152513,0 120.548869,24.152094,0 120.548594,24.153057,0 120.548335,24.154034,0 120.548267,24.154016,0 120.548189,24.154273,0 120.548085,24.154612,0 120.547971,24.154984,0 120.547865,24.155231,0 120.547656,24.155668,0 120.546869,24.157342,0 120.546600,24.158006,0 120.546681,24.158047,0 120.547715,24.155702,0 120.548178,24.156008,0 120.548241,24.156081,0 120.548280,24.156188,0 120.548264,24.156590,0 120.548280,24.156716,0 120.548691,24.157413,0 120.548976,24.157829,0 120.549058,24.157892,0 120.549196,24.157949,0 120.549342,24.157964,0 120.549646,24.157965,0 120.549686,24.157953,0 120.549745,24.157923,0 120.549808,24.157875,0 120.549850,24.157803,0 120.549865,24.157740,0 120.549856,24.157633,0 120.549784,24.157516,0 120.549387,24.157285,0 120.549341,24.157237,0 120.549308,24.157172,0 120.549285,24.157114,0 120.549275,24.156999,0 120.549294,24.156908,0 120.549356,24.156822,0 120.549625,24.156606,0 120.549757,24.156536,0 120.549947,24.156503,0 120.550123,24.156542,0 120.550203,24.156585,0 120.550256,24.156660,0 120.550445,24.157024,0 120.550551,24.157150,0 120.550731,24.157272,0 120.550944,24.157382,0 120.551121,24.157533,0 120.551285,24.157727,0 120.551342,24.157819,0 120.551876,24.158156,0 120.551922,24.158063,0 120.551936,24.158048,0 120.552077,24.157886,0 120.552122,24.157815,0 120.552125,24.157771,0 120.552102,24.157724,0 120.552100,24.157688,0 120.552143,24.157633,0 120.552206,24.157566,0 120.552091,24.157468,0 120.551991,24.157372,0 120.551983,24.157307,0 120.552061,24.157216,0 120.552176,24.157115,0 120.552304,24.157007,0 120.552392,24.156952,0 120.552515,24.156909,0 120.552616,24.156914,0 120.552693,24.156941,0 120.552841,24.156822,0 120.552884,24.156742,0 120.553145,24.157014,0 120.553337,24.157338,0 120.553514,24.157634,0 120.553869,24.157837,0 120.554049,24.157702,0 120.554125,24.157633,0 120.554188,24.157546,0 120.554296,24.157432,0 120.554427,24.157392,0 120.554463,24.157363,0 120.554444,24.157317,0 120.554378,24.157280,0 120.554176,24.157274,0 120.554201,24.157216,0 120.554279,24.157188,0 120.554374,24.157155,0 120.554486,24.157155,0 120.554615,24.157167,0 120.554700,24.157158,0 120.554903,24.156857,0 120.555156,24.156583,0 120.555127,24.156533,0 120.555087,24.156472,0 120.555206,24.156321,0 120.555358,24.156246,0 120.555792,24.156204,0 120.555919,24.156254,0 120.556103,24.156298,0 120.556274,24.156349,0 120.556529,24.156415,0 120.556729,24.156447,0 120.556880,24.156458,0 120.556941,24.156428,0 120.556978,24.156412,0 120.557108,24.156467,0 120.557384,24.156526,0 120.557510,24.156545,0 120.557637,24.156554,0 120.557769,24.156534,0 120.557903,24.156549,0 120.557961,24.156632,0 120.558000,24.156717,0 120.557996,24.156805,0 120.558009,24.156843,0 120.558054,24.156907,0 120.558134,24.156917,0 120.558153,24.156899,0 120.558175,24.156821,0 120.558167,24.156747,0 120.558132,24.156638,0 120.558133,24.156518,0 120.558197,24.156453,0 120.558228,24.156381,0 120.558198,24.156352,0 120.558148,24.156340,0 120.558059,24.156328,0 120.557998,24.156336,0 120.557875,24.156304,0 120.557743,24.156238,0 120.557666,24.156169,0 120.557556,24.156114,0 120.557453,24.156102,0 120.557213,24.156027,0 120.557059,24.155958,0 120.556958,24.155862,0 120.556960,24.155754,0 120.556931,24.155645,0 120.556860,24.155513,0 120.556876,24.155395,0 120.556951,24.155322,0 120.557054,24.155335,0 120.557193,24.155346,0 120.557340,24.155337,0 120.557445,24.155334,0 120.557536,24.155314,0 120.557608,24.155305,0 120.557743,24.155244,0 120.557820,24.155130,0 120.557883,24.155012,0 120.557915,24.154884,0 120.557996,24.154757,0 120.558104,24.154761,0 120.558268,24.154775,0 120.558453,24.154809,0 120.558593,24.154854,0 120.558639,24.154933,0 120.558656,24.155033,0 120.558736,24.155171,0 120.558855,24.155336,0 120.558872,24.155423,0 120.558876,24.155601,0 120.558924,24.155764,0 120.559014,24.156012,0 120.559063,24.156116,0 120.559168,24.156176,0 120.559393,24.156201,0 120.559573,24.156277,0 120.559632,24.156310,0 120.559756,24.156361,0 120.559848,24.156395,0 120.559919,24.156412,0 120.559987,24.156453,0 120.559947,24.156391,0 120.559890,24.156368,0 120.559832,24.156359,0 120.559793,24.156335,0 120.559721,24.156254,0 120.559646,24.156161,0 120.559612,24.156082,0 120.559663,24.156072,0 120.559742,24.156121,0 120.559872,24.156184,0 120.559971,24.156202,0 120.560020,24.156194,0 120.560128,24.156207,0 120.560199,24.156280,0 120.560235,24.156336,0 120.560277,24.156362,0 120.560390,24.156374,0 120.560462,24.156401,0 120.560530,24.156439,0 120.560576,24.156451,0 120.560636,24.156476,0 120.560731,24.156480,0 120.560724,24.156437,0 120.560641,24.156398,0 120.560618,24.156361,0 120.560574,24.156329,0 120.560553,24.156286,0 120.560576,24.156243,0 120.560631,24.156245,0 120.560689,24.156267,0 120.560756,24.156258,0 120.560871,24.156259,0 120.560874,24.156210,0 120.560786,24.156190,0 120.560671,24.156125,0 120.560612,24.156084,0 120.560522,24.156023,0 120.560383,24.155951,0 120.560211,24.155799,0 120.560174,24.155727,0 120.560096,24.155657,0 120.559999,24.155601,0 120.559915,24.155525,0 120.559744,24.155440,0 120.559653,24.155335,0 120.559566,24.155255,0 120.559452,24.155152,0 120.559395,24.155069,0 120.559287,24.154901,0 120.559162,24.154735,0 120.559105,24.154669,0 120.558952,24.154547,0 120.558838,24.154473,0 120.558588,24.154434,0 120.558432,24.154409,0 120.558290,24.154402,0 120.558119,24.154416,0 120.558039,24.154429,0 120.557925,24.154414,0 120.557853,24.154419,0 120.557784,24.154424,0 120.557648,24.154459,0 120.557549,24.154511,0 120.557513,24.154589,0 120.557471,24.154704,0 120.557442,24.154793,0 120.557489,24.154894,0 120.557513,24.154960,0 120.557565,24.155075,0 120.557536,24.155314,0 120.557311,24.155243,0 120.557066,24.155166,0 120.556871,24.155084,0 120.556806,24.154969,0 120.556704,24.154828,0 120.556661,24.154643,0 120.556638,24.154528,0 120.556581,24.154400,0 120.556521,24.154297,0 120.556383,24.154204,0 120.556252,24.154152,0 120.556092,24.154065,0 120.555814,24.154008,0 120.555623,24.153981,0 120.555537,24.153945,0 120.555477,24.153871,0 120.555336,24.153684,0 120.555185,24.153622,0 120.554746,24.153467,0 120.554513,24.153361,0 120.554301,24.153285,0 120.554149,24.153206,0 120.554140,24.153055,0 120.554082,24.152995,0 120.553936,24.152907,0 120.553709,24.152835,0 120.553571,24.152749,0 120.553364,24.152673,0 120.553315,24.152591,0 120.553330,24.152426,0 120.553359,24.152265,0 120.553357,24.152207,0 120.553359,24.152123,0 120.553172,24.152061,0 120.553018,24.152029,0 120.552788,24.151996,0 120.552614,24.151979,0 120.552136,24.152001,0 120.551964,24.151981,0 120.551644,24.151914,0 120.551702,24.151711,0 120.551766,24.151482,0 120.551804,24.151446,0 120.551928,24.151091,0
</coordinates></LineString></Placemark>
</Document></kml>