<?xml version="1.0" encoding="UTF-8"?>
<kml xmlns="http://www.opengis.net/kml/2.2"><Document>
<name>大甲區 手繪蹲坐貓（原稿描圖） 圖形路跑路線</name>
<Style id="r"><LineStyle><color>ff2000d6</color><width>4</width></LineStyle></Style>
<Placemark><name>李家花園</name><description>地標</description><Point><coordinates>120.676828,24.397782,0</coordinates></Point></Placemark>
<Placemark><name>土地公廟園區</name><description>地標</description><Point><coordinates>120.677678,24.398360,0</coordinates></Point></Placemark>
<Placemark><name>大甲區 手繪蹲坐貓（原稿描圖） 圖形路跑路線</name><styleUrl>#r</styleUrl><LineString><tessellate>1</tessellate><coordinates>
120.678989,24.394670,0 120.678796,24.394619,0 120.678602,24.394848,0 120.678776,24.394967,0 120.678286,24.395526,0 120.677786,24.396133,0 120.678072,24.396346,0 120.678168,24.396418,0 120.678855,24.396951,0 120.679404,24.396490,0 120.679506,24.396624,0 120.679662,24.396748,0 120.679489,24.396951,0 120.679050,24.397171,0 120.678580,24.397601,0 120.678842,24.398011,0 120.679347,24.398856,0 120.680789,24.400202,0 120.681534,24.400893,0 120.680004,24.402238,0 120.679028,24.403096,0 120.679654,24.403681,0 120.679854,24.403868,0 120.680493,24.404465,0 120.681228,24.405154,0 120.681066,24.405615,0 120.680861,24.405916,0 120.680724,24.406095,0 120.680312,24.406634,0 120.681018,24.407297,0 120.681081,24.407207,0 120.681295,24.406902,0 120.681376,24.406784,0 120.681394,24.406736,0 120.681378,24.406620,0 120.681838,24.405991,0 120.682002,24.405768,0 120.682604,24.405222,0 120.682625,24.405203,0 120.683074,24.404765,0 120.683216,24.404844,0 120.683783,24.404368,0 120.683930,24.404246,0 120.683975,24.404186,0 120.684000,24.404125,0 120.684015,24.403961,0 120.684073,24.403901,0 120.684088,24.403886,0 120.684321,24.403717,0 120.684575,24.403453,0 120.684607,24.403405,0 120.684679,24.403287,0 120.684739,24.403243,0 120.684864,24.403181,0 120.684914,24.403156,0 120.685108,24.402990,0 120.685303,24.402822,0 120.685349,24.402763,0 120.685374,24.402719,0 120.685496,24.402403,0 120.685592,24.402357,0 120.685701,24.402323,0 120.685866,24.402153,0 120.685934,24.402075,0 120.686246,24.401978,0 120.686732,24.401560,0 120.687188,24.401168,0 120.687785,24.400791,0 120.687935,24.400481,0 120.688747,24.399759,0 120.688415,24.398310,0 120.688234,24.397589,0 120.687847,24.395987,0 120.687680,24.395259,0 120.687639,24.395070,0 120.687537,24.394652,0 120.687688,24.394505,0 120.687897,24.394589,0 120.688028,24.394637,0 120.688092,24.394401,0 120.688141,24.393804,0 120.688206,24.393671,0 120.688553,24.393319,0 120.688985,24.393677,0 120.689629,24.393112,0 120.690156,24.393476,0 120.690665,24.392937,0 120.691313,24.392470,0 120.692329,24.393561,0 120.692756,24.393268,0 120.692995,24.393057,0 120.693498,24.392733,0 120.695442,24.391163,0 120.694855,24.390545,0 120.694587,24.390261,0 120.694300,24.389959,0 120.693558,24.390533,0 120.693237,24.390740,0 120.692456,24.391507,0 120.692427,24.391531,0 120.692237,24.391692,0 120.691313,24.392470,0 120.690752,24.391860,0 120.690407,24.391485,0 120.690386,24.391464,0 120.689798,24.392076,0 120.689712,24.392017,0 120.688383,24.393347,0 120.688084,24.393668,0 120.688031,24.393797,0 120.687978,24.394412,0 120.687897,24.394589,0 120.687688,24.394505,0 120.687479,24.394431,0 120.686924,24.392107,0 120.686893,24.392127,0 120.686863,24.392148,0 120.686734,24.391660,0 120.685589,24.392758,0 120.685246,24.393041,0 120.685008,24.393407,0 120.684434,24.393142,0 120.684262,24.393094,0 120.683918,24.393416,0 120.683265,24.393980,0 120.682848,24.394350,0 120.682528,24.393968,0 120.682243,24.393712,0 120.682063,24.393645,0 120.681964,24.393843,0 120.681670,24.394116,0 120.681275,24.394535,0 120.680531,24.393949,0 120.679914,24.393463,0 120.679735,24.393721,0 120.678989,24.394670,0
</coordinates></LineString></Placemark>
</Document></kml>