<?xml version="1.0" encoding="UTF-8"?>
<kml xmlns="http://www.opengis.net/kml/2.2"><Document>
<name>大里區 手繪蹲坐貓（原稿描圖） 圖形路跑路線</name>
<Style id="r"><LineStyle><color>ff2000d6</color><width>4</width></LineStyle></Style>
<Placemark><name>鹹菜桶</name><description>地標</description><Point><coordinates>120.679365,24.099553,0</coordinates></Point></Placemark>
<Placemark><name>光武公園</name><description>地標</description><Point><coordinates>120.678739,24.100800,0</coordinates></Point></Placemark>
<Placemark><name>環保公園</name><description>地標</description><Point><coordinates>120.679023,24.104789,0</coordinates></Point></Placemark>
<Placemark><name>大里區 手繪蹲坐貓（原稿描圖） 圖形路跑路線</name><styleUrl>#r</styleUrl><LineString><tessellate>1</tessellate><coordinates>
120.678998,24.100732,0 120.679136,24.100292,0 120.679079,24.100282,0 120.679068,24.100320,0 120.678965,24.100301,0 120.678914,24.100291,0 120.678895,24.100284,0 120.678861,24.100272,0 120.678838,24.100397,0 120.678862,24.100468,0 120.678869,24.100730,0 120.678892,24.100821,0 120.678892,24.100898,0 120.678809,24.101178,0 120.678657,24.101147,0 120.678637,24.101174,0 120.678489,24.101650,0 120.678395,24.101624,0 120.678373,24.101674,0 120.678661,24.101791,0 120.678824,24.101848,0 120.678794,24.101905,0 120.678581,24.102710,0 120.678963,24.102818,0 120.679027,24.102837,0 120.679158,24.102867,0 120.679205,24.102870,0 120.679261,24.102868,0 120.679434,24.102820,0 120.679522,24.102740,0 120.679624,24.102610,0 120.679640,24.102581,0 120.679697,24.102476,0 120.679752,24.102258,0 120.679877,24.102408,0 120.680179,24.102847,0 120.680206,24.102899,0 120.680248,24.102981,0 120.680349,24.103205,0 120.680487,24.103519,0 120.680622,24.103854,0 120.680436,24.103812,0 120.680119,24.103731,0 120.679997,24.104101,0 120.679912,24.104354,0 120.679885,24.104428,0 120.680101,24.104498,0 120.680041,24.104640,0 120.679935,24.104704,0 120.679927,24.104711,0 120.679895,24.104699,0 120.678860,24.104368,0 120.678869,24.104378,0 120.678887,24.104401,0 120.678898,24.104433,0 120.678908,24.104464,0 120.678912,24.104500,0 120.678915,24.104533,0 120.678909,24.104602,0 120.678872,24.104832,0 120.679703,24.105131,0 120.679779,24.105158,0 120.679706,24.105382,0 120.679731,24.105436,0 120.679769,24.105486,0 120.679688,24.105767,0 120.679645,24.105906,0 120.679588,24.106088,0 120.679543,24.106231,0 120.679501,24.106398,0 120.679423,24.106661,0 120.679307,24.107043,0 120.679232,24.107315,0 120.679118,24.107653,0 120.679046,24.107866,0 120.678486,24.107869,0 120.678164,24.107870,0 120.677846,24.107872,0 120.677504,24.107873,0 120.677464,24.108614,0 120.677455,24.108783,0 120.677427,24.109247,0 120.677396,24.109338,0 120.676583,24.109340,0 120.676550,24.109758,0 120.676525,24.110100,0 120.676506,24.110387,0 120.676489,24.110608,0 120.676482,24.110721,0 120.676475,24.110839,0 120.677299,24.110835,0 120.678477,24.110833,0 120.678240,24.111527,0 120.678059,24.112054,0 120.678422,24.112140,0 120.678752,24.112238,0 120.678876,24.112281,0 120.678857,24.112398,0 120.678903,24.112463,0 120.678947,24.112464,0 120.679079,24.112468,0 120.679146,24.112472,0 120.679147,24.112424,0 120.679186,24.112411,0 120.679189,24.112359,0 120.679648,24.112481,0 120.679828,24.111868,0 120.680215,24.111975,0 120.680550,24.112077,0 120.680781,24.112138,0 120.680894,24.112158,0 120.681428,24.112309,0 120.681482,24.111989,0 120.681543,24.111618,0 120.681651,24.111116,0 120.681738,24.110561,0 120.681766,24.110429,0 120.682214,24.110489,0 120.682373,24.110369,0 120.682435,24.110390,0 120.682594,24.110289,0 120.682487,24.110141,0 120.682496,24.110011,0 120.681991,24.109906,0 120.682005,24.109835,0 120.682058,24.109846,0 120.682308,24.109900,0 120.682912,24.110013,0 120.682911,24.109904,0 120.682997,24.109908,0 120.683002,24.109843,0 120.683119,24.109845,0 120.683149,24.109830,0 120.683181,24.109795,0 120.683216,24.109783,0 120.683224,24.109619,0 120.683230,24.109602,0 120.683230,24.109576,0 120.683205,24.109574,0 120.683182,24.109646,0 120.683145,24.109674,0 120.683102,24.109660,0 120.683058,24.109661,0 120.682920,24.109660,0 120.682911,24.109904,0 120.682912,24.110013,0 120.683007,24.110031,0 120.683686,24.110159,0 120.683741,24.110143,0 120.683762,24.110109,0 120.683759,24.109759,0 120.683787,24.109264,0 120.683805,24.108911,0 120.683821,24.108715,0 120.683862,24.108581,0 120.683886,24.108511,0 120.683976,24.108512,0 120.683921,24.108781,0 120.683881,24.109064,0 120.683861,24.109354,0 120.683860,24.109477,0 120.683858,24.109646,0 120.684469,24.109665,0 120.684475,24.109377,0 120.684493,24.109157,0 120.684556,24.108983,0 120.684653,24.108760,0 120.684842,24.108523,0 120.684922,24.108434,0 120.685115,24.108236,0 120.685210,24.108191,0 120.685713,24.107914,0 120.686246,24.107719,0 120.686658,24.107601,0 120.686528,24.107227,0 120.686392,24.106838,0 120.686438,24.106828,0 120.686480,24.106856,0 120.686512,24.106814,0 120.686527,24.106812,0 120.686581,24.106800,0 120.686575,24.106725,0 120.686785,24.106706,0 120.687418,24.106632,0 120.687508,24.106628,0 120.688161,24.106534,0 120.688458,24.106497,0 120.687885,24.105814,0 120.687224,24.105063,0 120.688202,24.104837,0 120.688056,24.104284,0 120.688003,24.104083,0 120.687996,24.104063,0 120.687862,24.103653,0 120.687757,24.103333,0 120.687750,24.103308,0 120.687471,24.102366,0 120.687430,24.102236,0 120.687883,24.102030,0 120.688201,24.101851,0 120.688243,24.101978,0 120.688644,24.101756,0 120.688918,24.101591,0 120.689157,24.101914,0 120.689301,24.102109,0 120.689529,24.101951,0 120.689579,24.101943,0 120.689833,24.102273,0 120.689845,24.102289,0 120.689860,24.102280,0 120.689905,24.102276,0 120.690151,24.102122,0 120.690495,24.101907,0 120.691088,24.101540,0 120.691886,24.101070,0 120.691767,24.100785,0 120.691724,24.100689,0 120.691702,24.100635,0 120.691660,24.100546,0 120.691524,24.100609,0 120.691387,24.100660,0 120.691041,24.100714,0 120.690856,24.100731,0 120.690535,24.100756,0 120.690173,24.100832,0 120.690066,24.100865,0 120.689798,24.100961,0 120.689322,24.100314,0 120.688961,24.100509,0 120.688657,24.100695,0 120.688321,24.100207,0 120.687772,24.100324,0 120.687237,24.100429,0 120.686872,24.100479,0 120.685840,24.100532,0 120.685325,24.100570,0 120.684400,24.100626,0 120.683788,24.100660,0 120.683657,24.100667,0 120.683603,24.100671,0 120.683327,24.100687,0 120.682665,24.100511,0 120.682639,24.100573,0 120.682593,24.100628,0 120.682512,24.100610,0 120.682375,24.100581,0 120.682298,24.100565,0 120.682265,24.100525,0 120.682291,24.100421,0 120.681787,24.100292,0 120.681725,24.100276,0 120.681569,24.100832,0 120.680912,24.100667,0 120.680854,24.100879,0 120.680618,24.101732,0 120.680339,24.101668,0 120.679941,24.101562,0 120.680081,24.101056,0 120.678973,24.100789,0 120.678998,24.100732,0
</coordinates></LineString></Placemark>
</Document></kml>