<?xml version="1.0" encoding="UTF-8"?>
<kml xmlns="http://www.opengis.net/kml/2.2"><Document>
<name>大雅區 手繪蹲坐貓（原稿描圖） 圖形路跑路線</name>
<Style id="r"><LineStyle><color>ff2000d6</color><width>4</width></LineStyle></Style>
<Placemark><name>文雅兒童公園</name><description>地標</description><Point><coordinates>120.644627,24.222733,0</coordinates></Point></Placemark>
<Placemark><name>大雅公園</name><description>地標</description><Point><coordinates>120.646652,24.223685,0</coordinates></Point></Placemark>
<Placemark><name>大榮公園</name><description>地標</description><Point><coordinates>120.650042,24.225756,0</coordinates></Point></Placemark>
<Placemark><name>大雅區 手繪蹲坐貓（原稿描圖） 圖形路跑路線</name><styleUrl>#r</styleUrl><LineString><tessellate>1</tessellate><coordinates>
120.646716,24.220158,0 120.646997,24.219556,0 120.646580,24.219396,0 120.646551,24.219458,0 120.646175,24.220269,0 120.645901,24.220856,0 120.645671,24.221348,0 120.645595,24.221504,0 120.645583,24.221531,0 120.645445,24.221833,0 120.645410,24.221908,0 120.645408,24.221912,0 120.645683,24.222144,0 120.645951,24.222371,0 120.646244,24.222617,0 120.646370,24.222668,0 120.646597,24.222681,0 120.646747,24.222618,0 120.646557,24.223019,0 120.647236,24.223330,0 120.647077,24.223654,0 120.647774,24.223876,0 120.647633,24.224031,0 120.647253,24.224391,0 120.648030,24.225198,0 120.648455,24.225637,0 120.648407,24.225723,0 120.648553,24.226045,0 120.648533,24.226087,0 120.648435,24.226289,0 120.648293,24.226581,0 120.648019,24.227210,0 120.646856,24.226816,0 120.646482,24.226689,0 120.646384,24.226958,0 120.646202,24.227276,0 120.646180,24.227314,0 120.646061,24.227475,0 120.645892,24.227675,0 120.646042,24.228044,0 120.646296,24.228591,0 120.646381,24.228720,0 120.646494,24.228924,0 120.646687,24.229071,0 120.646840,24.229163,0 120.646988,24.229252,0 120.647183,24.229251,0 120.647417,24.229253,0 120.647794,24.229255,0 120.648153,24.229258,0 120.648674,24.229262,0 120.648675,24.229675,0 120.648692,24.229809,0 120.648703,24.229848,0 120.648704,24.229910,0 120.649317,24.229917,0 120.649344,24.230017,0 120.649346,24.230103,0 120.649373,24.230183,0 120.649383,24.230251,0 120.649394,24.230318,0 120.649344,24.230407,0 120.649290,24.230515,0 120.649168,24.230736,0 120.649401,24.230695,0 120.650181,24.230529,0 120.650301,24.230528,0 120.650320,24.230528,0 120.650323,24.229986,0 120.650327,24.229269,0 120.650369,24.229266,0 120.650521,24.229230,0 120.650825,24.229157,0 120.650976,24.229065,0 120.651130,24.228939,0 120.651256,24.228780,0 120.651386,24.228582,0 120.651777,24.227966,0 120.652143,24.227396,0 120.652494,24.226871,0 120.652744,24.226467,0 120.652881,24.226261,0 120.652960,24.226144,0 120.653279,24.225655,0 120.653449,24.225381,0 120.653756,24.225399,0 120.653831,24.225355,0 120.654268,24.225059,0 120.654367,24.224958,0 120.653599,24.224827,0 120.653595,24.224121,0 120.653595,24.224009,0 120.653596,24.223845,0 120.653597,24.222993,0 120.653896,24.222996,0 120.653947,24.223541,0 120.654022,24.223585,0 120.654312,24.223607,0 120.654381,24.223624,0 120.654670,24.223619,0 120.654856,24.223620,0 120.654848,24.223602,0 120.654843,24.223420,0 120.655464,24.223251,0 120.655682,24.222770,0 120.655712,24.222674,0 120.655396,24.222543,0 120.655205,24.222022,0 120.655189,24.221986,0 120.655086,24.221703,0 120.655055,24.221353,0 120.655025,24.221012,0 120.655527,24.220935,0 120.655514,24.220836,0 120.655064,24.220906,0 120.655042,24.220834,0 120.654550,24.219043,0 120.653985,24.219055,0 120.653976,24.218811,0 120.653972,24.218729,0 120.653946,24.218058,0 120.653926,24.217534,0 120.654602,24.217486,0 120.655059,24.217479,0 120.655223,24.217468,0 120.655548,24.217463,0 120.655783,24.217471,0 120.655951,24.217476,0 120.656207,24.218410,0 120.656743,24.218384,0 120.659812,24.218240,0 120.660217,24.218262,0 120.660172,24.218004,0 120.660088,24.217699,0 120.659825,24.217747,0 120.659649,24.217585,0 120.659620,24.217222,0 120.660048,24.217182,0 120.660029,24.216956,0 120.659509,24.216993,0 120.659076,24.217023,0 120.659093,24.217266,0 120.658944,24.217271,0 120.658809,24.217285,0 120.658660,24.217327,0 120.658002,24.217363,0 120.657549,24.217388,0 120.655951,24.217476,0 120.655783,24.217471,0 120.655548,24.217463,0 120.655223,24.217468,0 120.655059,24.217479,0 120.654602,24.217486,0 120.654632,24.218021,0 120.654396,24.218034,0 120.653946,24.218058,0 120.653266,24.218094,0 120.653288,24.218511,0 120.653306,24.219082,0 120.652635,24.219094,0 120.651568,24.219113,0 120.651058,24.219095,0 120.650515,24.219014,0 120.650452,24.219317,0 120.650386,24.219632,0 120.649771,24.219532,0 120.649838,24.220315,0 120.649210,24.220197,0 120.649138,24.220556,0 120.648900,24.220582,0 120.648596,24.219871,0 120.648610,24.219810,0 120.648833,24.218745,0 120.648873,24.218501,0 120.648707,24.218420,0 120.648575,24.218679,0 120.648262,24.219432,0 120.648082,24.219792,0 120.648068,24.219824,0 120.647748,24.220507,0 120.647630,24.220464,0 120.647174,24.220295,0 120.646947,24.220210,0 120.647174,24.219725,0 120.647201,24.219658,0 120.647166,24.219620,0 120.646997,24.219556,0 120.646716,24.220158,0
</coordinates></LineString></Placemark>
</Document></kml>