<?xml version="1.0" encoding="UTF-8"?>
<kml xmlns="http://www.opengis.net/kml/2.2"><Document>
<name>東勢區 手繪蹲坐貓（原稿描圖） 圖形路跑路線</name>
<Style id="r"><LineStyle><color>ff2000d6</color><width>4</width></LineStyle></Style>
<Placemark><name>馬力埔彩繪小徑</name><description>地標</description><Point><coordinates>120.793430,24.221973,0</coordinates></Point></Placemark>
<Placemark><name>東勢區 手繪蹲坐貓（原稿描圖） 圖形路跑路線</name><styleUrl>#r</styleUrl><LineString><tessellate>1</tessellate><coordinates>
120.798470,24.208333,0 120.797156,24.209464,0 120.795836,24.210606,0 120.795858,24.210734,0 120.795858,24.211206,0 120.795874,24.212082,0 120.795872,24.212235,0 120.795884,24.213245,0 120.795901,24.214275,0 120.795906,24.215307,0 120.794064,24.215318,0 120.792213,24.215326,0 120.792240,24.216381,0 120.792242,24.217394,0 120.792231,24.218432,0 120.792389,24.218535,0 120.792327,24.218626,0 120.792309,24.218724,0 120.792382,24.219079,0 120.792747,24.219981,0 120.792778,24.220056,0 120.792855,24.220236,0 120.793197,24.221039,0 120.793450,24.220978,0 120.793655,24.220961,0 120.793842,24.220931,0 120.794015,24.220850,0 120.794169,24.220731,0 120.794379,24.220624,0 120.794664,24.220501,0 120.794589,24.220318,0 120.794571,24.220177,0 120.794603,24.220049,0 120.794669,24.219939,0 120.794631,24.219819,0 120.794654,24.219660,0 120.794636,24.219312,0 120.794789,24.219310,0 120.794858,24.219309,0 120.795087,24.219306,0 120.795296,24.219303,0 120.795517,24.219300,0 120.795577,24.219299,0 120.795722,24.219297,0 120.795939,24.219295,0 120.796502,24.219296,0 120.796588,24.219382,0 120.796730,24.219416,0 120.797167,24.219416,0 120.797789,24.219420,0 120.799600,24.219399,0 120.799585,24.218339,0 120.801440,24.218324,0 120.801425,24.217318,0 120.803264,24.217296,0 120.805138,24.217275,0 120.805125,24.216248,0 120.805122,24.215208,0 120.805108,24.214194,0 120.805094,24.213155,0 120.806127,24.213142,0 120.806913,24.213144,0 120.808770,24.213129,0 120.808784,24.214158,0 120.810620,24.214130,0 120.811043,24.214130,0 120.812450,24.214122,0 120.812448,24.215158,0 120.812717,24.215147,0 120.812840,24.215101,0 120.812981,24.215028,0 120.813214,24.214983,0 120.813320,24.214954,0 120.813391,24.214897,0 120.813516,24.214760,0 120.813695,24.214550,0 120.813856,24.214362,0 120.813952,24.214194,0 120.813963,24.214110,0 120.812450,24.214122,0 120.812434,24.213079,0 120.810608,24.213096,0 120.810586,24.212083,0 120.809619,24.212106,0 120.808769,24.212109,0 120.808751,24.211080,0 120.807205,24.211076,0 120.806925,24.211079,0 120.805062,24.211105,0 120.805038,24.210029,0 120.803185,24.210009,0 120.803176,24.209650,0 120.803180,24.209008,0 120.803218,24.208156,0 120.803218,24.207988,0 120.803137,24.207902,0 120.802525,24.207337,0 120.801973,24.206768,0 120.800572,24.207944,0 120.801339,24.208678,0 120.800041,24.209802,0 120.799280,24.209058,0 120.798470,24.208333,0
</coordinates></LineString></Placemark>
</Document></kml>