<?xml version="1.0" encoding="UTF-8"?>
<kml xmlns="http://www.opengis.net/kml/2.2"><Document>
<name>東區 蜷睡貓咪 圖形路跑路線</name>
<Style id="r"><LineStyle><color>ff2000d6</color><width>4</width></LineStyle></Style>
<Placemark><name>臺中綠空鐵道</name><description>地標</description><Point><coordinates>120.679681,24.134381,0</coordinates></Point></Placemark>
<Placemark><name>台中電子街</name><description>地標</description><Point><coordinates>120.682261,24.137970,0</coordinates></Point></Placemark>
<Placemark><name>台中舊城生活博物館</name><description>地標</description><Point><coordinates>120.681936,24.138386,0</coordinates></Point></Placemark>
<Placemark><name>東區 蜷睡貓咪 圖形路跑路線</name><styleUrl>#r</styleUrl><LineString><tessellate>1</tessellate><coordinates>
120.679281,24.134032,0 120.680022,24.134331,0 120.680347,24.134476,0 120.680158,24.134859,0 120.680087,24.134943,0 120.679880,24.135150,0 120.679595,24.135404,0 120.679239,24.135722,0 120.679645,24.136112,0 120.679984,24.136436,0 120.680350,24.136793,0 120.680669,24.137106,0 120.680614,24.137151,0 120.680696,24.137231,0 120.680773,24.137307,0 120.680827,24.137262,0 120.680842,24.137277,0 120.681077,24.137500,0 120.681152,24.137571,0 120.681515,24.137936,0 120.681908,24.137586,0 120.682279,24.137936,0 120.682642,24.138293,0 120.682872,24.138094,0 120.682910,24.138061,0 120.683020,24.137966,0 120.683047,24.137943,0 120.683189,24.137836,0 120.683248,24.137792,0 120.683646,24.138182,0 120.683946,24.138442,0 120.684036,24.138528,0 120.684127,24.138617,0 120.684407,24.138888,0 120.684860,24.138489,0 120.684952,24.138408,0 120.685350,24.138062,0 120.685504,24.138260,0 120.685635,24.138425,0 120.685699,24.138373,0 120.685867,24.138244,0 120.686064,24.138091,0 120.686114,24.138052,0 120.686371,24.138070,0 120.686483,24.137876,0 120.686504,24.137839,0 120.686571,24.137789,0 120.686643,24.137646,0 120.686746,24.137444,0 120.686758,24.137421,0 120.686767,24.137404,0 120.687023,24.136900,0 120.687063,24.136806,0 120.687602,24.137028,0 120.687601,24.136980,0 120.687602,24.136968,0 120.687603,24.136935,0 120.687772,24.136598,0 120.687747,24.136537,0 120.687758,24.136489,0 120.687792,24.136428,0 120.687839,24.136347,0 120.687936,24.136392,0 120.688204,24.135864,0 120.688307,24.135625,0 120.688328,24.135581,0 120.688342,24.135553,0 120.688477,24.135274,0 120.688629,24.134991,0 120.688792,24.134669,0 120.689088,24.134070,0 120.689376,24.133469,0 120.688873,24.133263,0 120.689188,24.132626,0 120.688713,24.132427,0 120.688990,24.131870,0 120.689209,24.131437,0 120.689238,24.131304,0 120.689228,24.131202,0 120.688814,24.131029,0 120.688366,24.130841,0 120.688382,24.130710,0 120.688643,24.130223,0 120.688648,24.129635,0 120.687965,24.129624,0 120.687326,24.129627,0 120.687334,24.129263,0 120.687334,24.128926,0 120.686587,24.128919,0 120.685837,24.128918,0 120.685433,24.128924,0 120.685009,24.128923,0 120.684995,24.128860,0 120.684966,24.128829,0 120.684851,24.128853,0 120.684752,24.128480,0 120.684625,24.128006,0 120.684562,24.127770,0 120.684545,24.127707,0 120.684186,24.127782,0 120.683616,24.127890,0 120.683595,24.127894,0 120.683166,24.127726,0 120.683094,24.127698,0 120.682569,24.127449,0 120.682184,24.128236,0 120.682130,24.128341,0 120.681949,24.128714,0 120.681502,24.128538,0 120.680891,24.128267,0 120.680673,24.128166,0 120.680471,24.128096,0 120.680150,24.128093,0 120.680190,24.128210,0 120.680271,24.128252,0 120.680372,24.128347,0 120.680399,24.128403,0 120.680426,24.128660,0 120.680438,24.128811,0 120.680436,24.128868,0 120.680477,24.128973,0 120.680198,24.128852,0 120.680031,24.129161,0 120.679886,24.129113,0 120.679866,24.129151,0 120.679475,24.129003,0 120.679460,24.128578,0 120.679295,24.128885,0 120.679202,24.129064,0 120.678981,24.129532,0 120.678960,24.129581,0 120.678956,24.129591,0 120.678900,24.129702,0 120.678889,24.129724,0 120.678859,24.129786,0 120.678663,24.130175,0 120.678515,24.130471,0 120.678263,24.130969,0 120.678062,24.131390,0 120.677973,24.131570,0 120.678511,24.131798,0 120.679022,24.132027,0 120.679320,24.131431,0 120.679402,24.131320,0 120.679737,24.130619,0 120.679916,24.130225,0 120.680470,24.130449,0 120.680973,24.130652,0 120.681455,24.130862,0 120.681631,24.130526,0 120.681757,24.130281,0 120.682316,24.130500,0 120.682570,24.130611,0 120.682662,24.130651,0 120.682858,24.130727,0 120.683386,24.130959,0 120.683711,24.130324,0 120.684005,24.130453,0 120.684229,24.130542,0 120.683896,24.131176,0 120.684276,24.131334,0 120.684460,24.131412,0 120.684205,24.131925,0 120.684164,24.132008,0 120.684312,24.132073,0 120.684371,24.132098,0 120.684497,24.132149,0 120.684695,24.132230,0 120.684392,24.132824,0 120.684108,24.133426,0 120.683808,24.134011,0 120.683566,24.134490,0 120.683500,24.134626,0 120.683114,24.134468,0 120.683146,24.134404,0 120.683138,24.134351,0 120.683018,24.134300,0 120.682886,24.134244,0 120.682851,24.134258,0 120.682810,24.134342,0 120.682649,24.134273,0 120.682252,24.134092,0 120.681888,24.133942,0 120.681861,24.134009,0 120.681856,24.134106,0 120.681739,24.134358,0 120.681693,24.134441,0 120.681176,24.134230,0 120.681151,24.134219,0 120.680600,24.133977,0 120.679520,24.133537,0 120.679377,24.133834,0 120.679363,24.133862,0 120.679303,24.133979,0 120.679281,24.134032,0
</coordinates></LineString></Placemark>
</Document></kml>