<?xml version="1.0" encoding="UTF-8"?>
<kml xmlns="http://www.opengis.net/kml/2.2"><Document>
<name>東區 蹲坐貓咪（側面） 圖形路跑路線</name>
<Style id="r"><LineStyle><color>ff2000d6</color><width>4</width></LineStyle></Style>
<Placemark><name>光大公園</name><description>地標</description><Point><coordinates>120.678976,24.151188,0</coordinates></Point></Placemark>
<Placemark><name>圖根點BH95216</name><description>地標</description><Point><coordinates>120.681274,24.152684,0</coordinates></Point></Placemark>
<Placemark><name>青春自由式</name><description>地標</description><Point><coordinates>120.684743,24.157349,0</coordinates></Point></Placemark>
<Placemark><name>東區 蹲坐貓咪（側面） 圖形路跑路線</name><styleUrl>#r</styleUrl><LineString><tessellate>1</tessellate><coordinates>
120.677866,24.146548,0 120.678060,24.146452,0 120.678338,24.146715,0 120.678110,24.147066,0 120.677921,24.147410,0 120.677878,24.147547,0 120.677876,24.147669,0 120.677865,24.147792,0 120.677880,24.147910,0 120.677913,24.148031,0 120.677986,24.148159,0 120.678149,24.148390,0 120.678313,24.148491,0 120.678171,24.148859,0 120.678263,24.149012,0 120.678597,24.149445,0 120.678605,24.149454,0 120.678989,24.149988,0 120.679267,24.150315,0 120.679588,24.150782,0 120.679639,24.151031,0 120.679641,24.151236,0 120.679640,24.151383,0 120.679699,24.151405,0 120.679890,24.151476,0 120.679973,24.151510,0 120.680841,24.151847,0 120.681067,24.151934,0 120.681257,24.152006,0 120.681604,24.152147,0 120.681696,24.152117,0 120.682063,24.151994,0 120.682243,24.152416,0 120.682537,24.153130,0 120.682552,24.153228,0 120.682543,24.153339,0 120.682524,24.153477,0 120.682521,24.153482,0 120.682645,24.153528,0 120.682691,24.153489,0 120.682707,24.153401,0 120.682727,24.153296,0 120.682740,24.153230,0 120.683384,24.153474,0 120.683510,24.153524,0 120.683644,24.153577,0 120.683743,24.153618,0 120.684314,24.153853,0 120.684467,24.153898,0 120.684578,24.153941,0 120.684773,24.154018,0 120.684748,24.154073,0 120.684707,24.154158,0 120.685036,24.154283,0 120.684750,24.154903,0 120.685807,24.155305,0 120.685787,24.155346,0 120.685604,24.155730,0 120.685544,24.155843,0 120.685511,24.155906,0 120.685488,24.155957,0 120.685453,24.156085,0 120.685533,24.156108,0 120.685648,24.156148,0 120.685711,24.156170,0 120.685569,24.156503,0 120.685527,24.156600,0 120.685310,24.157068,0 120.685247,24.157204,0 120.685206,24.157317,0 120.685181,24.157391,0 120.685176,24.157423,0 120.685168,24.157481,0 120.685183,24.157575,0 120.685182,24.157727,0 120.685186,24.158579,0 120.685187,24.158602,0 120.685186,24.158629,0 120.685186,24.158811,0 120.685186,24.158911,0 120.685226,24.158936,0 120.685226,24.159044,0 120.685452,24.159041,0 120.685540,24.159039,0 120.685573,24.159039,0 120.685686,24.159036,0 120.685709,24.159036,0 120.686591,24.159013,0 120.686588,24.158928,0 120.686740,24.158926,0 120.687317,24.158917,0 120.687415,24.158918,0 120.687854,24.158923,0 120.687925,24.158922,0 120.687826,24.158676,0 120.687467,24.157788,0 120.687293,24.157399,0 120.687089,24.156928,0 120.686921,24.156478,0 120.686858,24.156337,0 120.686891,24.156295,0 120.686893,24.156138,0 120.686850,24.155890,0 120.686821,24.155815,0 120.686809,24.155578,0 120.686795,24.155422,0 120.686829,24.155301,0 120.686554,24.155084,0 120.686376,24.154913,0 120.686449,24.154840,0 120.686478,24.154811,0 120.686519,24.154738,0 120.686451,24.154625,0 120.686413,24.154550,0 120.686773,24.154431,0 120.687097,24.154320,0 120.686955,24.153978,0 120.686850,24.153712,0 120.686747,24.153447,0 120.687596,24.153150,0 120.687644,24.153133,0 120.687753,24.153397,0 120.687764,24.153418,0 120.687838,24.153387,0 120.688050,24.153320,0 120.688911,24.153039,0 120.688935,24.153100,0 120.689021,24.153071,0 120.689073,24.153053,0 120.689220,24.153472,0 120.689187,24.153483,0 120.689223,24.153573,0 120.689257,24.153653,0 120.689467,24.154242,0 120.689729,24.154867,0 120.689950,24.155460,0 120.690043,24.155682,0 120.690131,24.155900,0 120.690536,24.155772,0 120.690669,24.156103,0 120.690264,24.156237,0 120.690408,24.156590,0 120.690689,24.157253,0 120.691031,24.157135,0 120.691130,24.157359,0 120.691266,24.157318,0 120.691285,24.157314,0 120.691189,24.157080,0 120.691693,24.156906,0 120.692710,24.156574,0 120.692498,24.156040,0 120.692433,24.155892,0 120.692297,24.155556,0 120.692648,24.155429,0 120.692961,24.155339,0 120.693029,24.155328,0 120.692972,24.154939,0 120.692947,24.154764,0 120.692943,24.154732,0 120.692905,24.154457,0 120.692799,24.153858,0 120.692752,24.153507,0 120.692643,24.152756,0 120.692483,24.151687,0 120.692471,24.149935,0 120.692472,24.149545,0 120.692473,24.149479,0 120.692475,24.149365,0 120.692474,24.149296,0 120.692474,24.149237,0 120.692472,24.148806,0 120.692476,24.147983,0 120.692732,24.147991,0 120.693451,24.147981,0 120.693451,24.147909,0 120.693602,24.147902,0 120.693880,24.147902,0 120.694355,24.147905,0 120.694458,24.147906,0 120.694800,24.147906,0 120.694999,24.147910,0 120.695003,24.147127,0 120.695015,24.147087,0 120.695014,24.146328,0 120.695534,24.146331,0 120.695534,24.145949,0 120.695532,24.145494,0 120.695784,24.145490,0 120.695781,24.145387,0 120.696694,24.145377,0 120.696955,24.145351,0 120.696933,24.145207,0 120.696917,24.145059,0 120.696897,24.144905,0 120.696858,24.144693,0 120.696990,24.144689,0 120.697067,24.144689,0 120.697092,24.144693,0 120.697455,24.144681,0 120.697556,24.144686,0 120.698057,24.144687,0 120.698536,24.144685,0 120.698567,24.144685,0 120.698605,24.144574,0 120.698696,24.144337,0 120.698791,24.144065,0 120.698750,24.144025,0 120.698645,24.143924,0 120.698653,24.143510,0 120.698652,24.142776,0 120.698947,24.142779,0 120.699085,24.142779,0 120.699200,24.142781,0 120.699434,24.142780,0 120.699907,24.142784,0 120.700007,24.142772,0 120.700001,24.142679,0 120.700187,24.141407,0 120.700224,24.140215,0 120.700242,24.139348,0 120.700212,24.138883,0 120.700243,24.138883,0 120.701267,24.138883,0 120.701351,24.138881,0 120.701463,24.138881,0 120.701384,24.137955,0 120.702196,24.137948,0 120.702206,24.137581,0 120.702208,24.137476,0 120.702229,24.136370,0 120.703118,24.136363,0 120.703121,24.135700,0 120.704031,24.135683,0 120.704944,24.135669,0 120.705919,24.135646,0 120.706035,24.135676,0 120.706645,24.135661,0 120.706640,24.135378,0 120.706641,24.135097,0 120.705855,24.135111,0 120.704826,24.135127,0 120.703994,24.135134,0 120.703136,24.135146,0 120.702241,24.135154,0 120.700826,24.135163,0 120.700520,24.134141,0 120.700253,24.133214,0 120.700190,24.132961,0 120.700154,24.132812,0 120.700066,24.132456,0 120.699987,24.132487,0 120.699885,24.132527,0 120.698854,24.132962,0 120.698801,24.132991,0 120.698737,24.132564,0 120.698691,24.132109,0 120.698706,24.131674,0 120.698708,24.131611,0 120.698763,24.131168,0 120.698876,24.130617,0 120.698886,24.130572,0 120.698581,24.130059,0 120.698479,24.129943,0 120.698048,24.129746,0 120.697886,24.129632,0 120.698212,24.129628,0 120.698219,24.128893,0 120.697509,24.128585,0 120.697039,24.128399,0 120.696838,24.127829,0 120.696784,24.127812,0 120.696517,24.127872,0 120.696502,24.127256,0 120.696481,24.126246,0 120.696273,24.126251,0 120.695758,24.125869,0 120.695651,24.126020,0 120.695512,24.126127,0 120.695389,24.126225,0 120.695350,24.126255,0 120.695178,24.126320,0 120.694925,24.126357,0 120.694738,24.126379,0 120.694692,24.126383,0 120.694196,24.126481,0 120.693912,24.126538,0 120.693802,24.126560,0 120.693571,24.126605,0 120.693456,24.126636,0 120.693427,24.126642,0 120.693353,24.126665,0 120.693216,24.126705,0 120.693196,24.126717,0 120.693147,24.126762,0 120.693149,24.126870,0 120.693145,24.126978,0 120.693145,24.127023,0 120.692943,24.127021,0 120.691672,24.127021,0 120.691063,24.127021,0 120.690320,24.127009,0 120.690215,24.127008,0 120.690123,24.127009,0 120.689809,24.127010,0 120.689341,24.127018,0 120.688830,24.127026,0 120.688830,24.127654,0 120.688639,24.127655,0 120.688645,24.128300,0 120.688639,24.128922,0 120.688566,24.128928,0 120.687957,24.128929,0 120.687334,24.128926,0 120.686587,24.128919,0 120.685837,24.128918,0 120.685433,24.128924,0 120.685009,24.128923,0 120.684995,24.128860,0 120.684966,24.128829,0 120.684851,24.128853,0 120.684752,24.128480,0 120.684625,24.128006,0 120.684562,24.127770,0 120.684545,24.127707,0 120.684186,24.127782,0 120.683616,24.127890,0 120.683595,24.127894,0 120.683440,24.128273,0 120.683238,24.128673,0 120.683185,24.128796,0 120.682606,24.128561,0 120.682338,24.129089,0 120.682056,24.129642,0 120.681583,24.129437,0 120.681413,24.129369,0 120.681155,24.129248,0 120.680538,24.128999,0 120.680477,24.128973,0 120.680198,24.128852,0 120.680031,24.129161,0 120.679886,24.129113,0 120.679866,24.129151,0 120.679475,24.129003,0 120.679460,24.128578,0 120.679295,24.128885,0 120.679202,24.129064,0 120.678981,24.129532,0 120.678960,24.129581,0 120.678250,24.129293,0 120.678134,24.129229,0 120.678090,24.129199,0 120.678077,24.129226,0 120.678018,24.129349,0 120.678010,24.129364,0 120.677984,24.129417,0 120.677944,24.129495,0 120.677857,24.129459,0 120.677775,24.129427,0 120.677617,24.129749,0 120.677426,24.130133,0 120.677253,24.130486,0 120.677343,24.130524,0 120.677433,24.130561,0 120.677402,24.130620,0 120.678263,24.130969,0 120.678062,24.131390,0 120.677973,24.131570,0 120.677670,24.132182,0 120.677637,24.132245,0 120.677427,24.132680,0 120.677944,24.132894,0 120.677743,24.133284,0 120.678285,24.133487,0 120.678239,24.133585,0 120.678106,24.133850,0 120.678054,24.133955,0 120.678004,24.134047,0 120.677916,24.134152,0 120.677729,24.134315,0 120.677360,24.134637,0 120.676937,24.135004,0 120.677499,24.135549,0 120.677711,24.135754,0 120.677938,24.135973,0 120.678352,24.136371,0 120.678421,24.136431,0 120.678289,24.136551,0 120.677617,24.137168,0 120.678134,24.137650,0 120.679038,24.138514,0 120.678961,24.138579,0 120.679056,24.138671,0 120.678671,24.139000,0 120.678513,24.139138,0 120.678393,24.139243,0 120.678384,24.139252,0 120.678344,24.139279,0 120.678298,24.139312,0 120.678289,24.139320,0 120.678379,24.139407,0 120.678431,24.139362,0 120.678746,24.139664,0 120.679132,24.140022,0 120.678607,24.140463,0 120.678458,24.140593,0 120.678042,24.140949,0 120.677735,24.141220,0 120.676987,24.141883,0 120.677026,24.141928,0 120.677050,24.141976,0 120.677007,24.142008,0 120.676931,24.142067,0 120.677185,24.142363,0 120.677222,24.142407,0 120.677421,24.142734,0 120.677465,24.142813,0 120.677505,24.142918,0 120.677509,24.142949,0 120.677638,24.143285,0 120.677751,24.143574,0 120.677811,24.143719,0 120.677848,24.143758,0 120.677822,24.143785,0 120.677624,24.143960,0 120.677577,24.143976,0 120.677636,24.143975,0 120.677708,24.144025,0 120.677832,24.144112,0 120.677756,24.144179,0 120.678026,24.144440,0 120.677511,24.144889,0 120.677845,24.145221,0 120.678207,24.145576,0 120.678493,24.145850,0 120.678088,24.146371,0 120.678060,24.146452,0 120.677866,24.146548,0
</coordinates></LineString></Placemark>
</Document></kml>