<?xml version="1.0" encoding="UTF-8"?>
<kml xmlns="http://www.opengis.net/kml/2.2"><Document>
<name>東區 貓咪肉球 圖形路跑路線</name>
<Style id="r"><LineStyle><color>ff2000d6</color><width>4</width></LineStyle></Style>
<Placemark><name>27號倉庫</name><description>地標</description><Point><coordinates>120.683467,24.135478,0</coordinates></Point></Placemark>
<Placemark><name>26號倉庫</name><description>地標</description><Point><coordinates>120.683800,24.135649,0</coordinates></Point></Placemark>
<Placemark><name>25號倉庫</name><description>地標</description><Point><coordinates>120.683990,24.135729,0</coordinates></Point></Placemark>
<Placemark><name>東區 貓咪肉球 圖形路跑路線</name><styleUrl>#r</styleUrl><LineString><tessellate>1</tessellate><coordinates>
120.680614,24.137151,0 120.680669,24.137106,0 120.680350,24.136793,0 120.680736,24.136458,0 120.681119,24.136122,0 120.681223,24.136219,0 120.681243,24.136238,0 120.681314,24.136306,0 120.681402,24.136393,0 120.681433,24.136417,0 120.681460,24.136393,0 120.681522,24.136423,0 120.681533,24.136413,0 120.681660,24.136305,0 120.681708,24.136354,0 120.681746,24.136321,0 120.681804,24.136274,0 120.681878,24.136214,0 120.682113,24.136024,0 120.682174,24.135958,0 120.682088,24.135869,0 120.682074,24.135836,0 120.682103,24.135784,0 120.682151,24.135697,0 120.682203,24.135595,0 120.682341,24.135670,0 120.682503,24.135357,0 120.682725,24.134888,0 120.683259,24.135115,0 120.683242,24.135147,0 120.683731,24.135352,0 120.684251,24.135557,0 120.684232,24.135595,0 120.684526,24.135715,0 120.684764,24.135237,0 120.684919,24.135307,0 120.685591,24.135585,0 120.685915,24.135721,0 120.685950,24.135649,0 120.686003,24.135672,0 120.686139,24.135730,0 120.686386,24.135834,0 120.686891,24.136048,0 120.687578,24.136343,0 120.687792,24.136428,0 120.687839,24.136347,0 120.687936,24.136392,0 120.688029,24.136427,0 120.688056,24.136480,0 120.688100,24.136502,0 120.688596,24.136713,0 120.688686,24.136753,0 120.689011,24.136888,0 120.689125,24.136905,0 120.689170,24.136922,0 120.689131,24.136961,0 120.689104,24.136988,0 120.689061,24.137053,0 120.689149,24.137134,0 120.689514,24.137480,0 120.689857,24.137857,0 120.689920,24.137928,0 120.689929,24.137956,0 120.689932,24.137984,0 120.689925,24.138019,0 120.689911,24.138054,0 120.689822,24.138231,0 120.689783,24.138307,0 120.689862,24.138347,0 120.689593,24.138853,0 120.690085,24.139079,0 120.690556,24.139280,0 120.690455,24.139466,0 120.690464,24.140073,0 120.690246,24.140077,0 120.690279,24.140703,0 120.690092,24.140940,0 120.689285,24.140967,0 120.689310,24.141476,0 120.689324,24.142228,0 120.689233,24.142235,0 120.689239,24.142778,0 120.689245,24.142893,0 120.689198,24.143015,0 120.689221,24.143234,0 120.689232,24.143380,0 120.689590,24.143358,0 120.689591,24.143391,0 120.689594,24.143487,0 120.689599,24.143692,0 120.689592,24.143976,0 120.689577,24.144319,0 120.689309,24.144333,0 120.689427,24.145590,0 120.689466,24.146116,0 120.689497,24.146334,0 120.689270,24.146357,0 120.689220,24.146380,0 120.689209,24.146409,0 120.689209,24.146456,0 120.689172,24.146520,0 120.689503,24.146520,0 120.689510,24.146754,0 120.689528,24.146909,0 120.689486,24.147009,0 120.689058,24.146876,0 120.688684,24.146780,0 120.687431,24.146488,0 120.686424,24.146256,0 120.686182,24.146245,0 120.686218,24.146127,0 120.686055,24.146168,0 120.685957,24.146173,0 120.685962,24.146059,0 120.685690,24.145281,0 120.685191,24.145341,0 120.685173,24.145333,0 120.685011,24.145249,0 120.684916,24.145217,0 120.684941,24.144923,0 120.684869,24.144813,0 120.684811,24.144722,0 120.684924,24.144622,0 120.685215,24.144608,0 120.685835,24.144443,0 120.686006,24.144423,0 120.686057,24.144578,0 120.686066,24.144605,0 120.686086,24.144670,0 120.686223,24.145135,0 120.686272,24.145282,0 120.686295,24.145358,0 120.686299,24.145495,0 120.686298,24.145592,0 120.686275,24.145707,0 120.686228,24.145817,0 120.686055,24.146168,0 120.686042,24.146294,0 120.686050,24.146412,0 120.686086,24.146534,0 120.686403,24.147233,0 120.685472,24.147575,0 120.685440,24.147586,0 120.685227,24.147664,0 120.684470,24.147937,0 120.684145,24.148055,0 120.684038,24.147809,0 120.683810,24.147280,0 120.683218,24.147504,0 120.683541,24.148273,0 120.683439,24.148310,0 120.682970,24.147215,0 120.682553,24.147360,0 120.681885,24.147593,0 120.681800,24.147427,0 120.681781,24.147370,0 120.681778,24.147156,0 120.681860,24.147041,0 120.681875,24.147005,0 120.681912,24.146885,0 120.681914,24.146744,0 120.681935,24.146672,0 120.681993,24.146531,0 120.681934,24.146381,0 120.682140,24.146303,0 120.682305,24.146241,0 120.682337,24.146212,0 120.682347,24.146168,0 120.682342,24.146095,0 120.682325,24.146040,0 120.682282,24.145975,0 120.682230,24.145947,0 120.682163,24.145908,0 120.682283,24.145856,0 120.682270,24.145811,0 120.682343,24.145771,0 120.682231,24.145573,0 120.682075,24.145279,0 120.681883,24.144839,0 120.681769,24.144573,0 120.681890,24.144632,0 120.682038,24.144788,0 120.682228,24.144965,0 120.682070,24.145073,0 120.682205,24.145316,0 120.682442,24.145727,0 120.682343,24.145771,0 120.682270,24.145811,0 120.682283,24.145856,0 120.682163,24.145908,0 120.681837,24.146037,0 120.681552,24.146138,0 120.681295,24.146353,0 120.681139,24.146498,0 120.681096,24.146543,0 120.680763,24.146207,0 120.680299,24.146635,0 120.679999,24.146328,0 120.679904,24.146411,0 120.679800,24.146321,0 120.679734,24.146264,0 120.679738,24.146210,0 120.679814,24.146146,0 120.679173,24.145540,0 120.679066,24.145452,0 120.678881,24.145264,0 120.678734,24.145110,0 120.678454,24.144843,0 120.678564,24.144746,0 120.678476,24.144657,0 120.679013,24.144204,0 120.679055,24.144168,0 120.679182,24.144060,0 120.679293,24.143950,0 120.678931,24.143588,0 120.679891,24.142752,0 120.680030,24.142881,0 120.680283,24.143115,0 120.680629,24.142804,0 120.681033,24.142452,0 120.680652,24.142075,0 120.680253,24.142443,0 120.680629,24.142804,0 120.680283,24.143115,0 120.680030,24.142881,0 120.679891,24.142752,0 120.679657,24.142530,0 120.679593,24.142586,0 120.679498,24.142585,0 120.679438,24.142526,0 120.679055,24.142858,0 120.678832,24.143054,0 120.678652,24.143210,0 120.678582,24.143141,0 120.678556,24.143141,0 120.678512,24.143182,0 120.678168,24.142851,0 120.677832,24.142496,0 120.677587,24.142704,0 120.677611,24.142747,0 120.677606,24.142805,0 120.677570,24.142849,0 120.677533,24.142750,0 120.677490,24.142678,0 120.677421,24.142734,0 120.677222,24.142407,0 120.677185,24.142363,0 120.676931,24.142067,0 120.677007,24.142008,0 120.677050,24.141976,0 120.677026,24.141928,0 120.676987,24.141883,0 120.676919,24.141823,0 120.676864,24.141873,0 120.676548,24.141602,0 120.676394,24.141506,0 120.676346,24.141479,0 120.676141,24.141369,0 120.676204,24.141280,0 120.676117,24.141215,0 120.676127,24.141206,0 120.676310,24.141049,0 120.676478,24.140904,0 120.676631,24.140771,0 120.676747,24.140671,0 120.677116,24.140352,0 120.677158,24.140312,0 120.677216,24.140372,0 120.677294,24.140369,0 120.677362,24.140309,0 120.677447,24.140236,0 120.677446,24.140211,0 120.677359,24.140128,0 120.677824,24.139724,0 120.677858,24.139698,0 120.678289,24.139320,0 120.678298,24.139312,0 120.678344,24.139279,0 120.678384,24.139252,0 120.678393,24.139243,0 120.678513,24.139138,0 120.678671,24.139000,0 120.679056,24.138671,0 120.679130,24.138606,0 120.679207,24.138540,0 120.679252,24.138499,0 120.679311,24.138448,0 120.679397,24.138374,0 120.679522,24.138273,0 120.679844,24.137999,0 120.679762,24.137919,0 120.679770,24.137859,0 120.679838,24.137801,0 120.679929,24.137722,0 120.680035,24.137829,0 120.680360,24.137525,0 120.680696,24.137231,0 120.680614,24.137151,0
</coordinates></LineString></Placemark>
</Document></kml>