<?xml version="1.0" encoding="UTF-8"?>
<kml xmlns="http://www.opengis.net/kml/2.2"><Document>
<name>東區 貓臉（正面） 圖形路跑路線</name>
<Style id="r"><LineStyle><color>ff2000d6</color><width>4</width></LineStyle></Style>
<Placemark><name>臺中市眷村文物館</name><description>地標</description><Point><coordinates>120.695196,24.161313,0</coordinates></Point></Placemark>
<Placemark><name>北京里風車公園</name><description>地標</description><Point><coordinates>120.695800,24.161584,0</coordinates></Point></Placemark>
<Placemark><name>三十張犁公園</name><description>地標</description><Point><coordinates>120.696827,24.164514,0</coordinates></Point></Placemark>
<Placemark><name>東區 貓臉（正面） 圖形路跑路線</name><styleUrl>#r</styleUrl><LineString><tessellate>1</tessellate><coordinates>
120.693997,24.162576,0 120.695281,24.162438,0 120.695318,24.162667,0 120.695658,24.162614,0 120.696249,24.162542,0 120.696306,24.162948,0 120.696368,24.163434,0 120.696417,24.163432,0 120.696992,24.163399,0 120.697044,24.163395,0 120.697225,24.163381,0 120.697826,24.163344,0 120.697862,24.163854,0 120.697879,24.164123,0 120.697904,24.164475,0 120.697926,24.164800,0 120.698010,24.164799,0 120.698054,24.164799,0 120.698055,24.164812,0 120.698055,24.164870,0 120.698672,24.164865,0 120.698816,24.164858,0 120.698876,24.164862,0 120.699435,24.164848,0 120.699425,24.164777,0 120.699490,24.164777,0 120.699513,24.164741,0 120.699573,24.164727,0 120.699548,24.164566,0 120.699513,24.164306,0 120.699463,24.163996,0 120.699422,24.163633,0 120.699382,24.163298,0 120.699300,24.163306,0 120.699293,24.163247,0 120.699285,24.163183,0 120.699366,24.163174,0 120.699297,24.162696,0 120.699243,24.162340,0 120.699198,24.161985,0 120.699095,24.161224,0 120.699049,24.160899,0 120.699025,24.160704,0 120.699011,24.160588,0 120.699089,24.160515,0 120.699178,24.160496,0 120.699397,24.160449,0 120.699438,24.160440,0 120.699418,24.160287,0 120.699569,24.160277,0 120.699664,24.160267,0 120.699662,24.160211,0 120.699601,24.159654,0 120.700202,24.159586,0 120.700591,24.159523,0 120.700676,24.159480,0 120.700769,24.159396,0 120.700822,24.159306,0 120.700745,24.158831,0 120.700617,24.157998,0 120.701272,24.157926,0 120.701481,24.157902,0 120.701284,24.157152,0 120.700944,24.155974,0 120.701114,24.155937,0 120.701206,24.155921,0 120.701130,24.155662,0 120.700965,24.155088,0 120.700802,24.154563,0 120.700750,24.154531,0 120.700639,24.154498,0 120.700577,24.154495,0 120.700633,24.154217,0 120.700638,24.154087,0 120.700614,24.153956,0 120.700435,24.153545,0 120.700221,24.153047,0 120.699536,24.153109,0 120.699504,24.152710,0 120.699485,24.152537,0 120.699439,24.152209,0 120.698605,24.152312,0 120.698453,24.151246,0 120.698361,24.150621,0 120.698258,24.150635,0 120.697861,24.150699,0 120.697744,24.150717,0 120.697682,24.150746,0 120.697216,24.150816,0 120.697208,24.150767,0 120.697187,24.150562,0 120.697164,24.150540,0 120.696621,24.150611,0 120.696612,24.150568,0 120.696580,24.150377,0 120.696561,24.150279,0 120.696540,24.150137,0 120.696517,24.149996,0 120.696478,24.149756,0 120.696298,24.149774,0 120.695459,24.149770,0 120.695402,24.149753,0 120.695048,24.149755,0 120.694451,24.149759,0 120.694362,24.149935,0 120.693452,24.149929,0 120.692471,24.149935,0 120.692472,24.149545,0 120.692268,24.149569,0 120.692186,24.149594,0 120.692050,24.149636,0 120.691889,24.149725,0 120.691616,24.149803,0 120.691533,24.149805,0 120.691511,24.149805,0 120.691215,24.149811,0 120.691220,24.149866,0 120.691221,24.149923,0 120.691169,24.149982,0 120.691098,24.150040,0 120.690922,24.150118,0 120.690285,24.150326,0 120.689865,24.150464,0 120.688181,24.151017,0 120.688085,24.151044,0 120.688227,24.151403,0 120.688377,24.151755,0 120.688673,24.152473,0 120.687492,24.152880,0 120.687374,24.152638,0 120.687314,24.152577,0 120.687266,24.152557,0 120.687195,24.152561,0 120.686514,24.152822,0 120.686656,24.153162,0 120.686130,24.153350,0 120.686294,24.153730,0 120.686436,24.154063,0 120.686518,24.154222,0 120.686678,24.154175,0 120.686773,24.154431,0 120.686413,24.154550,0 120.686375,24.154472,0 120.686230,24.154510,0 120.686158,24.154511,0 120.686082,24.154512,0 120.686040,24.154503,0 120.685941,24.154482,0 120.685922,24.154522,0 120.685883,24.154603,0 120.686161,24.154708,0 120.686086,24.154870,0 120.686008,24.154834,0 120.685817,24.155280,0 120.685807,24.155305,0 120.685787,24.155346,0 120.685604,24.155730,0 120.685544,24.155843,0 120.685511,24.155906,0 120.685488,24.155957,0 120.685453,24.156085,0 120.685533,24.156108,0 120.685648,24.156148,0 120.685711,24.156170,0 120.685569,24.156503,0 120.685527,24.156600,0 120.685441,24.156612,0 120.685261,24.156958,0 120.685174,24.157148,0 120.685123,24.157300,0 120.685109,24.157363,0 120.685102,24.157480,0 120.685168,24.157481,0 120.685183,24.157575,0 120.685182,24.157727,0 120.685186,24.158579,0 120.685187,24.158602,0 120.685186,24.158629,0 120.685186,24.158811,0 120.685186,24.158911,0 120.685226,24.158936,0 120.685226,24.159044,0 120.685452,24.159041,0 120.685540,24.159039,0 120.685573,24.159039,0 120.685686,24.159036,0 120.685709,24.159036,0 120.685704,24.159172,0 120.685755,24.159264,0 120.685832,24.159324,0 120.685949,24.159419,0 120.686065,24.159526,0 120.686120,24.159625,0 120.686157,24.159701,0 120.686195,24.159804,0 120.686242,24.159941,0 120.686294,24.160103,0 120.686317,24.160250,0 120.686621,24.160254,0 120.686621,24.160331,0 120.686682,24.160331,0 120.686687,24.160681,0 120.686685,24.161065,0 120.686685,24.161079,0 120.686685,24.161185,0 120.686686,24.161207,0 120.686721,24.161202,0 120.686959,24.161287,0 120.687309,24.161352,0 120.687502,24.161406,0 120.687568,24.161432,0 120.687602,24.161515,0 120.687749,24.161509,0 120.688277,24.161507,0 120.688357,24.161506,0 120.688409,24.161505,0 120.688515,24.161505,0 120.688529,24.161505,0 120.688532,24.161728,0 120.688587,24.161825,0 120.688614,24.161842,0 120.689239,24.161829,0 120.689240,24.161984,0 120.689200,24.162051,0 120.689140,24.162159,0 120.689095,24.162242,0 120.688785,24.162236,0 120.688687,24.162258,0 120.688559,24.162300,0 120.688493,24.162350,0 120.688418,24.162416,0 120.688383,24.162481,0 120.688357,24.162548,0 120.688335,24.162601,0 120.688337,24.162781,0 120.688359,24.162847,0 120.688358,24.162912,0 120.688457,24.162958,0 120.688529,24.163027,0 120.688645,24.163030,0 120.689167,24.163027,0 120.689174,24.163501,0 120.689177,24.163842,0 120.690127,24.163823,0 120.690134,24.164124,0 120.690142,24.164406,0 120.690143,24.164714,0 120.690144,24.164980,0 120.690349,24.164981,0 120.690715,24.164982,0 120.690715,24.164900,0 120.690780,24.164899,0 120.690784,24.164651,0 120.690787,24.164393,0 120.691602,24.164376,0 120.692398,24.164359,0 120.692838,24.164359,0 120.692843,24.164451,0 120.692748,24.164550,0 120.692973,24.164767,0 120.693109,24.164649,0 120.693363,24.164426,0 120.693389,24.164403,0 120.693523,24.164381,0 120.693502,24.164323,0 120.693392,24.164215,0 120.693244,24.164096,0 120.693188,24.163959,0 120.693120,24.163860,0 120.692531,24.163052,0 120.692436,24.162663,0 120.692470,24.162596,0 120.692592,24.162625,0 120.692611,24.162631,0 120.692623,24.162590,0 120.692628,24.162576,0 120.692676,24.162538,0 120.692742,24.162505,0 120.692842,24.162455,0 120.692994,24.162733,0 120.693164,24.163028,0 120.693440,24.162910,0 120.693662,24.162782,0 120.693810,24.162690,0 120.693840,24.162571,0 120.693997,24.162576,0
</coordinates></LineString></Placemark>
</Document></kml>