<?xml version="1.0" encoding="UTF-8"?>
<kml xmlns="http://www.opengis.net/kml/2.2"><Document>
<name>東區 手繪蹲坐貓（原稿描圖） 圖形路跑路線</name>
<Style id="r"><LineStyle><color>ff2000d6</color><width>4</width></LineStyle></Style>
<Placemark><name>圖根點JL916</name><description>地標</description><Point><coordinates>120.676111,24.135716,0</coordinates></Point></Placemark>
<Placemark><name>門柱</name><description>地標</description><Point><coordinates>120.677052,24.138052,0</coordinates></Point></Placemark>
<Placemark><name>門柱</name><description>地標</description><Point><coordinates>120.677089,24.138023,0</coordinates></Point></Placemark>
<Placemark><name>東區 手繪蹲坐貓（原稿描圖） 圖形路跑路線</name><styleUrl>#r</styleUrl><LineString><tessellate>1</tessellate><coordinates>
120.678239,24.133585,0 120.678106,24.133850,0 120.678054,24.133955,0 120.678004,24.134047,0 120.677442,24.133819,0 120.677376,24.133950,0 120.676989,24.134276,0 120.677360,24.134637,0 120.676937,24.135004,0 120.677499,24.135549,0 120.677711,24.135754,0 120.677938,24.135973,0 120.678352,24.136371,0 120.678421,24.136431,0 120.678289,24.136551,0 120.677617,24.137168,0 120.678134,24.137650,0 120.679038,24.138514,0 120.678961,24.138579,0 120.679056,24.138671,0 120.678671,24.139000,0 120.678513,24.139138,0 120.678393,24.139243,0 120.678476,24.139323,0 120.678431,24.139362,0 120.678746,24.139664,0 120.679132,24.140022,0 120.678607,24.140463,0 120.678458,24.140593,0 120.678042,24.140949,0 120.677735,24.141220,0 120.676987,24.141883,0 120.676919,24.141823,0 120.676864,24.141873,0 120.676816,24.141916,0 120.676817,24.141931,0 120.676799,24.141952,0 120.676776,24.141971,0 120.676564,24.142154,0 120.676532,24.142175,0 120.676485,24.142196,0 120.676446,24.142231,0 120.676316,24.142119,0 120.676090,24.141955,0 120.675461,24.142507,0 120.675839,24.142878,0 120.676203,24.143217,0 120.676332,24.143332,0 120.676565,24.143575,0 120.676980,24.143230,0 120.677016,24.143270,0 120.677093,24.143212,0 120.677219,24.143565,0 120.677305,24.143800,0 120.677346,24.143880,0 120.677469,24.143988,0 120.677496,24.144004,0 120.677398,24.144116,0 120.677373,24.144157,0 120.677415,24.144196,0 120.677464,24.144240,0 120.677520,24.144292,0 120.677605,24.144223,0 120.677685,24.144224,0 120.677697,24.144235,0 120.677756,24.144179,0 120.678026,24.144440,0 120.678312,24.144708,0 120.678429,24.144610,0 120.678476,24.144657,0 120.678564,24.144746,0 120.678454,24.144843,0 120.678734,24.145110,0 120.678881,24.145264,0 120.678493,24.145850,0 120.678540,24.145889,0 120.678712,24.146050,0 120.678782,24.146127,0 120.679173,24.145540,0 120.679814,24.146146,0 120.679876,24.146094,0 120.679965,24.146177,0 120.680367,24.145808,0 120.680820,24.145409,0 120.680415,24.145014,0 120.680859,24.144626,0 120.681312,24.144268,0 120.681009,24.143967,0 120.681158,24.143841,0 120.681076,24.143768,0 120.681347,24.143536,0 120.681756,24.143179,0 120.682082,24.142895,0 120.682499,24.142531,0 120.682856,24.142220,0 120.683661,24.141518,0 120.684488,24.140794,0 120.684673,24.140984,0 120.684842,24.141144,0 120.685264,24.140781,0 120.685709,24.140798,0 120.685727,24.140245,0 120.685728,24.140220,0 120.685733,24.140139,0 120.685744,24.139837,0 120.685752,24.139823,0 120.685885,24.139885,0 120.685934,24.139778,0 120.686057,24.139681,0 120.686064,24.139437,0 120.686064,24.139269,0 120.686060,24.139085,0 120.686094,24.138896,0 120.686090,24.138882,0 120.686072,24.138836,0 120.686016,24.138749,0 120.685699,24.138373,0 120.685867,24.138244,0 120.686064,24.138091,0 120.686114,24.138052,0 120.686371,24.138070,0 120.686768,24.138098,0 120.687014,24.138103,0 120.687125,24.138101,0 120.686955,24.137999,0 120.686826,24.137922,0 120.686752,24.137852,0 120.686571,24.137789,0 120.686643,24.137646,0 120.686746,24.137444,0 120.686758,24.137421,0 120.686767,24.137404,0 120.687023,24.136900,0 120.687063,24.136806,0 120.686569,24.136593,0 120.686416,24.136527,0 120.686357,24.136495,0 120.686327,24.136454,0 120.686335,24.136404,0 120.686373,24.136325,0 120.686464,24.136148,0 120.686552,24.135983,0 120.686861,24.136114,0 120.686891,24.136048,0 120.686386,24.135834,0 120.686647,24.135399,0 120.686462,24.135324,0 120.686536,24.135169,0 120.686243,24.135043,0 120.686306,24.134924,0 120.686536,24.134458,0 120.686836,24.133860,0 120.686878,24.133778,0 120.687273,24.133946,0 120.687843,24.134180,0 120.688099,24.133667,0 120.688381,24.133777,0 120.689088,24.134070,0 120.689569,24.134276,0 120.689906,24.134419,0 120.690196,24.133829,0 120.690360,24.133496,0 120.690482,24.133567,0 120.690592,24.133660,0 120.690790,24.133852,0 120.691084,24.133991,0 120.691183,24.133779,0 120.691227,24.133700,0 120.691311,24.133527,0 120.691386,24.133561,0 120.691451,24.133593,0 120.691545,24.133618,0 120.691650,24.133641,0 120.691676,24.133644,0 120.691785,24.133655,0 120.691833,24.133660,0 120.691869,24.133660,0 120.692011,24.133658,0 120.692130,24.133651,0 120.692291,24.133630,0 120.692374,24.133613,0 120.692453,24.133594,0 120.692528,24.133572,0 120.692667,24.133526,0 120.692798,24.133475,0 120.692923,24.133422,0 120.693072,24.133353,0 120.693155,24.133311,0 120.693197,24.133289,0 120.693236,24.133269,0 120.693299,24.133234,0 120.693364,24.133191,0 120.693484,24.133071,0 120.693542,24.133100,0 120.693686,24.133163,0 120.693731,24.133087,0 120.693770,24.133014,0 120.693786,24.132909,0 120.693790,24.132869,0 120.693511,24.132851,0 120.693353,24.132841,0 120.693241,24.132833,0 120.693204,24.132706,0 120.693138,24.132702,0 120.693051,24.132701,0 120.693020,24.132682,0 120.692949,24.132657,0 120.692950,24.132542,0 120.692947,24.132008,0 120.692538,24.131838,0 120.692236,24.132463,0 120.691917,24.132327,0 120.691861,24.132407,0 120.691667,24.132771,0 120.691358,24.132746,0 120.690950,24.132715,0 120.690488,24.132679,0 120.690206,24.132660,0 120.689830,24.132562,0 120.689305,24.132387,0 120.689188,24.132626,0 120.688713,24.132427,0 120.688542,24.132354,0 120.688240,24.132224,0 120.687750,24.132015,0 120.687438,24.132650,0 120.686943,24.132453,0 120.686637,24.133050,0 120.686160,24.132856,0 120.684695,24.132230,0 120.684392,24.132824,0 120.684108,24.133426,0 120.683712,24.133263,0 120.683736,24.133218,0 120.683591,24.133149,0 120.683452,24.133082,0 120.683423,24.133144,0 120.682848,24.132910,0 120.682559,24.133489,0 120.682201,24.133335,0 120.681888,24.133942,0 120.681324,24.133710,0 120.680846,24.133515,0 120.680813,24.133564,0 120.680600,24.133977,0 120.679520,24.133537,0 120.679377,24.133834,0 120.679363,24.133862,0 120.679303,24.133979,0 120.679281,24.134032,0 120.679189,24.133994,0 120.678810,24.133788,0 120.678285,24.133487,0 120.678239,24.133585,0
</coordinates></LineString></Placemark>
</Document></kml>