<?xml version="1.0" encoding="UTF-8"?>
<kml xmlns="http://www.opengis.net/kml/2.2"><Document>
<name>東區 手繪蹲坐貓（原稿描圖） 圖形路跑路線</name>
<Style id="r"><LineStyle><color>ff2000d6</color><width>4</width></LineStyle></Style>
<Placemark><name>柳川水岸步道</name><description>地標</description><Point><coordinates>120.677578,24.143552,0</coordinates></Point></Placemark>
<Placemark><name>臺中市立圖書館中區分館</name><description>地標</description><Point><coordinates>120.679524,24.143894,0</coordinates></Point></Placemark>
<Placemark><name>圖根點BH95216</name><description>地標</description><Point><coordinates>120.681274,24.152684,0</coordinates></Point></Placemark>
<Placemark><name>東區 手繪蹲坐貓（原稿描圖） 圖形路跑路線</name><styleUrl>#r</styleUrl><LineString><tessellate>1</tessellate><coordinates>
120.680572,24.141539,0 120.680372,24.141711,0 120.680169,24.141516,0 120.679972,24.141352,0 120.679721,24.141581,0 120.679175,24.142050,0 120.679083,24.142109,0 120.678993,24.142198,0 120.679241,24.142431,0 120.679185,24.142477,0 120.679009,24.142621,0 120.678777,24.142550,0 120.678747,24.142529,0 120.678728,24.142543,0 120.678988,24.142719,0 120.679055,24.142858,0 120.678832,24.143054,0 120.678652,24.143210,0 120.678725,24.143282,0 120.678731,24.143317,0 120.678689,24.143349,0 120.678931,24.143588,0 120.679293,24.143950,0 120.679675,24.144299,0 120.679804,24.144422,0 120.680036,24.144665,0 120.679701,24.144959,0 120.679339,24.145257,0 120.679311,24.145302,0 120.679252,24.145399,0 120.679173,24.145540,0 120.679814,24.146146,0 120.679905,24.146232,0 120.679999,24.146328,0 120.680299,24.146635,0 120.680580,24.146923,0 120.680614,24.146957,0 120.680693,24.147029,0 120.680898,24.147217,0 120.680980,24.147308,0 120.681056,24.147480,0 120.680943,24.147550,0 120.680854,24.147651,0 120.680519,24.148300,0 120.680955,24.148364,0 120.680946,24.148411,0 120.681489,24.148488,0 120.681685,24.148916,0 120.680900,24.149195,0 120.680958,24.149342,0 120.681172,24.149852,0 120.681328,24.150234,0 120.681425,24.150455,0 120.681576,24.150814,0 120.681876,24.151541,0 120.681950,24.151722,0 120.682063,24.151994,0 120.682243,24.152416,0 120.682537,24.153130,0 120.682391,24.153088,0 120.682398,24.153169,0 120.682408,24.153288,0 120.682416,24.153371,0 120.682468,24.153462,0 120.682521,24.153482,0 120.682400,24.153742,0 120.682295,24.153969,0 120.682020,24.154559,0 120.681703,24.155242,0 120.681654,24.155220,0 120.681604,24.155321,0 120.681567,24.155395,0 120.681473,24.155591,0 120.681555,24.155643,0 120.681649,24.155709,0 120.681746,24.155808,0 120.681670,24.155999,0 120.681598,24.155982,0 120.681495,24.155962,0 120.681379,24.155939,0 120.681313,24.155824,0 120.681314,24.155719,0 120.680444,24.155715,0 120.680354,24.155713,0 120.680241,24.155716,0 120.679380,24.155719,0 120.679115,24.155719,0 120.679115,24.155842,0 120.679050,24.155838,0 120.679034,24.156108,0 120.678976,24.156510,0 120.678953,24.156743,0 120.678923,24.157048,0 120.678920,24.157088,0 120.678915,24.157134,0 120.678905,24.157239,0 120.678902,24.157300,0 120.678801,24.157301,0 120.677787,24.157278,0 120.677774,24.157508,0 120.677726,24.157872,0 120.677700,24.158209,0 120.677659,24.158592,0 120.677640,24.158792,0 120.677594,24.159170,0 120.677541,24.159692,0 120.677532,24.159807,0 120.677502,24.160097,0 120.677472,24.160390,0 120.677846,24.160388,0 120.678591,24.160377,0 120.679220,24.160361,0 120.679973,24.160358,0 120.680970,24.160337,0 120.680971,24.160766,0 120.680972,24.160962,0 120.680971,24.161159,0 120.681727,24.161154,0 120.681731,24.161610,0 120.681736,24.162080,0 120.681738,24.162292,0 120.682352,24.162346,0 120.682349,24.162513,0 120.682355,24.162941,0 120.682297,24.162950,0 120.682248,24.162976,0 120.682247,24.163051,0 120.682248,24.163138,0 120.682262,24.163200,0 120.682310,24.163246,0 120.682353,24.163248,0 120.682361,24.163570,0 120.682369,24.163877,0 120.682306,24.163878,0 120.682306,24.163943,0 120.682307,24.164015,0 120.682375,24.164014,0 120.682382,24.164486,0 120.682797,24.164483,0 120.683032,24.164480,0 120.683493,24.164475,0 120.683704,24.164484,0 120.684329,24.164470,0 120.684927,24.164457,0 120.684927,24.164438,0 120.684918,24.163979,0 120.684920,24.163950,0 120.684920,24.163905,0 120.684921,24.163828,0 120.685004,24.163830,0 120.685104,24.163827,0 120.685187,24.163825,0 120.685188,24.163579,0 120.685194,24.163504,0 120.685220,24.163473,0 120.685253,24.163418,0 120.685297,24.163361,0 120.685327,24.163320,0 120.685345,24.163306,0 120.685363,24.163291,0 120.685419,24.163254,0 120.685494,24.163206,0 120.685523,24.163182,0 120.685579,24.163161,0 120.685683,24.163154,0 120.685704,24.163182,0 120.685742,24.163181,0 120.685766,24.163179,0 120.685783,24.163148,0 120.686591,24.163137,0 120.686593,24.163066,0 120.686593,24.162979,0 120.686595,24.162898,0 120.686632,24.162874,0 120.686693,24.162873,0 120.686692,24.162720,0 120.686690,24.162151,0 120.686687,24.161614,0 120.686733,24.161613,0 120.686752,24.161558,0 120.686751,24.161531,0 120.686749,24.161491,0 120.686748,24.161461,0 120.686687,24.161462,0 120.686686,24.161207,0 120.686685,24.161185,0 120.686685,24.161079,0 120.686685,24.161065,0 120.686687,24.160681,0 120.686979,24.160678,0 120.686979,24.160465,0 120.687067,24.160441,0 120.687234,24.160437,0 120.688175,24.160430,0 120.688174,24.160222,0 120.688933,24.160207,0 120.688881,24.160119,0 120.688863,24.160012,0 120.688842,24.159819,0 120.689190,24.159756,0 120.689231,24.159744,0 120.689225,24.159724,0 120.689157,24.159528,0 120.689107,24.159343,0 120.688987,24.158974,0 120.688970,24.158598,0 120.688967,24.158515,0 120.689000,24.158473,0 120.689598,24.157892,0 120.689619,24.157872,0 120.689645,24.157895,0 120.689678,24.157868,0 120.689740,24.157801,0 120.689814,24.157722,0 120.689866,24.157666,0 120.689776,24.157584,0 120.689822,24.157521,0 120.690593,24.157249,0 120.690337,24.156607,0 120.690408,24.156590,0 120.691479,24.156211,0 120.691341,24.155878,0 120.691699,24.155760,0 120.692220,24.155582,0 120.692297,24.155556,0 120.692648,24.155429,0 120.692961,24.155339,0 120.693029,24.155328,0 120.692972,24.154939,0 120.692947,24.154764,0 120.692943,24.154732,0 120.692905,24.154457,0 120.693214,24.154451,0 120.693377,24.154405,0 120.694347,24.154107,0 120.694350,24.153933,0 120.694355,24.153684,0 120.694429,24.153687,0 120.694799,24.153679,0 120.694964,24.153646,0 120.695532,24.153463,0 120.695403,24.153101,0 120.695893,24.152944,0 120.695786,24.152661,0 120.695679,24.152368,0 120.695631,24.152240,0 120.695640,24.152214,0 120.695687,24.152181,0 120.695791,24.152146,0 120.695834,24.152126,0 120.695896,24.152085,0 120.695884,24.152019,0 120.695859,24.151867,0 120.696220,24.151816,0 120.696810,24.151732,0 120.696798,24.151662,0 120.696766,24.151477,0 120.696759,24.151428,0 120.696714,24.151182,0 120.696748,24.151155,0 120.697262,24.151073,0 120.697229,24.150847,0 120.697216,24.150816,0 120.697208,24.150767,0 120.697187,24.150562,0 120.697164,24.150540,0 120.697120,24.150299,0 120.697074,24.150051,0 120.697575,24.149972,0 120.697522,24.149629,0 120.697484,24.149328,0 120.697448,24.149054,0 120.697372,24.148543,0 120.697353,24.148416,0 120.697309,24.148107,0 120.697298,24.147994,0 120.697287,24.147920,0 120.697280,24.147851,0 120.697185,24.147110,0 120.697082,24.146322,0 120.697037,24.145940,0 120.697006,24.145678,0 120.696980,24.145508,0 120.696955,24.145351,0 120.696933,24.145207,0 120.696917,24.145059,0 120.696897,24.144905,0 120.696858,24.144693,0 120.696990,24.144689,0 120.697067,24.144689,0 120.697092,24.144693,0 120.697056,24.144644,0 120.697042,24.144549,0 120.697081,24.144465,0 120.697089,24.144358,0 120.697080,24.144298,0 120.697076,24.144263,0 120.697060,24.144196,0 120.697028,24.144052,0 120.696988,24.143942,0 120.696950,24.143825,0 120.696923,24.143748,0 120.696914,24.143721,0 120.696849,24.143560,0 120.696817,24.143458,0 120.696795,24.143371,0 120.696763,24.143246,0 120.696729,24.143149,0 120.696712,24.143116,0 120.696686,24.143063,0 120.696638,24.142979,0 120.696569,24.142902,0 120.696452,24.142778,0 120.696938,24.142780,0 120.696707,24.142340,0 120.696536,24.142113,0 120.696678,24.142130,0 120.696809,24.142118,0 120.697185,24.142115,0 120.697811,24.142113,0 120.698061,24.142111,0 120.699095,24.142109,0 120.699502,24.142107,0 120.699765,24.142111,0 120.699976,24.142115,0 120.699907,24.142784,0 120.700007,24.142772,0 120.701178,24.142702,0 120.701267,24.142702,0 120.701316,24.142327,0 120.701406,24.141555,0 120.701985,24.141553,0 120.702217,24.141557,0 120.703273,24.141564,0 120.703430,24.141062,0 120.704403,24.141058,0 120.706001,24.141068,0 120.706732,24.141096,0 120.706607,24.140515,0 120.708160,24.140659,0 120.709388,24.140760,0 120.709297,24.140324,0 120.709231,24.140039,0 120.708924,24.138585,0 120.708381,24.138726,0 120.708191,24.138772,0 120.707451,24.138948,0 120.707249,24.138545,0 120.707132,24.138291,0 120.706636,24.138427,0 120.706193,24.138500,0 120.706377,24.139048,0 120.705684,24.139084,0 120.705638,24.138838,0 120.705359,24.138824,0 120.705021,24.138815,0 120.705024,24.139241,0 120.704712,24.139237,0 120.704325,24.139237,0 120.704320,24.138787,0 120.704314,24.138418,0 120.704279,24.138339,0 120.703775,24.138591,0 120.702945,24.138839,0 120.702825,24.138864,0 120.702732,24.138875,0 120.702653,24.138883,0 120.702169,24.138869,0 120.702180,24.139237,0 120.702181,24.139311,0 120.702190,24.139379,0 120.702221,24.139529,0 120.702406,24.140217,0 120.702412,24.140300,0 120.701481,24.140200,0 120.701389,24.140191,0 120.701318,24.140190,0 120.700145,24.140072,0 120.699850,24.140094,0 120.699724,24.140115,0 120.699451,24.140151,0 120.699135,24.140205,0 120.698729,24.140223,0 120.698352,24.140236,0 120.698053,24.140235,0 120.697654,24.140250,0 120.697543,24.140217,0 120.697170,24.140226,0 120.697168,24.139591,0 120.697090,24.139588,0 120.697089,24.139677,0 120.697101,24.139676,0 120.697098,24.140147,0 120.697085,24.140147,0 120.697117,24.140229,0 120.696789,24.140229,0 120.696700,24.140283,0 120.696529,24.140160,0 120.696440,24.140086,0 120.696483,24.140007,0 120.696500,24.139964,0 120.696511,24.139936,0 120.696535,24.139852,0 120.696535,24.139599,0 120.696377,24.139601,0 120.695782,24.139601,0 120.695544,24.139600,0 120.695504,24.139680,0 120.695489,24.139713,0 120.695465,24.139737,0 120.695464,24.139783,0 120.695180,24.139781,0 120.694975,24.139782,0 120.694729,24.139838,0 120.694728,24.140016,0 120.694728,24.140045,0 120.694662,24.140044,0 120.694659,24.140224,0 120.694652,24.140271,0 120.694621,24.140366,0 120.694604,24.140434,0 120.694511,24.140635,0 120.694448,24.140785,0 120.694370,24.140951,0 120.694199,24.140844,0 120.694031,24.140754,0 120.693599,24.140536,0 120.692936,24.140270,0 120.692442,24.140083,0 120.692449,24.140261,0 120.692453,24.140523,0 120.692452,24.140672,0 120.691001,24.140690,0 120.690279,24.140703,0 120.690092,24.140940,0 120.689285,24.140967,0 120.689186,24.140971,0 120.688193,24.141012,0 120.687316,24.141056,0 120.686852,24.141071,0 120.686877,24.141541,0 120.686100,24.141565,0 120.685921,24.141524,0 120.685767,24.141520,0 120.685684,24.141517,0 120.685255,24.141502,0 120.684842,24.141144,0 120.684673,24.140984,0 120.684488,24.140794,0 120.683661,24.141518,0 120.683985,24.141835,0 120.683176,24.142534,0 120.682856,24.142220,0 120.682499,24.142531,0 120.682082,24.142895,0 120.681717,24.142530,0 120.681363,24.142181,0 120.680972,24.141814,0 120.680700,24.141562,0 120.680644,24.141609,0 120.680572,24.141539,0
</coordinates></LineString></Placemark>
</Document></kml>