<?xml version="1.0" encoding="UTF-8"?>
<kml xmlns="http://www.opengis.net/kml/2.2"><Document>
<name>東區 蹲坐貓咪（側面） 圖形路跑路線</name>
<Style id="r"><LineStyle><color>ff2000d6</color><width>4</width></LineStyle></Style>
<Placemark><name>吉羊康泰</name><description>地標</description><Point><coordinates>120.683571,24.145461,0</coordinates></Point></Placemark>
<Placemark><name>台灣地籍測量三角原點中心碑</name><description>地標</description><Point><coordinates>120.683335,24.145048,0</coordinates></Point></Placemark>
<Placemark><name>望月亭</name><description>地標</description><Point><coordinates>120.684426,24.144973,0</coordinates></Point></Placemark>
<Placemark><name>東區 蹲坐貓咪（側面） 圖形路跑路線</name><styleUrl>#r</styleUrl><LineString><tessellate>1</tessellate><coordinates>
120.677121,24.144427,0 120.677177,24.144483,0 120.677250,24.144556,0 120.677255,24.144581,0 120.677216,24.144614,0 120.677511,24.144889,0 120.677845,24.145221,0 120.677296,24.145696,0 120.677669,24.146053,0 120.678060,24.146452,0 120.678338,24.146715,0 120.678749,24.147112,0 120.678803,24.147164,0 120.679204,24.147551,0 120.679538,24.147874,0 120.679827,24.148153,0 120.680029,24.147971,0 120.680222,24.147799,0 120.680793,24.147302,0 120.680898,24.147217,0 120.680980,24.147308,0 120.681056,24.147480,0 120.680943,24.147550,0 120.680854,24.147651,0 120.680519,24.148300,0 120.680955,24.148364,0 120.680946,24.148411,0 120.681489,24.148488,0 120.681195,24.147807,0 120.681056,24.147480,0 120.681153,24.147422,0 120.681349,24.147200,0 120.681360,24.147167,0 120.681437,24.147145,0 120.681774,24.147144,0 120.681778,24.147156,0 120.681781,24.147370,0 120.681800,24.147427,0 120.681885,24.147593,0 120.682553,24.147360,0 120.682970,24.147215,0 120.683439,24.148310,0 120.683541,24.148273,0 120.683858,24.148158,0 120.684145,24.148055,0 120.684038,24.147809,0 120.683810,24.147280,0 120.683595,24.146786,0 120.683939,24.146668,0 120.683835,24.146420,0 120.683835,24.146325,0 120.683866,24.146222,0 120.683598,24.146129,0 120.683706,24.145993,0 120.684105,24.145177,0 120.684100,24.145063,0 120.684128,24.145072,0 120.684334,24.144987,0 120.684397,24.144973,0 120.684400,24.145001,0 120.684437,24.144997,0 120.684458,24.144995,0 120.684456,24.144979,0 120.684506,24.144974,0 120.684612,24.144937,0 120.684743,24.144909,0 120.684807,24.144852,0 120.684869,24.144813,0 120.684811,24.144722,0 120.684924,24.144622,0 120.684991,24.144312,0 120.685035,24.144047,0 120.685045,24.143897,0 120.684980,24.143581,0 120.685121,24.143474,0 120.685295,24.143305,0 120.685323,24.143337,0 120.685421,24.143416,0 120.685980,24.143346,0 120.685987,24.143461,0 120.685921,24.143466,0 120.685896,24.143172,0 120.686106,24.143105,0 120.686864,24.143061,0 120.686861,24.142383,0 120.686887,24.142332,0 120.686930,24.142308,0 120.687599,24.142279,0 120.687570,24.141518,0 120.687337,24.141529,0 120.687316,24.141056,0 120.687292,24.140612,0 120.687288,24.140133,0 120.687799,24.140124,0 120.687771,24.139284,0 120.687760,24.138829,0 120.689528,24.138816,0 120.689670,24.138529,0 120.689783,24.138307,0 120.689862,24.138347,0 120.689593,24.138853,0 120.689528,24.138816,0 120.688913,24.138557,0 120.687744,24.138105,0 120.687765,24.137840,0 120.687762,24.137766,0 120.687760,24.137728,0 120.687848,24.137762,0 120.687848,24.137753,0 120.687847,24.137654,0 120.687846,24.137233,0 120.687814,24.137220,0 120.687724,24.137185,0 120.687627,24.137140,0 120.687625,24.137158,0 120.687637,24.137256,0 120.687623,24.137251,0 120.687616,24.137165,0 120.687614,24.137135,0 120.687624,24.137096,0 120.687495,24.137045,0 120.687440,24.137044,0 120.686679,24.136733,0 120.686635,24.136686,0 120.686537,24.136652,0 120.686569,24.136593,0 120.686416,24.136527,0 120.686357,24.136495,0 120.686327,24.136454,0 120.686335,24.136404,0 120.686373,24.136325,0 120.686464,24.136148,0 120.686552,24.135983,0 120.686347,24.135899,0 120.686199,24.135836,0 120.685915,24.135721,0 120.685950,24.135649,0 120.686243,24.135043,0 120.686306,24.134924,0 120.685942,24.134759,0 120.685664,24.134653,0 120.685336,24.134504,0 120.684870,24.134314,0 120.684844,24.134304,0 120.684357,24.134092,0 120.684290,24.134227,0 120.683969,24.134076,0 120.683808,24.134011,0 120.683566,24.134490,0 120.683500,24.134626,0 120.683114,24.134468,0 120.683081,24.134535,0 120.683048,24.134602,0 120.683003,24.134617,0 120.682885,24.134568,0 120.682778,24.134780,0 120.682586,24.134705,0 120.682379,24.134618,0 120.682101,24.135187,0 120.682503,24.135357,0 120.682341,24.135670,0 120.682203,24.135595,0 120.682151,24.135697,0 120.682103,24.135784,0 120.682068,24.135759,0 120.681993,24.135722,0 120.681639,24.135574,0 120.681627,24.135569,0 120.681176,24.135397,0 120.680740,24.135771,0 120.680076,24.135122,0 120.680087,24.134943,0 120.679880,24.135150,0 120.679595,24.135404,0 120.679239,24.135722,0 120.678421,24.136431,0 120.678352,24.136371,0 120.677938,24.135973,0 120.677711,24.135754,0 120.677499,24.135549,0 120.676937,24.135004,0 120.676115,24.135719,0 120.675903,24.135905,0 120.676192,24.136210,0 120.676024,24.136353,0 120.675865,24.136489,0 120.675648,24.136677,0 120.675727,24.136754,0 120.676090,24.137110,0 120.676427,24.137423,0 120.676561,24.137545,0 120.676846,24.137805,0 120.676270,24.138311,0 120.676197,24.138376,0 120.676786,24.138936,0 120.676344,24.139327,0 120.676682,24.139657,0 120.676930,24.139894,0 120.677129,24.140085,0 120.677168,24.140123,0 120.677074,24.140202,0 120.677074,24.140225,0 120.677158,24.140312,0 120.677116,24.140352,0 120.676747,24.140671,0 120.676631,24.140771,0 120.676478,24.140904,0 120.676310,24.141049,0 120.676127,24.141206,0 120.676117,24.141215,0 120.676204,24.141280,0 120.676141,24.141369,0 120.676346,24.141479,0 120.676394,24.141506,0 120.676548,24.141602,0 120.676864,24.141873,0 120.676816,24.141916,0 120.676817,24.141931,0 120.676799,24.141952,0 120.676776,24.141971,0 120.676564,24.142154,0 120.676532,24.142175,0 120.676599,24.142223,0 120.676635,24.142265,0 120.676642,24.142294,0 120.676652,24.142306,0 120.676948,24.142674,0 120.677092,24.142990,0 120.677148,24.143092,0 120.677179,24.143156,0 120.677093,24.143212,0 120.677219,24.143565,0 120.677305,24.143800,0 120.677346,24.143880,0 120.677469,24.143988,0 120.677496,24.144004,0 120.677398,24.144116,0 120.677373,24.144157,0 120.677415,24.144196,0 120.677419,24.144280,0 120.677177,24.144483,0 120.677121,24.144427,0
</coordinates></LineString></Placemark>
</Document></kml>