<?xml version="1.0" encoding="UTF-8"?>
<kml xmlns="http://www.opengis.net/kml/2.2"><Document>
<name>東區 貓咪肉球 圖形路跑路線</name>
<Style id="r"><LineStyle><color>ff2000d6</color><width>4</width></LineStyle></Style>
<Placemark><name>台灣太陽餅博物館</name><description>地標</description><Point><coordinates>120.682450,24.139739,0</coordinates></Point></Placemark>
<Placemark><name>臺中驛</name><description>地標</description><Point><coordinates>120.685266,24.136915,0</coordinates></Point></Placemark>
<Placemark><name>臺中驛鐵道文化園區</name><description>地標</description><Point><coordinates>120.685242,24.136749,0</coordinates></Point></Placemark>
<Placemark><name>東區 貓咪肉球 圖形路跑路線</name><styleUrl>#r</styleUrl><LineString><tessellate>1</tessellate><coordinates>
120.683809,24.140823,0 120.683358,24.140420,0 120.683761,24.140079,0 120.684115,24.140421,0 120.684492,24.140090,0 120.684887,24.139759,0 120.684530,24.139407,0 120.684641,24.139307,0 120.684959,24.139455,0 120.685301,24.139614,0 120.685304,24.139610,0 120.685370,24.139508,0 120.685372,24.139504,0 120.685563,24.139183,0 120.685591,24.139135,0 120.685693,24.139043,0 120.686056,24.139022,0 120.686005,24.138897,0 120.685963,24.138835,0 120.685635,24.138425,0 120.685699,24.138373,0 120.685867,24.138244,0 120.686064,24.138091,0 120.686114,24.138052,0 120.686371,24.138070,0 120.686483,24.137876,0 120.686504,24.137839,0 120.686571,24.137789,0 120.686752,24.137852,0 120.686826,24.137922,0 120.686955,24.137999,0 120.687125,24.138101,0 120.687509,24.138102,0 120.687744,24.138105,0 120.687765,24.137840,0 120.687762,24.137766,0 120.687760,24.137728,0 120.687848,24.137762,0 120.687848,24.137753,0 120.687847,24.137654,0 120.687846,24.137233,0 120.687814,24.137220,0 120.687724,24.137185,0 120.687627,24.137140,0 120.687624,24.137096,0 120.687602,24.137028,0 120.687601,24.136980,0 120.687602,24.136968,0 120.687603,24.136935,0 120.687772,24.136598,0 120.687747,24.136537,0 120.687758,24.136489,0 120.687792,24.136428,0 120.687839,24.136347,0 120.687936,24.136392,0 120.688029,24.136427,0 120.688056,24.136480,0 120.688100,24.136502,0 120.688596,24.136713,0 120.688686,24.136753,0 120.689011,24.136888,0 120.689125,24.136905,0 120.689170,24.136922,0 120.689131,24.136961,0 120.689104,24.136988,0 120.689245,24.137092,0 120.689283,24.137069,0 120.689348,24.137047,0 120.689753,24.137525,0 120.689797,24.137524,0 120.689883,24.137538,0 120.689952,24.137549,0 120.690031,24.137561,0 120.690237,24.137592,0 120.690264,24.137216,0 120.690276,24.137048,0 120.690383,24.136801,0 120.690471,24.136607,0 120.690499,24.136598,0 120.690544,24.136545,0 120.690598,24.136504,0 120.690690,24.136473,0 120.690764,24.136482,0 120.690842,24.136495,0 120.690900,24.136482,0 120.690958,24.136425,0 120.691069,24.136392,0 120.691135,24.136444,0 120.691214,24.136507,0 120.691316,24.136530,0 120.691432,24.136532,0 120.691564,24.136538,0 120.691704,24.136578,0 120.691807,24.136657,0 120.691926,24.136820,0 120.692016,24.136864,0 120.692108,24.136855,0 120.692290,24.136830,0 120.692383,24.136829,0 120.692427,24.136848,0 120.692480,24.136888,0 120.692514,24.136873,0 120.692572,24.136868,0 120.692599,24.136943,0 120.692664,24.136933,0 120.692682,24.136931,0 120.692740,24.136922,0 120.692821,24.136907,0 120.692925,24.136910,0 120.692926,24.136858,0 120.692931,24.136837,0 120.693578,24.136830,0 120.694264,24.136854,0 120.694341,24.136857,0 120.694332,24.136946,0 120.695072,24.136964,0 120.696526,24.136992,0 120.696617,24.136999,0 120.696719,24.136999,0 120.697074,24.137019,0 120.697162,24.137020,0 120.697165,24.137214,0 120.697340,24.137265,0 120.697434,24.137280,0 120.698067,24.137311,0 120.698067,24.138291,0 120.698964,24.138273,0 120.699106,24.138278,0 120.699056,24.138454,0 120.699050,24.138485,0 120.699038,24.138543,0 120.699064,24.138606,0 120.699158,24.138740,0 120.699233,24.138876,0 120.700135,24.138882,0 120.700212,24.138883,0 120.700243,24.138883,0 120.701267,24.138883,0 120.701351,24.138881,0 120.701352,24.138994,0 120.701377,24.139335,0 120.701358,24.139386,0 120.701369,24.139910,0 120.701380,24.140116,0 120.701389,24.140191,0 120.701481,24.140200,0 120.701466,24.140666,0 120.701406,24.141555,0 120.701985,24.141553,0 120.702217,24.141557,0 120.702140,24.142111,0 120.703099,24.142138,0 120.703377,24.142149,0 120.703264,24.142719,0 120.703212,24.142902,0 120.703159,24.143134,0 120.703128,24.143395,0 120.703070,24.143801,0 120.703042,24.144007,0 120.702968,24.144539,0 120.703492,24.144521,0 120.704108,24.144513,0 120.704352,24.144507,0 120.704310,24.144724,0 120.704291,24.144831,0 120.704116,24.145561,0 120.703932,24.146185,0 120.703933,24.146436,0 120.703964,24.146822,0 120.703994,24.147126,0 120.704315,24.147387,0 120.704533,24.147579,0 120.704822,24.147836,0 120.704927,24.147990,0 120.705083,24.148282,0 120.703906,24.148189,0 120.703665,24.148179,0 120.703630,24.148178,0 120.703363,24.148164,0 120.703179,24.148151,0 120.703193,24.148663,0 120.703212,24.149116,0 120.703222,24.149351,0 120.703257,24.150014,0 120.703303,24.150836,0 120.703323,24.151537,0 120.703335,24.151738,0 120.703381,24.152453,0 120.703431,24.152690,0 120.703507,24.152911,0 120.703683,24.153266,0 120.703086,24.153441,0 120.703017,24.153464,0 120.702999,24.153470,0 120.702009,24.153670,0 120.701957,24.153676,0 120.701873,24.153691,0 120.701990,24.153844,0 120.702371,24.154360,0 120.702546,24.154602,0 120.702673,24.154776,0 120.702948,24.155239,0 120.703081,24.155467,0 120.703121,24.155547,0 120.703305,24.155948,0 120.703485,24.156393,0 120.703587,24.156702,0 120.703632,24.156839,0 120.703706,24.157132,0 120.703800,24.157501,0 120.703865,24.158029,0 120.703914,24.158431,0 120.703928,24.158653,0 120.703931,24.158871,0 120.703916,24.159051,0 120.703885,24.159568,0 120.703427,24.159633,0 120.703422,24.159387,0 120.703405,24.158465,0 120.703395,24.157984,0 120.702678,24.157999,0 120.702777,24.158353,0 120.702883,24.158707,0 120.702898,24.158808,0 120.702878,24.158887,0 120.702838,24.158969,0 120.702771,24.159015,0 120.702696,24.159049,0 120.702150,24.159169,0 120.702206,24.159391,0 120.702100,24.159425,0 120.702015,24.159448,0 120.701943,24.159466,0 120.702058,24.159875,0 120.701177,24.160065,0 120.700471,24.160217,0 120.699795,24.160362,0 120.699758,24.160370,0 120.699776,24.160254,0 120.699664,24.160267,0 120.699569,24.160277,0 120.699418,24.160287,0 120.699438,24.160440,0 120.699397,24.160449,0 120.699178,24.160496,0 120.699089,24.160515,0 120.699011,24.160588,0 120.698971,24.160304,0 120.698953,24.160147,0 120.697488,24.160313,0 120.697456,24.160087,0 120.697431,24.159881,0 120.697341,24.159886,0 120.697338,24.159772,0 120.697339,24.159567,0 120.697335,24.159246,0 120.696967,24.159245,0 120.696937,24.158989,0 120.696872,24.158847,0 120.696768,24.158743,0 120.696581,24.158751,0 120.696394,24.158757,0 120.696338,24.158666,0 120.696260,24.158533,0 120.696216,24.158400,0 120.696115,24.158124,0 120.696110,24.157987,0 120.695966,24.157985,0 120.695975,24.157755,0 120.695982,24.157579,0 120.695965,24.157145,0 120.695965,24.156719,0 120.695965,24.156172,0 120.695956,24.155641,0 120.695231,24.155651,0 120.695244,24.155955,0 120.695438,24.156175,0 120.695718,24.156457,0 120.695772,24.156720,0 120.695965,24.156719,0 120.695965,24.157145,0 120.695982,24.157579,0 120.695975,24.157755,0 120.695966,24.157985,0 120.695966,24.158397,0 120.695954,24.158810,0 120.695955,24.158864,0 120.695953,24.159054,0 120.695952,24.159247,0 120.695951,24.159521,0 120.695954,24.159881,0 120.695961,24.160347,0 120.695987,24.160567,0 120.696053,24.161040,0 120.694980,24.161230,0 120.694599,24.161297,0 120.694588,24.161299,0 120.694419,24.161318,0 120.694347,24.161322,0 120.694293,24.161305,0 120.694263,24.161375,0 120.694216,24.161386,0 120.694167,24.161362,0 120.694140,24.161397,0 120.694061,24.161507,0 120.693883,24.161698,0 120.693680,24.161847,0 120.693607,24.161900,0 120.693541,24.161948,0 120.693291,24.162081,0 120.693180,24.162140,0 120.693013,24.162220,0 120.692875,24.162291,0 120.692831,24.162211,0 120.692797,24.162150,0 120.692787,24.162112,0 120.692750,24.162120,0 120.692681,24.162146,0 120.692581,24.162183,0 120.692509,24.162210,0 120.692445,24.162249,0 120.692405,24.162234,0 120.692435,24.162121,0 120.692427,24.161922,0 120.692398,24.161728,0 120.691524,24.161888,0 120.690986,24.162005,0 120.690406,24.162111,0 120.689823,24.162199,0 120.689818,24.161575,0 120.689812,24.161476,0 120.689252,24.161488,0 120.689250,24.161405,0 120.689253,24.161313,0 120.689293,24.161180,0 120.689309,24.161106,0 120.689311,24.161027,0 120.689128,24.161035,0 120.688952,24.161069,0 120.688816,24.161098,0 120.688811,24.160854,0 120.688788,24.160854,0 120.688785,24.160627,0 120.689156,24.160629,0 120.689077,24.160480,0 120.688176,24.160493,0 120.688175,24.160430,0 120.688174,24.160222,0 120.688933,24.160207,0 120.688881,24.160119,0 120.688863,24.160012,0 120.688842,24.159819,0 120.688802,24.159578,0 120.688620,24.158977,0 120.688044,24.159001,0 120.688043,24.158922,0 120.687925,24.158922,0 120.687826,24.158676,0 120.687467,24.157788,0 120.687293,24.157399,0 120.687912,24.157266,0 120.688602,24.157103,0 120.688866,24.157052,0 120.688617,24.156832,0 120.688342,24.156592,0 120.688245,24.156508,0 120.688304,24.156451,0 120.688348,24.156408,0 120.688515,24.156570,0 120.688739,24.156704,0 120.688780,24.156740,0 120.688862,24.156810,0 120.689067,24.156976,0 120.689114,24.157018,0 120.689005,24.157054,0 120.689575,24.157521,0 120.689605,24.157546,0 120.689729,24.157648,0 120.689714,24.157779,0 120.689619,24.157872,0 120.689598,24.157892,0 120.689000,24.158473,0 120.688967,24.158515,0 120.688578,24.158520,0 120.688520,24.158551,0 120.688057,24.158638,0 120.687826,24.158676,0 120.687925,24.158922,0 120.687854,24.158923,0 120.687415,24.158918,0 120.687317,24.158917,0 120.686740,24.158926,0 120.686742,24.159011,0 120.686746,24.159146,0 120.686677,24.159147,0 120.686595,24.159148,0 120.686591,24.159013,0 120.685709,24.159036,0 120.685686,24.159036,0 120.685573,24.159039,0 120.685540,24.159039,0 120.685452,24.159041,0 120.685226,24.159044,0 120.685227,24.159156,0 120.685189,24.159203,0 120.685188,24.159281,0 120.685186,24.159656,0 120.685186,24.159674,0 120.685185,24.159700,0 120.685179,24.160170,0 120.685102,24.160169,0 120.685007,24.160168,0 120.684939,24.160175,0 120.684889,24.160221,0 120.684890,24.160276,0 120.683931,24.160288,0 120.683683,24.160292,0 120.683675,24.159720,0 120.683362,24.159716,0 120.683306,24.159745,0 120.683132,24.159218,0 120.683076,24.159215,0 120.683051,24.159076,0 120.682350,24.159084,0 120.681884,24.159089,0 120.681704,24.159091,0 120.681492,24.159093,0 120.681492,24.158160,0 120.681442,24.158160,0 120.681113,24.158160,0 120.681116,24.158103,0 120.681207,24.157689,0 120.681084,24.157668,0 120.680947,24.157640,0 120.680965,24.157548,0 120.681006,24.157343,0 120.681164,24.157355,0 120.681151,24.157394,0 120.681277,24.157406,0 120.681288,24.157341,0 120.681343,24.157323,0 120.681398,24.157305,0 120.681497,24.156840,0 120.681440,24.156726,0 120.681427,24.156667,0 120.681460,24.156525,0 120.681670,24.155999,0 120.681598,24.155982,0 120.681495,24.155962,0 120.681379,24.155939,0 120.681313,24.155824,0 120.681314,24.155719,0 120.680444,24.155715,0 120.680443,24.155626,0 120.680374,24.155627,0 120.680399,24.155427,0 120.680435,24.155096,0 120.680429,24.155026,0 120.680434,24.154962,0 120.680436,24.154931,0 120.680445,24.154738,0 120.680465,24.154646,0 120.680595,24.154364,0 120.680721,24.154062,0 120.680869,24.153749,0 120.680899,24.153688,0 120.680996,24.153480,0 120.681269,24.152859,0 120.681318,24.152751,0 120.681604,24.152147,0 120.681696,24.152117,0 120.682063,24.151994,0 120.682243,24.152416,0 120.683012,24.152149,0 120.683817,24.151886,0 120.683875,24.151867,0 120.683933,24.151846,0 120.683963,24.151912,0 120.683904,24.151934,0 120.683849,24.151955,0 120.683817,24.151886,0 120.683012,24.152149,0 120.683215,24.152620,0 120.683375,24.153002,0 120.683526,24.153365,0 120.683461,24.153389,0 120.683448,24.153436,0 120.683384,24.153474,0 120.682740,24.153230,0 120.682667,24.153178,0 120.682537,24.153130,0 120.682391,24.153088,0 120.682398,24.153169,0 120.682408,24.153288,0 120.681939,24.153100,0 120.681648,24.153723,0 120.680996,24.153480,0 120.680240,24.153188,0 120.679701,24.152982,0 120.679586,24.152938,0 120.679520,24.152913,0 120.679337,24.152841,0 120.679281,24.152814,0 120.678455,24.152498,0 120.678336,24.152451,0 120.677813,24.152248,0 120.678117,24.151636,0 120.678036,24.151605,0 120.677503,24.151396,0 120.677509,24.151259,0 120.677318,24.151183,0 120.677352,24.151085,0 120.677489,24.150681,0 120.677531,24.150557,0 120.677369,24.150538,0 120.677250,24.150543,0 120.677231,24.150422,0 120.677234,24.150320,0 120.677262,24.150201,0 120.676784,24.149751,0 120.677301,24.149298,0 120.677579,24.149054,0 120.677253,24.148729,0 120.677202,24.148673,0 120.677183,24.148629,0 120.677565,24.148289,0 120.677496,24.148173,0 120.677418,24.147933,0 120.677403,24.147703,0 120.677422,24.147525,0 120.677494,24.147258,0 120.677568,24.147133,0 120.677844,24.146801,0 120.678060,24.146452,0 120.678338,24.146715,0 120.678504,24.146507,0 120.678782,24.146127,0 120.679173,24.145540,0 120.679252,24.145399,0 120.679311,24.145302,0 120.679339,24.145257,0 120.679701,24.144959,0 120.680036,24.144665,0 120.680499,24.144274,0 120.680934,24.143892,0 120.681022,24.143815,0 120.681076,24.143768,0 120.681347,24.143536,0 120.681756,24.143179,0 120.682082,24.142895,0 120.682499,24.142531,0 120.682856,24.142220,0 120.683661,24.141518,0 120.683357,24.141221,0 120.683809,24.140823,0
</coordinates></LineString></Placemark>
</Document></kml>