<?xml version="1.0" encoding="UTF-8"?>
<kml xmlns="http://www.opengis.net/kml/2.2"><Document>
<name>東區 蜷睡貓咪 圖形路跑路線</name>
<Style id="r"><LineStyle><color>ff2000d6</color><width>4</width></LineStyle></Style>
<Placemark><name>英士公園</name><description>地標</description><Point><coordinates>120.675984,24.151633,0</coordinates></Point></Placemark>
<Placemark><name>育德園道</name><description>地標</description><Point><coordinates>120.676076,24.157367,0</coordinates></Point></Placemark>
<Placemark><name>育德園道</name><description>地標</description><Point><coordinates>120.674700,24.157365,0</coordinates></Point></Placemark>
<Placemark><name>東區 蜷睡貓咪 圖形路跑路線</name><styleUrl>#r</styleUrl><LineString><tessellate>1</tessellate><coordinates>
120.677238,24.151046,0 120.677218,24.151088,0 120.677150,24.151229,0 120.677211,24.151289,0 120.677213,24.151437,0 120.677223,24.152178,0 120.676787,24.152190,0 120.676549,24.152194,0 120.676551,24.152493,0 120.676553,24.152667,0 120.675421,24.152663,0 120.675435,24.153933,0 120.675430,24.154865,0 120.675413,24.155434,0 120.675385,24.155625,0 120.675517,24.155623,0 120.675518,24.155725,0 120.675519,24.155837,0 120.675405,24.155837,0 120.675490,24.156119,0 120.675608,24.156576,0 120.675776,24.157116,0 120.675780,24.157233,0 120.675787,24.157418,0 120.675790,24.157505,0 120.675971,24.158013,0 120.676050,24.157958,0 120.676125,24.158043,0 120.676170,24.158094,0 120.676212,24.158121,0 120.676315,24.158186,0 120.676367,24.158216,0 120.676370,24.158240,0 120.676630,24.158233,0 120.676896,24.158230,0 120.676982,24.158227,0 120.677700,24.158209,0 120.677659,24.158592,0 120.677640,24.158792,0 120.677594,24.159170,0 120.677541,24.159692,0 120.677532,24.159807,0 120.677917,24.159799,0 120.678649,24.159794,0 120.678591,24.160377,0 120.679220,24.160361,0 120.679973,24.160358,0 120.680970,24.160337,0 120.680971,24.160766,0 120.680972,24.160962,0 120.680971,24.161159,0 120.681727,24.161154,0 120.681731,24.161610,0 120.681736,24.162080,0 120.681738,24.162292,0 120.682352,24.162346,0 120.682902,24.162381,0 120.682906,24.162517,0 120.683043,24.162958,0 120.683003,24.162959,0 120.682460,24.162972,0 120.682459,24.163039,0 120.682459,24.163128,0 120.682453,24.163205,0 120.683049,24.163201,0 120.683083,24.163201,0 120.683179,24.163561,0 120.683206,24.163629,0 120.683293,24.163935,0 120.683365,24.164151,0 120.683493,24.164475,0 120.683704,24.164484,0 120.684329,24.164470,0 120.684927,24.164457,0 120.684927,24.164438,0 120.684918,24.163979,0 120.684920,24.163950,0 120.684920,24.163905,0 120.684921,24.163828,0 120.684922,24.163760,0 120.684926,24.163539,0 120.684908,24.163467,0 120.684792,24.163303,0 120.684825,24.163269,0 120.684856,24.163212,0 120.684869,24.163157,0 120.684867,24.163101,0 120.684865,24.162998,0 120.684862,24.162924,0 120.684854,24.162874,0 120.684930,24.162872,0 120.685006,24.162871,0 120.685108,24.162871,0 120.685186,24.162870,0 120.685249,24.162884,0 120.685327,24.162890,0 120.685357,24.162858,0 120.685392,24.162830,0 120.685349,24.162788,0 120.685348,24.162764,0 120.685344,24.162726,0 120.685466,24.162719,0 120.685727,24.162714,0 120.686385,24.162709,0 120.686692,24.162720,0 120.686693,24.162873,0 120.686693,24.162978,0 120.686694,24.163063,0 120.686694,24.163191,0 120.686695,24.163400,0 120.687466,24.163383,0 120.687501,24.163538,0 120.687526,24.163656,0 120.687625,24.163861,0 120.688472,24.163853,0 120.688511,24.163904,0 120.688605,24.163901,0 120.688577,24.163858,0 120.688539,24.163792,0 120.688510,24.163727,0 120.688458,24.163625,0 120.688428,24.163456,0 120.688422,24.163412,0 120.688414,24.163287,0 120.688401,24.163139,0 120.688427,24.163033,0 120.688457,24.162958,0 120.688358,24.162912,0 120.688359,24.162847,0 120.688337,24.162781,0 120.688335,24.162601,0 120.688357,24.162548,0 120.688383,24.162481,0 120.688418,24.162416,0 120.688493,24.162350,0 120.688559,24.162300,0 120.688687,24.162258,0 120.688785,24.162236,0 120.689095,24.162242,0 120.689140,24.162159,0 120.689200,24.162051,0 120.689240,24.161984,0 120.689239,24.161829,0 120.689221,24.161623,0 120.689252,24.161488,0 120.689812,24.161476,0 120.690220,24.161476,0 120.690791,24.161476,0 120.690886,24.161473,0 120.690975,24.161471,0 120.690985,24.161678,0 120.691393,24.161605,0 120.691400,24.161638,0 120.691761,24.161565,0 120.692112,24.161543,0 120.692147,24.161431,0 120.692267,24.161420,0 120.692359,24.161384,0 120.692474,24.161350,0 120.692898,24.161154,0 120.693327,24.160950,0 120.693920,24.160673,0 120.694337,24.160467,0 120.694344,24.160156,0 120.694343,24.159872,0 120.694425,24.159872,0 120.695219,24.159875,0 120.695474,24.159872,0 120.695954,24.159881,0 120.695951,24.159521,0 120.695952,24.159247,0 120.695953,24.159054,0 120.695955,24.158864,0 120.695954,24.158810,0 120.695966,24.158397,0 120.695966,24.157985,0 120.695975,24.157755,0 120.695982,24.157579,0 120.696390,24.157585,0 120.696667,24.157581,0 120.697344,24.157571,0 120.697344,24.157149,0 120.697341,24.156934,0 120.697343,24.156724,0 120.697345,24.156424,0 120.697344,24.155992,0 120.697353,24.155630,0 120.697446,24.155524,0 120.697620,24.155297,0 120.698291,24.155301,0 120.698379,24.155310,0 120.698453,24.155308,0 120.698917,24.155314,0 120.699021,24.155311,0 120.698952,24.154789,0 120.698863,24.154160,0 120.698714,24.153159,0 120.699536,24.153109,0 120.699504,24.152710,0 120.699485,24.152537,0 120.699439,24.152209,0 120.699889,24.152159,0 120.700570,24.152080,0 120.700267,24.151549,0 120.699907,24.150663,0 120.699742,24.150202,0 120.699586,24.149690,0 120.699527,24.149406,0 120.699497,24.149272,0 120.699376,24.149186,0 120.699255,24.148948,0 120.699226,24.148677,0 120.699232,24.148443,0 120.699261,24.148140,0 120.699356,24.147987,0 120.699352,24.147903,0 120.699350,24.147596,0 120.699355,24.146857,0 120.699395,24.146578,0 120.699488,24.145962,0 120.699579,24.145311,0 120.699595,24.145156,0 120.699660,24.144690,0 120.698567,24.144685,0 120.698536,24.144685,0 120.698057,24.144687,0 120.697556,24.144686,0 120.697455,24.144681,0 120.697092,24.144693,0 120.697067,24.144689,0 120.696990,24.144689,0 120.696858,24.144693,0 120.696729,24.143990,0 120.696588,24.143535,0 120.696306,24.142913,0 120.696271,24.142855,0 120.696240,24.142812,0 120.696185,24.142775,0 120.696452,24.142778,0 120.696364,24.142681,0 120.696344,24.142615,0 120.696330,24.142566,0 120.696312,24.142484,0 120.696271,24.142358,0 120.696209,24.142263,0 120.696132,24.142166,0 120.696044,24.142068,0 120.695966,24.141987,0 120.695894,24.141931,0 120.695773,24.141872,0 120.695577,24.141803,0 120.695490,24.141759,0 120.695429,24.141717,0 120.695365,24.141644,0 120.695352,24.141612,0 120.695287,24.141517,0 120.695211,24.141614,0 120.695004,24.141891,0 120.694803,24.141771,0 120.694781,24.141658,0 120.694752,24.141636,0 120.694306,24.141633,0 120.694324,24.141170,0 120.693479,24.141152,0 120.693482,24.140738,0 120.693599,24.140536,0 120.692936,24.140270,0 120.692442,24.140083,0 120.692339,24.140041,0 120.690979,24.140047,0 120.690464,24.140073,0 120.690246,24.140077,0 120.689944,24.140082,0 120.689273,24.140093,0 120.689166,24.140095,0 120.688383,24.140118,0 120.688368,24.139876,0 120.688180,24.139884,0 120.688173,24.139667,0 120.688039,24.139667,0 120.688042,24.139483,0 120.688383,24.139478,0 120.688384,24.139407,0 120.688374,24.139303,0 120.688045,24.139297,0 120.687771,24.139284,0 120.687760,24.138829,0 120.687744,24.138105,0 120.687509,24.138102,0 120.687125,24.138101,0 120.687014,24.138103,0 120.686768,24.138098,0 120.686371,24.138070,0 120.686114,24.138052,0 120.686064,24.138091,0 120.685867,24.138244,0 120.685699,24.138373,0 120.685635,24.138425,0 120.685205,24.138818,0 120.684761,24.139205,0 120.684677,24.139275,0 120.684641,24.139307,0 120.684530,24.139407,0 120.684139,24.139745,0 120.683761,24.140079,0 120.683121,24.139473,0 120.683070,24.139519,0 120.682987,24.139436,0 120.682904,24.139353,0 120.682949,24.139314,0 120.682272,24.138637,0 120.681853,24.139003,0 120.681460,24.139351,0 120.681019,24.139738,0 120.680641,24.140066,0 120.680247,24.140420,0 120.679866,24.140743,0 120.679533,24.141022,0 120.679322,24.141202,0 120.678960,24.141514,0 120.678787,24.141672,0 120.678055,24.142303,0 120.677832,24.142496,0 120.677587,24.142704,0 120.677552,24.142631,0 120.677490,24.142678,0 120.677421,24.142734,0 120.677380,24.142796,0 120.677162,24.142990,0 120.677118,24.142990,0 120.677092,24.142990,0 120.677025,24.143023,0 120.677041,24.143062,0 120.676989,24.143087,0 120.676659,24.143189,0 120.676451,24.143266,0 120.676332,24.143332,0 120.676203,24.143217,0 120.675454,24.143925,0 120.675364,24.144001,0 120.675316,24.144323,0 120.675295,24.144461,0 120.675224,24.144704,0 120.675254,24.144734,0 120.675162,24.144827,0 120.675216,24.144914,0 120.675203,24.145136,0 120.675166,24.145291,0 120.675098,24.145578,0 120.675032,24.145849,0 120.675019,24.146141,0 120.675122,24.146277,0 120.674935,24.146439,0 120.674891,24.146477,0 120.674668,24.146670,0 120.674609,24.146721,0 120.674683,24.146791,0 120.675039,24.147133,0 120.674552,24.147571,0 120.674836,24.147836,0 120.675340,24.147422,0 120.675563,24.147190,0 120.675822,24.146981,0 120.676708,24.146172,0 120.677296,24.145696,0 120.677845,24.145221,0 120.678268,24.144849,0 120.678281,24.144835,0 120.678361,24.144755,0 120.678476,24.144657,0 120.679013,24.144204,0 120.679055,24.144168,0 120.679182,24.144060,0 120.679293,24.143950,0 120.679675,24.144299,0 120.680157,24.143909,0 120.680499,24.144274,0 120.680934,24.143892,0 120.681022,24.143815,0 120.681076,24.143768,0 120.681347,24.143536,0 120.681756,24.143179,0 120.682082,24.142895,0 120.682870,24.143636,0 120.683012,24.143738,0 120.683266,24.143922,0 120.683474,24.144386,0 120.683608,24.144627,0 120.683629,24.144662,0 120.683765,24.144728,0 120.683877,24.144782,0 120.684195,24.144794,0 120.684668,24.144721,0 120.684811,24.144722,0 120.684924,24.144622,0 120.685215,24.144608,0 120.685835,24.144443,0 120.686006,24.144423,0 120.686057,24.144578,0 120.686066,24.144605,0 120.686086,24.144670,0 120.686214,24.144649,0 120.686293,24.144631,0 120.686381,24.144937,0 120.686602,24.145362,0 120.686835,24.145784,0 120.687798,24.145714,0 120.688657,24.145644,0 120.689427,24.145590,0 120.689466,24.146116,0 120.689497,24.146334,0 120.689503,24.146520,0 120.689510,24.146754,0 120.689528,24.146909,0 120.689486,24.147009,0 120.689058,24.146876,0 120.688684,24.146780,0 120.688618,24.146954,0 120.688643,24.147009,0 120.688830,24.147191,0 120.689027,24.147345,0 120.689061,24.147373,0 120.689135,24.147438,0 120.689421,24.147732,0 120.689543,24.147923,0 120.689598,24.148061,0 120.689631,24.148296,0 120.689677,24.148547,0 120.690178,24.148505,0 120.690305,24.148528,0 120.690469,24.148570,0 120.690667,24.148658,0 120.690870,24.148827,0 120.690958,24.148978,0 120.691027,24.149057,0 120.691044,24.149140,0 120.691086,24.149275,0 120.691096,24.149307,0 120.691215,24.149811,0 120.691220,24.149866,0 120.691221,24.149923,0 120.691169,24.149982,0 120.691098,24.150040,0 120.690922,24.150118,0 120.690285,24.150326,0 120.689865,24.150464,0 120.688181,24.151017,0 120.688476,24.151722,0 120.688763,24.152433,0 120.688673,24.152473,0 120.687492,24.152880,0 120.687374,24.152638,0 120.687314,24.152577,0 120.687266,24.152557,0 120.687195,24.152561,0 120.686514,24.152822,0 120.686353,24.152455,0 120.685563,24.152754,0 120.685537,24.152680,0 120.685485,24.152669,0 120.685398,24.152699,0 120.685288,24.152739,0 120.685237,24.152759,0 120.685218,24.152810,0 120.684909,24.152916,0 120.684927,24.152960,0 120.684644,24.153061,0 120.684461,24.153127,0 120.684397,24.153150,0 120.683641,24.153429,0 120.683605,24.153335,0 120.683526,24.153365,0 120.683375,24.153002,0 120.683215,24.152620,0 120.683012,24.152149,0 120.682243,24.152416,0 120.682063,24.151994,0 120.681696,24.152117,0 120.681604,24.152147,0 120.681257,24.152006,0 120.681200,24.151806,0 120.681084,24.151526,0 120.680887,24.151062,0 120.680737,24.150694,0 120.680476,24.150081,0 120.680380,24.150112,0 120.679753,24.150361,0 120.679287,24.149782,0 120.679217,24.149836,0 120.679061,24.149943,0 120.678989,24.149988,0 120.678918,24.150077,0 120.678477,24.150941,0 120.677531,24.150557,0 120.677489,24.150681,0 120.677352,24.151085,0 120.677238,24.151046,0
</coordinates></LineString></Placemark>
</Document></kml>