<?xml version="1.0" encoding="UTF-8"?>
<kml xmlns="http://www.opengis.net/kml/2.2"><Document>
<name>東區 貓臉（正面） 圖形路跑路線</name>
<Style id="r"><LineStyle><color>ff2000d6</color><width>4</width></LineStyle></Style>
<Placemark><name>豬事圓滿公園</name><description>地標</description><Point><coordinates>120.699980,24.155314,0</coordinates></Point></Placemark>
<Placemark><name>三賢公園</name><description>地標</description><Point><coordinates>120.708199,24.146777,0</coordinates></Point></Placemark>
<Placemark><name>進業公園</name><description>地標</description><Point><coordinates>120.709261,24.146380,0</coordinates></Point></Placemark>
<Placemark><name>東區 貓臉（正面） 圖形路跑路線</name><styleUrl>#r</styleUrl><LineString><tessellate>1</tessellate><coordinates>
120.693696,24.151628,0 120.694373,24.151595,0 120.694365,24.151091,0 120.694430,24.151088,0 120.694646,24.151077,0 120.695187,24.151047,0 120.695410,24.151039,0 120.695720,24.151026,0 120.696071,24.150983,0 120.696094,24.150980,0 120.696620,24.150903,0 120.696621,24.150907,0 120.696634,24.150923,0 120.696653,24.150935,0 120.696676,24.150938,0 120.696685,24.150986,0 120.696714,24.151182,0 120.696759,24.151428,0 120.696766,24.151477,0 120.696798,24.151662,0 120.696810,24.151732,0 120.696859,24.152013,0 120.696943,24.152306,0 120.697041,24.152602,0 120.697089,24.152746,0 120.697163,24.152962,0 120.697181,24.153035,0 120.697235,24.153252,0 120.697251,24.153318,0 120.697331,24.153650,0 120.697408,24.153985,0 120.697491,24.154312,0 120.697572,24.154664,0 120.697620,24.154845,0 120.697627,24.155020,0 120.697620,24.155297,0 120.698291,24.155301,0 120.698379,24.155310,0 120.698453,24.155308,0 120.698917,24.155314,0 120.699021,24.155311,0 120.698952,24.154789,0 120.699663,24.154662,0 120.700577,24.154495,0 120.700474,24.154609,0 120.700353,24.154942,0 120.700522,24.155036,0 120.700569,24.155104,0 120.700585,24.155166,0 120.700585,24.155220,0 120.700572,24.155577,0 120.700566,24.155794,0 120.700577,24.155821,0 120.700603,24.155835,0 120.700903,24.155835,0 120.700944,24.155974,0 120.701284,24.157152,0 120.701553,24.157091,0 120.701216,24.155950,0 120.701803,24.155835,0 120.701866,24.155805,0 120.701867,24.155758,0 120.702172,24.155631,0 120.702948,24.155239,0 120.702673,24.154776,0 120.702546,24.154602,0 120.702371,24.154360,0 120.701990,24.153844,0 120.701873,24.153691,0 120.701957,24.153676,0 120.702009,24.153670,0 120.702999,24.153470,0 120.703017,24.153464,0 120.703086,24.153441,0 120.703683,24.153266,0 120.703507,24.152911,0 120.703431,24.152690,0 120.703381,24.152453,0 120.703335,24.151738,0 120.703323,24.151537,0 120.703303,24.150836,0 120.703823,24.150816,0 120.704699,24.150782,0 120.704691,24.150541,0 120.704755,24.150493,0 120.704825,24.150470,0 120.705036,24.150460,0 120.705204,24.150476,0 120.705421,24.150524,0 120.705443,24.150431,0 120.705453,24.150046,0 120.705465,24.149607,0 120.705463,24.149565,0 120.705463,24.149189,0 120.705660,24.149042,0 120.705209,24.148448,0 120.705083,24.148282,0 120.705672,24.148420,0 120.706335,24.148589,0 120.706319,24.147981,0 120.707637,24.148024,0 120.707904,24.148037,0 120.707910,24.147393,0 120.708214,24.147395,0 120.708462,24.147382,0 120.708467,24.146771,0 120.708472,24.146149,0 120.709594,24.146149,0 120.709454,24.145562,0 120.709322,24.145063,0 120.709159,24.144454,0 120.708994,24.143864,0 120.710039,24.143859,0 120.710029,24.143317,0 120.710020,24.142730,0 120.710007,24.142233,0 120.710002,24.141771,0 120.710601,24.141778,0 120.710499,24.141383,0 120.710449,24.140943,0 120.710434,24.140847,0 120.710392,24.140611,0 120.710328,24.140418,0 120.710304,24.140178,0 120.710263,24.139774,0 120.710147,24.138262,0 120.708924,24.138585,0 120.708570,24.137968,0 120.708441,24.137743,0 120.708257,24.137422,0 120.708701,24.137209,0 120.708831,24.137143,0 120.708886,24.137094,0 120.708575,24.136444,0 120.708435,24.136151,0 120.708197,24.135811,0 120.708168,24.135693,0 120.707983,24.135158,0 120.707939,24.135065,0 120.707589,24.134050,0 120.707511,24.133937,0 120.707212,24.133510,0 120.706950,24.133135,0 120.706908,24.133075,0 120.706639,24.132726,0 120.706596,24.132730,0 120.706355,24.132245,0 120.706334,24.132206,0 120.706076,24.132326,0 120.706001,24.132360,0 120.705994,24.132044,0 120.705502,24.132216,0 120.705474,24.132006,0 120.705409,24.131806,0 120.705220,24.131379,0 120.705072,24.131399,0 120.704888,24.131446,0 120.704406,24.131583,0 120.704121,24.130927,0 120.704371,24.130819,0 120.704206,24.130703,0 120.704028,24.130577,0 120.703866,24.130591,0 120.703749,24.130616,0 120.703580,24.130703,0 120.703385,24.130819,0 120.703164,24.130955,0 120.702916,24.131114,0 120.702650,24.130659,0 120.702523,24.130607,0 120.702345,24.130559,0 120.702391,24.130416,0 120.702446,24.130244,0 120.702360,24.130205,0 120.702407,24.130015,0 120.702325,24.130022,0 120.702095,24.129969,0 120.701720,24.129988,0 120.701443,24.130056,0 120.701433,24.129732,0 120.701371,24.129219,0 120.701328,24.128914,0 120.701318,24.128843,0 120.701583,24.128387,0 120.702092,24.127513,0 120.702018,24.127472,0 120.701943,24.127449,0 120.700811,24.127265,0 120.700701,24.127249,0 120.700273,24.128010,0 120.700189,24.127961,0 120.699992,24.127957,0 120.698895,24.127959,0 120.698229,24.127961,0 120.698219,24.127740,0 120.697754,24.127747,0 120.697009,24.127759,0 120.696959,24.127776,0 120.696919,24.127799,0 120.696904,24.127812,0 120.696882,24.127820,0 120.696838,24.127829,0 120.696784,24.127812,0 120.696517,24.127872,0 120.696502,24.127256,0 120.696266,24.127257,0 120.695238,24.127245,0 120.695087,24.127245,0 120.694894,24.127288,0 120.694663,24.127479,0 120.694611,24.127538,0 120.694566,24.127608,0 120.694551,24.127631,0 120.694498,24.127720,0 120.694399,24.127636,0 120.694371,24.127605,0 120.694343,24.127544,0 120.694336,24.127512,0 120.694355,24.127486,0 120.693485,24.126819,0 120.693442,24.126822,0 120.693402,24.126822,0 120.693335,24.126794,0 120.693216,24.126705,0 120.693196,24.126717,0 120.693147,24.126762,0 120.693149,24.126870,0 120.693145,24.126978,0 120.693145,24.127023,0 120.692943,24.127021,0 120.692947,24.127656,0 120.692433,24.127659,0 120.691675,24.127655,0 120.690639,24.127648,0 120.690479,24.127645,0 120.690479,24.127715,0 120.690323,24.127716,0 120.690217,24.127717,0 120.690103,24.127718,0 120.690102,24.127646,0 120.689636,24.127655,0 120.689430,24.127660,0 120.688830,24.127654,0 120.688828,24.128301,0 120.688645,24.128300,0 120.688639,24.128922,0 120.688648,24.129635,0 120.687965,24.129624,0 120.687326,24.129627,0 120.687326,24.130282,0 120.687330,24.130403,0 120.687313,24.130497,0 120.686759,24.131615,0 120.685782,24.131206,0 120.685370,24.131020,0 120.684922,24.130833,0 120.684778,24.130773,0 120.684624,24.130708,0 120.684340,24.130580,0 120.684229,24.130542,0 120.683896,24.131176,0 120.683612,24.131775,0 120.683090,24.131546,0 120.682494,24.132768,0 120.682848,24.132910,0 120.682559,24.133489,0 120.682252,24.134092,0 120.681888,24.133942,0 120.681861,24.134009,0 120.681856,24.134106,0 120.681739,24.134358,0 120.681693,24.134441,0 120.681176,24.134230,0 120.681151,24.134219,0 120.680600,24.133977,0 120.680446,24.134280,0 120.680435,24.134303,0 120.680371,24.134433,0 120.680347,24.134476,0 120.680158,24.134859,0 120.680087,24.134943,0 120.680076,24.135122,0 120.680740,24.135771,0 120.681119,24.136122,0 120.680736,24.136458,0 120.680350,24.136793,0 120.679956,24.137137,0 120.680360,24.137525,0 120.680035,24.137829,0 120.679949,24.137909,0 120.679844,24.137999,0 120.679522,24.138273,0 120.679397,24.138374,0 120.679311,24.138448,0 120.679252,24.138499,0 120.679207,24.138540,0 120.679293,24.138625,0 120.679293,24.138640,0 120.679223,24.138700,0 120.679464,24.138935,0 120.679888,24.139349,0 120.680365,24.139807,0 120.680641,24.140066,0 120.680247,24.140420,0 120.679866,24.140743,0 120.680265,24.141134,0 120.680539,24.141410,0 120.680501,24.141443,0 120.680503,24.141472,0 120.680572,24.141539,0 120.680372,24.141711,0 120.680306,24.141770,0 120.680149,24.141905,0 120.680090,24.141958,0 120.679907,24.142118,0 120.680253,24.142443,0 120.680629,24.142804,0 120.680283,24.143115,0 120.680678,24.143486,0 120.680157,24.143909,0 120.680499,24.144274,0 120.680036,24.144665,0 120.680415,24.145014,0 120.680820,24.145409,0 120.681237,24.145821,0 120.681600,24.145500,0 120.682075,24.145279,0 120.682231,24.145573,0 120.682343,24.145771,0 120.682384,24.145859,0 120.682506,24.146102,0 120.682970,24.147215,0 120.683439,24.148310,0 120.683541,24.148273,0 120.683858,24.148158,0 120.684020,24.148535,0 120.684629,24.148332,0 120.684756,24.148620,0 120.684797,24.148719,0 120.684184,24.148922,0 120.684364,24.149349,0 120.684516,24.149729,0 120.684350,24.149802,0 120.684369,24.149886,0 120.684339,24.149979,0 120.684270,24.150001,0 120.684337,24.150174,0 120.684442,24.150421,0 120.684568,24.150723,0 120.684920,24.151550,0 120.685099,24.151986,0 120.685296,24.152457,0 120.685398,24.152699,0 120.685288,24.152739,0 120.685237,24.152759,0 120.685218,24.152810,0 120.684909,24.152916,0 120.684927,24.152960,0 120.684644,24.153061,0 120.684792,24.153418,0 120.684921,24.153795,0 120.684680,24.153880,0 120.684578,24.153941,0 120.684773,24.154018,0 120.684748,24.154073,0 120.684707,24.154158,0 120.685036,24.154283,0 120.684750,24.154903,0 120.685807,24.155305,0 120.685817,24.155280,0 120.686008,24.154834,0 120.686086,24.154870,0 120.686187,24.154920,0 120.686266,24.154967,0 120.686310,24.154981,0 120.686376,24.154913,0 120.686449,24.154840,0 120.686478,24.154811,0 120.686519,24.154738,0 120.686451,24.154625,0 120.686413,24.154550,0 120.686773,24.154431,0 120.687097,24.154320,0 120.686955,24.153978,0 120.686850,24.153712,0 120.687753,24.153397,0 120.687764,24.153418,0 120.687838,24.153387,0 120.688050,24.153320,0 120.688911,24.153039,0 120.688873,24.152939,0 120.688828,24.152833,0 120.688913,24.152805,0 120.688966,24.152787,0 120.689008,24.152893,0 120.689315,24.152799,0 120.690261,24.152460,0 120.690933,24.152231,0 120.691245,24.152124,0 120.691501,24.152169,0 120.692244,24.151907,0 120.692352,24.151735,0 120.692483,24.151687,0 120.693178,24.151652,0 120.693696,24.151628,0
</coordinates></LineString></Placemark>
</Document></kml>