<?xml version="1.0" encoding="UTF-8"?>
<kml xmlns="http://www.opengis.net/kml/2.2"><Document>
<name>豐原區 手繪蹲坐貓（原稿描圖） 圖形路跑路線</name>
<Style id="r"><LineStyle><color>ff2000d6</color><width>4</width></LineStyle></Style>
<Placemark><name>臺中綠空廊道</name><description>地標</description><Point><coordinates>120.716604,24.245319,0</coordinates></Point></Placemark>
<Placemark><name>臺中綠空廊道</name><description>地標</description><Point><coordinates>120.718301,24.247027,0</coordinates></Point></Placemark>
<Placemark><name>墩腳公園</name><description>地標</description><Point><coordinates>120.716325,24.251173,0</coordinates></Point></Placemark>
<Placemark><name>豐原區 手繪蹲坐貓（原稿描圖） 圖形路跑路線</name><styleUrl>#r</styleUrl><LineString><tessellate>1</tessellate><coordinates>
120.718848,24.245196,0 120.718751,24.244813,0 120.718660,24.244822,0 120.718385,24.244845,0 120.718030,24.244885,0 120.717954,24.244887,0 120.717924,24.244934,0 120.717345,24.246043,0 120.717324,24.246082,0 120.717324,24.246083,0 120.717274,24.246181,0 120.717249,24.246675,0 120.717226,24.247104,0 120.717215,24.247305,0 120.717165,24.248241,0 120.717082,24.248243,0 120.717077,24.248285,0 120.717029,24.248355,0 120.716976,24.248420,0 120.716929,24.248519,0 120.717018,24.249238,0 120.717043,24.249443,0 120.716322,24.249337,0 120.716263,24.249330,0 120.716306,24.250613,0 120.715884,24.250646,0 120.715866,24.250791,0 120.715688,24.251246,0 120.715665,24.251306,0 120.715621,24.251418,0 120.715498,24.251381,0 120.715442,24.251364,0 120.714658,24.251125,0 120.714600,24.251105,0 120.714425,24.251050,0 120.714252,24.251033,0 120.714208,24.251028,0 120.713816,24.250989,0 120.712721,24.250841,0 120.712677,24.250913,0 120.712554,24.251547,0 120.712465,24.252084,0 120.712390,24.252540,0 120.712331,24.252937,0 120.712321,24.253028,0 120.712307,24.253116,0 120.712310,24.253209,0 120.713397,24.253279,0 120.713921,24.253467,0 120.713889,24.253533,0 120.713770,24.253837,0 120.713563,24.254386,0 120.713145,24.255215,0 120.713314,24.255208,0 120.713550,24.255208,0 120.713778,24.255208,0 120.713916,24.255218,0 120.713829,24.255502,0 120.714557,24.255678,0 120.714766,24.255723,0 120.715406,24.255839,0 120.715481,24.255687,0 120.715518,24.255621,0 120.715707,24.255300,0 120.715791,24.254588,0 120.715892,24.254705,0 120.716070,24.254771,0 120.716177,24.254797,0 120.716332,24.254808,0 120.717069,24.254842,0 120.717410,24.254849,0 120.717887,24.254866,0 120.718106,24.254815,0 120.718053,24.254684,0 120.717946,24.254438,0 120.717996,24.254295,0 120.718617,24.254370,0 120.718649,24.254114,0 120.718681,24.253849,0 120.719274,24.253916,0 120.719293,24.253791,0 120.719335,24.253508,0 120.719889,24.253576,0 120.720680,24.253689,0 120.720782,24.253700,0 120.720929,24.253725,0 120.721214,24.253757,0 120.721441,24.253824,0 120.721562,24.253860,0 120.721901,24.253950,0 120.722275,24.254050,0 120.722365,24.254050,0 120.722453,24.253771,0 120.722411,24.253655,0 120.722326,24.253567,0 120.722084,24.253313,0 120.722427,24.253056,0 120.722130,24.252430,0 120.722261,24.252365,0 120.722186,24.252215,0 120.722166,24.252174,0 120.722148,24.252138,0 120.722137,24.252108,0 120.722195,24.252113,0 120.722225,24.252115,0 120.722265,24.252118,0 120.722470,24.252130,0 120.722509,24.252190,0 120.722525,24.252214,0 120.722629,24.252378,0 120.722669,24.252419,0 120.723106,24.252911,0 120.723453,24.252635,0 120.723716,24.252478,0 120.723578,24.252207,0 120.723503,24.252076,0 120.723597,24.251972,0 120.723747,24.251907,0 120.723770,24.251718,0 120.723785,24.251594,0 120.723850,24.251053,0 120.724335,24.250803,0 120.724539,24.250698,0 120.724748,24.250609,0 120.724680,24.250538,0 120.725006,24.250324,0 120.725550,24.249917,0 120.725681,24.250177,0 120.726027,24.250022,0 120.726822,24.249644,0 120.727580,24.249283,0 120.727650,24.249251,0 120.727939,24.249774,0 120.728219,24.250292,0 120.728633,24.251025,0 120.728877,24.250951,0 120.729005,24.250982,0 120.729234,24.250978,0 120.729416,24.250949,0 120.729626,24.250932,0 120.729866,24.250921,0 120.729702,24.250632,0 120.729660,24.250558,0 120.730538,24.250118,0 120.730951,24.250722,0 120.731206,24.251342,0 120.731763,24.251075,0 120.731922,24.251030,0 120.732364,24.251746,0 120.731444,24.251935,0 120.731351,24.251950,0 120.731306,24.251676,0 120.731515,24.251585,0 120.731987,24.251379,0 120.731892,24.251202,0 120.731263,24.251478,0 120.731306,24.251676,0 120.731351,24.251950,0 120.731444,24.251935,0 120.732364,24.251746,0 120.731922,24.251030,0 120.731763,24.251075,0 120.731679,24.250905,0 120.731452,24.250706,0 120.731213,24.250555,0 120.730951,24.250722,0 120.730538,24.250118,0 120.729900,24.249298,0 120.729912,24.249231,0 120.730481,24.248813,0 120.730264,24.248511,0 120.730190,24.248596,0 120.729602,24.248675,0 120.729503,24.248699,0 120.729335,24.248712,0 120.729203,24.248715,0 120.729082,24.248732,0 120.728946,24.248768,0 120.728464,24.248834,0 120.727842,24.248857,0 120.727437,24.248855,0 120.727346,24.248851,0 120.727299,24.248775,0 120.726889,24.248047,0 120.726820,24.247925,0 120.726673,24.247659,0 120.725975,24.248105,0 120.725621,24.247470,0 120.725277,24.247517,0 120.725162,24.247532,0 120.725061,24.247546,0 120.724815,24.247596,0 120.724347,24.246961,0 120.724278,24.247009,0 120.724026,24.247187,0 120.723863,24.247302,0 120.723781,24.247356,0 120.723570,24.247116,0 120.723372,24.246909,0 120.723201,24.246728,0 120.723035,24.246871,0 120.722598,24.247024,0 120.722470,24.246850,0 120.722159,24.246396,0 120.721560,24.246759,0 120.721055,24.246149,0 120.720675,24.245688,0 120.720326,24.245254,0 120.720058,24.245417,0 120.719927,24.245576,0 120.719917,24.245590,0 120.719836,24.245712,0 120.719606,24.246058,0 120.719549,24.246143,0 120.719375,24.246405,0 120.719266,24.246513,0 120.719016,24.246075,0 120.718948,24.245932,0 120.718899,24.245778,0 120.718876,24.245433,0 120.718848,24.245196,0
</coordinates></LineString></Placemark>
</Document></kml>