<?xml version="1.0" encoding="UTF-8"?>
<kml xmlns="http://www.opengis.net/kml/2.2"><Document>
<name>后里區 手繪蹲坐貓（原稿描圖） 圖形路跑路線</name>
<Style id="r"><LineStyle><color>ff2000d6</color><width>4</width></LineStyle></Style>
<Placemark><name>義里里泉州厝小公園</name><description>地標</description><Point><coordinates>120.729036,24.312948,0</coordinates></Point></Placemark>
<Placemark><name>義里公園</name><description>地標</description><Point><coordinates>120.732109,24.308269,0</coordinates></Point></Placemark>
<Placemark><name>聆聽花開的聲音</name><description>地標</description><Point><coordinates>120.729362,24.306064,0</coordinates></Point></Placemark>
<Placemark><name>后里區 手繪蹲坐貓（原稿描圖） 圖形路跑路線</name><styleUrl>#r</styleUrl><LineString><tessellate>1</tessellate><coordinates>
120.718433,24.313197,0 120.718345,24.313209,0 120.718392,24.313345,0 120.718455,24.313543,0 120.718510,24.313740,0 120.718520,24.313861,0 120.718517,24.313993,0 120.718432,24.314664,0 120.718506,24.314666,0 120.718431,24.315196,0 120.718329,24.316013,0 120.718312,24.316208,0 120.718321,24.316280,0 120.718345,24.316363,0 120.718419,24.316519,0 120.718537,24.316691,0 120.718696,24.316930,0 120.718901,24.317236,0 120.719199,24.317683,0 120.719392,24.317609,0 120.719592,24.317552,0 120.721849,24.316965,0 120.721863,24.317030,0 120.722663,24.316830,0 120.723602,24.316595,0 120.724314,24.316416,0 120.724653,24.317667,0 120.724902,24.318639,0 120.724753,24.318678,0 120.724745,24.318656,0 120.724729,24.318640,0 120.724708,24.318629,0 120.724685,24.318627,0 120.724662,24.318631,0 120.724641,24.318643,0 120.724628,24.318660,0 120.724621,24.318683,0 120.723535,24.318941,0 120.722193,24.319261,0 120.722481,24.320445,0 120.721666,24.320627,0 120.721537,24.320115,0 120.720728,24.320306,0 120.720632,24.320276,0 120.720246,24.320359,0 120.720297,24.320651,0 120.720316,24.320788,0 120.720388,24.321791,0 120.720392,24.322008,0 120.720650,24.321948,0 120.722200,24.321542,0 120.722759,24.321418,0 120.723141,24.321351,0 120.723652,24.321273,0 120.724321,24.321238,0 120.725133,24.321222,0 120.725194,24.321012,0 120.725249,24.320726,0 120.725270,24.320439,0 120.725249,24.320163,0 120.725217,24.319848,0 120.725145,24.319557,0 120.724902,24.318639,0 120.725011,24.318611,0 120.724770,24.317676,0 120.724421,24.316389,0 120.725924,24.315949,0 120.727301,24.315560,0 120.727282,24.315489,0 120.727969,24.315331,0 120.728483,24.315236,0 120.728577,24.314756,0 120.728687,24.314300,0 120.729053,24.313316,0 120.728970,24.313312,0 120.728257,24.313384,0 120.727645,24.313519,0 120.727561,24.313538,0 120.727313,24.313598,0 120.727219,24.313390,0 120.727006,24.312893,0 120.726834,24.312375,0 120.726795,24.312327,0 120.726702,24.312293,0 120.726241,24.312415,0 120.726100,24.311896,0 120.725983,24.311462,0 120.725786,24.311229,0 120.725633,24.310965,0 120.725611,24.310696,0 120.725867,24.309078,0 120.726531,24.309132,0 120.726760,24.309496,0 120.727153,24.309556,0 120.727187,24.309864,0 120.727743,24.309877,0 120.727765,24.309753,0 120.728095,24.309813,0 120.728430,24.309875,0 120.728600,24.310489,0 120.728705,24.310845,0 120.728799,24.311205,0 120.729910,24.310969,0 120.729911,24.310964,0 120.729928,24.310919,0 120.730353,24.309736,0 120.730447,24.309474,0 120.730462,24.309397,0 120.730896,24.309417,0 120.731293,24.309444,0 120.731232,24.308957,0 120.731441,24.308941,0 120.731297,24.308408,0 120.731257,24.308091,0 120.731200,24.308092,0 120.731080,24.308098,0 120.730997,24.308102,0 120.730755,24.308066,0 120.730460,24.307914,0 120.730104,24.307718,0 120.729841,24.307564,0 120.729698,24.307925,0 120.729678,24.308272,0 120.729649,24.308270,0 120.729598,24.308783,0 120.730006,24.308807,0 120.729975,24.309373,0 120.728510,24.309279,0 120.728094,24.309243,0 120.727847,24.309231,0 120.727765,24.309753,0 120.727743,24.309877,0 120.727187,24.309864,0 120.727153,24.309556,0 120.726760,24.309496,0 120.726531,24.309132,0 120.725867,24.309078,0 120.725289,24.309056,0 120.725114,24.309047,0 120.724495,24.309008,0 120.724456,24.309573,0 120.724434,24.309852,0 120.724421,24.309924,0 120.724388,24.310134,0 120.724439,24.310297,0 120.724579,24.310767,0 120.724574,24.310784,0 120.724555,24.310798,0 120.724296,24.310867,0 120.723597,24.311066,0 120.723243,24.311154,0 120.723040,24.311203,0 120.722951,24.311224,0 120.722619,24.311318,0 120.722260,24.311409,0 120.722020,24.311447,0 120.722004,24.311520,0 120.721770,24.311805,0 120.721644,24.311942,0 120.721630,24.312036,0 120.721660,24.312136,0 120.721758,24.312256,0 120.721864,24.312282,0 120.720826,24.312500,0 120.720593,24.312549,0 120.720241,24.312644,0 120.720050,24.312673,0 120.719913,24.312689,0 120.719784,24.312665,0 120.719702,24.312637,0 120.719597,24.312606,0 120.719484,24.312563,0 120.719488,24.312675,0 120.719552,24.312968,0 120.718433,24.313197,0
</coordinates></LineString></Placemark>
</Document></kml>