<?xml version="1.0" encoding="UTF-8"?>
<kml xmlns="http://www.opengis.net/kml/2.2"><Document>
<name>龍井區 手繪蹲坐貓（原稿描圖） 圖形路跑路線</name>
<Style id="r"><LineStyle><color>ff2000d6</color><width>4</width></LineStyle></Style>
<Placemark><name>青山公園</name><description>地標</description><Point><coordinates>120.567338,24.225451,0</coordinates></Point></Placemark>
<Placemark><name>青年公園</name><description>地標</description><Point><coordinates>120.573519,24.221975,0</coordinates></Point></Placemark>
<Placemark><name>六福公園</name><description>地標</description><Point><coordinates>120.579208,24.216024,0</coordinates></Point></Placemark>
<Placemark><name>龍井區 手繪蹲坐貓（原稿描圖） 圖形路跑路線</name><styleUrl>#r</styleUrl><LineString><tessellate>1</tessellate><coordinates>
120.567724,24.216136,0 120.567741,24.216222,0 120.567787,24.216560,0 120.567709,24.216556,0 120.567392,24.216528,0 120.567005,24.216511,0 120.566659,24.216503,0 120.566304,24.216487,0 120.566307,24.216879,0 120.566457,24.216960,0 120.566593,24.217103,0 120.566641,24.217184,0 120.566847,24.217173,0 120.566829,24.217393,0 120.567068,24.217411,0 120.567229,24.217443,0 120.567384,24.217442,0 120.567371,24.217715,0 120.567481,24.218278,0 120.567663,24.218893,0 120.567771,24.219291,0 120.567834,24.219490,0 120.567860,24.219678,0 120.567863,24.219743,0 120.567847,24.219818,0 120.567723,24.220033,0 120.568568,24.220281,0 120.568708,24.220312,0 120.568721,24.220489,0 120.568682,24.220781,0 120.568989,24.220802,0 120.569233,24.220847,0 120.568996,24.221584,0 120.568838,24.222096,0 120.568802,24.222205,0 120.568759,24.222372,0 120.568718,24.222569,0 120.568708,24.222672,0 120.568339,24.222894,0 120.568256,24.222944,0 120.567994,24.223119,0 120.567793,24.223250,0 120.567505,24.223456,0 120.567496,24.223535,0 120.567374,24.223527,0 120.567211,24.223519,0 120.566500,24.223484,0 120.566471,24.224013,0 120.566773,24.223827,0 120.566974,24.223707,0 120.567195,24.223644,0 120.567145,24.223974,0 120.567120,24.224187,0 120.567045,24.224523,0 120.566488,24.225929,0 120.567143,24.226148,0 120.567917,24.226413,0 120.568008,24.226446,0 120.567865,24.226787,0 120.568095,24.226848,0 120.568621,24.226988,0 120.569406,24.227202,0 120.569815,24.225895,0 120.570021,24.225295,0 120.570055,24.225191,0 120.570535,24.225327,0 120.570591,24.225137,0 120.570646,24.224957,0 120.570650,24.224898,0 120.570583,24.224801,0 120.570512,24.224657,0 120.570701,24.224707,0 120.570757,24.224184,0 120.570998,24.224167,0 120.571205,24.224169,0 120.571471,24.224131,0 120.571793,24.224080,0 120.571795,24.224011,0 120.571859,24.224008,0 120.572131,24.223998,0 120.572420,24.223953,0 120.572890,24.223904,0 120.572663,24.223395,0 120.572183,24.222599,0 120.572582,24.222521,0 120.572845,24.222469,0 120.573279,24.222399,0 120.573983,24.222276,0 120.573858,24.221582,0 120.573832,24.221550,0 120.573782,24.221537,0 120.573717,24.221540,0 120.573740,24.221378,0 120.573786,24.221223,0 120.573770,24.221093,0 120.573690,24.220959,0 120.573672,24.220881,0 120.573658,24.220628,0 120.573697,24.220592,0 120.573706,24.220544,0 120.573370,24.219288,0 120.573994,24.219054,0 120.574494,24.220215,0 120.574598,24.220502,0 120.574941,24.220398,0 120.574870,24.220163,0 120.574993,24.220132,0 120.575060,24.220094,0 120.575087,24.220027,0 120.575061,24.219962,0 120.574682,24.218818,0 120.575428,24.218728,0 120.575234,24.218302,0 120.575128,24.218063,0 120.575001,24.217774,0 120.574763,24.217160,0 120.575340,24.216958,0 120.575394,24.216877,0 120.574692,24.215187,0 120.575340,24.214951,0 120.575999,24.216620,0 120.576036,24.216648,0 120.576090,24.216658,0 120.576626,24.216618,0 120.576678,24.216569,0 120.576799,24.216606,0 120.577028,24.216743,0 120.577129,24.216616,0 120.577436,24.216474,0 120.577478,24.216562,0 120.577526,24.216587,0 120.578068,24.216561,0 120.578138,24.216528,0 120.578162,24.216488,0 120.578079,24.216226,0 120.577916,24.215842,0 120.577854,24.215673,0 120.577950,24.214762,0 120.578051,24.214774,0 120.578258,24.214793,0 120.578632,24.214828,0 120.578584,24.215331,0 120.578570,24.215615,0 120.578635,24.215781,0 120.578950,24.216610,0 120.578979,24.216654,0 120.579056,24.216679,0 120.579715,24.216735,0 120.579789,24.216110,0 120.579864,24.215442,0 120.580078,24.215445,0 120.580241,24.215437,0 120.580239,24.215559,0 120.580273,24.215992,0 120.580316,24.216034,0 120.580405,24.216085,0 120.580468,24.216109,0 120.580552,24.216142,0 120.580637,24.216163,0 120.580745,24.216206,0 120.580761,24.216072,0 120.580852,24.215348,0 120.580944,24.214613,0 120.580896,24.214605,0 120.580833,24.214592,0 120.580723,24.214575,0 120.580670,24.214565,0 120.580616,24.214554,0 120.580651,24.214199,0 120.580530,24.214205,0 120.580404,24.214201,0 120.580218,24.214269,0 120.580112,24.214366,0 120.579987,24.214373,0 120.579982,24.214447,0 120.579974,24.214514,0 120.579924,24.214965,0 120.579270,24.214894,0 120.578935,24.214862,0 120.578632,24.214828,0 120.578258,24.214793,0 120.578051,24.214774,0 120.577950,24.214762,0 120.577279,24.214684,0 120.576943,24.214661,0 120.576562,24.214653,0 120.576192,24.214707,0 120.575881,24.214771,0 120.575674,24.214846,0 120.575340,24.214951,0 120.574692,24.215187,0 120.574029,24.215422,0 120.573448,24.215620,0 120.572485,24.215970,0 120.571872,24.216160,0 120.571501,24.216280,0 120.571360,24.216326,0 120.571256,24.216351,0 120.571121,24.216376,0 120.571012,24.216383,0 120.570853,24.216358,0 120.570952,24.216042,0 120.570980,24.215829,0 120.571004,24.215611,0 120.570909,24.215601,0 120.570863,24.215973,0 120.570059,24.216221,0 120.569204,24.216508,0 120.569088,24.216850,0 120.568589,24.216695,0 120.568450,24.216656,0 120.568373,24.216635,0 120.568300,24.216618,0 120.568175,24.216593,0 120.568053,24.216580,0 120.567787,24.216560,0 120.567741,24.216222,0 120.567724,24.216136,0
</coordinates></LineString></Placemark>
</Document></kml>