<?xml version="1.0" encoding="UTF-8"?>
<kml xmlns="http://www.opengis.net/kml/2.2"><Document>
<name>南屯區 蜷睡貓咪 圖形路跑路線</name>
<Style id="r"><LineStyle><color>ff2000d6</color><width>4</width></LineStyle></Style>
<Placemark><name>田心公園</name><description>地標</description><Point><coordinates>120.642680,24.139834,0</coordinates></Point></Placemark>
<Placemark><name>田新公園</name><description>地標</description><Point><coordinates>120.644305,24.142507,0</coordinates></Point></Placemark>
<Placemark><name>「TAICHUNG」大字藝術</name><description>地標</description><Point><coordinates>120.646256,24.144679,0</coordinates></Point></Placemark>
<Placemark><name>南屯區 蜷睡貓咪 圖形路跑路線</name><styleUrl>#r</styleUrl><LineString><tessellate>1</tessellate><coordinates>
120.644713,24.139715,0 120.644910,24.140091,0 120.644967,24.140179,0 120.645167,24.140559,0 120.644820,24.140656,0 120.644756,24.140667,0 120.644485,24.140731,0 120.644246,24.140805,0 120.643747,24.140974,0 120.643974,24.141522,0 120.644189,24.142153,0 120.643576,24.142288,0 120.643517,24.142359,0 120.643520,24.142447,0 120.643578,24.142919,0 120.642923,24.143012,0 120.643168,24.144021,0 120.643193,24.144118,0 120.643265,24.144392,0 120.643444,24.144407,0 120.643546,24.144396,0 120.643566,24.144431,0 120.643609,24.144452,0 120.643694,24.144461,0 120.643715,24.144493,0 120.643740,24.144507,0 120.643794,24.144515,0 120.643804,24.144543,0 120.643829,24.144566,0 120.643852,24.144572,0 120.643870,24.144605,0 120.643899,24.144614,0 120.643929,24.144613,0 120.644006,24.144720,0 120.644008,24.144731,0 120.644014,24.144740,0 120.644022,24.144748,0 120.644034,24.144754,0 120.644047,24.144756,0 120.644061,24.144754,0 120.644073,24.144749,0 120.644099,24.144782,0 120.644091,24.144792,0 120.644086,24.144804,0 120.644085,24.144816,0 120.644089,24.144828,0 120.644097,24.144839,0 120.644108,24.144846,0 120.644121,24.144851,0 120.644134,24.144851,0 120.644147,24.144847,0 120.644171,24.144873,0 120.644163,24.144883,0 120.644158,24.144895,0 120.644158,24.144908,0 120.644163,24.144921,0 120.644172,24.144931,0 120.644183,24.144938,0 120.644197,24.144941,0 120.644211,24.144940,0 120.644217,24.144938,0 120.644303,24.145040,0 120.644320,24.145034,0 120.644346,24.145028,0 120.644372,24.145030,0 120.644397,24.145040,0 120.644417,24.145057,0 120.644430,24.145080,0 120.644435,24.145105,0 120.644429,24.145130,0 120.644415,24.145152,0 120.644402,24.145163,0 120.644488,24.145255,0 120.644550,24.145325,0 120.644644,24.145374,0 120.644726,24.145385,0 120.644817,24.145384,0 120.644886,24.145424,0 120.644927,24.145472,0 120.644932,24.145477,0 120.644937,24.145537,0 120.644919,24.145634,0 120.644927,24.145709,0 120.644943,24.145782,0 120.645014,24.145899,0 120.645044,24.145942,0 120.645044,24.146062,0 120.645030,24.146151,0 120.645064,24.146253,0 120.645224,24.146336,0 120.645360,24.146419,0 120.645467,24.146478,0 120.645595,24.146541,0 120.645771,24.146573,0 120.645959,24.146555,0 120.646035,24.146523,0 120.646126,24.146473,0 120.646197,24.146415,0 120.646625,24.146793,0 120.646847,24.146792,0 120.646865,24.147740,0 120.647399,24.147741,0 120.647808,24.147741,0 120.648270,24.147741,0 120.648751,24.147741,0 120.649855,24.147741,0 120.649837,24.148840,0 120.650631,24.148836,0 120.650632,24.148181,0 120.650633,24.147741,0 120.651025,24.147741,0 120.651331,24.147741,0 120.652188,24.147741,0 120.652208,24.148837,0 120.652576,24.148839,0 120.653021,24.148845,0 120.653966,24.148838,0 120.653967,24.148383,0 120.653967,24.148290,0 120.653968,24.147751,0 120.655030,24.147745,0 120.655142,24.147765,0 120.655142,24.147240,0 120.655232,24.147262,0 120.656763,24.147254,0 120.656763,24.146695,0 120.656820,24.146695,0 120.657184,24.146697,0 120.657261,24.146697,0 120.657371,24.146699,0 120.657831,24.146698,0 120.657946,24.146701,0 120.657943,24.145543,0 120.658365,24.145544,0 120.658441,24.145503,0 120.658501,24.145544,0 120.658831,24.145545,0 120.658832,24.144923,0 120.658832,24.144317,0 120.658832,24.143845,0 120.659418,24.143836,0 120.659473,24.143808,0 120.659475,24.143344,0 120.659476,24.142946,0 120.660199,24.142946,0 120.660203,24.142600,0 120.660203,24.142463,0 120.660203,24.142357,0 120.660203,24.142290,0 120.660202,24.142202,0 120.660198,24.142046,0 120.660194,24.141561,0 120.660197,24.141420,0 120.660195,24.141250,0 120.660191,24.140159,0 120.660190,24.140037,0 120.660973,24.140055,0 120.660990,24.140056,0 120.661693,24.140051,0 120.661693,24.139609,0 120.661693,24.139480,0 120.661693,24.139452,0 120.661693,24.139274,0 120.661693,24.138962,0 120.661693,24.138846,0 120.660190,24.138843,0 120.660190,24.138669,0 120.660189,24.138424,0 120.660189,24.138393,0 120.660189,24.138356,0 120.660189,24.138237,0 120.660189,24.137964,0 120.660189,24.137630,0 120.660189,24.137574,0 120.660188,24.137273,0 120.660188,24.136974,0 120.660188,24.136663,0 120.660188,24.136553,0 120.660188,24.136443,0 120.660187,24.135939,0 120.660187,24.135846,0 120.660187,24.135553,0 120.659780,24.135556,0 120.659753,24.135557,0 120.659707,24.135557,0 120.659524,24.135555,0 120.659525,24.135509,0 120.659526,24.135144,0 120.658921,24.135144,0 120.658922,24.135120,0 120.658922,24.135098,0 120.658734,24.135099,0 120.657534,24.135099,0 120.657527,24.135091,0 120.657476,24.135034,0 120.657476,24.134926,0 120.657475,24.134767,0 120.657473,24.134051,0 120.657473,24.133980,0 120.657490,24.133931,0 120.657519,24.133902,0 120.657899,24.133836,0 120.658430,24.133744,0 120.658413,24.133651,0 120.657891,24.133740,0 120.657755,24.133764,0 120.657355,24.133832,0 120.657356,24.132874,0 120.657356,24.131897,0 120.657255,24.131891,0 120.656156,24.131893,0 120.655141,24.131890,0 120.655141,24.131612,0 120.654585,24.131619,0 120.654585,24.130894,0 120.654490,24.130884,0 120.654372,24.130864,0 120.654281,24.130864,0 120.654193,24.130897,0 120.654114,24.130906,0 120.654014,24.130906,0 120.653947,24.130901,0 120.653864,24.130888,0 120.653797,24.130864,0 120.653736,24.130849,0 120.653689,24.130869,0 120.653604,24.130871,0 120.653539,24.130864,0 120.653488,24.130838,0 120.653427,24.130825,0 120.653378,24.130823,0 120.653192,24.130836,0 120.653197,24.130732,0 120.652498,24.130741,0 120.650735,24.130758,0 120.650000,24.130766,0 120.649235,24.130774,0 120.648274,24.130786,0 120.648289,24.131413,0 120.647298,24.131419,0 120.647206,24.131420,0 120.647204,24.132025,0 120.646562,24.132030,0 120.646346,24.132045,0 120.645077,24.132052,0 120.645075,24.133366,0 120.644671,24.133370,0 120.644394,24.133372,0 120.644394,24.133543,0 120.644394,24.133585,0 120.644167,24.133588,0 120.644170,24.133772,0 120.644172,24.133942,0 120.644173,24.134060,0 120.644124,24.134060,0 120.643978,24.134061,0 120.643980,24.134226,0 120.643694,24.134230,0 120.643695,24.134269,0 120.643659,24.134308,0 120.643657,24.134670,0 120.643656,24.134730,0 120.643129,24.134742,0 120.643037,24.134745,0 120.643039,24.134815,0 120.643039,24.135454,0 120.643040,24.136022,0 120.643929,24.136004,0 120.645080,24.135981,0 120.645697,24.135955,0 120.645676,24.135343,0 120.645657,24.134728,0 120.646201,24.134712,0 120.646219,24.134708,0 120.646380,24.134673,0 120.646604,24.134681,0 120.647288,24.134704,0 120.648367,24.134740,0 120.649268,24.134770,0 120.649829,24.134830,0 120.649973,24.134833,0 120.650123,24.134839,0 120.651288,24.134889,0 120.651290,24.135005,0 120.651382,24.135006,0 120.651459,24.135008,0 120.651462,24.134898,0 120.652934,24.134944,0 120.652931,24.135074,0 120.653048,24.135077,0 120.653038,24.135276,0 120.653039,24.135634,0 120.652927,24.135664,0 120.652927,24.135784,0 120.652922,24.135907,0 120.653037,24.135885,0 120.653033,24.136042,0 120.653029,24.136678,0 120.653812,24.136675,0 120.653813,24.136893,0 120.653813,24.136949,0 120.653813,24.137096,0 120.653815,24.137438,0 120.653815,24.137612,0 120.653816,24.137845,0 120.653826,24.138912,0 120.653822,24.139439,0 120.653768,24.139491,0 120.653013,24.139486,0 120.653009,24.140044,0 120.653011,24.140162,0 120.653013,24.140410,0 120.653013,24.140969,0 120.652355,24.140967,0 120.652231,24.140967,0 120.652149,24.140967,0 120.652022,24.140966,0 120.651319,24.140965,0 120.651321,24.141381,0 120.649924,24.141388,0 120.649923,24.140953,0 120.648831,24.140945,0 120.648190,24.140940,0 120.647800,24.140937,0 120.646846,24.140929,0 120.646829,24.140203,0 120.646909,24.140203,0 120.646965,24.140162,0 120.646965,24.140084,0 120.646965,24.139963,0 120.647481,24.139962,0 120.647481,24.139917,0 120.647481,24.139720,0 120.647591,24.139720,0 120.647591,24.139643,0 120.647592,24.139462,0 120.647596,24.138830,0 120.647333,24.138822,0 120.646774,24.138824,0 120.646792,24.139087,0 120.646801,24.139208,0 120.646819,24.139848,0 120.646586,24.139851,0 120.646584,24.139637,0 120.646584,24.139479,0 120.646020,24.139525,0 120.645503,24.139583,0 120.645503,24.139589,0 120.644713,24.139715,0
</coordinates></LineString></Placemark>
</Document></kml>