<?xml version="1.0" encoding="UTF-8"?>
<kml xmlns="http://www.opengis.net/kml/2.2"><Document>
<name>南屯區 貓咪肉球 圖形路跑路線</name>
<Style id="r"><LineStyle><color>ff2000d6</color><width>4</width></LineStyle></Style>
<Placemark><name>南苑公園</name><description>地標</description><Point><coordinates>120.647387,24.132723,0</coordinates></Point></Placemark>
<Placemark><name>豐富公園</name><description>地標</description><Point><coordinates>120.653891,24.129945,0</coordinates></Point></Placemark>
<Placemark><name>半平厝公園</name><description>地標</description><Point><coordinates>120.659593,24.132622,0</coordinates></Point></Placemark>
<Placemark><name>南屯區 貓咪肉球 圖形路跑路線</name><styleUrl>#r</styleUrl><LineString><tessellate>1</tessellate><coordinates>
120.645484,24.134071,0 120.645564,24.134060,0 120.645617,24.134027,0 120.645658,24.133961,0 120.645650,24.133361,0 120.646363,24.133354,0 120.646346,24.132045,0 120.646562,24.132030,0 120.647204,24.132025,0 120.647206,24.131420,0 120.647298,24.131419,0 120.648289,24.131413,0 120.648274,24.130786,0 120.649235,24.130774,0 120.650000,24.130766,0 120.650735,24.130758,0 120.652498,24.130741,0 120.653197,24.130732,0 120.653192,24.130836,0 120.653378,24.130823,0 120.653427,24.130825,0 120.653488,24.130838,0 120.653539,24.130864,0 120.653604,24.130871,0 120.653689,24.130869,0 120.653736,24.130849,0 120.653797,24.130864,0 120.653864,24.130888,0 120.653947,24.130901,0 120.654014,24.130906,0 120.654114,24.130906,0 120.654193,24.130897,0 120.654281,24.130864,0 120.654372,24.130864,0 120.654490,24.130884,0 120.654585,24.130894,0 120.654585,24.131619,0 120.655141,24.131612,0 120.656159,24.131613,0 120.656156,24.131893,0 120.656154,24.132162,0 120.656152,24.132360,0 120.656152,24.132396,0 120.656688,24.132397,0 120.656686,24.132330,0 120.657254,24.132330,0 120.657255,24.131891,0 120.657356,24.131897,0 120.657356,24.132874,0 120.658136,24.132861,0 120.658140,24.132931,0 120.658243,24.133044,0 120.658356,24.133093,0 120.658490,24.133038,0 120.658515,24.132831,0 120.658639,24.132857,0 120.658749,24.132847,0 120.658901,24.132802,0 120.659004,24.132728,0 120.659149,24.132686,0 120.659237,24.132665,0 120.659354,24.132637,0 120.659471,24.132647,0 120.659814,24.132640,0 120.660275,24.132550,0 120.660249,24.132634,0 120.660298,24.132738,0 120.660346,24.132816,0 120.660380,24.132873,0 120.660135,24.133013,0 120.660134,24.133123,0 120.660084,24.133156,0 120.660005,24.133198,0 120.659943,24.133232,0 120.659890,24.133261,0 120.659811,24.133306,0 120.659537,24.133459,0 120.659485,24.133485,0 120.659406,24.133526,0 120.659370,24.133540,0 120.659351,24.133566,0 120.659332,24.133573,0 120.659266,24.133599,0 120.659284,24.133636,0 120.659289,24.133979,0 120.659294,24.134285,0 120.660033,24.134287,0 120.660186,24.134287,0 120.660186,24.134541,0 120.660187,24.135096,0 120.660264,24.135095,0 120.660278,24.135089,0 120.660275,24.135104,0 120.660275,24.135144,0 120.660273,24.135183,0 120.660267,24.135208,0 120.660289,24.135188,0 120.660486,24.135187,0 120.660513,24.135186,0 120.660518,24.135846,0 120.660524,24.136553,0 120.660272,24.136553,0 120.660271,24.136661,0 120.660188,24.136663,0 120.660188,24.136974,0 120.660188,24.137273,0 120.660189,24.137574,0 120.660189,24.137630,0 120.660189,24.137964,0 120.660189,24.138237,0 120.660189,24.138356,0 120.660189,24.138393,0 120.660189,24.138424,0 120.660190,24.138669,0 120.660190,24.138843,0 120.660190,24.138946,0 120.660190,24.139269,0 120.660190,24.140037,0 120.660191,24.140159,0 120.660195,24.141250,0 120.660197,24.141420,0 120.660194,24.141561,0 120.660198,24.142046,0 120.660202,24.142202,0 120.660203,24.142290,0 120.660203,24.142357,0 120.660301,24.142471,0 120.660456,24.142946,0 120.660498,24.142946,0 120.660496,24.143604,0 120.660201,24.143600,0 120.660202,24.143839,0 120.660202,24.144321,0 120.660202,24.144685,0 120.660202,24.144891,0 120.660202,24.145103,0 120.660201,24.145541,0 120.660201,24.146028,0 120.660201,24.146296,0 120.660203,24.146705,0 120.660199,24.147308,0 120.659518,24.147308,0 120.658830,24.147308,0 120.658830,24.147868,0 120.658322,24.147867,0 120.657832,24.147868,0 120.657518,24.147871,0 120.657381,24.147852,0 120.657262,24.147807,0 120.657201,24.147781,0 120.656807,24.147779,0 120.656762,24.147781,0 120.656763,24.147254,0 120.655232,24.147262,0 120.655142,24.147240,0 120.655142,24.147765,0 120.655119,24.148298,0 120.655114,24.148824,0 120.653966,24.148838,0 120.653915,24.149437,0 120.653899,24.149631,0 120.653875,24.149938,0 120.653020,24.149939,0 120.652770,24.149939,0 120.652749,24.149939,0 120.652579,24.149940,0 120.652227,24.149940,0 120.651403,24.149941,0 120.651364,24.148837,0 120.650631,24.148836,0 120.649837,24.148840,0 120.649855,24.147741,0 120.648751,24.147741,0 120.648762,24.146769,0 120.648771,24.146101,0 120.648771,24.146082,0 120.648782,24.145566,0 120.649875,24.145562,0 120.649867,24.146105,0 120.648771,24.146101,0 120.648762,24.146769,0 120.648751,24.147741,0 120.648270,24.147741,0 120.647808,24.147741,0 120.647399,24.147741,0 120.646865,24.147740,0 120.646847,24.146792,0 120.646625,24.146793,0 120.646634,24.147741,0 120.645434,24.147749,0 120.643843,24.147761,0 120.643849,24.146833,0 120.643706,24.146179,0 120.643552,24.145479,0 120.643376,24.144802,0 120.643265,24.144392,0 120.643193,24.144118,0 120.643168,24.144021,0 120.642923,24.143012,0 120.643578,24.142919,0 120.644415,24.142824,0 120.645274,24.142729,0 120.645358,24.142716,0 120.645824,24.142681,0 120.646302,24.142627,0 120.646591,24.142594,0 120.646592,24.140937,0 120.645422,24.141035,0 120.645702,24.141555,0 120.645955,24.142028,0 120.646009,24.142127,0 120.646112,24.142321,0 120.646183,24.142442,0 120.646302,24.142627,0 120.645824,24.142681,0 120.645358,24.142716,0 120.645274,24.142729,0 120.644415,24.142824,0 120.644471,24.143322,0 120.643764,24.143383,0 120.643694,24.143376,0 120.643627,24.143327,0 120.643578,24.142919,0 120.642923,24.143012,0 120.640744,24.143260,0 120.640747,24.142554,0 120.640841,24.141905,0 120.640828,24.141390,0 120.640564,24.141481,0 120.640478,24.141397,0 120.640328,24.140918,0 120.640627,24.140818,0 120.641012,24.140687,0 120.641136,24.140646,0 120.640938,24.140202,0 120.640985,24.140144,0 120.641458,24.139979,0 120.641389,24.139914,0 120.641386,24.139861,0 120.641368,24.139504,0 120.641319,24.139320,0 120.641328,24.139096,0 120.641492,24.138843,0 120.641570,24.138813,0 120.641524,24.138670,0 120.641485,24.138544,0 120.641454,24.138419,0 120.641452,24.138160,0 120.641616,24.138154,0 120.641877,24.138261,0 120.641976,24.138259,0 120.642376,24.138242,0 120.642384,24.138306,0 120.642397,24.138355,0 120.642408,24.138383,0 120.642426,24.138396,0 120.642438,24.138442,0 120.642479,24.138442,0 120.643928,24.138192,0 120.643892,24.138024,0 120.643858,24.137864,0 120.643863,24.137732,0 120.643869,24.137576,0 120.643045,24.137601,0 120.643044,24.137109,0 120.643041,24.136588,0 120.643040,24.136022,0 120.643039,24.135454,0 120.643951,24.135416,0 120.643975,24.134785,0 120.644676,24.134757,0 120.644679,24.134692,0 120.644675,24.134082,0 120.645484,24.134071,0
</coordinates></LineString></Placemark>
</Document></kml>