<?xml version="1.0" encoding="UTF-8"?>
<kml xmlns="http://www.opengis.net/kml/2.2"><Document>
<name>南屯區 蹲坐貓咪（側面） 圖形路跑路線</name>
<Style id="r"><LineStyle><color>ff2000d6</color><width>4</width></LineStyle></Style>
<Placemark><name>惠泰公園</name><description>地標</description><Point><coordinates>120.634879,24.164456,0</coordinates></Point></Placemark>
<Placemark><name>惠安公園</name><description>地標</description><Point><coordinates>120.636946,24.167278,0</coordinates></Point></Placemark>
<Placemark><name>朝貴公園</name><description>地標</description><Point><coordinates>120.635287,24.170566,0</coordinates></Point></Placemark>
<Placemark><name>南屯區 蹲坐貓咪（側面） 圖形路跑路線</name><styleUrl>#r</styleUrl><LineString><tessellate>1</tessellate><coordinates>
120.636110,24.164031,0 120.636151,24.164099,0 120.636219,24.164210,0 120.636107,24.164272,0 120.636425,24.164761,0 120.635795,24.165134,0 120.636176,24.165699,0 120.636397,24.166045,0 120.635205,24.166784,0 120.635217,24.166823,0 120.635313,24.167113,0 120.635327,24.167178,0 120.635560,24.167874,0 120.635767,24.168480,0 120.636016,24.169221,0 120.636318,24.170104,0 120.636569,24.170841,0 120.636719,24.171193,0 120.636930,24.171787,0 120.637001,24.171996,0 120.637049,24.172161,0 120.637070,24.172231,0 120.637333,24.173235,0 120.637399,24.173640,0 120.637569,24.173909,0 120.637655,24.174081,0 120.637770,24.174544,0 120.637812,24.174716,0 120.637983,24.175335,0 120.637926,24.175331,0 120.637911,24.175312,0 120.637579,24.175320,0 120.637531,24.175282,0 120.637434,24.175284,0 120.637351,24.175281,0 120.637353,24.175495,0 120.637353,24.175722,0 120.637353,24.175806,0 120.637354,24.175856,0 120.637354,24.175960,0 120.637354,24.176059,0 120.637437,24.176059,0 120.637534,24.176058,0 120.637535,24.176036,0 120.637541,24.175974,0 120.637544,24.175896,0 120.637540,24.175815,0 120.637546,24.175720,0 120.637590,24.175719,0 120.637850,24.175562,0 120.637829,24.175517,0 120.637868,24.175437,0 120.637926,24.175331,0 120.637983,24.175335,0 120.638034,24.175354,0 120.638089,24.175366,0 120.638698,24.174990,0 120.639358,24.174581,0 120.639376,24.174553,0 120.639418,24.174526,0 120.639515,24.174464,0 120.640929,24.173483,0 120.640980,24.173547,0 120.641033,24.173609,0 120.641107,24.173672,0 120.641129,24.173653,0 120.641621,24.174257,0 120.641959,24.174671,0 120.642017,24.174765,0 120.642171,24.174961,0 120.642343,24.175272,0 120.642034,24.175496,0 120.641399,24.175947,0 120.640970,24.175476,0 120.640539,24.175791,0 120.640613,24.175893,0 120.640749,24.176082,0 120.640846,24.176217,0 120.641082,24.176527,0 120.641222,24.176702,0 120.641386,24.176894,0 120.641406,24.176917,0 120.641730,24.177248,0 120.641795,24.177303,0 120.642242,24.177656,0 120.642272,24.177668,0 120.642204,24.177737,0 120.642159,24.177785,0 120.642213,24.177828,0 120.641985,24.178032,0 120.641694,24.178253,0 120.641981,24.178595,0 120.642041,24.178560,0 120.642321,24.178402,0 120.642384,24.178372,0 120.642423,24.178408,0 120.642473,24.178402,0 120.642725,24.178342,0 120.642869,24.178327,0 120.642944,24.178208,0 120.643054,24.178273,0 120.643086,24.178293,0 120.643132,24.178215,0 120.643160,24.178231,0 120.643185,24.178248,0 120.643195,24.178209,0 120.643205,24.178138,0 120.643208,24.178038,0 120.643194,24.177691,0 120.643179,24.177523,0 120.643152,24.177321,0 120.643107,24.177130,0 120.643089,24.177073,0 120.643107,24.177056,0 120.643212,24.176953,0 120.643229,24.176936,0 120.643221,24.176917,0 120.643264,24.176869,0 120.643320,24.176810,0 120.643341,24.176786,0 120.643279,24.176714,0 120.643293,24.176699,0 120.643470,24.176500,0 120.643906,24.176034,0 120.643970,24.175952,0 120.644020,24.175887,0 120.644988,24.175417,0 120.645358,24.175230,0 120.645613,24.175116,0 120.645657,24.175093,0 120.645875,24.174996,0 120.645731,24.174520,0 120.645922,24.174485,0 120.646414,24.173792,0 120.646809,24.173395,0 120.646905,24.173327,0 120.647453,24.172807,0 120.647976,24.172354,0 120.648448,24.171944,0 120.648892,24.171559,0 120.649262,24.171238,0 120.649578,24.171695,0 120.649933,24.172216,0 120.649963,24.172261,0 120.650003,24.172230,0 120.650187,24.172104,0 120.650233,24.172071,0 120.650784,24.171718,0 120.651313,24.171381,0 120.651632,24.171827,0 120.651913,24.172235,0 120.651962,24.172274,0 120.652936,24.172300,0 120.652904,24.171863,0 120.653502,24.171879,0 120.654106,24.171896,0 120.654140,24.171351,0 120.654223,24.170299,0 120.655227,24.170363,0 120.655917,24.170423,0 120.656078,24.169612,0 120.656202,24.169418,0 120.656544,24.169017,0 120.656638,24.168911,0 120.656718,24.168813,0 120.656803,24.168702,0 120.656882,24.168590,0 120.657625,24.169110,0 120.657667,24.169127,0 120.657717,24.169125,0 120.658052,24.169049,0 120.658668,24.168940,0 120.658723,24.168916,0 120.658776,24.168863,0 120.658975,24.168551,0 120.658566,24.168315,0 120.658118,24.168070,0 120.657739,24.167858,0 120.657583,24.167771,0 120.657920,24.167423,0 120.658724,24.166443,0 120.659848,24.167037,0 120.660340,24.167299,0 120.660891,24.166361,0 120.661436,24.166647,0 120.662327,24.167110,0 120.662650,24.167271,0 120.662953,24.167428,0 120.663294,24.167600,0 120.663570,24.167067,0 120.664085,24.167342,0 120.664631,24.167630,0 120.664830,24.167261,0 120.665012,24.167341,0 120.665071,24.167414,0 120.665132,24.167697,0 120.665037,24.167829,0 120.664631,24.167630,0 120.664085,24.167342,0 120.663570,24.167067,0 120.663655,24.166905,0 120.664006,24.166288,0 120.663700,24.166128,0 120.663065,24.165801,0 120.662617,24.165578,0 120.662321,24.165418,0 120.662216,24.165362,0 120.662436,24.164826,0 120.662992,24.163818,0 120.662611,24.163556,0 120.662164,24.163286,0 120.662316,24.163082,0 120.662451,24.162903,0 120.662509,24.162903,0 120.662789,24.162709,0 120.662520,24.162364,0 120.662437,24.162255,0 120.662401,24.162149,0 120.662384,24.162053,0 120.662380,24.161945,0 120.662409,24.161801,0 120.662446,24.161687,0 120.662732,24.161302,0 120.662448,24.161126,0 120.662147,24.160888,0 120.661958,24.160664,0 120.661666,24.160209,0 120.661740,24.160174,0 120.661357,24.159581,0 120.661676,24.159383,0 120.661402,24.158936,0 120.661549,24.158853,0 120.661901,24.158646,0 120.661929,24.158632,0 120.662192,24.158480,0 120.662237,24.158457,0 120.661572,24.157441,0 120.661998,24.157203,0 120.662366,24.157000,0 120.663191,24.156559,0 120.662929,24.156144,0 120.662618,24.155668,0 120.662792,24.155572,0 120.662732,24.155527,0 120.662705,24.155486,0 120.662672,24.155435,0 120.662636,24.155379,0 120.662617,24.155329,0 120.662460,24.155416,0 120.662366,24.155272,0 120.662098,24.154865,0 120.662033,24.154766,0 120.661201,24.155223,0 120.660960,24.154857,0 120.660193,24.155272,0 120.660144,24.155299,0 120.659881,24.155437,0 120.659816,24.155477,0 120.659562,24.155070,0 120.659458,24.154913,0 120.659054,24.154290,0 120.658618,24.154535,0 120.658215,24.154761,0 120.657802,24.154112,0 120.657707,24.154160,0 120.657537,24.153884,0 120.657497,24.153810,0 120.657443,24.153667,0 120.657385,24.153522,0 120.657020,24.153622,0 120.656633,24.153633,0 120.656630,24.153217,0 120.656207,24.153222,0 120.655119,24.153222,0 120.655116,24.152927,0 120.655117,24.152788,0 120.655117,24.152392,0 120.655047,24.152391,0 120.655044,24.152318,0 120.653868,24.152322,0 120.653466,24.152326,0 120.653025,24.152331,0 120.652501,24.152332,0 120.652435,24.152332,0 120.652242,24.152335,0 120.651399,24.152335,0 120.650632,24.152337,0 120.649795,24.152339,0 120.649801,24.151602,0 120.648761,24.151620,0 120.648760,24.150880,0 120.647798,24.150885,0 120.647798,24.150783,0 120.646856,24.150777,0 120.646665,24.150784,0 120.645448,24.150859,0 120.643829,24.150958,0 120.643829,24.151060,0 120.643837,24.151782,0 120.643843,24.152410,0 120.643847,24.152978,0 120.643856,24.153642,0 120.643863,24.154640,0 120.642645,24.154651,0 120.642647,24.155568,0 120.641984,24.155909,0 120.641231,24.156323,0 120.641351,24.156561,0 120.641564,24.156900,0 120.641726,24.157180,0 120.641614,24.157238,0 120.641645,24.157291,0 120.641530,24.157356,0 120.641590,24.157451,0 120.641170,24.157670,0 120.640333,24.158120,0 120.638949,24.158889,0 120.639001,24.158943,0 120.639059,24.159007,0 120.639156,24.159113,0 120.640005,24.160367,0 120.639383,24.160722,0 120.638436,24.161262,0 120.637256,24.161934,0 120.637210,24.162040,0 120.637251,24.162102,0 120.637893,24.163097,0 120.636745,24.163757,0 120.636151,24.164099,0 120.636110,24.164031,0
</coordinates></LineString></Placemark>
</Document></kml>