<?xml version="1.0" encoding="UTF-8"?>
<kml xmlns="http://www.opengis.net/kml/2.2"><Document>
<name>南屯區 手繪蹲坐貓（原稿描圖） 圖形路跑路線</name>
<Style id="r"><LineStyle><color>ff2000d6</color><width>4</width></LineStyle></Style>
<Placemark><name>南屯區公所4樓禮堂</name><description>地標</description><Point><coordinates>120.644274,24.134495,0</coordinates></Point></Placemark>
<Placemark><name>向心兒童公園</name><description>地標</description><Point><coordinates>120.644666,24.135757,0</coordinates></Point></Placemark>
<Placemark><name>田心公園</name><description>地標</description><Point><coordinates>120.642680,24.139834,0</coordinates></Point></Placemark>
<Placemark><name>南屯區 手繪蹲坐貓（原稿描圖） 圖形路跑路線</name><styleUrl>#r</styleUrl><LineString><tessellate>1</tessellate><coordinates>
120.646584,24.133352,0 120.646363,24.133354,0 120.645650,24.133361,0 120.645658,24.133961,0 120.645617,24.134027,0 120.645564,24.134060,0 120.645484,24.134071,0 120.644675,24.134082,0 120.644679,24.134692,0 120.645657,24.134666,0 120.645657,24.134728,0 120.645676,24.135343,0 120.645697,24.135955,0 120.645697,24.136481,0 120.645698,24.136824,0 120.645705,24.136951,0 120.645748,24.137701,0 120.645779,24.138252,0 120.645803,24.138558,0 120.645858,24.139332,0 120.645471,24.139354,0 120.645503,24.139583,0 120.645503,24.139589,0 120.644713,24.139715,0 120.644910,24.140091,0 120.644967,24.140179,0 120.645167,24.140559,0 120.645240,24.140700,0 120.645177,24.140725,0 120.644773,24.140744,0 120.644756,24.140667,0 120.644485,24.140731,0 120.644246,24.140805,0 120.643747,24.140974,0 120.642749,24.141330,0 120.642458,24.141424,0 120.642659,24.141941,0 120.642923,24.143012,0 120.643168,24.144021,0 120.643193,24.144118,0 120.643494,24.144091,0 120.643505,24.144203,0 120.643592,24.144286,0 120.643580,24.144291,0 120.643552,24.144324,0 120.643540,24.144361,0 120.643546,24.144396,0 120.643444,24.144407,0 120.643265,24.144392,0 120.643376,24.144802,0 120.643552,24.145479,0 120.643706,24.146179,0 120.643849,24.146833,0 120.644073,24.146493,0 120.644012,24.146447,0 120.643970,24.146387,0 120.643951,24.146317,0 120.643956,24.146245,0 120.643985,24.146179,0 120.644035,24.146124,0 120.644123,24.146082,0 120.644181,24.146067,0 120.644174,24.146101,0 120.644165,24.146126,0 120.644155,24.146155,0 120.644143,24.146187,0 120.644144,24.146220,0 120.644157,24.146252,0 120.644170,24.146265,0 120.644181,24.146277,0 120.644210,24.146293,0 120.644243,24.146300,0 120.644277,24.146296,0 120.644308,24.146284,0 120.644333,24.146263,0 120.644350,24.146235,0 120.644377,24.146217,0 120.644403,24.146214,0 120.644418,24.146217,0 120.644438,24.146229,0 120.644491,24.146179,0 120.644576,24.146134,0 120.644696,24.146114,0 120.644802,24.146108,0 120.644924,24.146121,0 120.645030,24.146151,0 120.645044,24.146062,0 120.645044,24.145942,0 120.645072,24.145826,0 120.645114,24.145783,0 120.645144,24.145753,0 120.645208,24.145670,0 120.645258,24.145554,0 120.645363,24.145472,0 120.645498,24.145440,0 120.645624,24.145440,0 120.645747,24.145406,0 120.645851,24.145348,0 120.645841,24.145270,0 120.645863,24.145205,0 120.645891,24.145115,0 120.645990,24.145000,0 120.646015,24.144956,0 120.646041,24.144900,0 120.646059,24.144859,0 120.646108,24.144762,0 120.646114,24.144748,0 120.646163,24.144758,0 120.646488,24.144869,0 120.646606,24.144922,0 120.646834,24.144924,0 120.646835,24.144369,0 120.646837,24.143791,0 120.647805,24.143791,0 120.647804,24.143326,0 120.647804,24.143202,0 120.647804,24.143189,0 120.648315,24.143115,0 120.648504,24.143108,0 120.648528,24.143231,0 120.648529,24.143548,0 120.648804,24.143677,0 120.648809,24.143373,0 120.648813,24.143035,0 120.648819,24.142607,0 120.649907,24.142608,0 120.650521,24.142609,0 120.650524,24.142224,0 120.651322,24.142224,0 120.651324,24.141822,0 120.651411,24.141823,0 120.651427,24.141824,0 120.651713,24.141827,0 120.651741,24.141827,0 120.652147,24.141832,0 120.653013,24.141843,0 120.653013,24.141481,0 120.653013,24.140969,0 120.653013,24.140410,0 120.653011,24.140162,0 120.654499,24.140140,0 120.654500,24.140038,0 120.654498,24.139909,0 120.654582,24.139909,0 120.654580,24.138988,0 120.654507,24.138990,0 120.654507,24.138917,0 120.654507,24.138837,0 120.654581,24.138836,0 120.654582,24.138434,0 120.654584,24.137937,0 120.654502,24.137939,0 120.654502,24.137840,0 120.654501,24.137795,0 120.654584,24.137793,0 120.654587,24.136674,0 120.654660,24.136658,0 120.655070,24.136566,0 120.655141,24.136552,0 120.655517,24.136556,0 120.656233,24.136563,0 120.656752,24.136561,0 120.657184,24.136556,0 120.657181,24.136692,0 120.657253,24.136694,0 120.657364,24.136697,0 120.657499,24.136672,0 120.657500,24.136555,0 120.657849,24.136554,0 120.657986,24.136554,0 120.658831,24.136554,0 120.658833,24.136983,0 120.659486,24.136980,0 120.660188,24.136974,0 120.660188,24.137273,0 120.661426,24.137283,0 120.661580,24.137284,0 120.661579,24.137249,0 120.661578,24.137143,0 120.661594,24.137131,0 120.661593,24.136997,0 120.661591,24.136980,0 120.661591,24.136955,0 120.661590,24.136906,0 120.661591,24.136859,0 120.661591,24.136699,0 120.661605,24.136698,0 120.661692,24.136697,0 120.661803,24.136696,0 120.661818,24.136696,0 120.661845,24.136673,0 120.661871,24.136651,0 120.661878,24.136651,0 120.661926,24.136651,0 120.661972,24.136651,0 120.662016,24.136651,0 120.662061,24.136651,0 120.662107,24.136651,0 120.662135,24.136651,0 120.662187,24.136652,0 120.662219,24.136652,0 120.662239,24.136662,0 120.662507,24.136662,0 120.662534,24.136681,0 120.662534,24.136659,0 120.662535,24.136551,0 120.662187,24.136552,0 120.661847,24.136552,0 120.661849,24.136453,0 120.661863,24.136443,0 120.661826,24.136406,0 120.661814,24.136415,0 120.661692,24.136416,0 120.661606,24.136415,0 120.661596,24.136412,0 120.661597,24.136391,0 120.661598,24.136347,0 120.661599,24.136305,0 120.661599,24.136266,0 120.661598,24.136225,0 120.661598,24.136184,0 120.661599,24.136141,0 120.661598,24.136097,0 120.661599,24.136051,0 120.661599,24.136006,0 120.661598,24.135883,0 120.661599,24.135850,0 120.660827,24.135846,0 120.660518,24.135846,0 120.660187,24.135846,0 120.660187,24.135553,0 120.659780,24.135556,0 120.659753,24.135557,0 120.659707,24.135557,0 120.659524,24.135555,0 120.659524,24.135557,0 120.659523,24.135838,0 120.659344,24.135839,0 120.659108,24.135840,0 120.658829,24.135840,0 120.658828,24.135583,0 120.658828,24.135502,0 120.658827,24.135211,0 120.658737,24.135211,0 120.658734,24.135145,0 120.658734,24.135120,0 120.658734,24.135099,0 120.657534,24.135099,0 120.657527,24.135091,0 120.657505,24.135105,0 120.657506,24.135152,0 120.657362,24.135153,0 120.657253,24.135147,0 120.656744,24.135150,0 120.656232,24.135150,0 120.655702,24.135152,0 120.655522,24.134855,0 120.655377,24.134943,0 120.655238,24.135026,0 120.655210,24.135012,0 120.655141,24.134975,0 120.655067,24.134969,0 120.655053,24.134968,0 120.654689,24.134957,0 120.654661,24.134861,0 120.654644,24.134861,0 120.654590,24.134862,0 120.654507,24.134864,0 120.654507,24.134999,0 120.653164,24.134951,0 120.653167,24.134828,0 120.653059,24.134827,0 120.652937,24.134826,0 120.652934,24.134944,0 120.651462,24.134898,0 120.651462,24.134786,0 120.651367,24.134788,0 120.651319,24.133999,0 120.650798,24.134000,0 120.650755,24.133977,0 120.650722,24.133933,0 120.650717,24.133330,0 120.649977,24.133337,0 120.649192,24.133342,0 120.649203,24.133957,0 120.649138,24.134011,0 120.648350,24.134016,0 120.647423,24.134051,0 120.647361,24.134035,0 120.647331,24.134010,0 120.647310,24.133970,0 120.647312,24.133911,0 120.647304,24.133344,0 120.646823,24.133350,0 120.646584,24.133352,0
</coordinates></LineString></Placemark>
</Document></kml>