<?xml version="1.0" encoding="UTF-8"?>
<kml xmlns="http://www.opengis.net/kml/2.2"><Document>
<name>南屯區 蹲坐貓咪（側面） 圖形路跑路線</name>
<Style id="r"><LineStyle><color>ff2000d6</color><width>4</width></LineStyle></Style>
<Placemark><name>惠順公園</name><description>地標</description><Point><coordinates>120.642249,24.155596,0</coordinates></Point></Placemark>
<Placemark><name>大墩公園</name><description>地標</description><Point><coordinates>120.651581,24.158797,0</coordinates></Point></Placemark>
<Placemark><name>大聖公園</name><description>地標</description><Point><coordinates>120.653130,24.158826,0</coordinates></Point></Placemark>
<Placemark><name>南屯區 蹲坐貓咪（側面） 圖形路跑路線</name><styleUrl>#r</styleUrl><LineString><tessellate>1</tessellate><coordinates>
120.643870,24.155565,0 120.643873,24.155969,0 120.643976,24.155918,0 120.644026,24.156014,0 120.644088,24.156132,0 120.644145,24.156243,0 120.644205,24.156357,0 120.643916,24.156511,0 120.644648,24.157660,0 120.644737,24.157607,0 120.644769,24.157650,0 120.644837,24.157741,0 120.645121,24.157580,0 120.645268,24.157498,0 120.645633,24.157348,0 120.646019,24.157219,0 120.646362,24.157176,0 120.646594,24.157150,0 120.646719,24.157135,0 120.646726,24.157578,0 120.646727,24.157766,0 120.646729,24.158032,0 120.646732,24.158232,0 120.646749,24.158402,0 120.646805,24.158552,0 120.646970,24.158817,0 120.647156,24.159113,0 120.647296,24.159328,0 120.647442,24.159207,0 120.647524,24.159139,0 120.647600,24.159245,0 120.647671,24.159343,0 120.647568,24.159409,0 120.647408,24.159502,0 120.647610,24.159827,0 120.648034,24.160477,0 120.648177,24.160399,0 120.648862,24.160011,0 120.649509,24.159668,0 120.650190,24.159288,0 120.650985,24.160505,0 120.651045,24.160472,0 120.651145,24.160414,0 120.651202,24.160376,0 120.651819,24.160037,0 120.651569,24.159653,0 120.651351,24.159317,0 120.651033,24.158828,0 120.651561,24.158538,0 120.651541,24.158510,0 120.651650,24.158453,0 120.651320,24.157955,0 120.650945,24.157388,0 120.651386,24.157147,0 120.651725,24.156962,0 120.651430,24.156520,0 120.651153,24.156105,0 120.651947,24.155659,0 120.652226,24.156076,0 120.652519,24.156516,0 120.653130,24.156174,0 120.653863,24.155763,0 120.653502,24.155199,0 120.653224,24.154764,0 120.653193,24.154778,0 120.653144,24.154699,0 120.653225,24.154655,0 120.653216,24.154619,0 120.653182,24.154563,0 120.653118,24.154598,0 120.653084,24.154545,0 120.653051,24.154475,0 120.653024,24.154291,0 120.653023,24.153588,0 120.653871,24.153588,0 120.653869,24.152925,0 120.654340,24.152926,0 120.654664,24.152926,0 120.655116,24.152927,0 120.655117,24.152788,0 120.655117,24.152392,0 120.655116,24.152340,0 120.655118,24.152264,0 120.655122,24.152028,0 120.655123,24.151686,0 120.655125,24.151592,0 120.655126,24.151335,0 120.655121,24.150986,0 120.655118,24.150832,0 120.655120,24.150711,0 120.655127,24.150307,0 120.656765,24.150300,0 120.656767,24.149789,0 120.656768,24.149598,0 120.657262,24.149862,0 120.657261,24.149753,0 120.657264,24.149450,0 120.657263,24.149429,0 120.657363,24.149469,0 120.657692,24.149637,0 120.658168,24.149628,0 120.658167,24.149895,0 120.658028,24.149819,0 120.657827,24.150158,0 120.657360,24.149914,0 120.657262,24.149862,0 120.656768,24.149598,0 120.656767,24.149287,0 120.655119,24.149295,0 120.655114,24.148824,0 120.655119,24.148298,0 120.655142,24.147765,0 120.655030,24.147745,0 120.653968,24.147751,0 120.653969,24.147240,0 120.653970,24.146714,0 120.653971,24.146305,0 120.653972,24.145820,0 120.653974,24.144956,0 120.653017,24.144967,0 120.652134,24.144959,0 120.651310,24.144952,0 120.651309,24.145251,0 120.650627,24.145249,0 120.649985,24.145248,0 120.649874,24.145253,0 120.649875,24.145562,0 120.648782,24.145566,0 120.648787,24.144933,0 120.648043,24.144928,0 120.647807,24.144928,0 120.646834,24.144924,0 120.646840,24.145594,0 120.646844,24.146332,0 120.646847,24.146792,0 120.646625,24.146793,0 120.646197,24.146415,0 120.646126,24.146473,0 120.646035,24.146523,0 120.645959,24.146555,0 120.645771,24.146573,0 120.645595,24.146541,0 120.645467,24.146478,0 120.645360,24.146419,0 120.645224,24.146336,0 120.645064,24.146253,0 120.645030,24.146151,0 120.644924,24.146121,0 120.644802,24.146108,0 120.644696,24.146114,0 120.644576,24.146134,0 120.644491,24.146179,0 120.644438,24.146229,0 120.644358,24.146297,0 120.644338,24.146314,0 120.644294,24.146333,0 120.644261,24.146337,0 120.644246,24.146338,0 120.644171,24.146331,0 120.644116,24.146425,0 120.644105,24.146442,0 120.644073,24.146493,0 120.643849,24.146833,0 120.643843,24.147761,0 120.643841,24.148158,0 120.643837,24.148784,0 120.643833,24.149394,0 120.643830,24.149861,0 120.643830,24.150336,0 120.643829,24.150519,0 120.643829,24.150958,0 120.643829,24.151060,0 120.643837,24.151782,0 120.643843,24.152410,0 120.643847,24.152978,0 120.643856,24.153642,0 120.643863,24.154640,0 120.643870,24.155565,0
</coordinates></LineString></Placemark>
</Document></kml>