<?xml version="1.0" encoding="UTF-8"?>
<kml xmlns="http://www.opengis.net/kml/2.2"><Document>
<name>南屯區 蜷睡貓咪 圖形路跑路線</name>
<Style id="r"><LineStyle><color>ff2000d6</color><width>4</width></LineStyle></Style>
<Placemark><name>水安公園</name><description>地標</description><Point><coordinates>120.646363,24.153086,0</coordinates></Point></Placemark>
<Placemark><name>大墩公園</name><description>地標</description><Point><coordinates>120.651581,24.158797,0</coordinates></Point></Placemark>
<Placemark><name>大聖公園</name><description>地標</description><Point><coordinates>120.653130,24.158826,0</coordinates></Point></Placemark>
<Placemark><name>南屯區 蜷睡貓咪 圖形路跑路線</name><styleUrl>#r</styleUrl><LineString><tessellate>1</tessellate><coordinates>
120.646685,24.152835,0 120.646693,24.153608,0 120.646703,24.154614,0 120.646701,24.155250,0 120.646638,24.155213,0 120.646604,24.155249,0 120.646604,24.155342,0 120.646606,24.155441,0 120.646607,24.155576,0 120.646608,24.155678,0 120.646609,24.155752,0 120.646638,24.155786,0 120.646618,24.155942,0 120.646649,24.156988,0 120.646596,24.156992,0 120.646595,24.157032,0 120.646594,24.157150,0 120.646719,24.157135,0 120.646937,24.157146,0 120.646942,24.158271,0 120.646974,24.158433,0 120.647543,24.158119,0 120.648220,24.157754,0 120.648293,24.157837,0 120.649288,24.158080,0 120.649471,24.158196,0 120.650190,24.159288,0 120.650407,24.159173,0 120.651033,24.158828,0 120.651351,24.159317,0 120.651569,24.159653,0 120.651819,24.160037,0 120.652384,24.159727,0 120.652361,24.159693,0 120.652430,24.159654,0 120.652079,24.159114,0 120.652513,24.158880,0 120.652875,24.158685,0 120.654270,24.157913,0 120.654639,24.158475,0 120.654704,24.158439,0 120.655348,24.158082,0 120.655987,24.157734,0 120.655844,24.157512,0 120.655722,24.157324,0 120.655484,24.156956,0 120.656038,24.156652,0 120.656476,24.156411,0 120.656619,24.156337,0 120.657451,24.155895,0 120.657640,24.155789,0 120.658100,24.155927,0 120.658156,24.155728,0 120.657802,24.155162,0 120.658201,24.154940,0 120.657980,24.154590,0 120.657707,24.154160,0 120.657802,24.154112,0 120.657645,24.153838,0 120.657594,24.153748,0 120.657527,24.153597,0 120.657937,24.153402,0 120.657932,24.153311,0 120.657927,24.153108,0 120.658453,24.153110,0 120.658454,24.152540,0 120.657934,24.152545,0 120.657926,24.151711,0 120.658452,24.151707,0 120.658459,24.151028,0 120.658459,24.150990,0 120.658456,24.150845,0 120.658460,24.150731,0 120.658385,24.150732,0 120.658357,24.150719,0 120.658298,24.150708,0 120.658202,24.150668,0 120.658124,24.150622,0 120.658104,24.150655,0 120.658073,24.150691,0 120.658036,24.150711,0 120.658000,24.150715,0 120.657963,24.150715,0 120.657925,24.150704,0 120.657896,24.150683,0 120.657869,24.150660,0 120.657840,24.150637,0 120.657796,24.150635,0 120.657759,24.150633,0 120.657706,24.150634,0 120.657712,24.150593,0 120.657733,24.150570,0 120.657760,24.150542,0 120.657785,24.150514,0 120.657803,24.150473,0 120.657800,24.150434,0 120.657795,24.150389,0 120.657789,24.150349,0 120.657782,24.150309,0 120.657573,24.150171,0 120.657506,24.150107,0 120.657418,24.150039,0 120.657362,24.150038,0 120.657360,24.149914,0 120.657262,24.149862,0 120.656768,24.149598,0 120.656767,24.149287,0 120.656763,24.148797,0 120.656764,24.148280,0 120.655119,24.148298,0 120.655142,24.147765,0 120.655030,24.147745,0 120.653968,24.147751,0 120.653558,24.147747,0 120.653018,24.147741,0 120.653018,24.147103,0 120.653018,24.146720,0 120.652170,24.146730,0 120.651302,24.146740,0 120.650633,24.146747,0 120.649862,24.146756,0 120.648762,24.146769,0 120.648751,24.147741,0 120.648270,24.147741,0 120.647808,24.147741,0 120.647805,24.148827,0 120.646870,24.148828,0 120.646645,24.148809,0 120.646656,24.149945,0 120.646665,24.150784,0 120.646856,24.150777,0 120.646869,24.150313,0 120.646885,24.149950,0 120.647797,24.149945,0 120.648255,24.149944,0 120.648270,24.148834,0 120.648738,24.148837,0 120.649837,24.148840,0 120.650631,24.148836,0 120.651364,24.148837,0 120.651403,24.149941,0 120.652227,24.149940,0 120.652579,24.149940,0 120.652749,24.149939,0 120.652770,24.149939,0 120.653020,24.149939,0 120.653021,24.150773,0 120.653876,24.150776,0 120.653872,24.150881,0 120.653863,24.151582,0 120.653867,24.151944,0 120.653868,24.152322,0 120.653466,24.152326,0 120.653025,24.152331,0 120.653023,24.153588,0 120.652174,24.153588,0 120.651404,24.153589,0 120.650632,24.153593,0 120.649783,24.153598,0 120.648812,24.153619,0 120.648745,24.153621,0 120.648745,24.153519,0 120.648748,24.152956,0 120.648743,24.152352,0 120.648680,24.152351,0 120.647800,24.152344,0 120.647804,24.152682,0 120.647809,24.153235,0 120.647813,24.153605,0 120.646921,24.153610,0 120.646693,24.153608,0 120.646685,24.152835,0
</coordinates></LineString></Placemark>
</Document></kml>