<?xml version="1.0" encoding="UTF-8"?>
<kml xmlns="http://www.opengis.net/kml/2.2"><Document>
<name>南屯區 貓臉（正面） 圖形路跑路線</name>
<Style id="r"><LineStyle><color>ff2000d6</color><width>4</width></LineStyle></Style>
<Placemark><name>椅子</name><description>地標</description><Point><coordinates>120.643019,24.147062,0</coordinates></Point></Placemark>
<Placemark><name>粉筆</name><description>地標</description><Point><coordinates>120.642971,24.147052,0</coordinates></Point></Placemark>
<Placemark><name>書本</name><description>地標</description><Point><coordinates>120.642903,24.147066,0</coordinates></Point></Placemark>
<Placemark><name>南屯區 貓臉（正面） 圖形路跑路線</name><styleUrl>#r</styleUrl><LineString><tessellate>1</tessellate><coordinates>
120.640614,24.147796,0 120.640623,24.148760,0 120.640742,24.148760,0 120.641691,24.148765,0 120.641694,24.148273,0 120.641737,24.148277,0 120.641868,24.148275,0 120.641898,24.148275,0 120.641903,24.148768,0 120.642657,24.148774,0 120.643837,24.148784,0 120.643833,24.149394,0 120.643830,24.149861,0 120.645444,24.149908,0 120.646656,24.149945,0 120.646665,24.150784,0 120.646856,24.150777,0 120.647798,24.150783,0 120.647798,24.150885,0 120.647799,24.151319,0 120.647151,24.151321,0 120.647159,24.152020,0 120.647800,24.152019,0 120.647800,24.152138,0 120.647800,24.152344,0 120.648680,24.152351,0 120.648743,24.152352,0 120.648748,24.152956,0 120.649315,24.152957,0 120.649789,24.152956,0 120.649795,24.152339,0 120.649801,24.151602,0 120.649808,24.150877,0 120.649809,24.150782,0 120.649823,24.149943,0 120.649837,24.148840,0 120.649855,24.147741,0 120.649862,24.146756,0 120.649867,24.146105,0 120.649875,24.145562,0 120.649874,24.145253,0 120.649985,24.145248,0 120.650627,24.145249,0 120.651309,24.145251,0 120.651310,24.144952,0 120.652134,24.144959,0 120.652140,24.144411,0 120.652137,24.143827,0 120.652543,24.143829,0 120.653014,24.143829,0 120.653974,24.143827,0 120.653978,24.143228,0 120.653979,24.142645,0 120.653979,24.142314,0 120.653980,24.142220,0 120.653981,24.141843,0 120.655128,24.141842,0 120.655128,24.141469,0 120.655123,24.141032,0 120.654663,24.140541,0 120.654586,24.140452,0 120.654579,24.140364,0 120.654579,24.140234,0 120.654676,24.140234,0 120.654679,24.140144,0 120.654679,24.140037,0 120.655062,24.140038,0 120.655132,24.140040,0 120.655141,24.139027,0 120.655141,24.138739,0 120.656058,24.138734,0 120.656057,24.138428,0 120.656233,24.138427,0 120.656234,24.138158,0 120.656234,24.137969,0 120.656234,24.137882,0 120.656233,24.137614,0 120.656234,24.137495,0 120.656233,24.137110,0 120.656233,24.137075,0 120.656233,24.136563,0 120.656232,24.135944,0 120.656232,24.135150,0 120.656231,24.134850,0 120.656231,24.134450,0 120.656381,24.134370,0 120.656207,24.134146,0 120.656178,24.134096,0 120.656170,24.133977,0 120.656167,24.133617,0 120.656168,24.133497,0 120.655328,24.133499,0 120.655141,24.133496,0 120.655141,24.132726,0 120.655141,24.132441,0 120.655141,24.132171,0 120.655141,24.131890,0 120.655141,24.131612,0 120.654585,24.131619,0 120.654585,24.130894,0 120.654490,24.130884,0 120.654372,24.130864,0 120.654281,24.130864,0 120.654309,24.130779,0 120.654309,24.130732,0 120.654291,24.130676,0 120.654283,24.130590,0 120.654322,24.130469,0 120.654254,24.130324,0 120.654265,24.130094,0 120.654198,24.129937,0 120.654320,24.129872,0 120.654491,24.129724,0 120.654585,24.129622,0 120.654585,24.129287,0 120.654502,24.129143,0 120.654473,24.129050,0 120.654331,24.128999,0 120.653410,24.128623,0 120.653376,24.128632,0 120.653375,24.128708,0 120.653287,24.128674,0 120.653301,24.127939,0 120.653324,24.127408,0 120.651962,24.126369,0 120.651354,24.125900,0 120.651114,24.125705,0 120.649762,24.124656,0 120.649237,24.124243,0 120.648730,24.123838,0 120.648243,24.123462,0 120.648180,24.123388,0 120.648030,24.123267,0 120.647940,24.123206,0 120.647994,24.123135,0 120.648032,24.123100,0 120.648000,24.123099,0 120.647611,24.122798,0 120.646795,24.122164,0 120.646744,24.122223,0 120.646715,24.122258,0 120.646652,24.122209,0 120.646590,24.122292,0 120.646221,24.122778,0 120.645910,24.123187,0 120.644522,24.122170,0 120.644498,24.122154,0 120.644196,24.122521,0 120.644135,24.122595,0 120.644049,24.122526,0 120.644023,24.122506,0 120.643816,24.122342,0 120.643769,24.122304,0 120.643729,24.122273,0 120.643386,24.122000,0 120.643338,24.121962,0 120.643268,24.121906,0 120.642596,24.121365,0 120.642527,24.121310,0 120.642427,24.121431,0 120.642353,24.121379,0 120.642354,24.121402,0 120.642346,24.121429,0 120.642329,24.121448,0 120.642301,24.121426,0 120.642258,24.121393,0 120.642250,24.121403,0 120.642185,24.121478,0 120.642152,24.121505,0 120.642109,24.121547,0 120.642025,24.121665,0 120.641877,24.121829,0 120.641814,24.121846,0 120.641656,24.122017,0 120.641629,24.122123,0 120.641323,24.122464,0 120.641268,24.122424,0 120.641246,24.122407,0 120.641241,24.122411,0 120.641229,24.122436,0 120.641227,24.122457,0 120.641227,24.122470,0 120.641155,24.122417,0 120.641109,24.122383,0 120.641063,24.122406,0 120.641024,24.122423,0 120.640986,24.122428,0 120.640913,24.122387,0 120.640809,24.122307,0 120.640358,24.121957,0 120.639706,24.121421,0 120.639607,24.121333,0 120.639582,24.121353,0 120.639567,24.121370,0 120.639487,24.121458,0 120.639457,24.121491,0 120.639426,24.121542,0 120.639390,24.121540,0 120.639358,24.121553,0 120.639051,24.121890,0 120.639051,24.121857,0 120.638982,24.121930,0 120.638908,24.122010,0 120.638927,24.122015,0 120.638375,24.122600,0 120.638364,24.122623,0 120.638266,24.122540,0 120.638190,24.122474,0 120.638143,24.122462,0 120.638075,24.122528,0 120.637995,24.122462,0 120.637633,24.122148,0 120.636954,24.121572,0 120.636375,24.121091,0 120.636291,24.120998,0 120.635152,24.122093,0 120.634767,24.122479,0 120.633681,24.123552,0 120.633366,24.123849,0 120.633259,24.123765,0 120.633117,24.123660,0 120.633037,24.123583,0 120.632884,24.123436,0 120.632756,24.123321,0 120.632470,24.123094,0 120.632249,24.123297,0 120.632176,24.123313,0 120.632118,24.123352,0 120.632068,24.123397,0 120.632056,24.123434,0 120.632069,24.123526,0 120.631984,24.123560,0 120.631930,24.123557,0 120.631871,24.123582,0 120.631826,24.123614,0 120.631785,24.123688,0 120.631775,24.123750,0 120.631761,24.123807,0 120.631761,24.123846,0 120.631698,24.123857,0 120.631649,24.123874,0 120.631596,24.123920,0 120.631570,24.124015,0 120.631564,24.124106,0 120.631566,24.124202,0 120.631584,24.124297,0 120.631655,24.124384,0 120.631710,24.124464,0 120.631718,24.124545,0 120.631731,24.124840,0 120.631846,24.124945,0 120.631530,24.125254,0 120.630913,24.125883,0 120.630734,24.126038,0 120.630583,24.125979,0 120.630331,24.126039,0 120.630148,24.126071,0 120.630044,24.126072,0 120.629818,24.126088,0 120.629396,24.126170,0 120.629243,24.126212,0 120.628769,24.126351,0 120.628370,24.126476,0 120.628350,24.126482,0 120.628294,24.126497,0 120.628129,24.126541,0 120.627992,24.126571,0 120.627929,24.126573,0 120.627663,24.126702,0 120.627525,24.126729,0 120.627486,24.126745,0 120.627404,24.126814,0 120.627276,24.126920,0 120.627140,24.127003,0 120.627099,24.127174,0 120.627053,24.127371,0 120.626993,24.127511,0 120.626911,24.127688,0 120.626861,24.127730,0 120.626802,24.127764,0 120.626731,24.127794,0 120.626568,24.127821,0 120.626497,24.127851,0 120.626423,24.127945,0 120.626343,24.128056,0 120.626288,24.128096,0 120.626220,24.128341,0 120.626186,24.128586,0 120.626227,24.128843,0 120.626235,24.129069,0 120.626234,24.129219,0 120.626226,24.129414,0 120.626232,24.129593,0 120.626170,24.129666,0 120.626081,24.129704,0 120.626014,24.129714,0 120.625796,24.129682,0 120.625713,24.129701,0 120.625510,24.129789,0 120.625441,24.129811,0 120.625310,24.129860,0 120.625106,24.129928,0 120.625064,24.129948,0 120.624962,24.130026,0 120.624839,24.130138,0 120.624849,24.130178,0 120.624855,24.130214,0 120.624862,24.130327,0 120.624878,24.130408,0 120.624896,24.130453,0 120.625002,24.130540,0 120.625100,24.130607,0 120.625168,24.130673,0 120.625196,24.130730,0 120.625326,24.131344,0 120.625412,24.131432,0 120.625093,24.131842,0 120.624847,24.132194,0 120.624821,24.132230,0 120.624991,24.132331,0 120.625097,24.132394,0 120.625037,24.132480,0 120.624954,24.132597,0 120.624923,24.132641,0 120.624690,24.132972,0 120.624154,24.133851,0 120.623853,24.134431,0 120.623639,24.134924,0 120.623524,24.135312,0 120.623433,24.135614,0 120.623604,24.135651,0 120.623757,24.135685,0 120.624395,24.135818,0 120.624344,24.136021,0 120.624198,24.136642,0 120.624053,24.137489,0 120.624013,24.137956,0 120.623993,24.138145,0 120.624342,24.138147,0 120.624860,24.138146,0 120.624849,24.138241,0 120.624829,24.138716,0 120.624827,24.139091,0 120.624843,24.139744,0 120.624888,24.140691,0 120.625052,24.140665,0 120.625653,24.140568,0 120.625723,24.140556,0 120.625737,24.140629,0 120.625060,24.140741,0 120.625068,24.140971,0 120.625137,24.143016,0 120.625892,24.143006,0 120.625986,24.143003,0 120.628336,24.142947,0 120.628413,24.142944,0 120.628420,24.143046,0 120.628423,24.143153,0 120.628451,24.143909,0 120.628463,24.144536,0 120.628468,24.144828,0 120.628470,24.144913,0 120.628474,24.145014,0 120.628479,24.145114,0 120.628567,24.145114,0 120.628593,24.145823,0 120.628833,24.145811,0 120.629645,24.145776,0 120.629973,24.145758,0 120.630779,24.145751,0 120.630790,24.146314,0 120.630794,24.146529,0 120.630832,24.146624,0 120.630835,24.146832,0 120.630836,24.146890,0 120.630857,24.147953,0 120.630845,24.148839,0 120.630830,24.149421,0 120.630829,24.149909,0 120.630829,24.150186,0 120.630828,24.150816,0 120.630827,24.150901,0 120.630588,24.150942,0 120.630669,24.151378,0 120.631166,24.151467,0 120.631137,24.151612,0 120.631093,24.151958,0 120.631320,24.151997,0 120.631852,24.152085,0 120.632132,24.152131,0 120.632222,24.151772,0 120.632243,24.151643,0 120.632269,24.151477,0 120.632288,24.151357,0 120.632314,24.151190,0 120.632763,24.151256,0 120.633308,24.151326,0 120.633439,24.151034,0 120.633428,24.150955,0 120.633359,24.150561,0 120.633353,24.150275,0 120.633419,24.149823,0 120.633429,24.149758,0 120.634463,24.149891,0 120.634586,24.149132,0 120.634696,24.148410,0 120.635733,24.148524,0 120.636588,24.148608,0 120.636746,24.148625,0 120.637760,24.148723,0 120.637883,24.148734,0 120.638758,24.148749,0 120.638924,24.147859,0 120.638975,24.147806,0 120.639468,24.147808,0 120.640614,24.147796,0
</coordinates></LineString></Placemark>
</Document></kml>