<?xml version="1.0" encoding="UTF-8"?>
<kml xmlns="http://www.opengis.net/kml/2.2"><Document>
<name>南屯區 手繪蹲坐貓（原稿描圖） 圖形路跑路線</name>
<Style id="r"><LineStyle><color>ff2000d6</color><width>4</width></LineStyle></Style>
<Placemark><name>文昌兒童公園</name><description>地標</description><Point><coordinates>120.635909,24.138181,0</coordinates></Point></Placemark>
<Placemark><name>惠德兒童公園</name><description>地標</description><Point><coordinates>120.640874,24.140548,0</coordinates></Point></Placemark>
<Placemark><name>犁頭公園</name><description>地標</description><Point><coordinates>120.640333,24.142184,0</coordinates></Point></Placemark>
<Placemark><name>南屯區 手繪蹲坐貓（原稿描圖） 圖形路跑路線</name><styleUrl>#r</styleUrl><LineString><tessellate>1</tessellate><coordinates>
120.636287,24.134236,0 120.636318,24.134320,0 120.636233,24.134344,0 120.635119,24.134735,0 120.635069,24.134753,0 120.635100,24.134837,0 120.635520,24.135975,0 120.635524,24.136035,0 120.635452,24.136054,0 120.634938,24.136195,0 120.634961,24.136270,0 120.635075,24.136612,0 120.635655,24.136448,0 120.636211,24.136291,0 120.636273,24.136453,0 120.636534,24.137234,0 120.636694,24.137699,0 120.636879,24.138239,0 120.637346,24.138109,0 120.637478,24.138073,0 120.637538,24.138060,0 120.637548,24.138101,0 120.637554,24.138180,0 120.637678,24.138475,0 120.637812,24.138816,0 120.637853,24.138922,0 120.637864,24.138949,0 120.638002,24.139300,0 120.638098,24.139521,0 120.638166,24.139645,0 120.638237,24.139745,0 120.638246,24.139753,0 120.638287,24.139803,0 120.638776,24.139487,0 120.639024,24.139928,0 120.638853,24.140075,0 120.638837,24.140093,0 120.639018,24.140202,0 120.639057,24.140243,0 120.639081,24.140299,0 120.639061,24.140476,0 120.639049,24.140636,0 120.639383,24.140634,0 120.639597,24.140611,0 120.640165,24.140408,0 120.640328,24.140918,0 120.640478,24.141397,0 120.640564,24.141481,0 120.640624,24.141624,0 120.640681,24.141994,0 120.640613,24.142606,0 120.640747,24.142554,0 120.640744,24.143260,0 120.640740,24.144082,0 120.640739,24.144230,0 120.640739,24.144339,0 120.640972,24.144319,0 120.642163,24.144215,0 120.642168,24.144273,0 120.642176,24.144354,0 120.642482,24.144329,0 120.642475,24.144253,0 120.642469,24.144189,0 120.642593,24.144178,0 120.642605,24.144812,0 120.642618,24.145495,0 120.642632,24.146186,0 120.642638,24.146850,0 120.642645,24.147399,0 120.642647,24.147532,0 120.642650,24.147814,0 120.641893,24.147804,0 120.641861,24.147803,0 120.641740,24.147802,0 120.641696,24.147802,0 120.641694,24.148273,0 120.641691,24.148765,0 120.640742,24.148760,0 120.640623,24.148760,0 120.640146,24.148764,0 120.639853,24.148755,0 120.639857,24.149969,0 120.639210,24.150045,0 120.639192,24.150658,0 120.639172,24.151295,0 120.640615,24.151183,0 120.640616,24.151290,0 120.640611,24.153688,0 120.640741,24.153688,0 120.641664,24.153674,0 120.642628,24.153660,0 120.642642,24.152995,0 120.643847,24.152978,0 120.643856,24.153642,0 120.644518,24.153629,0 120.644690,24.153627,0 120.645359,24.153624,0 120.645385,24.153938,0 120.645409,24.154626,0 120.646703,24.154614,0 120.646701,24.155250,0 120.646638,24.155213,0 120.646604,24.155249,0 120.646604,24.155342,0 120.646606,24.155441,0 120.646607,24.155576,0 120.646700,24.155560,0 120.646924,24.155560,0 120.646992,24.155608,0 120.647011,24.155608,0 120.647522,24.155608,0 120.647775,24.155609,0 120.647773,24.155097,0 120.648688,24.155105,0 120.648712,24.154613,0 120.648741,24.154145,0 120.648744,24.153729,0 120.648745,24.153621,0 120.648745,24.153519,0 120.648748,24.152956,0 120.649315,24.152957,0 120.649789,24.152956,0 120.649795,24.152339,0 120.649801,24.151602,0 120.649808,24.150877,0 120.649809,24.150782,0 120.649823,24.149943,0 120.650632,24.149942,0 120.650631,24.148836,0 120.650632,24.148181,0 120.650633,24.147741,0 120.650633,24.146747,0 120.651302,24.146740,0 120.651304,24.146298,0 120.651306,24.145816,0 120.651309,24.145251,0 120.651310,24.144952,0 120.652134,24.144959,0 120.652140,24.144411,0 120.652137,24.143827,0 120.652543,24.143829,0 120.653014,24.143829,0 120.653013,24.142998,0 120.653013,24.142645,0 120.653979,24.142645,0 120.653979,24.142314,0 120.653980,24.142220,0 120.653981,24.141843,0 120.653982,24.141468,0 120.653982,24.141449,0 120.653983,24.140971,0 120.654054,24.140971,0 120.654663,24.140541,0 120.654586,24.140452,0 120.654579,24.140364,0 120.654579,24.140234,0 120.654579,24.140142,0 120.654582,24.140037,0 120.654582,24.139909,0 120.654580,24.138988,0 120.654580,24.138917,0 120.654581,24.138836,0 120.654582,24.138434,0 120.654679,24.138433,0 120.655034,24.138432,0 120.655142,24.138432,0 120.655141,24.138158,0 120.655141,24.137883,0 120.655140,24.137615,0 120.655141,24.137116,0 120.655141,24.136552,0 120.655144,24.135946,0 120.655141,24.135220,0 120.655076,24.135253,0 120.655058,24.135251,0 120.655062,24.135116,0 120.655067,24.134969,0 120.655053,24.134968,0 120.654689,24.134957,0 120.654661,24.134861,0 120.654644,24.134861,0 120.654590,24.134862,0 120.654586,24.133380,0 120.654505,24.133382,0 120.654506,24.133299,0 120.654061,24.133301,0 120.653208,24.133306,0 120.653209,24.133224,0 120.653122,24.133223,0 120.653128,24.132668,0 120.653145,24.131996,0 120.653168,24.131378,0 120.653192,24.130836,0 120.653378,24.130823,0 120.653427,24.130825,0 120.653488,24.130838,0 120.653539,24.130864,0 120.653604,24.130871,0 120.653689,24.130869,0 120.653736,24.130849,0 120.653797,24.130864,0 120.653864,24.130888,0 120.653947,24.130901,0 120.654014,24.130906,0 120.654114,24.130906,0 120.654193,24.130897,0 120.654281,24.130864,0 120.654309,24.130779,0 120.654309,24.130732,0 120.654291,24.130676,0 120.654283,24.130590,0 120.654322,24.130469,0 120.654254,24.130324,0 120.654265,24.130094,0 120.654198,24.129937,0 120.654320,24.129872,0 120.654491,24.129724,0 120.654585,24.129622,0 120.654585,24.129287,0 120.654502,24.129143,0 120.654473,24.129050,0 120.654527,24.129071,0 120.654610,24.129113,0 120.654667,24.129149,0 120.655008,24.129275,0 120.655020,24.129352,0 120.655223,24.129422,0 120.655277,24.129314,0 120.655292,24.129285,0 120.655488,24.128896,0 120.655619,24.128630,0 120.655633,24.128601,0 120.655755,24.128356,0 120.655794,24.128279,0 120.656221,24.128446,0 120.656270,24.128481,0 120.656559,24.128607,0 120.656600,24.128612,0 120.656836,24.128511,0 120.656954,24.128475,0 120.657321,24.128427,0 120.657321,24.128171,0 120.657318,24.128099,0 120.657650,24.128097,0 120.657797,24.127808,0 120.657953,24.127502,0 120.658447,24.127724,0 120.658440,24.127589,0 120.658466,24.127490,0 120.658763,24.126889,0 120.658908,24.126590,0 120.659219,24.126009,0 120.659518,24.126140,0 120.659633,24.126250,0 120.659884,24.126368,0 120.659923,24.126382,0 120.659976,24.126283,0 120.660022,24.126180,0 120.660050,24.126121,0 120.660159,24.125902,0 120.661089,24.126306,0 120.661191,24.126121,0 120.661180,24.125703,0 120.661514,24.125702,0 120.661839,24.125700,0 120.662230,24.125714,0 120.662221,24.125099,0 120.662380,24.125113,0 120.662704,24.125187,0 120.663315,24.125373,0 120.663173,24.125183,0 120.663238,24.125020,0 120.663279,24.124878,0 120.663312,24.124772,0 120.663360,24.124637,0 120.663396,24.124560,0 120.663580,24.124465,0 120.663084,24.123801,0 120.662456,24.124195,0 120.661941,24.123497,0 120.661447,24.123818,0 120.660491,24.123809,0 120.660401,24.123779,0 120.660330,24.123759,0 120.660115,24.124193,0 120.660001,24.124325,0 120.659970,24.124396,0 120.659854,24.124626,0 120.659817,24.124693,0 120.659514,24.124560,0 120.658712,24.124209,0 120.658023,24.124859,0 120.657627,24.124630,0 120.657395,24.125067,0 120.656822,24.126222,0 120.656780,24.126308,0 120.656237,24.126186,0 120.655760,24.126077,0 120.655746,24.126071,0 120.655366,24.126847,0 120.654978,24.127624,0 120.654920,24.127593,0 120.654883,24.127662,0 120.654856,24.127716,0 120.654801,24.127818,0 120.654621,24.127703,0 120.654336,24.127455,0 120.654132,24.127299,0 120.653700,24.126966,0 120.653476,24.126791,0 120.653465,24.126783,0 120.653453,24.126739,0 120.653442,24.126730,0 120.653346,24.126651,0 120.653345,24.126677,0 120.653323,24.127257,0 120.653324,24.127408,0 120.653301,24.127939,0 120.651352,24.127355,0 120.650611,24.127125,0 120.650278,24.127650,0 120.650231,24.127725,0 120.650204,24.127823,0 120.650194,24.127922,0 120.650136,24.128499,0 120.650012,24.129501,0 120.649125,24.129515,0 120.648254,24.129513,0 120.647254,24.129521,0 120.647212,24.129521,0 120.647148,24.129524,0 120.646506,24.129524,0 120.646281,24.129524,0 120.645393,24.129527,0 120.645081,24.129528,0 120.645085,24.130159,0 120.645080,24.130339,0 120.645084,24.130685,0 120.644914,24.130683,0 120.644838,24.130689,0 120.644831,24.131071,0 120.644612,24.131071,0 120.644408,24.131070,0 120.644401,24.130693,0 120.644210,24.130695,0 120.643945,24.130689,0 120.643947,24.130786,0 120.643821,24.130792,0 120.643740,24.130795,0 120.643558,24.130793,0 120.643436,24.130791,0 120.643326,24.130920,0 120.643314,24.130976,0 120.643300,24.131033,0 120.643293,24.131076,0 120.643297,24.131133,0 120.643289,24.131163,0 120.643122,24.131309,0 120.643017,24.131219,0 120.642812,24.131405,0 120.642692,24.131332,0 120.642275,24.131346,0 120.642208,24.131382,0 120.642026,24.131368,0 120.642049,24.131552,0 120.642045,24.131691,0 120.642085,24.131799,0 120.642150,24.131914,0 120.642253,24.131967,0 120.642257,24.132066,0 120.641980,24.132067,0 120.641387,24.132074,0 120.640662,24.132074,0 120.640683,24.132777,0 120.640703,24.133403,0 120.640321,24.133409,0 120.639965,24.133428,0 120.639629,24.133459,0 120.639299,24.133509,0 120.638639,24.133669,0 120.638573,24.133689,0 120.638404,24.133735,0 120.638350,24.133750,0 120.638477,24.134091,0 120.638849,24.135094,0 120.638251,24.135284,0 120.637945,24.134792,0 120.637477,24.133996,0 120.636904,24.134157,0 120.636318,24.134320,0 120.636287,24.134236,0
</coordinates></LineString></Placemark>
</Document></kml>