<?xml version="1.0" encoding="UTF-8"?>
<kml xmlns="http://www.opengis.net/kml/2.2"><Document>
<name>南屯區 貓咪肉球 圖形路跑路線</name>
<Style id="r"><LineStyle><color>ff2000d6</color><width>4</width></LineStyle></Style>
<Placemark><name>向心兒童公園</name><description>地標</description><Point><coordinates>120.644666,24.135757,0</coordinates></Point></Placemark>
<Placemark><name>南屯區公所4樓禮堂</name><description>地標</description><Point><coordinates>120.644274,24.134495,0</coordinates></Point></Placemark>
<Placemark><name>南苑公園</name><description>地標</description><Point><coordinates>120.647387,24.132723,0</coordinates></Point></Placemark>
<Placemark><name>南屯區 貓咪肉球 圖形路跑路線</name><styleUrl>#r</styleUrl><LineString><tessellate>1</tessellate><coordinates>
120.643928,24.138192,0 120.643892,24.138024,0 120.643858,24.137864,0 120.643863,24.137732,0 120.643869,24.137576,0 120.643888,24.137070,0 120.643908,24.136545,0 120.643929,24.136004,0 120.645080,24.135981,0 120.645697,24.135955,0 120.645676,24.135343,0 120.645657,24.134728,0 120.646201,24.134712,0 120.646219,24.134708,0 120.646220,24.134655,0 120.646380,24.134673,0 120.646604,24.134681,0 120.646584,24.133352,0 120.646823,24.133350,0 120.647304,24.133344,0 120.647312,24.133911,0 120.647310,24.133970,0 120.647331,24.134010,0 120.647361,24.134035,0 120.647423,24.134051,0 120.648350,24.134016,0 120.649138,24.134011,0 120.649203,24.133957,0 120.649192,24.133342,0 120.649977,24.133337,0 120.650717,24.133330,0 120.650722,24.133933,0 120.650755,24.133977,0 120.650798,24.134000,0 120.651319,24.133999,0 120.652281,24.133987,0 120.652339,24.133963,0 120.652377,24.133924,0 120.652405,24.133317,0 120.653029,24.133308,0 120.653027,24.133405,0 120.653039,24.133418,0 120.652971,24.134801,0 120.652937,24.134826,0 120.653059,24.134827,0 120.653167,24.134828,0 120.653164,24.134951,0 120.653160,24.135080,0 120.653048,24.135077,0 120.653038,24.135276,0 120.653039,24.135634,0 120.653165,24.135595,0 120.653153,24.135710,0 120.653144,24.135863,0 120.653037,24.135885,0 120.653033,24.136042,0 120.653029,24.136678,0 120.653812,24.136675,0 120.654587,24.136674,0 120.654660,24.136658,0 120.655070,24.136566,0 120.655141,24.136552,0 120.655141,24.137116,0 120.655140,24.137615,0 120.655141,24.137883,0 120.655141,24.138158,0 120.655142,24.138432,0 120.655141,24.138739,0 120.655141,24.139027,0 120.655132,24.140040,0 120.655130,24.140143,0 120.655131,24.140211,0 120.655142,24.140295,0 120.655214,24.140405,0 120.655541,24.140737,0 120.655917,24.141129,0 120.655951,24.141245,0 120.656654,24.141245,0 120.657253,24.141251,0 120.657254,24.141559,0 120.655958,24.141563,0 120.655959,24.141908,0 120.655991,24.142196,0 120.656040,24.142366,0 120.656093,24.142499,0 120.656221,24.142676,0 120.656355,24.142814,0 120.656535,24.142949,0 120.656441,24.142979,0 120.656211,24.143174,0 120.656140,24.143217,0 120.656012,24.143239,0 120.655128,24.143244,0 120.655052,24.143225,0 120.654589,24.143231,0 120.653978,24.143228,0 120.653979,24.142645,0 120.653013,24.142645,0 120.653013,24.141843,0 120.653981,24.141843,0 120.653980,24.142220,0 120.653979,24.142314,0 120.653979,24.142645,0 120.653978,24.143228,0 120.653974,24.143827,0 120.653975,24.144323,0 120.653976,24.144355,0 120.653974,24.144956,0 120.653017,24.144967,0 120.653014,24.145440,0 120.652147,24.145442,0 120.652154,24.145814,0 120.651306,24.145816,0 120.651309,24.145251,0 120.650627,24.145249,0 120.650626,24.144941,0 120.649876,24.144938,0 120.649874,24.145253,0 120.649875,24.145562,0 120.649867,24.146105,0 120.648771,24.146101,0 120.648762,24.146769,0 120.648280,24.146774,0 120.648052,24.146777,0 120.647804,24.146780,0 120.646847,24.146792,0 120.646625,24.146793,0 120.646197,24.146415,0 120.646220,24.146396,0 120.646289,24.146316,0 120.646321,24.146237,0 120.646322,24.146128,0 120.646295,24.145995,0 120.646239,24.145874,0 120.646267,24.145817,0 120.646294,24.145775,0 120.646321,24.145740,0 120.646285,24.145667,0 120.646230,24.145641,0 120.646161,24.145597,0 120.646068,24.145576,0 120.646002,24.145557,0 120.645930,24.145531,0 120.645867,24.145468,0 120.645851,24.145348,0 120.645916,24.145273,0 120.646034,24.145074,0 120.646046,24.144991,0 120.646041,24.144900,0 120.646059,24.144859,0 120.646066,24.144749,0 120.646043,24.144682,0 120.646007,24.144629,0 120.646057,24.144632,0 120.646107,24.144619,0 120.646132,24.144606,0 120.646196,24.144569,0 120.646257,24.144527,0 120.646282,24.144501,0 120.646297,24.144470,0 120.646308,24.144440,0 120.646313,24.144405,0 120.646317,24.144370,0 120.646313,24.144331,0 120.646301,24.144299,0 120.646269,24.144270,0 120.646247,24.144256,0 120.646598,24.143812,0 120.646599,24.143751,0 120.646591,24.142594,0 120.646841,24.142606,0 120.646846,24.142745,0 120.646837,24.143791,0 120.646599,24.143751,0 120.646598,24.143812,0 120.646247,24.144256,0 120.646228,24.144245,0 120.646183,24.144232,0 120.646141,24.144226,0 120.646100,24.144237,0 120.646060,24.144254,0 120.646018,24.144282,0 120.645983,24.144316,0 120.645954,24.144343,0 120.645936,24.144368,0 120.645922,24.144400,0 120.645913,24.144433,0 120.645903,24.144463,0 120.645898,24.144492,0 120.645894,24.144525,0 120.645916,24.144563,0 120.645946,24.144596,0 120.645977,24.144616,0 120.646007,24.144629,0 120.646043,24.144682,0 120.646066,24.144749,0 120.646059,24.144859,0 120.646041,24.144900,0 120.646018,24.144807,0 120.645962,24.144714,0 120.645926,24.144687,0 120.645872,24.144670,0 120.645813,24.144666,0 120.645736,24.144666,0 120.645621,24.144655,0 120.645575,24.144644,0 120.645540,24.144619,0 120.645485,24.144574,0 120.645439,24.144498,0 120.645434,24.144411,0 120.645440,24.144337,0 120.645457,24.144291,0 120.645494,24.144251,0 120.645510,24.144196,0 120.645359,24.144210,0 120.645374,24.144277,0 120.645354,24.144401,0 120.645311,24.144418,0 120.645269,24.144451,0 120.645255,24.144480,0 120.645231,24.144508,0 120.645196,24.144546,0 120.645155,24.144587,0 120.645036,24.144633,0 120.644964,24.144674,0 120.644885,24.144736,0 120.644839,24.144781,0 120.644789,24.144820,0 120.644735,24.144851,0 120.644687,24.144885,0 120.644591,24.144905,0 120.644540,24.144912,0 120.644486,24.144919,0 120.644460,24.144936,0 120.644418,24.144977,0 120.644397,24.145040,0 120.644372,24.145030,0 120.644346,24.145028,0 120.644320,24.145034,0 120.644303,24.145040,0 120.644217,24.144938,0 120.644224,24.144935,0 120.644242,24.144915,0 120.644244,24.144902,0 120.644242,24.144890,0 120.644236,24.144878,0 120.644212,24.144864,0 120.644198,24.144862,0 120.644184,24.144866,0 120.644171,24.144873,0 120.644147,24.144847,0 120.644134,24.144851,0 120.644121,24.144851,0 120.644108,24.144846,0 120.644097,24.144839,0 120.644089,24.144828,0 120.644085,24.144816,0 120.644086,24.144804,0 120.644091,24.144792,0 120.644099,24.144782,0 120.644073,24.144749,0 120.644061,24.144754,0 120.644047,24.144756,0 120.644034,24.144754,0 120.644022,24.144748,0 120.644014,24.144740,0 120.644008,24.144731,0 120.644006,24.144720,0 120.643929,24.144613,0 120.643942,24.144582,0 120.643930,24.144552,0 120.643905,24.144531,0 120.643893,24.144504,0 120.643877,24.144489,0 120.643846,24.144472,0 120.643824,24.144423,0 120.643797,24.144394,0 120.643763,24.144379,0 120.643717,24.144319,0 120.643685,24.144280,0 120.643628,24.144273,0 120.643592,24.144286,0 120.643505,24.144203,0 120.643494,24.144091,0 120.643193,24.144118,0 120.643168,24.144021,0 120.642923,24.143012,0 120.642659,24.141941,0 120.642858,24.141872,0 120.642805,24.141763,0 120.642785,24.141608,0 120.642774,24.141513,0 120.642749,24.141330,0 120.642458,24.141424,0 120.642269,24.140915,0 120.642219,24.140812,0 120.642826,24.140607,0 120.642753,24.140482,0 120.642726,24.140389,0 120.642716,24.140292,0 120.642723,24.140109,0 120.643012,24.140012,0 120.643505,24.139845,0 120.644092,24.139647,0 120.644587,24.139480,0 120.644206,24.138810,0 120.643965,24.138306,0 120.643928,24.138192,0
</coordinates></LineString></Placemark>
</Document></kml>