<?xml version="1.0" encoding="UTF-8"?>
<kml xmlns="http://www.opengis.net/kml/2.2"><Document>
<name>南屯區 貓臉（正面） 圖形路跑路線</name>
<Style id="r"><LineStyle><color>ff2000d6</color><width>4</width></LineStyle></Style>
<Placemark><name>大興公園</name><description>地標</description><Point><coordinates>120.654085,24.135261,0</coordinates></Point></Placemark>
<Placemark><name>兒91公園</name><description>地標</description><Point><coordinates>120.656179,24.120137,0</coordinates></Point></Placemark>
<Placemark><name>和平公園</name><description>地標</description><Point><coordinates>120.657711,24.118971,0</coordinates></Point></Placemark>
<Placemark><name>南屯區 貓臉（正面） 圖形路跑路線</name><styleUrl>#r</styleUrl><LineString><tessellate>1</tessellate><coordinates>
120.650729,24.132008,0 120.650722,24.132674,0 120.652379,24.132660,0 120.652424,24.132684,0 120.652433,24.132744,0 120.652405,24.133317,0 120.653029,24.133308,0 120.653027,24.133405,0 120.653117,24.133406,0 120.653207,24.133407,0 120.653208,24.133306,0 120.654061,24.133301,0 120.654506,24.133299,0 120.654505,24.133382,0 120.654586,24.133380,0 120.654590,24.134862,0 120.654644,24.134861,0 120.654661,24.134861,0 120.654689,24.134957,0 120.655053,24.134968,0 120.655067,24.134969,0 120.655062,24.135116,0 120.655058,24.135251,0 120.655076,24.135253,0 120.655141,24.135220,0 120.655220,24.135171,0 120.655212,24.135040,0 120.655238,24.135026,0 120.655377,24.134943,0 120.655522,24.134855,0 120.655762,24.134722,0 120.655626,24.134423,0 120.655495,24.134049,0 120.655421,24.133832,0 120.655328,24.133499,0 120.655285,24.133143,0 120.655680,24.133139,0 120.656160,24.133130,0 120.656159,24.132754,0 120.656159,24.132711,0 120.656152,24.132396,0 120.656152,24.132360,0 120.656154,24.132162,0 120.656156,24.131893,0 120.656159,24.131613,0 120.657255,24.131613,0 120.657255,24.131342,0 120.657256,24.130793,0 120.657256,24.130568,0 120.657257,24.130104,0 120.657360,24.130124,0 120.657447,24.130119,0 120.657827,24.130120,0 120.658779,24.130123,0 120.659169,24.130125,0 120.659169,24.130036,0 120.659165,24.129928,0 120.659223,24.129945,0 120.659246,24.129952,0 120.659502,24.129949,0 120.659547,24.129949,0 120.659547,24.130034,0 120.659639,24.130037,0 120.659612,24.129947,0 120.659608,24.129821,0 120.659609,24.129065,0 120.659606,24.128755,0 120.659603,24.128333,0 120.659599,24.128023,0 120.659606,24.127391,0 120.659614,24.126990,0 120.660042,24.126987,0 120.660288,24.126988,0 120.660487,24.126608,0 120.659923,24.126382,0 120.659976,24.126283,0 120.660022,24.126180,0 120.660050,24.126121,0 120.660159,24.125902,0 120.660116,24.125884,0 120.659877,24.125782,0 120.659683,24.125687,0 120.660036,24.124839,0 120.660005,24.124763,0 120.659930,24.124734,0 120.659817,24.124693,0 120.659854,24.124626,0 120.659970,24.124396,0 120.660001,24.124325,0 120.659735,24.124216,0 120.658689,24.123802,0 120.658658,24.123708,0 120.658657,24.123626,0 120.658686,24.123515,0 120.658737,24.123418,0 120.658800,24.123331,0 120.659199,24.122952,0 120.658720,24.122108,0 120.658339,24.121948,0 120.657753,24.121701,0 120.657689,24.121599,0 120.657596,24.121178,0 120.657649,24.120988,0 120.657501,24.120962,0 120.657390,24.120939,0 120.656922,24.120843,0 120.656921,24.120755,0 120.656922,24.120671,0 120.656911,24.120582,0 120.656887,24.120572,0 120.656573,24.120487,0 120.656500,24.120473,0 120.656492,24.120414,0 120.656499,24.120301,0 120.656426,24.119957,0 120.656361,24.119758,0 120.656300,24.119644,0 120.656138,24.119820,0 120.655811,24.120161,0 120.655716,24.120118,0 120.655633,24.120121,0 120.655259,24.119870,0 120.654857,24.119538,0 120.654789,24.119480,0 120.654825,24.119445,0 120.655177,24.119064,0 120.654191,24.118304,0 120.654008,24.118494,0 120.653985,24.118517,0 120.653952,24.118552,0 120.653927,24.118578,0 120.653876,24.118631,0 120.653841,24.118668,0 120.653785,24.118630,0 120.653730,24.118697,0 120.653672,24.118765,0 120.653606,24.118815,0 120.653575,24.118768,0 120.653315,24.118558,0 120.653232,24.118502,0 120.652169,24.119556,0 120.651638,24.119183,0 120.650583,24.120297,0 120.650452,24.120219,0 120.648894,24.119272,0 120.648852,24.119334,0 120.648760,24.119469,0 120.648740,24.119498,0 120.648724,24.119521,0 120.648637,24.119646,0 120.648578,24.119733,0 120.648485,24.119677,0 120.648158,24.119480,0 120.647955,24.119355,0 120.647747,24.119228,0 120.647187,24.119976,0 120.647981,24.120492,0 120.647483,24.121109,0 120.647070,24.121639,0 120.645863,24.120688,0 120.645794,24.120759,0 120.645776,24.120783,0 120.645770,24.120779,0 120.645476,24.121138,0 120.645441,24.121195,0 120.645406,24.121229,0 120.645323,24.121163,0 120.645251,24.121249,0 120.644899,24.121668,0 120.644861,24.121714,0 120.644819,24.121765,0 120.644498,24.122154,0 120.644196,24.122521,0 120.644135,24.122595,0 120.644084,24.122670,0 120.644077,24.122679,0 120.644060,24.122702,0 120.643395,24.123482,0 120.643344,24.123541,0 120.643293,24.123603,0 120.642957,24.124005,0 120.643000,24.124041,0 120.643013,24.124090,0 120.643008,24.124112,0 120.642983,24.124140,0 120.642905,24.124232,0 120.642887,24.124256,0 120.642871,24.124264,0 120.642848,24.124284,0 120.642829,24.124294,0 120.642813,24.124299,0 120.642795,24.124296,0 120.642741,24.124260,0 120.642424,24.124646,0 120.642380,24.124699,0 120.642455,24.124750,0 120.642502,24.124782,0 120.643154,24.125136,0 120.642792,24.125578,0 120.642799,24.125630,0 120.643604,24.126176,0 120.643137,24.126798,0 120.643540,24.127290,0 120.643598,24.127381,0 120.643740,24.127685,0 120.643820,24.127914,0 120.643895,24.128126,0 120.643926,24.128602,0 120.643935,24.129523,0 120.645081,24.129528,0 120.645085,24.130159,0 120.645080,24.130339,0 120.645084,24.130685,0 120.645079,24.130846,0 120.645079,24.131242,0 120.645077,24.132052,0 120.645075,24.133366,0 120.645650,24.133361,0 120.646363,24.133354,0 120.646584,24.133352,0 120.646823,24.133350,0 120.647304,24.133344,0 120.648344,24.133344,0 120.648306,24.132021,0 120.648830,24.132018,0 120.649988,24.132012,0 120.650729,24.132008,0
</coordinates></LineString></Placemark>
</Document></kml>