<?xml version="1.0" encoding="UTF-8"?>
<kml xmlns="http://www.opengis.net/kml/2.2"><Document>
<name>北區 手繪蹲坐貓（原稿描圖） 圖形路跑路線</name>
<Style id="r"><LineStyle><color>ff2000d6</color><width>4</width></LineStyle></Style>
<Placemark><name>林烈堂別墅</name><description>地標</description><Point><coordinates>120.675533,24.142131,0</coordinates></Point></Placemark>
<Placemark><name>柳川水岸步道</name><description>地標</description><Point><coordinates>120.677578,24.143552,0</coordinates></Point></Placemark>
<Placemark><name>臺中市立圖書館中區分館</name><description>地標</description><Point><coordinates>120.679524,24.143894,0</coordinates></Point></Placemark>
<Placemark><name>北區 手繪蹲坐貓（原稿描圖） 圖形路跑路線</name><styleUrl>#r</styleUrl><LineString><tessellate>1</tessellate><coordinates>
120.678324,24.141215,0 120.678042,24.140949,0 120.677735,24.141220,0 120.676987,24.141883,0 120.677026,24.141928,0 120.677050,24.141976,0 120.677007,24.142008,0 120.677058,24.142060,0 120.677272,24.142312,0 120.677440,24.142592,0 120.677490,24.142678,0 120.677533,24.142750,0 120.677570,24.142849,0 120.677505,24.142918,0 120.677494,24.142964,0 120.677584,24.143217,0 120.677543,24.143250,0 120.677537,24.143287,0 120.677603,24.143289,0 120.677638,24.143285,0 120.677751,24.143574,0 120.677811,24.143719,0 120.677848,24.143758,0 120.677822,24.143785,0 120.677624,24.143960,0 120.677577,24.143976,0 120.677636,24.143975,0 120.677708,24.144025,0 120.677832,24.144112,0 120.677756,24.144179,0 120.678026,24.144440,0 120.678312,24.144708,0 120.678225,24.144782,0 120.678281,24.144835,0 120.678268,24.144849,0 120.677845,24.145221,0 120.678207,24.145576,0 120.677669,24.146053,0 120.678060,24.146452,0 120.677844,24.146801,0 120.677568,24.147133,0 120.677494,24.147258,0 120.677422,24.147525,0 120.677403,24.147703,0 120.677418,24.147933,0 120.677496,24.148173,0 120.677565,24.148289,0 120.677183,24.148629,0 120.676880,24.148903,0 120.676724,24.148757,0 120.676639,24.148673,0 120.676482,24.148524,0 120.676764,24.148285,0 120.677055,24.148034,0 120.676640,24.147627,0 120.676579,24.147685,0 120.676422,24.147812,0 120.676085,24.148112,0 120.675703,24.147776,0 120.675340,24.147422,0 120.674836,24.147836,0 120.674275,24.148303,0 120.674200,24.148366,0 120.674946,24.149090,0 120.674719,24.149296,0 120.674572,24.149424,0 120.674221,24.149748,0 120.674698,24.150206,0 120.675310,24.150791,0 120.675423,24.150935,0 120.676542,24.151964,0 120.676787,24.152190,0 120.677223,24.152178,0 120.677228,24.152531,0 120.677230,24.152683,0 120.677346,24.152814,0 120.677556,24.152838,0 120.677813,24.152248,0 120.678117,24.151636,0 120.678175,24.151525,0 120.678477,24.150941,0 120.678661,24.151010,0 120.678887,24.150841,0 120.679153,24.150672,0 120.679203,24.150680,0 120.679260,24.150530,0 120.679267,24.150315,0 120.678989,24.149988,0 120.679061,24.149943,0 120.679217,24.149836,0 120.679287,24.149782,0 120.679753,24.150361,0 120.680380,24.150112,0 120.680476,24.150081,0 120.681172,24.149852,0 120.680958,24.149342,0 120.680900,24.149195,0 120.681685,24.148916,0 120.682367,24.148685,0 120.683439,24.148310,0 120.683541,24.148273,0 120.683772,24.148822,0 120.683857,24.149025,0 120.684184,24.148922,0 120.684020,24.148535,0 120.683858,24.148158,0 120.684145,24.148055,0 120.684470,24.147937,0 120.684374,24.147707,0 120.684336,24.147616,0 120.684245,24.147399,0 120.684998,24.147125,0 120.685245,24.147034,0 120.685472,24.147575,0 120.686403,24.147233,0 120.686086,24.146534,0 120.686050,24.146412,0 120.686042,24.146294,0 120.686055,24.146168,0 120.685957,24.146173,0 120.685962,24.146059,0 120.685690,24.145281,0 120.685191,24.145341,0 120.685173,24.145333,0 120.685011,24.145249,0 120.684916,24.145217,0 120.684941,24.144923,0 120.684869,24.144813,0 120.684811,24.144722,0 120.684924,24.144622,0 120.685215,24.144608,0 120.685835,24.144443,0 120.686006,24.144423,0 120.686057,24.144578,0 120.686262,24.144508,0 120.686237,24.144429,0 120.686114,24.144009,0 120.686063,24.143865,0 120.685991,24.143664,0 120.686082,24.143648,0 120.686247,24.143610,0 120.687092,24.143490,0 120.687118,24.143613,0 120.687268,24.144001,0 120.687357,24.143972,0 120.687640,24.143834,0 120.687807,24.143726,0 120.687944,24.143683,0 120.687921,24.143353,0 120.687935,24.143351,0 120.688213,24.143322,0 120.688514,24.143292,0 120.688773,24.143270,0 120.688772,24.143408,0 120.688771,24.143528,0 120.689240,24.143497,0 120.689594,24.143487,0 120.689599,24.143692,0 120.690045,24.143658,0 120.690085,24.143652,0 120.690445,24.143599,0 120.690470,24.143882,0 120.690398,24.143921,0 120.690428,24.144259,0 120.690936,24.144222,0 120.691379,24.144186,0 120.691453,24.144179,0 120.691746,24.144155,0 120.691798,24.144153,0 120.692468,24.144112,0 120.692467,24.143867,0 120.692467,24.143785,0 120.692465,24.143625,0 120.692466,24.143476,0 120.692465,24.143141,0 120.692465,24.143059,0 120.691791,24.143095,0 120.691184,24.143128,0 120.690835,24.143147,0 120.690365,24.143175,0 120.689587,24.143221,0 120.689221,24.143234,0 120.688797,24.143269,0 120.688780,24.142925,0 120.688188,24.142965,0 120.687927,24.142983,0 120.687633,24.143004,0 120.687599,24.142279,0 120.686930,24.142308,0 120.686887,24.142332,0 120.686861,24.142383,0 120.686864,24.143061,0 120.686106,24.143105,0 120.685896,24.143172,0 120.685898,24.142988,0 120.685730,24.142999,0 120.685726,24.143187,0 120.685484,24.143203,0 120.685438,24.143196,0 120.685403,24.143186,0 120.685331,24.143271,0 120.685295,24.143305,0 120.685121,24.143474,0 120.684980,24.143581,0 120.684935,24.143400,0 120.684685,24.142943,0 120.684723,24.142862,0 120.684723,24.142792,0 120.684663,24.142748,0 120.684663,24.142722,0 120.684609,24.142701,0 120.684486,24.142566,0 120.684474,24.142529,0 120.684426,24.142268,0 120.684034,24.141884,0 120.683985,24.141835,0 120.683661,24.141518,0 120.682856,24.142220,0 120.682491,24.141867,0 120.682117,24.141507,0 120.681742,24.141834,0 120.681363,24.142181,0 120.680972,24.141814,0 120.680700,24.141562,0 120.680644,24.141609,0 120.680572,24.141539,0 120.680372,24.141711,0 120.680306,24.141770,0 120.680149,24.141905,0 120.680090,24.141958,0 120.679907,24.142118,0 120.679658,24.142333,0 120.679592,24.142270,0 120.679574,24.142286,0 120.679528,24.142283,0 120.679518,24.142271,0 120.679452,24.142329,0 120.679175,24.142050,0 120.679083,24.142109,0 120.678993,24.142198,0 120.678720,24.141934,0 120.678775,24.141823,0 120.678787,24.141672,0 120.678602,24.141494,0 120.678324,24.141215,0
</coordinates></LineString></Placemark>
</Document></kml>