<?xml version="1.0" encoding="UTF-8"?>
<kml xmlns="http://www.opengis.net/kml/2.2"><Document>
<name>清水區 手繪蹲坐貓（原稿描圖） 圖形路跑路線</name>
<Style id="r"><LineStyle><color>ff2000d6</color><width>4</width></LineStyle></Style>
<Placemark><name>頂魚寮公園</name><description>地標</description><Point><coordinates>120.537092,24.264664,0</coordinates></Point></Placemark>
<Placemark><name>地景公園</name><description>地標</description><Point><coordinates>120.532946,24.266150,0</coordinates></Point></Placemark>
<Placemark><name>槺榔運動公園</name><description>地標</description><Point><coordinates>120.545944,24.265302,0</coordinates></Point></Placemark>
<Placemark><name>清水區 手繪蹲坐貓（原稿描圖） 圖形路跑路線</name><styleUrl>#r</styleUrl><LineString><tessellate>1</tessellate><coordinates>
120.537744,24.261406,0 120.537245,24.261588,0 120.537111,24.261270,0 120.537041,24.261289,0 120.537175,24.261616,0 120.537476,24.262358,0 120.537219,24.262452,0 120.536405,24.262751,0 120.536059,24.262878,0 120.535613,24.263041,0 120.535227,24.263183,0 120.535278,24.263300,0 120.535304,24.263357,0 120.535307,24.263365,0 120.535313,24.263365,0 120.535313,24.263370,0 120.535314,24.263376,0 120.535440,24.263673,0 120.535483,24.263773,0 120.535535,24.263897,0 120.535570,24.263885,0 120.535611,24.263981,0 120.535810,24.264450,0 120.535791,24.264456,0 120.535775,24.264462,0 120.535776,24.264464,0 120.535781,24.264475,0 120.535799,24.264518,0 120.535755,24.264557,0 120.535686,24.264581,0 120.533747,24.265273,0 120.533673,24.265299,0 120.533704,24.265371,0 120.533766,24.265349,0 120.533930,24.265737,0 120.533930,24.265738,0 120.533989,24.265876,0 120.533927,24.265898,0 120.533799,24.265944,0 120.533737,24.265966,0 120.533887,24.266321,0 120.533889,24.266327,0 120.533889,24.266332,0 120.533888,24.266335,0 120.533954,24.266311,0 120.533979,24.266370,0 120.534014,24.266452,0 120.533952,24.266474,0 120.533946,24.266460,0 120.533943,24.266454,0 120.533938,24.266450,0 120.533933,24.266447,0 120.533927,24.266445,0 120.533920,24.266445,0 120.533914,24.266447,0 120.533460,24.266610,0 120.532449,24.266974,0 120.532443,24.266977,0 120.532439,24.266981,0 120.532435,24.266986,0 120.532433,24.266991,0 120.532433,24.266997,0 120.532435,24.267003,0 120.532674,24.267566,0 120.532911,24.268125,0 120.532914,24.268131,0 120.532918,24.268135,0 120.532924,24.268138,0 120.532930,24.268139,0 120.532936,24.268140,0 120.532938,24.268139,0 120.532962,24.268196,0 120.533012,24.268315,0 120.533547,24.268125,0 120.533726,24.268062,0 120.533775,24.268177,0 120.533713,24.268200,0 120.533709,24.268197,0 120.533703,24.268194,0 120.533697,24.268190,0 120.533691,24.268187,0 120.533684,24.268184,0 120.533678,24.268182,0 120.533671,24.268180,0 120.533664,24.268178,0 120.533657,24.268176,0 120.533650,24.268175,0 120.533642,24.268174,0 120.533635,24.268173,0 120.533628,24.268173,0 120.533621,24.268173,0 120.533614,24.268173,0 120.533606,24.268174,0 120.533599,24.268175,0 120.533592,24.268176,0 120.533585,24.268178,0 120.533578,24.268180,0 120.533571,24.268182,0 120.533481,24.268214,0 120.533416,24.268237,0 120.533251,24.268295,0 120.533041,24.268370,0 120.533036,24.268372,0 120.533035,24.268372,0 120.533030,24.268376,0 120.533027,24.268382,0 120.533025,24.268387,0 120.533025,24.268393,0 120.533027,24.268399,0 120.533109,24.268594,0 120.533236,24.268893,0 120.533267,24.268966,0 120.533291,24.269022,0 120.533343,24.269144,0 120.533357,24.269179,0 120.533372,24.269214,0 120.533457,24.269415,0 120.533493,24.269499,0 120.533511,24.269542,0 120.533747,24.270100,0 120.533750,24.270105,0 120.533755,24.270109,0 120.533761,24.270112,0 120.533767,24.270114,0 120.533773,24.270114,0 120.533780,24.270112,0 120.534421,24.269876,0 120.534427,24.269873,0 120.534431,24.269869,0 120.534434,24.269864,0 120.534436,24.269858,0 120.534436,24.269852,0 120.534435,24.269846,0 120.534434,24.269844,0 120.534475,24.269829,0 120.534557,24.269799,0 120.534598,24.269783,0 120.534599,24.269785,0 120.534602,24.269790,0 120.534607,24.269795,0 120.534612,24.269798,0 120.534618,24.269800,0 120.534625,24.269800,0 120.534631,24.269798,0 120.534930,24.269688,0 120.535232,24.269576,0 120.535238,24.269573,0 120.535242,24.269569,0 120.535244,24.269567,0 120.535314,24.269541,0 120.535442,24.269494,0 120.535514,24.269467,0 120.535516,24.269468,0 120.535523,24.269468,0 120.535529,24.269467,0 120.535916,24.269324,0 120.536301,24.269182,0 120.536307,24.269179,0 120.536311,24.269175,0 120.536315,24.269170,0 120.536362,24.269152,0 120.536445,24.269122,0 120.536492,24.269104,0 120.536487,24.269101,0 120.536482,24.269096,0 120.536479,24.269091,0 120.536189,24.268408,0 120.536118,24.268240,0 120.536128,24.268237,0 120.536146,24.268230,0 120.536217,24.268398,0 120.536502,24.269071,0 120.536964,24.268900,0 120.537426,24.268730,0 120.537145,24.268067,0 120.537074,24.267900,0 120.537092,24.267893,0 120.537108,24.267888,0 120.537179,24.268055,0 120.537465,24.268728,0 120.537466,24.268733,0 120.537466,24.268739,0 120.537465,24.268745,0 120.537474,24.268749,0 120.537526,24.268729,0 120.537579,24.268710,0 120.537583,24.268701,0 120.537589,24.268703,0 120.537596,24.268703,0 120.537602,24.268701,0 120.538075,24.268527,0 120.538542,24.268354,0 120.538548,24.268351,0 120.538552,24.268347,0 120.538556,24.268342,0 120.538557,24.268337,0 120.538558,24.268331,0 120.538556,24.268325,0 120.538597,24.268310,0 120.538679,24.268279,0 120.538720,24.268264,0 120.538723,24.268269,0 120.538728,24.268273,0 120.538733,24.268276,0 120.538740,24.268278,0 120.538746,24.268278,0 120.538752,24.268277,0 120.539212,24.268107,0 120.539681,24.267934,0 120.539687,24.267931,0 120.539692,24.267927,0 120.539695,24.267922,0 120.539695,24.267921,0 120.539761,24.267897,0 120.539879,24.267853,0 120.539902,24.267908,0 120.539927,24.267967,0 120.539990,24.267944,0 120.539990,24.267944,0 120.539991,24.267938,0 120.539995,24.267933,0 120.539999,24.267929,0 120.540005,24.267926,0 120.540109,24.267888,0 120.540165,24.267867,0 120.540218,24.267847,0 120.540255,24.267834,0 120.540292,24.267820,0 120.540329,24.267806,0 120.540366,24.267793,0 120.540402,24.267779,0 120.540447,24.267763,0 120.540483,24.267750,0 120.540520,24.267736,0 120.540556,24.267723,0 120.540599,24.267707,0 120.540695,24.267671,0 120.540701,24.267670,0 120.540707,24.267670,0 120.540714,24.267672,0 120.540719,24.267675,0 120.540763,24.267658,0 120.540846,24.267628,0 120.540821,24.267569,0 120.540871,24.267550,0 120.541624,24.267272,0 120.541707,24.267242,0 120.541680,24.267179,0 120.541543,24.266856,0 120.540968,24.265503,0 120.541027,24.265482,0 120.541025,24.265487,0 120.541025,24.265493,0 120.541027,24.265499,0 120.541296,24.266131,0 120.541436,24.266461,0 120.541566,24.266768,0 120.541569,24.266773,0 120.541574,24.266777,0 120.541579,24.266780,0 120.541585,24.266782,0 120.541592,24.266782,0 120.541598,24.266781,0 120.542259,24.266551,0 120.542626,24.266424,0 120.542964,24.266307,0 120.542970,24.266304,0 120.542976,24.266301,0 120.542981,24.266297,0 120.542986,24.266293,0 120.542991,24.266288,0 120.542994,24.266282,0 120.542997,24.266277,0 120.542999,24.266270,0 120.543000,24.266264,0 120.543000,24.266258,0 120.543000,24.266252,0 120.542999,24.266245,0 120.542997,24.266239,0 120.542960,24.266154,0 120.542814,24.265816,0 120.542789,24.265757,0 120.542741,24.265644,0 120.542666,24.265472,0 120.542639,24.265407,0 120.542612,24.265345,0 120.542594,24.265303,0 120.542559,24.265223,0 120.542557,24.265217,0 120.542554,24.265210,0 120.542551,24.265204,0 120.542547,24.265198,0 120.542544,24.265192,0 120.542540,24.265186,0 120.542537,24.265180,0 120.542533,24.265175,0 120.542529,24.265169,0 120.542524,24.265163,0 120.542520,24.265158,0 120.542516,24.265153,0 120.542511,24.265147,0 120.542506,24.265142,0 120.542501,24.265137,0 120.542496,24.265132,0 120.542491,24.265127,0 120.542486,24.265123,0 120.542480,24.265118,0 120.542475,24.265113,0 120.542469,24.265109,0 120.542464,24.265105,0 120.542458,24.265101,0 120.542452,24.265097,0 120.542446,24.265093,0 120.542440,24.265089,0 120.542433,24.265086,0 120.542427,24.265082,0 120.542421,24.265079,0 120.542414,24.265076,0 120.542407,24.265073,0 120.542401,24.265070,0 120.542394,24.265067,0 120.542387,24.265065,0 120.542380,24.265062,0 120.542378,24.265062,0 120.542326,24.264941,0 120.542306,24.264895,0 120.542295,24.264869,0 120.542275,24.264823,0 120.542444,24.264762,0 120.542719,24.264663,0 120.541826,24.262587,0 120.542700,24.262812,0 120.542866,24.263238,0 120.543087,24.263773,0 120.544311,24.263219,0 120.544906,24.263372,0 120.545034,24.263624,0 120.545102,24.263689,0 120.545173,24.263811,0 120.545182,24.263827,0 120.545124,24.263849,0 120.544751,24.263990,0 120.544742,24.263994,0 120.544735,24.263999,0 120.544729,24.264005,0 120.544724,24.264012,0 120.544720,24.264020,0 120.544718,24.264028,0 120.544717,24.264036,0 120.544719,24.264045,0 120.544721,24.264053,0 120.544770,24.264167,0 120.544865,24.264389,0 120.544883,24.264430,0 120.544943,24.264570,0 120.544948,24.264581,0 120.545007,24.264718,0 120.545071,24.264868,0 120.545107,24.264950,0 120.545666,24.264761,0 120.545721,24.264741,0 120.546091,24.265361,0 120.546452,24.265949,0 120.546475,24.265988,0 120.546537,24.265964,0 120.546791,24.265868,0 120.546898,24.265839,0 120.546943,24.265827,0 120.547298,24.265747,0 120.547332,24.265739,0 120.547367,24.265732,0 120.547862,24.265618,0 120.547850,24.265585,0 120.547811,24.265494,0 120.547572,24.264924,0 120.547531,24.264835,0 120.547437,24.264868,0 120.547131,24.264988,0 120.546623,24.265215,0 120.546853,24.265732,0 120.546898,24.265839,0 120.546791,24.265868,0 120.546537,24.265964,0 120.546475,24.265988,0 120.546452,24.265949,0 120.546091,24.265361,0 120.545721,24.264741,0 120.545666,24.264761,0 120.545107,24.264950,0 120.545071,24.264868,0 120.545007,24.264718,0 120.544948,24.264581,0 120.544943,24.264570,0 120.544883,24.264430,0 120.544865,24.264389,0 120.544770,24.264167,0 120.544721,24.264053,0 120.544719,24.264045,0 120.544717,24.264036,0 120.544718,24.264028,0 120.544720,24.264020,0 120.544724,24.264012,0 120.544729,24.264005,0 120.544735,24.263999,0 120.544742,24.263994,0 120.544751,24.263990,0 120.545124,24.263849,0 120.545182,24.263827,0 120.545173,24.263811,0 120.545102,24.263689,0 120.545034,24.263624,0 120.544906,24.263372,0 120.544311,24.263219,0 120.543929,24.263125,0 120.543451,24.262998,0 120.542700,24.262812,0 120.541826,24.262587,0 120.541548,24.262678,0 120.541685,24.262996,0 120.541586,24.263032,0 120.541550,24.262947,0 120.541551,24.262945,0 120.541555,24.262940,0 120.541559,24.262934,0 120.541561,24.262928,0 120.541562,24.262922,0 120.541563,24.262915,0 120.541563,24.262909,0 120.541562,24.262902,0 120.541559,24.262896,0 120.541445,24.262630,0 120.541359,24.262431,0 120.541357,24.262425,0 120.541353,24.262419,0 120.541350,24.262413,0 120.541347,24.262407,0 120.541343,24.262401,0 120.541340,24.262395,0 120.541336,24.262390,0 120.541332,24.262384,0 120.541327,24.262379,0 120.541323,24.262373,0 120.541318,24.262368,0 120.541314,24.262363,0 120.541309,24.262358,0 120.541304,24.262353,0 120.541298,24.262348,0 120.541293,24.262344,0 120.541288,24.262339,0 120.541282,24.262335,0 120.541276,24.262331,0 120.541270,24.262327,0 120.541264,24.262323,0 120.541258,24.262319,0 120.541252,24.262316,0 120.541246,24.262312,0 120.541239,24.262309,0 120.541233,24.262306,0 120.541226,24.262303,0 120.541219,24.262301,0 120.541212,24.262298,0 120.541205,24.262296,0 120.541198,24.262294,0 120.541191,24.262292,0 120.541190,24.262291,0 120.541184,24.262290,0 120.541177,24.262289,0 120.541170,24.262287,0 120.541163,24.262286,0 120.541156,24.262285,0 120.541148,24.262284,0 120.541141,24.262283,0 120.541134,24.262283,0 120.541126,24.262283,0 120.541119,24.262283,0 120.541112,24.262283,0 120.541104,24.262283,0 120.541097,24.262284,0 120.541090,24.262285,0 120.541082,24.262286,0 120.541075,24.262287,0 120.541068,24.262288,0 120.541061,24.262289,0 120.541054,24.262291,0 120.541047,24.262293,0 120.541040,24.262295,0 120.541033,24.262297,0 120.541026,24.262300,0 120.540598,24.262457,0 120.540430,24.262518,0 120.540369,24.262541,0 120.540276,24.262575,0 120.540100,24.262639,0 120.540054,24.262656,0 120.539873,24.262722,0 120.539868,24.262725,0 120.539863,24.262729,0 120.539846,24.262689,0 120.539814,24.262613,0 120.539800,24.262580,0 120.539796,24.262572,0 120.539790,24.262571,0 120.539785,24.262568,0 120.539780,24.262563,0 120.539777,24.262558,0 120.539627,24.262205,0 120.539476,24.261849,0 120.539474,24.261844,0 120.539475,24.261838,0 120.539476,24.261832,0 120.539480,24.261827,0 120.539484,24.261823,0 120.539490,24.261820,0 120.539491,24.261820,0 120.539486,24.261809,0 120.539466,24.261764,0 120.539390,24.261791,0 120.539317,24.261818,0 120.539348,24.261874,0 120.539345,24.261874,0 120.539339,24.261875,0 120.539224,24.261918,0 120.539035,24.261987,0 120.538972,24.262010,0 120.538899,24.262037,0 120.538827,24.262063,0 120.538755,24.262090,0 120.538710,24.262106,0 120.538666,24.262122,0 120.538621,24.262139,0 120.538576,24.262155,0 120.538532,24.262172,0 120.538487,24.262188,0 120.538442,24.262204,0 120.538295,24.262259,0 120.537917,24.262397,0 120.537910,24.262400,0 120.537904,24.262402,0 120.537897,24.262405,0 120.537891,24.262408,0 120.537884,24.262412,0 120.537878,24.262415,0 120.537872,24.262418,0 120.537866,24.262422,0 120.537860,24.262426,0 120.537854,24.262430,0 120.537849,24.262434,0 120.537843,24.262439,0 120.537843,24.262439,0 120.537813,24.262370,0 120.537793,24.262324,0 120.537811,24.262317,0 120.537800,24.262292,0 120.537782,24.262298,0 120.537762,24.262253,0 120.537549,24.262331,0 120.537374,24.261894,0 120.537245,24.261588,0 120.537744,24.261406,0
</coordinates></LineString></Placemark>
</Document></kml>