<?xml version="1.0" encoding="UTF-8"?>
<kml xmlns="http://www.opengis.net/kml/2.2"><Document>
<name>沙鹿區 手繪蹲坐貓（原稿描圖） 圖形路跑路線</name>
<Style id="r"><LineStyle><color>ff2000d6</color><width>4</width></LineStyle></Style>
<Placemark><name>沙鹿區 手繪蹲坐貓（原稿描圖） 圖形路跑路線</name><styleUrl>#r</styleUrl><LineString><tessellate>1</tessellate><coordinates>
120.554037,24.250895,0 120.553572,24.251039,0 120.553600,24.251098,0 120.553837,24.251692,0 120.553878,24.251780,0 120.553712,24.251855,0 120.553926,24.252656,0 120.554331,24.254185,0 120.554956,24.254061,0 120.555428,24.255199,0 120.555542,24.255579,0 120.555494,24.255970,0 120.555400,24.256230,0 120.555239,24.256464,0 120.554995,24.256725,0 120.555179,24.257406,0 120.555366,24.258061,0 120.554441,24.258384,0 120.554548,24.258660,0 120.555459,24.258427,0 120.555616,24.258982,0 120.553633,24.259423,0 120.553332,24.258729,0 120.553223,24.258779,0 120.553518,24.259442,0 120.553724,24.259875,0 120.553821,24.259839,0 120.554532,24.259570,0 120.554634,24.259803,0 120.554888,24.260402,0 120.555096,24.260871,0 120.555261,24.261222,0 120.555491,24.261813,0 120.555790,24.261712,0 120.556282,24.261524,0 120.556396,24.261928,0 120.556451,24.262128,0 120.557225,24.261841,0 120.557480,24.262483,0 120.558652,24.262073,0 120.558815,24.262049,0 120.558562,24.261467,0 120.558313,24.260884,0 120.558603,24.260801,0 120.558509,24.260354,0 120.558265,24.259477,0 120.558819,24.259332,0 120.558829,24.259280,0 120.558813,24.259190,0 120.558802,24.259151,0 120.558615,24.258774,0 120.558582,24.258752,0 120.558507,24.258764,0 120.558384,24.258806,0 120.558271,24.258850,0 120.558133,24.258877,0 120.557999,24.258435,0 120.559101,24.258199,0 120.559231,24.258174,0 120.560007,24.257984,0 120.560379,24.257915,0 120.560718,24.257925,0 120.561343,24.258011,0 120.561504,24.257940,0 120.561277,24.257486,0 120.560985,24.256861,0 120.560914,24.256696,0 120.561405,24.256562,0 120.561497,24.256553,0 120.561543,24.256594,0 120.562097,24.257718,0 120.562720,24.257469,0 120.562822,24.257430,0 120.562104,24.255799,0 120.562300,24.255741,0 120.562282,24.255650,0 120.562244,24.255511,0 120.561926,24.254225,0 120.562240,24.254117,0 120.562401,24.254063,0 120.562592,24.253960,0 120.562704,24.253833,0 120.562766,24.253644,0 120.562769,24.253460,0 120.562471,24.252711,0 120.562318,24.252400,0 120.562192,24.252113,0 120.562532,24.251981,0 120.562509,24.251908,0 120.562489,24.251799,0 120.562504,24.251761,0 120.562570,24.251713,0 120.563387,24.251259,0 120.563492,24.251205,0 120.563652,24.251082,0 120.564303,24.250798,0 120.564596,24.250664,0 120.564754,24.250744,0 120.564969,24.250896,0 120.565360,24.250796,0 120.566014,24.250490,0 120.566120,24.250438,0 120.566390,24.250920,0 120.567347,24.250600,0 120.567759,24.250411,0 120.567803,24.250491,0 120.568036,24.250409,0 120.568474,24.250255,0 120.568732,24.250170,0 120.568725,24.250063,0 120.568604,24.249872,0 120.568462,24.249702,0 120.568215,24.249305,0 120.568085,24.249137,0 120.567572,24.249339,0 120.567477,24.249418,0 120.567514,24.249495,0 120.567452,24.249587,0 120.566923,24.249850,0 120.566805,24.249636,0 120.566599,24.249742,0 120.566084,24.249907,0 120.566002,24.249931,0 120.565859,24.250004,0 120.565745,24.250053,0 120.565691,24.250068,0 120.565428,24.250064,0 120.564980,24.250217,0 120.565165,24.250443,0 120.564596,24.250664,0 120.564303,24.250798,0 120.563652,24.251082,0 120.563492,24.251205,0 120.563387,24.251259,0 120.562570,24.251713,0 120.562504,24.251761,0 120.562489,24.251799,0 120.562509,24.251908,0 120.562532,24.251981,0 120.562192,24.252113,0 120.561309,24.250325,0 120.561160,24.250374,0 120.560892,24.250465,0 120.560545,24.250601,0 120.559922,24.250830,0 120.559789,24.250876,0 120.559134,24.251128,0 120.558881,24.250547,0 120.558452,24.250710,0 120.557832,24.250954,0 120.557493,24.250283,0 120.556354,24.250711,0 120.555953,24.250868,0 120.555830,24.250926,0 120.555550,24.251051,0 120.553878,24.251780,0 120.553837,24.251692,0 120.553600,24.251098,0 120.553572,24.251039,0 120.554037,24.250895,0
</coordinates></LineString></Placemark>
</Document></kml>