<?xml version="1.0" encoding="UTF-8"?>
<kml xmlns="http://www.opengis.net/kml/2.2"><Document>
<name>神岡區 手繪蹲坐貓（原稿描圖） 圖形路跑路線</name>
<Style id="r"><LineStyle><color>ff2000d6</color><width>4</width></LineStyle></Style>
<Placemark><name>岸裡文物館</name><description>地標</description><Point><coordinates>120.697725,24.249141,0</coordinates></Point></Placemark>
<Placemark><name>怡然園</name><description>地標</description><Point><coordinates>120.707436,24.250949,0</coordinates></Point></Placemark>
<Placemark><name>幸福方程式</name><description>地標</description><Point><coordinates>120.707783,24.249991,0</coordinates></Point></Placemark>
<Placemark><name>神岡區 手繪蹲坐貓（原稿描圖） 圖形路跑路線</name><styleUrl>#r</styleUrl><LineString><tessellate>1</tessellate><coordinates>
120.697670,24.244240,0 120.697894,24.244640,0 120.697707,24.244697,0 120.696750,24.244830,0 120.696649,24.244839,0 120.696153,24.244979,0 120.695878,24.245008,0 120.695747,24.245022,0 120.695666,24.245031,0 120.695456,24.245045,0 120.695622,24.245601,0 120.695243,24.245726,0 120.694947,24.245818,0 120.694763,24.245748,0 120.694633,24.245778,0 120.694376,24.245924,0 120.694419,24.246054,0 120.694554,24.246249,0 120.694778,24.246554,0 120.694971,24.246817,0 120.695071,24.246904,0 120.695136,24.246971,0 120.695274,24.247147,0 120.695523,24.247518,0 120.695654,24.247703,0 120.695760,24.247873,0 120.696098,24.248372,0 120.696179,24.248504,0 120.695817,24.248482,0 120.695443,24.248475,0 120.695282,24.248594,0 120.694933,24.248815,0 120.694623,24.249080,0 120.694367,24.249299,0 120.694172,24.249454,0 120.693046,24.250352,0 120.692188,24.251088,0 120.691698,24.251622,0 120.691440,24.251961,0 120.691258,24.252378,0 120.691187,24.252702,0 120.691104,24.253284,0 120.691153,24.254294,0 120.691238,24.255098,0 120.691248,24.255240,0 120.691903,24.254426,0 120.692090,24.254273,0 120.692314,24.254156,0 120.692563,24.254118,0 120.692580,24.254100,0 120.693261,24.253937,0 120.693445,24.253885,0 120.693531,24.253849,0 120.693715,24.253753,0 120.693830,24.253867,0 120.694064,24.254002,0 120.694401,24.254192,0 120.694487,24.254218,0 120.694638,24.254190,0 120.694911,24.253874,0 120.695139,24.253489,0 120.695131,24.253461,0 120.694884,24.253299,0 120.694904,24.253267,0 120.695182,24.252932,0 120.695219,24.252891,0 120.695867,24.252750,0 120.696337,24.252554,0 120.696567,24.253163,0 120.696593,24.253581,0 120.696668,24.254168,0 120.696748,24.254028,0 120.696962,24.253782,0 120.697214,24.253577,0 120.697592,24.253360,0 120.697389,24.252947,0 120.698123,24.252609,0 120.698343,24.253036,0 120.698539,24.252995,0 120.698858,24.252925,0 120.699079,24.252880,0 120.699168,24.252862,0 120.699321,24.252831,0 120.699674,24.252759,0 120.699759,24.252747,0 120.700353,24.252661,0 120.700323,24.252409,0 120.700326,24.252135,0 120.700355,24.252070,0 120.700465,24.252021,0 120.700476,24.252130,0 120.700739,24.252081,0 120.700914,24.252023,0 120.701061,24.251988,0 120.701338,24.251952,0 120.701330,24.251358,0 120.701630,24.251424,0 120.701886,24.251458,0 120.702618,24.251460,0 120.702938,24.251509,0 120.703119,24.251562,0 120.703096,24.251483,0 120.703075,24.251354,0 120.703083,24.250593,0 120.703086,24.250405,0 120.703091,24.250239,0 120.703099,24.249940,0 120.703102,24.249616,0 120.703102,24.249487,0 120.703349,24.249502,0 120.703353,24.249635,0 120.703308,24.250431,0 120.703311,24.251375,0 120.703289,24.251504,0 120.703274,24.251640,0 120.703246,24.251469,0 120.703247,24.251075,0 120.703268,24.249122,0 120.703271,24.246998,0 120.703282,24.246781,0 120.703321,24.246639,0 120.703356,24.246754,0 120.703354,24.247500,0 120.704629,24.247674,0 120.704617,24.248060,0 120.704601,24.248701,0 120.705341,24.248806,0 120.705296,24.249773,0 120.705932,24.249865,0 120.705938,24.249865,0 120.706182,24.249896,0 120.706261,24.249379,0 120.707467,24.249572,0 120.707477,24.249574,0 120.707396,24.250062,0 120.707803,24.250116,0 120.708754,24.250242,0 120.708776,24.250246,0 120.708866,24.250264,0 120.709032,24.250338,0 120.709169,24.250357,0 120.709283,24.249576,0 120.709144,24.249561,0 120.709032,24.250338,0 120.708866,24.250264,0 120.708776,24.250246,0 120.708713,24.250116,0 120.708668,24.249974,0 120.708559,24.249787,0 120.708516,24.249626,0 120.708455,24.249501,0 120.708259,24.249351,0 120.708042,24.249234,0 120.707918,24.249174,0 120.707912,24.249107,0 120.707915,24.248958,0 120.707893,24.248817,0 120.707806,24.248736,0 120.707710,24.248558,0 120.707647,24.248440,0 120.707573,24.248392,0 120.706711,24.248676,0 120.706750,24.248876,0 120.706324,24.248813,0 120.706366,24.248518,0 120.706401,24.248403,0 120.706430,24.248302,0 120.706081,24.247849,0 120.706085,24.247678,0 120.705950,24.247517,0 120.705782,24.247359,0 120.705584,24.247290,0 120.704864,24.247114,0 120.704757,24.247068,0 120.704782,24.246576,0 120.704887,24.246473,0 120.704391,24.246409,0 120.704072,24.246386,0 120.703976,24.246392,0 120.703321,24.246639,0 120.703166,24.246643,0 120.702848,24.246755,0 120.702560,24.246808,0 120.702163,24.246813,0 120.702009,24.246787,0 120.701686,24.246739,0 120.701379,24.246687,0 120.701242,24.246642,0 120.700900,24.246251,0 120.700444,24.245743,0 120.699989,24.246031,0 120.699970,24.245950,0 120.699964,24.245838,0 120.699690,24.245317,0 120.699353,24.244738,0 120.699128,24.244840,0 120.698217,24.245231,0 120.697998,24.244818,0 120.698090,24.244740,0 120.698082,24.244599,0 120.698040,24.244486,0 120.698031,24.244200,0 120.698012,24.244140,0 120.697984,24.244104,0 120.697670,24.244240,0
</coordinates></LineString></Placemark>
</Document></kml>