<?xml version="1.0" encoding="UTF-8"?>
<kml xmlns="http://www.opengis.net/kml/2.2"><Document>
<name>石岡區 手繪蹲坐貓（原稿描圖） 圖形路跑路線</name>
<Style id="r"><LineStyle><color>ff2000d6</color><width>4</width></LineStyle></Style>
<Placemark><name>0蛋月臺</name><description>地標</description><Point><coordinates>120.777967,24.276361,0</coordinates></Point></Placemark>
<Placemark><name>石岡車站斷層月臺(地震遺址)</name><description>地標</description><Point><coordinates>120.776965,24.276790,0</coordinates></Point></Placemark>
<Placemark><name>儲存糧食局公糧庫房第9號</name><description>地標</description><Point><coordinates>120.776539,24.275578,0</coordinates></Point></Placemark>
<Placemark><name>石岡區 手繪蹲坐貓（原稿描圖） 圖形路跑路線</name><styleUrl>#r</styleUrl><LineString><tessellate>1</tessellate><coordinates>
120.779462,24.270263,0 120.779292,24.270324,0 120.778950,24.270304,0 120.778502,24.270499,0 120.778216,24.270646,0 120.778019,24.270801,0 120.777981,24.270845,0 120.777901,24.270972,0 120.777695,24.271050,0 120.777578,24.271097,0 120.777214,24.271182,0 120.776833,24.271274,0 120.776626,24.271263,0 120.776461,24.271708,0 120.776585,24.271811,0 120.776585,24.272046,0 120.776639,24.272197,0 120.775993,24.272448,0 120.776093,24.272564,0 120.776525,24.272969,0 120.776608,24.273073,0 120.776911,24.273560,0 120.777074,24.273976,0 120.777093,24.274213,0 120.777787,24.274109,0 120.777907,24.274099,0 120.778248,24.274071,0 120.778679,24.274058,0 120.778690,24.274158,0 120.778707,24.274576,0 120.778731,24.274623,0 120.778393,24.274664,0 120.778218,24.274687,0 120.777971,24.274720,0 120.777978,24.274772,0 120.778030,24.275192,0 120.778036,24.275245,0 120.778043,24.275293,0 120.778089,24.275662,0 120.778108,24.275811,0 120.778116,24.275869,0 120.778482,24.275856,0 120.778031,24.276051,0 120.777803,24.276171,0 120.777508,24.276291,0 120.777211,24.276409,0 120.777154,24.276426,0 120.777141,24.276430,0 120.777079,24.276447,0 120.776552,24.276564,0 120.776245,24.276607,0 120.776144,24.276622,0 120.776098,24.276629,0 120.776078,24.276514,0 120.776029,24.276151,0 120.776021,24.276090,0 120.775973,24.276097,0 120.775420,24.276117,0 120.775305,24.276117,0 120.775190,24.276117,0 120.774972,24.276121,0 120.774940,24.276119,0 120.774844,24.276127,0 120.774773,24.276154,0 120.774681,24.276222,0 120.774509,24.276361,0 120.774440,24.276409,0 120.774515,24.276467,0 120.774753,24.276703,0 120.774841,24.276843,0 120.774901,24.276998,0 120.774952,24.277131,0 120.775047,24.277261,0 120.775138,24.277358,0 120.775168,24.277418,0 120.775103,24.277546,0 120.775076,24.277618,0 120.775084,24.277651,0 120.776310,24.277145,0 120.776332,24.277130,0 120.776395,24.277100,0 120.776390,24.277123,0 120.776546,24.277065,0 120.776542,24.277056,0 120.776629,24.277036,0 120.776722,24.277200,0 120.776747,24.277208,0 120.776790,24.277239,0 120.776961,24.277495,0 120.776978,24.277522,0 120.777067,24.277678,0 120.777307,24.278098,0 120.777372,24.278218,0 120.777461,24.278304,0 120.777584,24.278371,0 120.777586,24.278481,0 120.777596,24.278518,0 120.777621,24.278617,0 120.777768,24.278991,0 120.778013,24.279639,0 120.778358,24.280489,0 120.777909,24.280406,0 120.777599,24.280374,0 120.777242,24.280243,0 120.776821,24.280257,0 120.776580,24.280202,0 120.776510,24.280202,0 120.776488,24.280235,0 120.776514,24.280324,0 120.776626,24.280525,0 120.776662,24.280692,0 120.776663,24.280794,0 120.776827,24.280705,0 120.776862,24.280689,0 120.776890,24.280681,0 120.776920,24.280675,0 120.777130,24.280665,0 120.777163,24.280643,0 120.777186,24.280614,0 120.777242,24.280243,0 120.777599,24.280374,0 120.777909,24.280406,0 120.778358,24.280489,0 120.778013,24.279639,0 120.777768,24.278991,0 120.778058,24.278940,0 120.778212,24.278907,0 120.778344,24.278901,0 120.778444,24.278902,0 120.778559,24.278930,0 120.779129,24.279083,0 120.779210,24.279120,0 120.779285,24.279138,0 120.779483,24.279159,0 120.779911,24.279168,0 120.780089,24.279173,0 120.780191,24.279201,0 120.780293,24.279231,0 120.780454,24.279245,0 120.780670,24.279233,0 120.780684,24.279136,0 120.780694,24.278986,0 120.780661,24.278749,0 120.780800,24.278355,0 120.781536,24.278353,0 120.781589,24.278333,0 120.781695,24.278270,0 120.781846,24.278235,0 120.782479,24.278076,0 120.782762,24.277971,0 120.783052,24.277862,0 120.783173,24.277839,0 120.783467,24.277741,0 120.783536,24.277699,0 120.783557,24.277665,0 120.783539,24.277607,0 120.783457,24.277467,0 120.783460,24.277436,0 120.783484,24.277382,0 120.783509,24.277334,0 120.783513,24.277293,0 120.783494,24.277251,0 120.783420,24.277063,0 120.783401,24.276986,0 120.783394,24.276942,0 120.783423,24.276868,0 120.783472,24.276795,0 120.783520,24.276748,0 120.783537,24.276707,0 120.783536,24.276664,0 120.783508,24.276637,0 120.783425,24.276605,0 120.783325,24.276577,0 120.783257,24.276461,0 120.783202,24.276156,0 120.783318,24.276148,0 120.783445,24.276124,0 120.783812,24.276057,0 120.784569,24.275890,0 120.784747,24.275835,0 120.784811,24.275819,0 120.785223,24.275719,0 120.785910,24.275485,0 120.786423,24.275314,0 120.786258,24.274643,0 120.786246,24.274586,0 120.786622,24.274570,0 120.786659,24.274591,0 120.786700,24.274606,0 120.786731,24.274612,0 120.786765,24.274613,0 120.787762,24.274530,0 120.787866,24.274516,0 120.787956,24.274497,0 120.787992,24.274483,0 120.788015,24.274467,0 120.788505,24.274080,0 120.788816,24.273850,0 120.789038,24.273721,0 120.789061,24.273689,0 120.789089,24.273661,0 120.789128,24.273637,0 120.789173,24.273626,0 120.789222,24.273621,0 120.789266,24.273622,0 120.789298,24.273608,0 120.789041,24.273063,0 120.789285,24.272964,0 120.789139,24.272698,0 120.788917,24.272735,0 120.788634,24.272812,0 120.788586,24.272834,0 120.788736,24.273160,0 120.788848,24.273179,0 120.789101,24.273707,0 120.789078,24.273717,0 120.789104,24.273772,0 120.789152,24.273874,0 120.789125,24.273883,0 120.788570,24.274081,0 120.788596,24.274175,0 120.788665,24.274171,0 120.788696,24.274254,0 120.788758,24.274265,0 120.788855,24.274381,0 120.791443,24.274145,0 120.791494,24.274251,0 120.791932,24.274329,0 120.792549,24.274273,0 120.792569,24.274183,0 120.792536,24.274062,0 120.792507,24.273966,0 120.792443,24.273731,0 120.792208,24.273709,0 120.792038,24.273653,0 120.791927,24.273561,0 120.791867,24.273383,0 120.791769,24.273196,0 120.791720,24.273037,0 120.791717,24.273026,0 120.791623,24.272861,0 120.791619,24.272854,0 120.791414,24.272952,0 120.791400,24.272924,0 120.791386,24.272899,0 120.791335,24.272807,0 120.791299,24.272743,0 120.791300,24.272749,0 120.791277,24.272780,0 120.791233,24.272799,0 120.791086,24.272864,0 120.791058,24.272876,0 120.791030,24.272888,0 120.790637,24.273060,0 120.790355,24.273183,0 120.790216,24.273244,0 120.790015,24.273332,0 120.789905,24.273380,0 120.789763,24.273445,0 120.789667,24.273482,0 120.789657,24.273486,0 120.789619,24.273501,0 120.789611,24.273504,0 120.789602,24.273507,0 120.789592,24.273511,0 120.789557,24.273519,0 120.789541,24.273488,0 120.789294,24.272979,0 120.789285,24.272964,0 120.789139,24.272698,0 120.789120,24.272663,0 120.788924,24.272296,0 120.788904,24.272291,0 120.788852,24.272277,0 120.788552,24.272260,0 120.788106,24.272262,0 120.788005,24.272271,0 120.787895,24.272293,0 120.787827,24.272317,0 120.787609,24.272423,0 120.787556,24.272462,0 120.787576,24.272386,0 120.787610,24.272233,0 120.787585,24.272069,0 120.787513,24.271964,0 120.787476,24.271868,0 120.787411,24.271797,0 120.787392,24.271723,0 120.787432,24.271644,0 120.787488,24.271587,0 120.787526,24.271511,0 120.787513,24.271457,0 120.787476,24.271396,0 120.787420,24.271406,0 120.787022,24.271460,0 120.786715,24.271253,0 120.786615,24.271205,0 120.786500,24.271199,0 120.786090,24.271284,0 120.785922,24.271355,0 120.785762,24.271476,0 120.785653,24.271535,0 120.785512,24.271610,0 120.785288,24.271658,0 120.785157,24.271596,0 120.785089,24.271598,0 120.784788,24.271757,0 120.784707,24.271768,0 120.784542,24.271715,0 120.784456,24.271722,0 120.784368,24.271621,0 120.784161,24.271367,0 120.783980,24.271001,0 120.784008,24.270825,0 120.783924,24.270733,0 120.783713,24.270780,0 120.783100,24.270664,0 120.782729,24.270624,0 120.782480,24.270567,0 120.782468,24.270687,0 120.782385,24.270749,0 120.782193,24.270856,0 120.781921,24.270969,0 120.781593,24.271015,0 120.781439,24.271023,0 120.781241,24.271029,0 120.781013,24.270992,0 120.780825,24.270926,0 120.780723,24.270872,0 120.780639,24.270820,0 120.780527,24.270761,0 120.780428,24.270742,0 120.780206,24.270723,0 120.780267,24.270590,0 120.780235,24.270354,0 120.780338,24.270320,0 120.780372,24.270280,0 120.780277,24.270216,0 120.779913,24.270221,0 120.779691,24.270235,0 120.779462,24.270263,0
</coordinates></LineString></Placemark>
</Document></kml>