<?xml version="1.0" encoding="UTF-8"?>
<kml xmlns="http://www.opengis.net/kml/2.2"><Document>
<name>南區 貓咪肉球 圖形路跑路線</name>
<Style id="r"><LineStyle><color>ff2000d6</color><width>4</width></LineStyle></Style>
<Placemark><name>公館公園</name><description>地標</description><Point><coordinates>120.669804,24.132517,0</coordinates></Point></Placemark>
<Placemark><name>臺中刑務所典獄官舍</name><description>地標</description><Point><coordinates>120.674547,24.133179,0</coordinates></Point></Placemark>
<Placemark><name>林氏宗祠</name><description>地標</description><Point><coordinates>120.677446,24.131546,0</coordinates></Point></Placemark>
<Placemark><name>南區 貓咪肉球 圖形路跑路線</name><styleUrl>#r</styleUrl><LineString><tessellate>1</tessellate><coordinates>
120.669653,24.133764,0 120.669347,24.133467,0 120.669839,24.133040,0 120.670445,24.132512,0 120.670424,24.132275,0 120.671189,24.132232,0 120.671156,24.132185,0 120.671131,24.131878,0 120.672263,24.131793,0 120.672381,24.131786,0 120.672465,24.131790,0 120.672537,24.131794,0 120.672598,24.131794,0 120.672646,24.131749,0 120.672702,24.131672,0 120.672748,24.131605,0 120.672783,24.131546,0 120.672922,24.131268,0 120.673513,24.131499,0 120.674035,24.131721,0 120.674111,24.131573,0 120.674708,24.131818,0 120.675193,24.132019,0 120.675325,24.131754,0 120.675820,24.131965,0 120.676322,24.132176,0 120.676462,24.131885,0 120.676576,24.131937,0 120.676673,24.131982,0 120.676491,24.132325,0 120.677413,24.132711,0 120.677427,24.132680,0 120.677944,24.132894,0 120.677743,24.133284,0 120.678285,24.133487,0 120.678810,24.133788,0 120.679189,24.133994,0 120.679281,24.134032,0 120.680022,24.134331,0 120.680347,24.134476,0 120.680158,24.134859,0 120.680087,24.134943,0 120.679880,24.135150,0 120.679595,24.135404,0 120.679239,24.135722,0 120.679645,24.136112,0 120.679984,24.136436,0 120.679578,24.136782,0 120.679244,24.137077,0 120.679162,24.137149,0 120.679478,24.137453,0 120.679838,24.137801,0 120.679770,24.137859,0 120.679762,24.137919,0 120.679844,24.137999,0 120.679522,24.138273,0 120.679397,24.138374,0 120.679311,24.138448,0 120.679252,24.138499,0 120.679207,24.138540,0 120.679293,24.138625,0 120.679293,24.138640,0 120.679223,24.138700,0 120.679464,24.138935,0 120.679888,24.139349,0 120.679486,24.139694,0 120.679132,24.140022,0 120.679866,24.140743,0 120.679533,24.141022,0 120.679813,24.141244,0 120.679972,24.141352,0 120.679721,24.141581,0 120.679175,24.142050,0 120.679083,24.142109,0 120.678993,24.142198,0 120.678720,24.141934,0 120.678672,24.141979,0 120.678303,24.142321,0 120.678521,24.142519,0 120.678541,24.142538,0 120.678422,24.142631,0 120.678397,24.142635,0 120.678055,24.142303,0 120.677832,24.142496,0 120.677587,24.142704,0 120.677552,24.142631,0 120.677490,24.142678,0 120.677440,24.142592,0 120.677272,24.142312,0 120.677058,24.142060,0 120.677007,24.142008,0 120.676931,24.142067,0 120.676856,24.142001,0 120.676799,24.141952,0 120.676817,24.141931,0 120.676816,24.141916,0 120.676864,24.141873,0 120.676548,24.141602,0 120.676394,24.141506,0 120.676346,24.141479,0 120.676141,24.141369,0 120.676059,24.141441,0 120.676485,24.141666,0 120.676816,24.141916,0 120.676817,24.141931,0 120.676799,24.141952,0 120.676776,24.141971,0 120.676564,24.142154,0 120.676532,24.142175,0 120.676485,24.142196,0 120.676446,24.142231,0 120.676387,24.142286,0 120.676451,24.142346,0 120.675839,24.142878,0 120.675473,24.143201,0 120.675060,24.143549,0 120.674766,24.143813,0 120.674517,24.144023,0 120.674169,24.143671,0 120.673857,24.143364,0 120.673760,24.143270,0 120.673673,24.143346,0 120.673654,24.143362,0 120.673316,24.143050,0 120.672858,24.142622,0 120.673118,24.142392,0 120.672370,24.141673,0 120.672188,24.141836,0 120.671951,24.142050,0 120.672026,24.142121,0 120.672210,24.142305,0 120.672251,24.142324,0 120.672283,24.142354,0 120.672303,24.142391,0 120.672310,24.142432,0 120.672303,24.142473,0 120.672281,24.142510,0 120.672249,24.142539,0 120.672207,24.142558,0 120.672162,24.142563,0 120.672160,24.142601,0 120.671839,24.142591,0 120.671803,24.142566,0 120.671805,24.142487,0 120.671701,24.142484,0 120.671661,24.142455,0 120.671850,24.142282,0 120.671901,24.142235,0 120.672026,24.142121,0 120.671951,24.142050,0 120.671821,24.142167,0 120.671326,24.142614,0 120.670826,24.143048,0 120.670502,24.142738,0 120.670231,24.142483,0 120.670073,24.142328,0 120.669950,24.142208,0 120.669809,24.142071,0 120.669665,24.141931,0 120.669598,24.141866,0 120.669341,24.141617,0 120.668969,24.141255,0 120.669213,24.141038,0 120.669469,24.140816,0 120.669091,24.140450,0 120.669592,24.140015,0 120.670055,24.139596,0 120.670013,24.139557,0 120.670077,24.139500,0 120.670124,24.139458,0 120.670113,24.139452,0 120.670096,24.139422,0 120.670098,24.139405,0 120.670015,24.139327,0 120.669920,24.139229,0 120.669879,24.139206,0 120.669836,24.139184,0 120.669779,24.139130,0 120.669743,24.139036,0 120.669690,24.139002,0 120.669618,24.138942,0 120.669541,24.138876,0 120.669541,24.138848,0 120.669535,24.138829,0 120.669550,24.138816,0 120.669586,24.138784,0 120.669803,24.138594,0 120.669872,24.138585,0 120.669911,24.138555,0 120.670188,24.138821,0 120.670573,24.139181,0 120.670486,24.139254,0 120.670452,24.139284,0 120.670223,24.139459,0 120.670169,24.139501,0 120.670124,24.139458,0 120.670077,24.139500,0 120.670013,24.139557,0 120.670055,24.139596,0 120.669592,24.140015,0 120.669246,24.139679,0 120.668742,24.140111,0 120.668437,24.139815,0 120.668381,24.139859,0 120.668282,24.139764,0 120.668179,24.139666,0 120.668234,24.139618,0 120.667775,24.139172,0 120.667673,24.139073,0 120.667424,24.138833,0 120.666877,24.138310,0 120.666508,24.137966,0 120.667017,24.137523,0 120.667235,24.137342,0 120.667295,24.137292,0 120.667583,24.137037,0 120.667215,24.136666,0 120.667287,24.136605,0 120.667268,24.136581,0 120.667273,24.136573,0 120.667280,24.136563,0 120.667498,24.136377,0 120.667515,24.136369,0 120.667532,24.136373,0 120.667455,24.136304,0 120.667520,24.136250,0 120.668072,24.135766,0 120.668588,24.135312,0 120.668945,24.135003,0 120.669532,24.134489,0 120.669194,24.134165,0 120.669653,24.133764,0
</coordinates></LineString></Placemark>
</Document></kml>