<?xml version="1.0" encoding="UTF-8"?>
<kml xmlns="http://www.opengis.net/kml/2.2"><Document>
<name>南區 貓臉（正面） 圖形路跑路線</name>
<Style id="r"><LineStyle><color>ff2000d6</color><width>4</width></LineStyle></Style>
<Placemark><name>27號倉庫</name><description>地標</description><Point><coordinates>120.683467,24.135478,0</coordinates></Point></Placemark>
<Placemark><name>26號倉庫</name><description>地標</description><Point><coordinates>120.683800,24.135649,0</coordinates></Point></Placemark>
<Placemark><name>25號倉庫</name><description>地標</description><Point><coordinates>120.683990,24.135729,0</coordinates></Point></Placemark>
<Placemark><name>南區 貓臉（正面） 圖形路跑路線</name><styleUrl>#r</styleUrl><LineString><tessellate>1</tessellate><coordinates>
120.682379,24.134618,0 120.682586,24.134705,0 120.682778,24.134780,0 120.682725,24.134888,0 120.683259,24.135115,0 120.683242,24.135147,0 120.683731,24.135352,0 120.684251,24.135557,0 120.684232,24.135595,0 120.684526,24.135715,0 120.684764,24.135237,0 120.684919,24.135307,0 120.685591,24.135585,0 120.685915,24.135721,0 120.685950,24.135649,0 120.686243,24.135043,0 120.686306,24.134924,0 120.686536,24.134458,0 120.686836,24.133860,0 120.686878,24.133778,0 120.686906,24.133699,0 120.687143,24.133257,0 120.687607,24.133458,0 120.688099,24.133667,0 120.688404,24.133061,0 120.688713,24.132427,0 120.689188,24.132626,0 120.689305,24.132387,0 120.689473,24.132065,0 120.688990,24.131870,0 120.689209,24.131437,0 120.689238,24.131304,0 120.689228,24.131202,0 120.689226,24.131086,0 120.689477,24.130561,0 120.689632,24.130254,0 120.689646,24.129618,0 120.690136,24.129608,0 120.690136,24.129570,0 120.690223,24.129572,0 120.690215,24.128923,0 120.689615,24.128924,0 120.688832,24.128926,0 120.688828,24.128301,0 120.688830,24.127654,0 120.688639,24.127655,0 120.688616,24.126373,0 120.688617,24.126068,0 120.688619,24.125079,0 120.688365,24.125055,0 120.688334,24.125045,0 120.688283,24.125055,0 120.688227,24.125068,0 120.688214,24.125101,0 120.688171,24.125147,0 120.688099,24.125194,0 120.688019,24.125202,0 120.687949,24.125206,0 120.687867,24.125193,0 120.687800,24.125171,0 120.687752,24.125150,0 120.687702,24.125124,0 120.687661,24.125086,0 120.687579,24.125038,0 120.687523,24.125000,0 120.687497,24.124931,0 120.687461,24.124856,0 120.687404,24.124772,0 120.687361,24.124736,0 120.687344,24.124723,0 120.687273,24.124688,0 120.687234,24.124680,0 120.687175,24.124677,0 120.687137,24.124675,0 120.687062,24.124693,0 120.687023,24.124704,0 120.686939,24.124695,0 120.686896,24.124687,0 120.686813,24.124677,0 120.686765,24.124661,0 120.686708,24.124656,0 120.686676,24.124641,0 120.686644,24.124572,0 120.686585,24.124481,0 120.686513,24.124450,0 120.686381,24.124437,0 120.686282,24.124466,0 120.686138,24.124422,0 120.686041,24.124377,0 120.685974,24.124382,0 120.685876,24.124310,0 120.685862,24.124306,0 120.685795,24.124305,0 120.684984,24.124283,0 120.684984,24.124234,0 120.684986,24.123980,0 120.684987,24.123722,0 120.684986,24.123455,0 120.684747,24.123453,0 120.684634,24.123445,0 120.684499,24.123445,0 120.684458,24.123445,0 120.684330,24.123450,0 120.684194,24.123450,0 120.684196,24.123691,0 120.684077,24.123691,0 120.684077,24.123725,0 120.683967,24.123726,0 120.683985,24.123691,0 120.683894,24.123691,0 120.683809,24.123691,0 120.683791,24.123727,0 120.683346,24.123731,0 120.682561,24.123754,0 120.682561,24.123821,0 120.681101,24.123817,0 120.681101,24.123771,0 120.680182,24.123746,0 120.679499,24.123747,0 120.679499,24.123921,0 120.679500,24.124054,0 120.679501,24.124215,0 120.679501,24.124297,0 120.679406,24.124295,0 120.679299,24.124294,0 120.679291,24.124919,0 120.679189,24.124919,0 120.678818,24.124918,0 120.678693,24.124918,0 120.678695,24.124962,0 120.678697,24.125064,0 120.678697,24.125075,0 120.678678,24.125075,0 120.678677,24.125327,0 120.678426,24.125325,0 120.677708,24.125311,0 120.677709,24.125655,0 120.677355,24.125654,0 120.677357,24.125816,0 120.677355,24.125990,0 120.677354,24.126386,0 120.676905,24.126391,0 120.676428,24.126389,0 120.676428,24.126471,0 120.676427,24.126579,0 120.676377,24.126578,0 120.676317,24.126578,0 120.676321,24.127231,0 120.676312,24.127227,0 120.676156,24.127165,0 120.676126,24.127149,0 120.676055,24.127123,0 120.676062,24.127672,0 120.675680,24.128441,0 120.675463,24.128863,0 120.675279,24.129244,0 120.675072,24.129656,0 120.675679,24.129904,0 120.676155,24.130098,0 120.675771,24.130847,0 120.676320,24.131062,0 120.676072,24.131521,0 120.676506,24.131703,0 120.676473,24.131770,0 120.676443,24.131832,0 120.676462,24.131885,0 120.676576,24.131937,0 120.676673,24.131982,0 120.676491,24.132325,0 120.677413,24.132711,0 120.677427,24.132680,0 120.677944,24.132894,0 120.677743,24.133284,0 120.678285,24.133487,0 120.678239,24.133585,0 120.678106,24.133850,0 120.678054,24.133955,0 120.678004,24.134047,0 120.677916,24.134152,0 120.677729,24.134315,0 120.677360,24.134637,0 120.676937,24.135004,0 120.677499,24.135549,0 120.677711,24.135754,0 120.677938,24.135973,0 120.678352,24.136371,0 120.678421,24.136431,0 120.679239,24.135722,0 120.679595,24.135404,0 120.679880,24.135150,0 120.680087,24.134943,0 120.680158,24.134859,0 120.680347,24.134476,0 120.680371,24.134433,0 120.680435,24.134303,0 120.680446,24.134280,0 120.680937,24.134496,0 120.681010,24.134529,0 120.681542,24.134751,0 120.681832,24.134889,0 120.682060,24.134488,0 120.682379,24.134618,0
</coordinates></LineString></Placemark>
</Document></kml>