<?xml version="1.0" encoding="UTF-8"?>
<kml xmlns="http://www.opengis.net/kml/2.2"><Document>
<name>南區 蜷睡貓咪 圖形路跑路線</name>
<Style id="r"><LineStyle><color>ff2000d6</color><width>4</width></LineStyle></Style>
<Placemark><name>展</name><description>地標</description><Point><coordinates>120.662798,24.140525,0</coordinates></Point></Placemark>
<Placemark><name>元</name><description>地標</description><Point><coordinates>120.662409,24.140690,0</coordinates></Point></Placemark>
<Placemark><name>龍嘯太虛</name><description>地標</description><Point><coordinates>120.662591,24.140529,0</coordinates></Point></Placemark>
<Placemark><name>南區 蜷睡貓咪 圖形路跑路線</name><styleUrl>#r</styleUrl><LineString><tessellate>1</tessellate><coordinates>
120.661693,24.138962,0 120.661693,24.139274,0 120.661693,24.139452,0 120.661693,24.139480,0 120.661693,24.139609,0 120.661693,24.140051,0 120.661693,24.140143,0 120.662161,24.140142,0 120.662161,24.140502,0 120.662161,24.140915,0 120.662161,24.141365,0 120.662207,24.141402,0 120.662209,24.141543,0 120.662358,24.141552,0 120.662371,24.141801,0 120.663279,24.141834,0 120.663376,24.141853,0 120.663380,24.142051,0 120.663807,24.142047,0 120.664242,24.142275,0 120.664344,24.142326,0 120.664535,24.142531,0 120.664604,24.142533,0 120.664618,24.142461,0 120.664677,24.142488,0 120.664740,24.142374,0 120.664677,24.142346,0 120.664918,24.141929,0 120.664963,24.141937,0 120.665008,24.141932,0 120.665050,24.141915,0 120.665084,24.141886,0 120.665452,24.142125,0 120.665544,24.141998,0 120.665668,24.141888,0 120.665980,24.141611,0 120.666266,24.141361,0 120.666535,24.141142,0 120.666581,24.141186,0 120.666649,24.141251,0 120.666734,24.141331,0 120.666630,24.141423,0 120.666557,24.141483,0 120.666827,24.141747,0 120.666359,24.142166,0 120.666533,24.142279,0 120.666790,24.142445,0 120.666923,24.142327,0 120.667060,24.142213,0 120.667202,24.142107,0 120.667292,24.142035,0 120.667477,24.141869,0 120.667545,24.141802,0 120.667839,24.141549,0 120.668585,24.142277,0 120.668844,24.142051,0 120.668095,24.141324,0 120.668586,24.140887,0 120.668834,24.140672,0 120.669091,24.140450,0 120.669592,24.140015,0 120.670055,24.139596,0 120.670013,24.139557,0 120.670077,24.139500,0 120.670124,24.139458,0 120.670169,24.139501,0 120.670223,24.139459,0 120.670452,24.139284,0 120.670486,24.139254,0 120.670573,24.139181,0 120.670188,24.138821,0 120.670338,24.138720,0 120.670421,24.138654,0 120.670525,24.138549,0 120.670494,24.138526,0 120.670462,24.138427,0 120.670441,24.138324,0 120.670435,24.138279,0 120.670435,24.138166,0 120.670449,24.138051,0 120.670372,24.137936,0 120.670319,24.137864,0 120.670252,24.137805,0 120.669809,24.137701,0 120.670464,24.137127,0 120.670096,24.136773,0 120.669727,24.136415,0 120.670168,24.136035,0 120.670462,24.135778,0 120.670277,24.135645,0 120.670221,24.135596,0 120.670071,24.135435,0 120.670303,24.135234,0 120.669933,24.134879,0 120.669532,24.134489,0 120.669194,24.134165,0 120.668885,24.133865,0 120.668537,24.133529,0 120.668112,24.133122,0 120.668101,24.132959,0 120.668082,24.132732,0 120.667877,24.132686,0 120.667602,24.132703,0 120.667571,24.132690,0 120.667276,24.132711,0 120.667033,24.132593,0 120.667258,24.132157,0 120.667163,24.132162,0 120.666851,24.132164,0 120.666482,24.132167,0 120.666386,24.132167,0 120.665632,24.132165,0 120.665089,24.132163,0 120.664548,24.132161,0 120.663725,24.132169,0 120.663656,24.132170,0 120.663657,24.132248,0 120.663422,24.132251,0 120.663313,24.132253,0 120.663298,24.132245,0 120.663229,24.132248,0 120.662862,24.132254,0 120.662836,24.132268,0 120.662834,24.132300,0 120.662784,24.132333,0 120.662740,24.132395,0 120.662645,24.132369,0 120.662603,24.132363,0 120.662589,24.132363,0 120.662591,24.132601,0 120.662592,24.132678,0 120.662592,24.132706,0 120.662592,24.133052,0 120.662588,24.133153,0 120.662087,24.133155,0 120.661791,24.133156,0 120.661789,24.133097,0 120.661689,24.133100,0 120.661603,24.133100,0 120.661590,24.133101,0 120.661572,24.133101,0 120.661570,24.133143,0 120.661571,24.133183,0 120.661570,24.133228,0 120.661570,24.133267,0 120.661570,24.133307,0 120.661569,24.133332,0 120.661570,24.133373,0 120.660869,24.133372,0 120.660870,24.133146,0 120.660873,24.132737,0 120.660873,24.132714,0 120.660811,24.132747,0 120.660786,24.132761,0 120.660471,24.132932,0 120.660195,24.133080,0 120.660196,24.133070,0 120.660182,24.133076,0 120.660165,24.133085,0 120.660165,24.133104,0 120.660134,24.133123,0 120.660084,24.133156,0 120.660005,24.133198,0 120.659943,24.133232,0 120.659959,24.133257,0 120.659962,24.133515,0 120.660003,24.133515,0 120.660085,24.133514,0 120.660086,24.133712,0 120.660087,24.134007,0 120.660088,24.134183,0 120.660031,24.134183,0 120.660032,24.134214,0 120.660032,24.134250,0 120.660033,24.134287,0 120.660186,24.134287,0 120.660186,24.134541,0 120.660187,24.135096,0 120.660187,24.135145,0 120.660187,24.135211,0 120.660187,24.135553,0 120.659780,24.135556,0 120.659753,24.135557,0 120.659707,24.135557,0 120.659524,24.135555,0 120.659524,24.135557,0 120.659523,24.135838,0 120.659520,24.136554,0 120.659484,24.136621,0 120.659486,24.136980,0 120.659488,24.137275,0 120.658833,24.137276,0 120.658834,24.137568,0 120.658835,24.137965,0 120.659286,24.137965,0 120.659502,24.137964,0 120.659772,24.137964,0 120.660189,24.137964,0 120.660189,24.137630,0 120.660189,24.137574,0 120.660188,24.137273,0 120.660188,24.136974,0 120.660188,24.136663,0 120.660271,24.136661,0 120.660272,24.136553,0 120.660524,24.136553,0 120.660827,24.136553,0 120.661206,24.136553,0 120.661546,24.136552,0 120.661546,24.136466,0 120.661538,24.136459,0 120.661596,24.136412,0 120.661597,24.136391,0 120.661598,24.136347,0 120.661599,24.136305,0 120.661599,24.136266,0 120.661598,24.136225,0 120.661598,24.136184,0 120.661599,24.136141,0 120.661598,24.136097,0 120.661599,24.136051,0 120.661599,24.136006,0 120.661598,24.135883,0 120.661599,24.135850,0 120.661599,24.135817,0 120.661598,24.135630,0 120.661599,24.135626,0 120.661604,24.135258,0 120.661595,24.135248,0 120.661611,24.135248,0 120.661690,24.135247,0 120.661799,24.135249,0 120.661815,24.135249,0 120.661804,24.135240,0 120.661800,24.135237,0 120.661801,24.135148,0 120.662121,24.135147,0 120.662177,24.135147,0 120.662498,24.135147,0 120.662578,24.135147,0 120.662577,24.135093,0 120.662576,24.135079,0 120.662595,24.135076,0 120.662648,24.135076,0 120.662704,24.135075,0 120.662716,24.135075,0 120.662715,24.134774,0 120.662875,24.134772,0 120.663025,24.134773,0 120.663025,24.135066,0 120.663038,24.135066,0 120.663076,24.135066,0 120.663140,24.135064,0 120.663153,24.135065,0 120.663153,24.135075,0 120.663151,24.135147,0 120.663397,24.135146,0 120.663543,24.135145,0 120.663802,24.135143,0 120.663803,24.135077,0 120.663858,24.135073,0 120.663940,24.135070,0 120.663958,24.135071,0 120.663979,24.135071,0 120.664013,24.135071,0 120.664045,24.135072,0 120.664060,24.135075,0 120.664094,24.135082,0 120.664154,24.135081,0 120.664229,24.135080,0 120.664229,24.135143,0 120.664804,24.135147,0 120.665184,24.135143,0 120.665481,24.135140,0 120.665494,24.135138,0 120.665503,24.135184,0 120.665644,24.135281,0 120.665652,24.135866,0 120.665661,24.136464,0 120.665761,24.136462,0 120.665918,24.136460,0 120.665919,24.136550,0 120.666514,24.136551,0 120.666515,24.137273,0 120.666515,24.137823,0 120.666508,24.137966,0 120.666390,24.137955,0 120.665760,24.137958,0 120.665658,24.137958,0 120.665055,24.137958,0 120.665056,24.138620,0 120.664888,24.138620,0 120.664158,24.138621,0 120.664159,24.138876,0 120.664162,24.139272,0 120.663867,24.139272,0 120.663107,24.139270,0 120.663107,24.138879,0 120.663107,24.138515,0 120.663106,24.138029,0 120.663039,24.138030,0 120.663038,24.137961,0 120.663039,24.137906,0 120.663042,24.137888,0 120.663039,24.137884,0 120.663019,24.137904,0 120.663003,24.137904,0 120.662864,24.137904,0 120.662752,24.137904,0 120.662706,24.137863,0 120.662686,24.137871,0 120.662616,24.137873,0 120.662564,24.137874,0 120.662565,24.137962,0 120.662186,24.137961,0 120.661798,24.137962,0 120.661800,24.138050,0 120.661693,24.138051,0 120.661693,24.138337,0 120.661693,24.138425,0 120.661693,24.138846,0 120.661693,24.138962,0
</coordinates></LineString></Placemark>
</Document></kml>