<?xml version="1.0" encoding="UTF-8"?>
<kml xmlns="http://www.opengis.net/kml/2.2"><Document>
<name>南區 貓臉（正面） 圖形路跑路線</name>
<Style id="r"><LineStyle><color>ff2000d6</color><width>4</width></LineStyle></Style>
<Placemark><name>台灣太陽餅博物館</name><description>地標</description><Point><coordinates>120.682450,24.139739,0</coordinates></Point></Placemark>
<Placemark><name>創造：為了未來重新融合</name><description>地標</description><Point><coordinates>120.684278,24.141885,0</coordinates></Point></Placemark>
<Placemark><name>無限</name><description>地標</description><Point><coordinates>120.684353,24.141800,0</coordinates></Point></Placemark>
<Placemark><name>南區 貓臉（正面） 圖形路跑路線</name><styleUrl>#r</styleUrl><LineString><tessellate>1</tessellate><coordinates>
120.682929,24.140802,0 120.683358,24.140420,0 120.683761,24.140079,0 120.684115,24.140421,0 120.684341,24.140652,0 120.684488,24.140794,0 120.684673,24.140984,0 120.684842,24.141144,0 120.685255,24.141502,0 120.685684,24.141517,0 120.685767,24.141520,0 120.685921,24.141524,0 120.686100,24.141565,0 120.686877,24.141541,0 120.687337,24.141529,0 120.687570,24.141518,0 120.687599,24.142279,0 120.689233,24.142235,0 120.689239,24.142778,0 120.689245,24.142893,0 120.689198,24.143015,0 120.689221,24.143234,0 120.689232,24.143380,0 120.689240,24.143497,0 120.689594,24.143487,0 120.689599,24.143692,0 120.689592,24.143976,0 120.689577,24.144319,0 120.690052,24.144285,0 120.690428,24.144259,0 120.690936,24.144222,0 120.690966,24.144568,0 120.691255,24.144558,0 120.691311,24.144525,0 120.691327,24.144486,0 120.691341,24.144438,0 120.691357,24.144373,0 120.691377,24.144292,0 120.691379,24.144186,0 120.691453,24.144179,0 120.691746,24.144155,0 120.691737,24.144005,0 120.691747,24.143983,0 120.691812,24.143938,0 120.691810,24.143804,0 120.691808,24.143683,0 120.691807,24.143635,0 120.691803,24.143495,0 120.691791,24.143095,0 120.691781,24.142757,0 120.692292,24.142728,0 120.692463,24.142745,0 120.692437,24.142547,0 120.692437,24.142366,0 120.692434,24.142117,0 120.692433,24.141890,0 120.692432,24.141778,0 120.692432,24.141634,0 120.692443,24.141133,0 120.692448,24.140810,0 120.692452,24.140672,0 120.692453,24.140523,0 120.692449,24.140261,0 120.692442,24.140083,0 120.692443,24.139911,0 120.692445,24.139604,0 120.692322,24.139578,0 120.692232,24.139510,0 120.692193,24.139474,0 120.692236,24.139378,0 120.692275,24.139307,0 120.692290,24.139280,0 120.692316,24.139223,0 120.692338,24.139202,0 120.692344,24.139142,0 120.692369,24.138913,0 120.692356,24.138860,0 120.692395,24.138830,0 120.692406,24.138822,0 120.692425,24.138774,0 120.692442,24.138714,0 120.692452,24.138712,0 120.692464,24.138706,0 120.692472,24.138701,0 120.692475,24.138695,0 120.692481,24.138683,0 120.692484,24.138670,0 120.692487,24.138663,0 120.692494,24.138638,0 120.692518,24.138552,0 120.692497,24.138548,0 120.692535,24.138323,0 120.692561,24.138318,0 120.692587,24.138179,0 120.692565,24.138168,0 120.692613,24.137861,0 120.692629,24.137853,0 120.692646,24.137848,0 120.692678,24.137592,0 120.692656,24.137583,0 120.692651,24.137571,0 120.692700,24.137127,0 120.692726,24.137130,0 120.692735,24.136992,0 120.692740,24.136922,0 120.692821,24.136907,0 120.692925,24.136910,0 120.692926,24.136858,0 120.692931,24.136837,0 120.693578,24.136830,0 120.693572,24.136795,0 120.694128,24.136816,0 120.694135,24.136776,0 120.694160,24.136745,0 120.694192,24.136724,0 120.694217,24.136718,0 120.694277,24.136723,0 120.694276,24.136823,0 120.694273,24.136844,0 120.694264,24.136854,0 120.694341,24.136857,0 120.694371,24.135498,0 120.695076,24.135520,0 120.695067,24.135119,0 120.695068,24.134989,0 120.695069,24.134893,0 120.695271,24.134896,0 120.695871,24.134915,0 120.696008,24.134866,0 120.696112,24.135015,0 120.696298,24.135399,0 120.696420,24.135722,0 120.696491,24.135699,0 120.696643,24.135617,0 120.696699,24.135547,0 120.696855,24.135427,0 120.697168,24.135121,0 120.697177,24.134500,0 120.697187,24.133713,0 120.697196,24.133139,0 120.697185,24.132003,0 120.697178,24.130911,0 120.697174,24.130651,0 120.697176,24.130069,0 120.697171,24.129624,0 120.697886,24.129632,0 120.698212,24.129628,0 120.698219,24.128893,0 120.698229,24.127961,0 120.698895,24.127959,0 120.698839,24.127714,0 120.698746,24.127254,0 120.698542,24.126259,0 120.698404,24.125595,0 120.698361,24.125314,0 120.698335,24.125149,0 120.698197,24.125078,0 120.697104,24.125069,0 120.697089,24.124843,0 120.697093,24.124699,0 120.696947,24.124620,0 120.696488,24.124377,0 120.695998,24.124231,0 120.696146,24.123817,0 120.694756,24.123395,0 120.694786,24.123283,0 120.694800,24.122976,0 120.694871,24.122740,0 120.694995,24.122432,0 120.695073,24.122357,0 120.695066,24.122277,0 120.695060,24.122199,0 120.695051,24.122117,0 120.694642,24.121696,0 120.694716,24.121312,0 120.694357,24.121244,0 120.694154,24.121267,0 120.694067,24.121136,0 120.694056,24.121120,0 120.693933,24.120939,0 120.693769,24.120999,0 120.693774,24.120417,0 120.693756,24.120051,0 120.693781,24.119770,0 120.693207,24.119745,0 120.693206,24.119476,0 120.693212,24.118799,0 120.692458,24.118783,0 120.692407,24.118203,0 120.691863,24.118256,0 120.691624,24.118275,0 120.691498,24.118285,0 120.691161,24.118304,0 120.690915,24.118318,0 120.690569,24.118345,0 120.690224,24.118370,0 120.690066,24.118375,0 120.689866,24.118379,0 120.689429,24.118411,0 120.689480,24.117775,0 120.689500,24.117540,0 120.689515,24.117421,0 120.689595,24.116505,0 120.688947,24.116450,0 120.688786,24.116445,0 120.688532,24.116430,0 120.688412,24.116419,0 120.687838,24.116238,0 120.687770,24.116222,0 120.687489,24.116117,0 120.687191,24.116019,0 120.687060,24.115926,0 120.687121,24.115285,0 120.686820,24.115277,0 120.686182,24.115261,0 120.685834,24.115266,0 120.685255,24.115843,0 120.685098,24.115982,0 120.684912,24.116149,0 120.684322,24.116713,0 120.684205,24.116766,0 120.684095,24.116436,0 120.683997,24.116198,0 120.683946,24.116039,0 120.683908,24.115892,0 120.683901,24.115657,0 120.683910,24.115208,0 120.682644,24.115152,0 120.682029,24.115118,0 120.681506,24.115106,0 120.681110,24.115080,0 120.681073,24.115623,0 120.681005,24.115575,0 120.680812,24.115440,0 120.680439,24.115150,0 120.680320,24.115056,0 120.680270,24.115038,0 120.680064,24.115030,0 120.679794,24.115017,0 120.679440,24.114997,0 120.679313,24.114990,0 120.679192,24.114983,0 120.679049,24.114976,0 120.679054,24.115052,0 120.678656,24.115054,0 120.678572,24.115053,0 120.678516,24.115052,0 120.678471,24.115122,0 120.678440,24.115749,0 120.678543,24.115822,0 120.678554,24.115860,0 120.678109,24.115854,0 120.677994,24.115849,0 120.677556,24.115827,0 120.677271,24.115814,0 120.676994,24.115802,0 120.676133,24.115772,0 120.676106,24.116321,0 120.676091,24.116510,0 120.676071,24.116838,0 120.676054,24.116855,0 120.676031,24.116872,0 120.676003,24.116880,0 120.675966,24.116882,0 120.674373,24.116438,0 120.674349,24.116533,0 120.674164,24.117019,0 120.673860,24.116884,0 120.673291,24.116632,0 120.673186,24.116810,0 120.673113,24.116875,0 120.673062,24.116968,0 120.673012,24.117029,0 120.672965,24.117127,0 120.672946,24.117158,0 120.672881,24.117192,0 120.672372,24.117048,0 120.672254,24.116983,0 120.671785,24.116720,0 120.671777,24.117296,0 120.671787,24.117712,0 120.671787,24.118071,0 120.671805,24.118664,0 120.671813,24.119041,0 120.671964,24.119146,0 120.671964,24.119339,0 120.671881,24.119338,0 120.671852,24.119335,0 120.671827,24.119480,0 120.671741,24.119622,0 120.671732,24.119949,0 120.671745,24.120039,0 120.671806,24.120172,0 120.671809,24.120700,0 120.671753,24.120666,0 120.671712,24.120661,0 120.671489,24.120661,0 120.671399,24.120660,0 120.670088,24.120675,0 120.670084,24.121032,0 120.670086,24.121426,0 120.670089,24.121771,0 120.670094,24.122350,0 120.670000,24.122358,0 120.669265,24.122347,0 120.669266,24.123007,0 120.668992,24.123014,0 120.668995,24.123240,0 120.668999,24.123356,0 120.668986,24.123432,0 120.668948,24.123632,0 120.668598,24.123629,0 120.668597,24.124189,0 120.668580,24.124249,0 120.668500,24.124349,0 120.668277,24.124561,0 120.667830,24.125063,0 120.667749,24.125147,0 120.667507,24.125413,0 120.667283,24.125659,0 120.667116,24.125823,0 120.667290,24.125955,0 120.667110,24.126262,0 120.667143,24.126274,0 120.666696,24.126835,0 120.667275,24.127079,0 120.666966,24.127705,0 120.667609,24.127972,0 120.667552,24.128023,0 120.667489,24.128128,0 120.667363,24.128376,0 120.667264,24.128587,0 120.667220,24.128879,0 120.667104,24.129094,0 120.667090,24.129137,0 120.667056,24.129248,0 120.667026,24.129314,0 120.666966,24.129592,0 120.666965,24.129808,0 120.667038,24.129997,0 120.667121,24.130157,0 120.667456,24.130567,0 120.667533,24.130660,0 120.667563,24.130697,0 120.667587,24.130726,0 120.667748,24.130919,0 120.667813,24.131010,0 120.667557,24.131586,0 120.667518,24.131676,0 120.667258,24.132157,0 120.668027,24.132107,0 120.668082,24.132732,0 120.668101,24.132959,0 120.668112,24.133122,0 120.668077,24.133159,0 120.667818,24.133381,0 120.667240,24.133881,0 120.667131,24.133935,0 120.667187,24.133967,0 120.667590,24.134354,0 120.667943,24.134694,0 120.668248,24.134985,0 120.668485,24.135209,0 120.668588,24.135312,0 120.668990,24.135699,0 120.669302,24.135431,0 120.669394,24.135354,0 120.669430,24.135333,0 120.669457,24.135332,0 120.669486,24.135356,0 120.669804,24.135670,0 120.669358,24.136056,0 120.669727,24.136415,0 120.670096,24.136773,0 120.670464,24.137127,0 120.670759,24.137413,0 120.670808,24.137370,0 120.670911,24.137469,0 120.671273,24.137150,0 120.671746,24.136731,0 120.671863,24.136840,0 120.671922,24.136797,0 120.672212,24.137079,0 120.672241,24.137114,0 120.672573,24.137441,0 120.672281,24.137698,0 120.672224,24.137747,0 120.672973,24.138461,0 120.673708,24.139175,0 120.673110,24.139695,0 120.672596,24.140146,0 120.672658,24.140201,0 120.672565,24.140279,0 120.672514,24.140332,0 120.672478,24.140347,0 120.672641,24.140412,0 120.672848,24.140469,0 120.673092,24.140550,0 120.673281,24.140599,0 120.673360,24.140618,0 120.673362,24.140659,0 120.673100,24.140896,0 120.673091,24.140905,0 120.673068,24.140905,0 120.673024,24.140910,0 120.672966,24.140967,0 120.672879,24.141057,0 120.673003,24.141100,0 120.672756,24.141329,0 120.673504,24.142048,0 120.673118,24.142392,0 120.673570,24.142831,0 120.673900,24.143146,0 120.673838,24.143200,0 120.673816,24.143220,0 120.673915,24.143315,0 120.673857,24.143364,0 120.674169,24.143671,0 120.674517,24.144023,0 120.674907,24.144395,0 120.675158,24.144174,0 120.675364,24.144001,0 120.675454,24.143925,0 120.676203,24.143217,0 120.676332,24.143332,0 120.676451,24.143266,0 120.676659,24.143189,0 120.676989,24.143087,0 120.677041,24.143062,0 120.677025,24.143023,0 120.677092,24.142990,0 120.677118,24.142990,0 120.677162,24.142990,0 120.677380,24.142796,0 120.677421,24.142734,0 120.677490,24.142678,0 120.677552,24.142631,0 120.677587,24.142704,0 120.677832,24.142496,0 120.678055,24.142303,0 120.678787,24.141672,0 120.678960,24.141514,0 120.679322,24.141202,0 120.679533,24.141022,0 120.679866,24.140743,0 120.680265,24.141134,0 120.680640,24.140810,0 120.680791,24.140941,0 120.681020,24.141148,0 120.681361,24.141482,0 120.681742,24.141834,0 120.682117,24.141507,0 120.682929,24.140802,0
</coordinates></LineString></Placemark>
</Document></kml>