<?xml version="1.0" encoding="UTF-8"?>
<kml xmlns="http://www.opengis.net/kml/2.2"><Document>
<name>南區 手繪蹲坐貓（原稿描圖） 圖形路跑路線</name>
<Style id="r"><LineStyle><color>ff2000d6</color><width>4</width></LineStyle></Style>
<Placemark><name>文林公園</name><description>地標</description><Point><coordinates>120.664306,24.127328,0</coordinates></Point></Placemark>
<Placemark><name>民興公園</name><description>地標</description><Point><coordinates>120.664274,24.128505,0</coordinates></Point></Placemark>
<Placemark><name>美術園道 F段</name><description>地標</description><Point><coordinates>120.662870,24.133082,0</coordinates></Point></Placemark>
<Placemark><name>南區 手繪蹲坐貓（原稿描圖） 圖形路跑路線</name><styleUrl>#r</styleUrl><LineString><tessellate>1</tessellate><coordinates>
120.666381,24.123373,0 120.666083,24.123693,0 120.665795,24.123462,0 120.665742,24.123417,0 120.665677,24.123488,0 120.665533,24.123620,0 120.665182,24.123965,0 120.665018,24.124116,0 120.664843,24.124276,0 120.664600,24.124479,0 120.664075,24.124809,0 120.664003,24.124902,0 120.663931,24.124934,0 120.663580,24.124465,0 120.663396,24.124560,0 120.663360,24.124637,0 120.663312,24.124772,0 120.663279,24.124878,0 120.663238,24.125020,0 120.663173,24.125183,0 120.663315,24.125373,0 120.663664,24.125835,0 120.663594,24.125881,0 120.663573,24.125910,0 120.663531,24.125976,0 120.663491,24.126098,0 120.663383,24.126380,0 120.663263,24.126691,0 120.662868,24.126527,0 120.662691,24.126997,0 120.662565,24.127369,0 120.662550,24.127408,0 120.662533,24.127458,0 120.662553,24.127466,0 120.663702,24.127941,0 120.663702,24.127990,0 120.663704,24.128353,0 120.663706,24.128631,0 120.663707,24.128750,0 120.663709,24.129077,0 120.663714,24.129384,0 120.663713,24.129623,0 120.663725,24.130005,0 120.663716,24.130092,0 120.663719,24.130530,0 120.663719,24.130647,0 120.663722,24.131069,0 120.663724,24.131327,0 120.663726,24.131712,0 120.663726,24.132061,0 120.663654,24.132062,0 120.663656,24.132170,0 120.663657,24.132248,0 120.663422,24.132251,0 120.663313,24.132253,0 120.663298,24.132245,0 120.663229,24.132248,0 120.662862,24.132254,0 120.662836,24.132268,0 120.662834,24.132300,0 120.662784,24.132333,0 120.663096,24.132630,0 120.663077,24.132898,0 120.663075,24.133876,0 120.662997,24.133876,0 120.662997,24.133959,0 120.662997,24.133972,0 120.662872,24.133973,0 120.662873,24.134242,0 120.662874,24.134531,0 120.662875,24.134772,0 120.662715,24.134774,0 120.662716,24.135075,0 120.662704,24.135075,0 120.662648,24.135076,0 120.662595,24.135076,0 120.662576,24.135079,0 120.662577,24.135093,0 120.662578,24.135147,0 120.662498,24.135147,0 120.662177,24.135147,0 120.662121,24.135147,0 120.661801,24.135148,0 120.661800,24.135237,0 120.661804,24.135240,0 120.661815,24.135249,0 120.661815,24.135256,0 120.661814,24.135511,0 120.661814,24.135548,0 120.661814,24.135587,0 120.661813,24.135627,0 120.661813,24.135662,0 120.661813,24.135700,0 120.661813,24.135739,0 120.661813,24.135778,0 120.661813,24.135864,0 120.661813,24.135902,0 120.661813,24.135943,0 120.661812,24.136038,0 120.661812,24.136127,0 120.661812,24.136176,0 120.661812,24.136218,0 120.661812,24.136260,0 120.661812,24.136301,0 120.661812,24.136340,0 120.661811,24.136390,0 120.661826,24.136406,0 120.661863,24.136443,0 120.661849,24.136453,0 120.661847,24.136552,0 120.661846,24.136660,0 120.661845,24.136673,0 120.661818,24.136696,0 120.661803,24.136696,0 120.661692,24.136697,0 120.661605,24.136698,0 120.661591,24.136699,0 120.661591,24.136859,0 120.661590,24.136906,0 120.661591,24.136955,0 120.661591,24.136980,0 120.661404,24.136980,0 120.660188,24.136974,0 120.660188,24.136663,0 120.660123,24.136664,0 120.660123,24.136553,0 120.659779,24.136553,0 120.659520,24.136554,0 120.658831,24.136554,0 120.657986,24.136554,0 120.657849,24.136554,0 120.657500,24.136555,0 120.657499,24.136672,0 120.657364,24.136697,0 120.657253,24.136694,0 120.657254,24.137075,0 120.656751,24.137075,0 120.656719,24.137075,0 120.656233,24.137075,0 120.656233,24.137110,0 120.656234,24.137495,0 120.656233,24.137614,0 120.656234,24.137882,0 120.656234,24.137969,0 120.656234,24.138158,0 120.656233,24.138427,0 120.656057,24.138428,0 120.656058,24.138734,0 120.656059,24.139022,0 120.657256,24.139015,0 120.657256,24.139288,0 120.657256,24.139716,0 120.657147,24.139822,0 120.657080,24.139908,0 120.656986,24.139986,0 120.656851,24.140059,0 120.657263,24.140056,0 120.657262,24.140152,0 120.657269,24.140576,0 120.657253,24.141251,0 120.657254,24.141559,0 120.657357,24.141558,0 120.658833,24.141560,0 120.658833,24.142054,0 120.658833,24.142465,0 120.658832,24.142947,0 120.658832,24.143380,0 120.658832,24.143845,0 120.658832,24.144317,0 120.659476,24.144319,0 120.659477,24.144685,0 120.660202,24.144685,0 120.660202,24.144891,0 120.660873,24.144886,0 120.661110,24.144891,0 120.661229,24.144876,0 120.661452,24.144701,0 120.661693,24.144702,0 120.661693,24.144602,0 120.661692,24.144328,0 120.662172,24.144326,0 120.662175,24.144595,0 120.662564,24.144594,0 120.662560,24.144326,0 120.663118,24.144324,0 120.663171,24.144324,0 120.664302,24.144324,0 120.664356,24.144324,0 120.664396,24.144325,0 120.664426,24.144325,0 120.664520,24.144326,0 120.664730,24.144328,0 120.664734,24.143815,0 120.664768,24.143810,0 120.664799,24.143795,0 120.664821,24.143771,0 120.664834,24.143742,0 120.664835,24.143711,0 120.664825,24.143681,0 120.664805,24.143656,0 120.664776,24.143638,0 120.664743,24.143630,0 120.664736,24.143128,0 120.664698,24.143118,0 120.664668,24.143099,0 120.664646,24.143072,0 120.664635,24.143041,0 120.664633,24.143008,0 120.664644,24.142976,0 120.664664,24.142949,0 120.664692,24.142929,0 120.664726,24.142917,0 120.664726,24.142792,0 120.664679,24.142729,0 120.664638,24.142670,0 120.664597,24.142612,0 120.664604,24.142533,0 120.664618,24.142461,0 120.664677,24.142488,0 120.664740,24.142374,0 120.664677,24.142346,0 120.664918,24.141929,0 120.664963,24.141937,0 120.665008,24.141932,0 120.665050,24.141915,0 120.665084,24.141886,0 120.665452,24.142125,0 120.665544,24.141998,0 120.665668,24.141888,0 120.665980,24.141611,0 120.666266,24.141361,0 120.666535,24.141142,0 120.666581,24.141186,0 120.666649,24.141251,0 120.666734,24.141331,0 120.666630,24.141423,0 120.666557,24.141483,0 120.666827,24.141747,0 120.666359,24.142166,0 120.666533,24.142279,0 120.666790,24.142445,0 120.666923,24.142327,0 120.667060,24.142213,0 120.667202,24.142107,0 120.667292,24.142035,0 120.667477,24.141869,0 120.667545,24.141802,0 120.667839,24.141549,0 120.668095,24.141324,0 120.668586,24.140887,0 120.668969,24.141255,0 120.669213,24.141038,0 120.669469,24.140816,0 120.669965,24.140375,0 120.670520,24.139908,0 120.670879,24.140163,0 120.670946,24.140213,0 120.671056,24.140117,0 120.671258,24.139939,0 120.671295,24.139906,0 120.671357,24.139959,0 120.671315,24.139993,0 120.671110,24.140167,0 120.671084,24.140190,0 120.671086,24.140204,0 120.671130,24.140232,0 120.671161,24.140244,0 120.671216,24.140270,0 120.671229,24.140279,0 120.671273,24.140312,0 120.671494,24.140413,0 120.671637,24.140484,0 120.671699,24.140497,0 120.671770,24.140514,0 120.671855,24.140550,0 120.671950,24.140533,0 120.671964,24.140530,0 120.672039,24.140535,0 120.672061,24.140523,0 120.672247,24.140351,0 120.672267,24.140326,0 120.672274,24.140307,0 120.672325,24.140303,0 120.672395,24.140318,0 120.672478,24.140347,0 120.672641,24.140412,0 120.672848,24.140469,0 120.673092,24.140550,0 120.673281,24.140599,0 120.673360,24.140618,0 120.673500,24.140659,0 120.673597,24.140579,0 120.673759,24.140437,0 120.673842,24.140393,0 120.673947,24.140313,0 120.674797,24.139587,0 120.675749,24.138756,0 120.676197,24.138376,0 120.676270,24.138311,0 120.676846,24.137805,0 120.677342,24.138307,0 120.677359,24.138315,0 120.677379,24.138318,0 120.678134,24.137650,0 120.677617,24.137168,0 120.678289,24.136551,0 120.678421,24.136431,0 120.679239,24.135722,0 120.679595,24.135404,0 120.679880,24.135150,0 120.680087,24.134943,0 120.680158,24.134859,0 120.680347,24.134476,0 120.680022,24.134331,0 120.679281,24.134032,0 120.679303,24.133979,0 120.679363,24.133862,0 120.679377,24.133834,0 120.679520,24.133537,0 120.679719,24.133115,0 120.679769,24.133063,0 120.679974,24.132658,0 120.680092,24.132428,0 120.680205,24.132204,0 120.680344,24.131931,0 120.680378,24.131865,0 120.680973,24.130652,0 120.680470,24.130449,0 120.680771,24.129866,0 120.681259,24.130064,0 120.681757,24.130281,0 120.682316,24.130500,0 120.682440,24.130265,0 120.682641,24.129875,0 120.683180,24.130102,0 120.683711,24.130324,0 120.684005,24.130453,0 120.684229,24.130542,0 120.684340,24.130580,0 120.684624,24.130708,0 120.684778,24.130773,0 120.684922,24.130833,0 120.685370,24.131020,0 120.685782,24.131206,0 120.686759,24.131615,0 120.687262,24.131821,0 120.687750,24.132015,0 120.688240,24.132224,0 120.688542,24.132354,0 120.688713,24.132427,0 120.688990,24.131870,0 120.689473,24.132065,0 120.689970,24.132283,0 120.690558,24.132517,0 120.690488,24.132679,0 120.690950,24.132715,0 120.691358,24.132746,0 120.691667,24.132771,0 120.691791,24.132801,0 120.691881,24.132831,0 120.692041,24.132820,0 120.692403,24.132841,0 120.692564,24.132847,0 120.692666,24.132841,0 120.692749,24.132784,0 120.692972,24.132865,0 120.693015,24.132776,0 120.693051,24.132701,0 120.693138,24.132702,0 120.693204,24.132706,0 120.693241,24.132833,0 120.693353,24.132841,0 120.693511,24.132851,0 120.693790,24.132869,0 120.694289,24.132900,0 120.694439,24.132043,0 120.694550,24.131118,0 120.694579,24.130909,0 120.694630,24.130554,0 120.694649,24.130299,0 120.694354,24.130302,0 120.693994,24.130300,0 120.693988,24.130602,0 120.693672,24.130599,0 120.693149,24.130599,0 120.693148,24.130297,0 120.692949,24.130290,0 120.691674,24.130301,0 120.690326,24.130317,0 120.690216,24.130318,0 120.690222,24.129740,0 120.690139,24.129739,0 120.690136,24.129608,0 120.689646,24.129618,0 120.688847,24.129637,0 120.688648,24.129635,0 120.688639,24.128922,0 120.688566,24.128928,0 120.687957,24.128929,0 120.687334,24.128926,0 120.686587,24.128919,0 120.685837,24.128918,0 120.685433,24.128924,0 120.685009,24.128923,0 120.684995,24.128860,0 120.684966,24.128829,0 120.684851,24.128853,0 120.684752,24.128480,0 120.684625,24.128006,0 120.684562,24.127770,0 120.684545,24.127707,0 120.684186,24.127782,0 120.683616,24.127890,0 120.683595,24.127894,0 120.683166,24.127726,0 120.683094,24.127698,0 120.682569,24.127449,0 120.681103,24.127470,0 120.681103,24.127109,0 120.681103,24.126762,0 120.681102,24.126375,0 120.680245,24.126376,0 120.679926,24.126389,0 120.679598,24.126392,0 120.679484,24.126390,0 120.679380,24.126389,0 120.679274,24.126386,0 120.679153,24.126385,0 120.678946,24.126382,0 120.678424,24.126384,0 120.678393,24.126518,0 120.678378,24.126621,0 120.677721,24.126390,0 120.677628,24.126388,0 120.677354,24.126386,0 120.676905,24.126391,0 120.676428,24.126389,0 120.676429,24.126282,0 120.676382,24.126282,0 120.676319,24.126282,0 120.676303,24.126282,0 120.676151,24.126281,0 120.676122,24.126281,0 120.676131,24.125654,0 120.676067,24.125652,0 120.675178,24.125654,0 120.674690,24.125654,0 120.674092,24.125654,0 120.673614,24.125654,0 120.673387,24.125654,0 120.672822,24.125654,0 120.672430,24.125653,0 120.672028,24.125653,0 120.671561,24.125653,0 120.671563,24.125042,0 120.671283,24.125034,0 120.670839,24.124976,0 120.670583,24.124916,0 120.670474,24.124881,0 120.670082,24.124741,0 120.669995,24.124703,0 120.669745,24.124572,0 120.669610,24.124712,0 120.669574,24.124809,0 120.669572,24.124944,0 120.669547,24.125165,0 120.669558,24.125329,0 120.669289,24.125326,0 120.669211,24.125370,0 120.669168,24.125401,0 120.669032,24.125550,0 120.668772,24.125845,0 120.667830,24.125063,0 120.667749,24.125147,0 120.667419,24.124879,0 120.666732,24.124320,0 120.666762,24.124287,0 120.666799,24.124246,0 120.667293,24.123739,0 120.666456,24.123081,0 120.666394,24.123033,0 120.666420,24.123125,0 120.666424,24.123285,0 120.666381,24.123373,0
</coordinates></LineString></Placemark>
</Document></kml>