<?xml version="1.0" encoding="UTF-8"?>
<kml xmlns="http://www.opengis.net/kml/2.2"><Document>
<name>南區 貓咪肉球 圖形路跑路線</name>
<Style id="r"><LineStyle><color>ff2000d6</color><width>4</width></LineStyle></Style>
<Placemark><name>積善公園</name><description>地標</description><Point><coordinates>120.671355,24.115393,0</coordinates></Point></Placemark>
<Placemark><name>公六公園</name><description>地標</description><Point><coordinates>120.673733,24.112313,0</coordinates></Point></Placemark>
<Placemark><name>大里公園</name><description>地標</description><Point><coordinates>120.687592,24.109627,0</coordinates></Point></Placemark>
<Placemark><name>南區 貓咪肉球 圖形路跑路線</name><styleUrl>#r</styleUrl><LineString><tessellate>1</tessellate><coordinates>
120.671777,24.117296,0 120.671785,24.116720,0 120.671784,24.116663,0 120.671786,24.116357,0 120.671788,24.115849,0 120.671768,24.114880,0 120.672136,24.114895,0 120.672240,24.114899,0 120.672302,24.114879,0 120.672295,24.114742,0 120.672325,24.114173,0 120.672347,24.113830,0 120.672370,24.113480,0 120.672417,24.112762,0 120.672692,24.112756,0 120.672998,24.112764,0 120.673384,24.112767,0 120.673390,24.112672,0 120.673737,24.112685,0 120.673925,24.112687,0 120.673987,24.112694,0 120.674091,24.112699,0 120.674093,24.112779,0 120.674525,24.112778,0 120.674593,24.112057,0 120.674679,24.112042,0 120.675270,24.112051,0 120.675582,24.112053,0 120.675600,24.111567,0 120.675603,24.111521,0 120.675620,24.111286,0 120.675645,24.110836,0 120.676475,24.110839,0 120.677299,24.110835,0 120.677318,24.110451,0 120.677335,24.110099,0 120.677662,24.110094,0 120.677766,24.110092,0 120.678028,24.110088,0 120.678745,24.110077,0 120.678995,24.109338,0 120.679607,24.109334,0 120.679606,24.109431,0 120.679726,24.109439,0 120.679808,24.109445,0 120.679846,24.109456,0 120.679948,24.109487,0 120.679993,24.109474,0 120.680027,24.109361,0 120.680098,24.109371,0 120.680558,24.109503,0 120.680635,24.109529,0 120.681131,24.109692,0 120.681161,24.109597,0 120.681400,24.109670,0 120.681645,24.109744,0 120.681780,24.109784,0 120.681823,24.109792,0 120.681837,24.109790,0 120.681842,24.109789,0 120.681891,24.109800,0 120.681930,24.109809,0 120.681948,24.109823,0 120.682005,24.109835,0 120.682058,24.109846,0 120.682308,24.109900,0 120.682912,24.110013,0 120.683007,24.110031,0 120.683686,24.110159,0 120.683741,24.110143,0 120.683762,24.110109,0 120.683759,24.109759,0 120.683787,24.109264,0 120.683805,24.108911,0 120.683821,24.108715,0 120.683862,24.108581,0 120.683886,24.108511,0 120.683976,24.108512,0 120.683921,24.108781,0 120.683881,24.109064,0 120.683861,24.109354,0 120.683860,24.109477,0 120.683858,24.109646,0 120.684469,24.109665,0 120.684992,24.109690,0 120.684964,24.110334,0 120.685111,24.110341,0 120.686199,24.110373,0 120.687664,24.110234,0 120.688104,24.110773,0 120.688528,24.111292,0 120.688746,24.111481,0 120.688770,24.111502,0 120.688857,24.111588,0 120.688887,24.111621,0 120.689320,24.111437,0 120.689683,24.111299,0 120.689788,24.111294,0 120.689994,24.111273,0 120.689986,24.111560,0 120.689977,24.111793,0 120.689918,24.112637,0 120.689903,24.112838,0 120.690086,24.113020,0 120.690334,24.113359,0 120.690651,24.113703,0 120.691067,24.114198,0 120.691423,24.114625,0 120.691845,24.115110,0 120.692032,24.115323,0 120.692207,24.115522,0 120.692260,24.116061,0 120.692294,24.116474,0 120.692311,24.116815,0 120.692329,24.117076,0 120.692376,24.117652,0 120.692407,24.118203,0 120.692458,24.118783,0 120.693212,24.118799,0 120.693206,24.119476,0 120.693795,24.119483,0 120.693781,24.119770,0 120.693756,24.120051,0 120.693774,24.120417,0 120.693769,24.120999,0 120.693933,24.120939,0 120.694056,24.121120,0 120.694067,24.121136,0 120.694154,24.121267,0 120.694309,24.121447,0 120.694410,24.121513,0 120.694642,24.121696,0 120.695051,24.122117,0 120.695060,24.122199,0 120.695066,24.122277,0 120.695073,24.122357,0 120.694995,24.122432,0 120.694871,24.122740,0 120.694800,24.122976,0 120.694786,24.123283,0 120.694756,24.123395,0 120.696146,24.123817,0 120.695998,24.124231,0 120.694600,24.123809,0 120.694499,24.124075,0 120.694414,24.124261,0 120.694391,24.124303,0 120.694289,24.124484,0 120.694266,24.124762,0 120.694425,24.124796,0 120.694727,24.124849,0 120.695394,24.125139,0 120.695148,24.125483,0 120.694989,24.125688,0 120.694925,24.125737,0 120.694865,24.125752,0 120.694862,24.125841,0 120.694925,24.126357,0 120.694738,24.126379,0 120.694692,24.126383,0 120.694196,24.126481,0 120.693912,24.126538,0 120.693802,24.126560,0 120.693571,24.126605,0 120.693456,24.126636,0 120.693516,24.126678,0 120.693518,24.126712,0 120.693511,24.126758,0 120.693499,24.126787,0 120.693485,24.126819,0 120.693442,24.126822,0 120.693402,24.126822,0 120.693335,24.126794,0 120.693216,24.126705,0 120.693196,24.126717,0 120.693147,24.126762,0 120.693149,24.126870,0 120.693145,24.126978,0 120.693145,24.127023,0 120.693148,24.127660,0 120.692947,24.127656,0 120.692433,24.127659,0 120.691675,24.127655,0 120.690639,24.127648,0 120.690479,24.127645,0 120.690478,24.127618,0 120.690321,24.127617,0 120.690217,24.127616,0 120.690215,24.127105,0 120.690120,24.127104,0 120.690123,24.127009,0 120.689809,24.127010,0 120.689341,24.127018,0 120.688830,24.127026,0 120.688833,24.126376,0 120.688844,24.126044,0 120.688840,24.125119,0 120.689066,24.125103,0 120.689210,24.125096,0 120.689376,24.125100,0 120.689451,24.125129,0 120.689508,24.125088,0 120.689556,24.125077,0 120.689608,24.125070,0 120.689656,24.125051,0 120.689723,24.125047,0 120.689773,24.125054,0 120.689821,24.125016,0 120.689896,24.125005,0 120.689967,24.124967,0 120.690045,24.124962,0 120.690199,24.124965,0 120.690198,24.125098,0 120.690228,24.125098,0 120.690317,24.125100,0 120.690318,24.125646,0 120.690318,24.125986,0 120.690314,24.126365,0 120.690320,24.127009,0 120.690320,24.127105,0 120.690321,24.127617,0 120.690478,24.127618,0 120.690479,24.127645,0 120.690479,24.127715,0 120.690323,24.127716,0 120.690342,24.128887,0 120.690342,24.128922,0 120.690340,24.129574,0 120.690340,24.129610,0 120.690337,24.129742,0 120.690222,24.129740,0 120.690139,24.129739,0 120.690136,24.129608,0 120.689646,24.129618,0 120.689632,24.130254,0 120.689477,24.130561,0 120.689226,24.131086,0 120.689228,24.131202,0 120.689238,24.131304,0 120.689209,24.131437,0 120.688990,24.131870,0 120.688713,24.132427,0 120.688542,24.132354,0 120.688240,24.132224,0 120.687750,24.132015,0 120.687438,24.132650,0 120.686943,24.132453,0 120.686637,24.133050,0 120.686160,24.132856,0 120.684695,24.132230,0 120.684497,24.132149,0 120.684371,24.132098,0 120.684312,24.132073,0 120.684164,24.132008,0 120.684022,24.131947,0 120.683975,24.131926,0 120.683612,24.131775,0 120.683896,24.131176,0 120.683386,24.130959,0 120.683711,24.130324,0 120.683180,24.130102,0 120.682641,24.129875,0 120.682921,24.129320,0 120.682338,24.129089,0 120.682606,24.128561,0 120.683185,24.128796,0 120.683724,24.129008,0 120.683459,24.129553,0 120.683180,24.130102,0 120.682858,24.130727,0 120.682561,24.131329,0 120.682030,24.131095,0 120.681844,24.131532,0 120.681732,24.131763,0 120.681543,24.132153,0 120.681429,24.132388,0 120.681181,24.132864,0 120.681055,24.133106,0 120.680653,24.132937,0 120.680500,24.133251,0 120.680895,24.133412,0 120.680846,24.133515,0 120.679769,24.133063,0 120.679719,24.133115,0 120.679298,24.132946,0 120.679182,24.132891,0 120.679149,24.132874,0 120.678686,24.132687,0 120.678168,24.132474,0 120.677944,24.132894,0 120.677427,24.132680,0 120.677637,24.132245,0 120.677285,24.132097,0 120.676780,24.131899,0 120.676726,24.131952,0 120.676673,24.131982,0 120.676576,24.131937,0 120.676462,24.131885,0 120.676443,24.131832,0 120.676473,24.131770,0 120.676506,24.131703,0 120.676072,24.131521,0 120.676320,24.131062,0 120.675771,24.130847,0 120.675540,24.131303,0 120.675079,24.131102,0 120.675372,24.130482,0 120.674787,24.130227,0 120.675072,24.129656,0 120.675279,24.129244,0 120.675463,24.128863,0 120.675680,24.128441,0 120.676062,24.127672,0 120.676055,24.127123,0 120.676126,24.127149,0 120.676120,24.126577,0 120.676121,24.126472,0 120.676121,24.126388,0 120.676122,24.126281,0 120.676151,24.126281,0 120.676303,24.126282,0 120.676319,24.126282,0 120.676323,24.125654,0 120.676318,24.124928,0 120.676377,24.124928,0 120.676802,24.124928,0 120.676799,24.125159,0 120.676791,24.125653,0 120.676387,24.125655,0 120.676323,24.125654,0 120.676319,24.126282,0 120.676382,24.126282,0 120.676429,24.126282,0 120.676428,24.126389,0 120.676428,24.126471,0 120.676427,24.126579,0 120.676377,24.126578,0 120.676317,24.126578,0 120.676321,24.127231,0 120.676312,24.127227,0 120.676156,24.127165,0 120.676126,24.127149,0 120.676055,24.127123,0 120.675175,24.126770,0 120.674965,24.127191,0 120.674749,24.127585,0 120.674553,24.127990,0 120.674544,24.128199,0 120.674623,24.128514,0 120.675463,24.128863,0 120.675279,24.129244,0 120.674733,24.129007,0 120.674161,24.128768,0 120.673975,24.129180,0 120.673589,24.129016,0 120.673207,24.128859,0 120.672538,24.128592,0 120.672398,24.128896,0 120.672248,24.129187,0 120.671160,24.128730,0 120.670844,24.129323,0 120.670420,24.129137,0 120.670753,24.128487,0 120.671007,24.127962,0 120.670831,24.127884,0 120.670783,24.127810,0 120.670721,24.127795,0 120.670669,24.127773,0 120.670625,24.127745,0 120.670582,24.127710,0 120.670544,24.127669,0 120.670514,24.127616,0 120.670485,24.127560,0 120.670476,24.127531,0 120.670473,24.127501,0 120.670473,24.127472,0 120.670478,24.127442,0 120.670412,24.127385,0 120.670379,24.127368,0 120.670034,24.127236,0 120.669721,24.127122,0 120.669874,24.126795,0 120.669984,24.126599,0 120.670044,24.126471,0 120.670002,24.126464,0 120.669942,24.126449,0 120.669965,24.126381,0 120.669521,24.126327,0 120.669691,24.126217,0 120.669870,24.126084,0 120.669987,24.125940,0 120.669988,24.125334,0 120.669558,24.125329,0 120.669547,24.125165,0 120.669572,24.124944,0 120.669574,24.124809,0 120.669610,24.124712,0 120.669745,24.124572,0 120.669995,24.124703,0 120.670082,24.124741,0 120.670090,24.124482,0 120.670083,24.123641,0 120.670088,24.123305,0 120.670092,24.122920,0 120.670094,24.122350,0 120.670089,24.121771,0 120.670779,24.121781,0 120.670770,24.121423,0 120.671387,24.121408,0 120.671388,24.121039,0 120.671399,24.120660,0 120.671402,24.120588,0 120.671399,24.120201,0 120.671396,24.119132,0 120.671397,24.119113,0 120.671396,24.119059,0 120.671769,24.119057,0 120.671813,24.119041,0 120.671805,24.118664,0 120.671787,24.118071,0 120.671787,24.117712,0 120.671777,24.117296,0
</coordinates></LineString></Placemark>
</Document></kml>