<?xml version="1.0" encoding="UTF-8"?>
<kml xmlns="http://www.opengis.net/kml/2.2"><Document>
<name>南區 蹲坐貓咪（側面） 圖形路跑路線</name>
<Style id="r"><LineStyle><color>ff2000d6</color><width>4</width></LineStyle></Style>
<Placemark><name>國立臺中科技大學中護健康學院</name><description>地標</description><Point><coordinates>120.675650,24.139551,0</coordinates></Point></Placemark>
<Placemark><name>臺中文學館</name><description>地標</description><Point><coordinates>120.672939,24.139579,0</coordinates></Point></Placemark>
<Placemark><name>台中文學公園</name><description>地標</description><Point><coordinates>120.672278,24.139675,0</coordinates></Point></Placemark>
<Placemark><name>南區 蹲坐貓咪（側面） 圖形路跑路線</name><styleUrl>#r</styleUrl><LineString><tessellate>1</tessellate><coordinates>
120.674061,24.138866,0 120.674432,24.139228,0 120.674797,24.139587,0 120.673947,24.140313,0 120.673842,24.140393,0 120.673759,24.140437,0 120.673597,24.140579,0 120.673500,24.140659,0 120.673583,24.140697,0 120.673621,24.140668,0 120.673839,24.140720,0 120.674059,24.140799,0 120.674203,24.140850,0 120.674443,24.140921,0 120.674693,24.141013,0 120.674975,24.141101,0 120.675126,24.141154,0 120.675275,24.141155,0 120.675529,24.141270,0 120.675678,24.141285,0 120.675743,24.141319,0 120.675747,24.141350,0 120.675719,24.141372,0 120.675489,24.141569,0 120.675445,24.141599,0 120.675390,24.141654,0 120.675283,24.141752,0 120.675285,24.141794,0 120.675365,24.141866,0 120.675130,24.142085,0 120.675078,24.142134,0 120.675175,24.142228,0 120.675461,24.142507,0 120.675839,24.142878,0 120.676203,24.143217,0 120.676332,24.143332,0 120.676565,24.143575,0 120.676313,24.143785,0 120.676718,24.144184,0 120.676754,24.144221,0 120.677124,24.144528,0 120.677069,24.144576,0 120.677129,24.144634,0 120.677186,24.144638,0 120.677216,24.144614,0 120.677511,24.144889,0 120.677845,24.145221,0 120.678268,24.144849,0 120.678281,24.144835,0 120.678225,24.144782,0 120.678312,24.144708,0 120.678026,24.144440,0 120.677756,24.144179,0 120.677832,24.144112,0 120.677708,24.144025,0 120.677636,24.143975,0 120.677577,24.143976,0 120.677624,24.143960,0 120.677822,24.143785,0 120.677848,24.143758,0 120.677918,24.143698,0 120.678027,24.143745,0 120.678217,24.143750,0 120.678346,24.143641,0 120.678620,24.143396,0 120.678612,24.143358,0 120.678647,24.143391,0 120.678689,24.143349,0 120.678931,24.143588,0 120.679293,24.143950,0 120.679675,24.144299,0 120.679804,24.144422,0 120.680036,24.144665,0 120.680499,24.144274,0 120.680934,24.143892,0 120.681022,24.143815,0 120.681076,24.143768,0 120.681347,24.143536,0 120.680992,24.143180,0 120.680629,24.142804,0 120.681033,24.142452,0 120.681363,24.142181,0 120.681742,24.141834,0 120.682117,24.141507,0 120.682929,24.140802,0 120.683358,24.140420,0 120.683761,24.140079,0 120.684115,24.140421,0 120.684492,24.140090,0 120.684887,24.139759,0 120.685138,24.139999,0 120.685492,24.139703,0 120.685301,24.139614,0 120.685304,24.139610,0 120.685370,24.139508,0 120.685372,24.139504,0 120.685563,24.139183,0 120.685591,24.139135,0 120.685693,24.139043,0 120.686056,24.139022,0 120.686005,24.138897,0 120.685963,24.138835,0 120.685635,24.138425,0 120.685699,24.138373,0 120.685867,24.138244,0 120.686064,24.138091,0 120.686114,24.138052,0 120.686371,24.138070,0 120.686483,24.137876,0 120.686504,24.137839,0 120.686571,24.137789,0 120.686643,24.137646,0 120.686746,24.137444,0 120.686758,24.137421,0 120.686767,24.137404,0 120.687023,24.136900,0 120.687063,24.136806,0 120.686569,24.136593,0 120.686537,24.136652,0 120.686635,24.136686,0 120.686679,24.136733,0 120.687440,24.137044,0 120.687495,24.137045,0 120.687624,24.137096,0 120.687602,24.137028,0 120.687601,24.136980,0 120.687602,24.136968,0 120.687603,24.136935,0 120.687772,24.136598,0 120.687747,24.136537,0 120.687758,24.136489,0 120.687792,24.136428,0 120.687839,24.136347,0 120.687936,24.136392,0 120.688029,24.136427,0 120.688056,24.136480,0 120.688100,24.136502,0 120.688596,24.136713,0 120.688686,24.136753,0 120.689011,24.136888,0 120.689125,24.136905,0 120.689170,24.136922,0 120.689492,24.136602,0 120.689623,24.136461,0 120.689817,24.136269,0 120.689954,24.136100,0 120.690063,24.135947,0 120.689273,24.135604,0 120.689169,24.135560,0 120.688969,24.135475,0 120.688477,24.135274,0 120.688342,24.135553,0 120.687777,24.135335,0 120.687651,24.135393,0 120.687310,24.135252,0 120.687506,24.134856,0 120.687810,24.134258,0 120.687843,24.134180,0 120.687273,24.133946,0 120.686878,24.133778,0 120.686906,24.133699,0 120.687143,24.133257,0 120.686637,24.133050,0 120.686160,24.132856,0 120.686448,24.132239,0 120.686759,24.131615,0 120.685782,24.131206,0 120.685370,24.131020,0 120.685862,24.130000,0 120.685411,24.129982,0 120.685157,24.130024,0 120.685165,24.129992,0 120.685166,24.129956,0 120.685160,24.129929,0 120.685090,24.129701,0 120.684930,24.129634,0 120.684914,24.129590,0 120.684867,24.129567,0 120.684838,24.129461,0 120.684578,24.129353,0 120.684237,24.129209,0 120.683964,24.129770,0 120.683711,24.130324,0 120.683180,24.130102,0 120.682641,24.129875,0 120.682440,24.130265,0 120.682316,24.130500,0 120.681757,24.130281,0 120.681259,24.130064,0 120.680771,24.129866,0 120.680470,24.130449,0 120.679916,24.130225,0 120.679737,24.130619,0 120.678663,24.130175,0 120.678515,24.130471,0 120.678263,24.130969,0 120.677402,24.130620,0 120.677433,24.130561,0 120.677343,24.130524,0 120.677253,24.130486,0 120.677224,24.130546,0 120.677105,24.130496,0 120.676155,24.130098,0 120.675771,24.130847,0 120.675540,24.131303,0 120.675520,24.131359,0 120.676015,24.131564,0 120.675820,24.131965,0 120.675675,24.132240,0 120.675600,24.132382,0 120.676074,24.132585,0 120.676031,24.132666,0 120.676037,24.132679,0 120.676042,24.132693,0 120.676043,24.132706,0 120.675883,24.132927,0 120.675863,24.132944,0 120.675847,24.132947,0 120.675840,24.132949,0 120.675789,24.132940,0 120.675757,24.132990,0 120.675705,24.133071,0 120.675654,24.133151,0 120.675618,24.133182,0 120.675605,24.133193,0 120.675597,24.133213,0 120.675441,24.133348,0 120.675532,24.133433,0 120.675419,24.133534,0 120.675321,24.133615,0 120.675104,24.133809,0 120.674805,24.134079,0 120.674646,24.134221,0 120.674412,24.134425,0 120.674682,24.134680,0 120.674816,24.134811,0 120.675117,24.135110,0 120.675234,24.135232,0 120.675602,24.135585,0 120.675828,24.135817,0 120.675903,24.135905,0 120.675840,24.135955,0 120.675721,24.136058,0 120.675558,24.136197,0 120.675349,24.136376,0 120.674793,24.136861,0 120.674759,24.136891,0 120.674272,24.137327,0 120.674287,24.137342,0 120.674316,24.137370,0 120.674635,24.137682,0 120.674997,24.138046,0 120.674061,24.138866,0
</coordinates></LineString></Placemark>
</Document></kml>