<?xml version="1.0" encoding="UTF-8"?>
<kml xmlns="http://www.opengis.net/kml/2.2"><Document>
<name>南區 蜷睡貓咪 圖形路跑路線</name>
<Style id="r"><LineStyle><color>ff2000d6</color><width>4</width></LineStyle></Style>
<Placemark><name>藍興公園</name><description>地標</description><Point><coordinates>120.668238,24.134112,0</coordinates></Point></Placemark>
<Placemark><name>樂群公園</name><description>地標</description><Point><coordinates>120.667267,24.134977,0</coordinates></Point></Placemark>
<Placemark><name>上公館公園</name><description>地標</description><Point><coordinates>120.666164,24.136052,0</coordinates></Point></Placemark>
<Placemark><name>南區 蜷睡貓咪 圖形路跑路線</name><styleUrl>#r</styleUrl><LineString><tessellate>1</tessellate><coordinates>
120.665954,24.133147,0 120.666122,24.133311,0 120.666427,24.133611,0 120.666507,24.133664,0 120.666884,24.133822,0 120.667131,24.133935,0 120.667187,24.133967,0 120.667590,24.134354,0 120.666939,24.134924,0 120.666549,24.135278,0 120.666904,24.135607,0 120.667203,24.135901,0 120.667468,24.136194,0 120.667520,24.136250,0 120.667455,24.136304,0 120.667532,24.136373,0 120.667515,24.136369,0 120.667498,24.136377,0 120.667280,24.136563,0 120.667273,24.136573,0 120.667268,24.136581,0 120.667287,24.136605,0 120.667215,24.136666,0 120.667583,24.137037,0 120.668433,24.137857,0 120.668490,24.137912,0 120.668626,24.138051,0 120.668676,24.138100,0 120.669155,24.138555,0 120.669297,24.138688,0 120.669369,24.138634,0 120.669408,24.138638,0 120.669428,24.138634,0 120.669619,24.138468,0 120.669631,24.138420,0 120.669726,24.138506,0 120.669803,24.138594,0 120.669962,24.138736,0 120.670432,24.139196,0 120.670444,24.139209,0 120.670486,24.139254,0 120.670535,24.139305,0 120.670675,24.139440,0 120.671097,24.139775,0 120.671218,24.139846,0 120.671295,24.139906,0 120.671357,24.139959,0 120.671373,24.139961,0 120.671416,24.139990,0 120.671470,24.140030,0 120.671550,24.140054,0 120.671633,24.140086,0 120.671737,24.140146,0 120.671763,24.140163,0 120.671792,24.140165,0 120.671841,24.140197,0 120.671890,24.140212,0 120.671928,24.140211,0 120.672036,24.140236,0 120.672236,24.140301,0 120.672274,24.140307,0 120.672325,24.140303,0 120.672395,24.140318,0 120.672470,24.140249,0 120.672596,24.140146,0 120.673110,24.139695,0 120.673327,24.139902,0 120.673512,24.140076,0 120.673842,24.140393,0 120.673947,24.140313,0 120.674797,24.139587,0 120.675749,24.138756,0 120.676014,24.139010,0 120.676344,24.139327,0 120.676682,24.139657,0 120.676930,24.139894,0 120.677129,24.140085,0 120.677168,24.140123,0 120.677257,24.140048,0 120.677276,24.140048,0 120.677359,24.140128,0 120.677446,24.140211,0 120.677447,24.140236,0 120.677362,24.140309,0 120.677372,24.140319,0 120.677491,24.140434,0 120.677670,24.140608,0 120.678042,24.140949,0 120.678458,24.140593,0 120.678607,24.140463,0 120.678229,24.140126,0 120.677824,24.139724,0 120.677858,24.139698,0 120.678289,24.139320,0 120.678298,24.139312,0 120.678344,24.139279,0 120.678384,24.139252,0 120.678393,24.139243,0 120.678513,24.139138,0 120.678671,24.139000,0 120.679056,24.138671,0 120.679138,24.138750,0 120.679167,24.138747,0 120.679223,24.138700,0 120.679464,24.138935,0 120.679888,24.139349,0 120.680166,24.139112,0 120.680661,24.139553,0 120.681191,24.139106,0 120.681460,24.139351,0 120.681853,24.139003,0 120.682272,24.138637,0 120.681931,24.138335,0 120.681900,24.138294,0 120.681863,24.138258,0 120.681515,24.137936,0 120.681152,24.137571,0 120.681077,24.137500,0 120.680842,24.137277,0 120.680827,24.137262,0 120.680749,24.137185,0 120.680669,24.137106,0 120.680350,24.136793,0 120.680736,24.136458,0 120.681119,24.136122,0 120.681223,24.136219,0 120.681243,24.136238,0 120.681402,24.136080,0 120.681639,24.135574,0 120.681993,24.135722,0 120.682068,24.135759,0 120.682103,24.135784,0 120.682151,24.135697,0 120.682203,24.135595,0 120.682341,24.135670,0 120.682503,24.135357,0 120.682725,24.134888,0 120.682778,24.134780,0 120.682885,24.134568,0 120.683003,24.134617,0 120.683048,24.134602,0 120.683081,24.134535,0 120.683114,24.134468,0 120.683500,24.134626,0 120.683566,24.134490,0 120.683808,24.134011,0 120.684108,24.133426,0 120.684392,24.132824,0 120.684695,24.132230,0 120.684497,24.132149,0 120.684371,24.132098,0 120.684312,24.132073,0 120.684284,24.132130,0 120.684252,24.132140,0 120.684127,24.132082,0 120.684164,24.132008,0 120.684205,24.131925,0 120.684460,24.131412,0 120.684728,24.130874,0 120.684576,24.130806,0 120.684624,24.130708,0 120.684667,24.130621,0 120.684819,24.130689,0 120.684945,24.130430,0 120.684992,24.130333,0 120.685026,24.130261,0 120.685066,24.130197,0 120.685133,24.130082,0 120.685146,24.130053,0 120.685157,24.130024,0 120.685165,24.129992,0 120.685166,24.129956,0 120.685160,24.129929,0 120.685090,24.129701,0 120.685243,24.129766,0 120.685210,24.129617,0 120.685186,24.129516,0 120.685154,24.129405,0 120.685130,24.129385,0 120.684977,24.129317,0 120.684894,24.129011,0 120.684865,24.128904,0 120.684851,24.128853,0 120.684752,24.128480,0 120.684625,24.128006,0 120.684562,24.127770,0 120.684545,24.127707,0 120.684534,24.127663,0 120.684455,24.127362,0 120.684263,24.126622,0 120.684231,24.126495,0 120.684204,24.126383,0 120.684121,24.126283,0 120.684075,24.126227,0 120.683982,24.125878,0 120.683932,24.125642,0 120.683749,24.124968,0 120.683736,24.124919,0 120.683723,24.124873,0 120.683641,24.124570,0 120.683636,24.124553,0 120.683608,24.124403,0 120.683604,24.124358,0 120.683604,24.124326,0 120.683613,24.124280,0 120.683527,24.124281,0 120.683524,24.124273,0 120.683546,24.124227,0 120.683641,24.124032,0 120.683695,24.123924,0 120.683737,24.123837,0 120.682561,24.123821,0 120.682561,24.123754,0 120.682559,24.123459,0 120.682561,24.123240,0 120.682559,24.123005,0 120.682555,24.122335,0 120.681883,24.122331,0 120.681826,24.122330,0 120.681100,24.122333,0 120.681100,24.121864,0 120.681100,24.121748,0 120.681100,24.121422,0 120.681099,24.121345,0 120.681100,24.120962,0 120.681100,24.120584,0 120.680714,24.120584,0 120.680248,24.120580,0 120.680246,24.120201,0 120.680246,24.119855,0 120.680251,24.119131,0 120.679773,24.119131,0 120.679505,24.119130,0 120.679504,24.119204,0 120.679482,24.119250,0 120.679464,24.119258,0 120.679401,24.119258,0 120.679302,24.119258,0 120.679232,24.119258,0 120.679221,24.119251,0 120.679184,24.119214,0 120.679183,24.119131,0 120.678895,24.119132,0 120.678829,24.119186,0 120.677581,24.119186,0 120.673500,24.119189,0 120.673206,24.119188,0 120.672271,24.119179,0 120.672212,24.119180,0 120.672115,24.119177,0 120.671964,24.119146,0 120.671964,24.119339,0 120.671881,24.119338,0 120.671852,24.119335,0 120.671827,24.119480,0 120.671741,24.119622,0 120.671732,24.119949,0 120.671745,24.120039,0 120.671806,24.120172,0 120.671809,24.120700,0 120.671753,24.120666,0 120.671712,24.120661,0 120.671489,24.120661,0 120.671399,24.120660,0 120.670088,24.120675,0 120.670084,24.120590,0 120.670083,24.120007,0 120.670086,24.119690,0 120.670092,24.119137,0 120.669994,24.119139,0 120.668644,24.119141,0 120.668559,24.119141,0 120.668538,24.119055,0 120.668521,24.118966,0 120.668415,24.118965,0 120.668270,24.118971,0 120.667040,24.118969,0 120.666817,24.118969,0 120.666818,24.119057,0 120.666820,24.119141,0 120.666825,24.120002,0 120.666829,24.120370,0 120.666831,24.120724,0 120.666828,24.121152,0 120.666824,24.121570,0 120.666157,24.121574,0 120.666087,24.121597,0 120.665969,24.121756,0 120.665759,24.122096,0 120.665665,24.122067,0 120.665584,24.122085,0 120.665315,24.122167,0 120.665102,24.121997,0 120.664953,24.122155,0 120.664873,24.122240,0 120.664607,24.122522,0 120.664546,24.122598,0 120.664299,24.122859,0 120.664078,24.123093,0 120.663796,24.123364,0 120.663166,24.123769,0 120.663084,24.123801,0 120.662456,24.124195,0 120.663173,24.125183,0 120.663315,24.125373,0 120.663205,24.125588,0 120.663099,24.125861,0 120.662868,24.126527,0 120.662691,24.126997,0 120.662565,24.127369,0 120.662550,24.127408,0 120.662533,24.127458,0 120.662513,24.127450,0 120.662140,24.127296,0 120.662099,24.127355,0 120.662049,24.127387,0 120.662050,24.128011,0 120.662343,24.128017,0 120.662229,24.128361,0 120.662079,24.128745,0 120.662047,24.129076,0 120.662014,24.129394,0 120.661996,24.129610,0 120.663136,24.129619,0 120.663132,24.129398,0 120.663257,24.129392,0 120.663714,24.129384,0 120.663709,24.129077,0 120.663707,24.128750,0 120.663706,24.128631,0 120.663704,24.128353,0 120.663702,24.127990,0 120.663702,24.127941,0 120.662553,24.127466,0 120.662533,24.127458,0 120.662550,24.127408,0 120.662565,24.127369,0 120.662691,24.126997,0 120.662761,24.127026,0 120.663365,24.127271,0 120.664606,24.127810,0 120.664832,24.127417,0 120.665630,24.126887,0 120.665839,24.127069,0 120.665895,24.127012,0 120.665961,24.127068,0 120.666251,24.126717,0 120.666305,24.126660,0 120.666814,24.126121,0 120.667116,24.125823,0 120.667283,24.125659,0 120.667507,24.125413,0 120.667749,24.125147,0 120.667830,24.125063,0 120.668277,24.124561,0 120.668500,24.124349,0 120.668580,24.124249,0 120.669155,24.124260,0 120.669421,24.124428,0 120.669745,24.124572,0 120.669995,24.124703,0 120.670082,24.124741,0 120.670474,24.124881,0 120.670583,24.124916,0 120.670839,24.124976,0 120.671283,24.125034,0 120.671563,24.125042,0 120.671562,24.124501,0 120.672025,24.124504,0 120.672913,24.124500,0 120.672931,24.124539,0 120.672955,24.124549,0 120.672986,24.124550,0 120.673019,24.124659,0 120.673111,24.124965,0 120.673278,24.125253,0 120.673342,24.125459,0 120.673387,24.125654,0 120.673526,24.125946,0 120.673568,24.125991,0 120.673614,24.125993,0 120.673607,24.126266,0 120.673610,24.126392,0 120.673765,24.126476,0 120.674433,24.126465,0 120.675186,24.126461,0 120.675175,24.126770,0 120.674965,24.127191,0 120.674749,24.127585,0 120.674553,24.127990,0 120.674544,24.128199,0 120.674623,24.128514,0 120.675463,24.128863,0 120.675279,24.129244,0 120.675072,24.129656,0 120.674787,24.130227,0 120.674475,24.130850,0 120.674444,24.130913,0 120.674246,24.131309,0 120.674111,24.131573,0 120.674035,24.131721,0 120.673513,24.131499,0 120.672922,24.131268,0 120.672783,24.131546,0 120.672748,24.131605,0 120.672702,24.131672,0 120.672646,24.131749,0 120.672598,24.131794,0 120.672541,24.131847,0 120.672484,24.131921,0 120.672352,24.132037,0 120.671802,24.132525,0 120.671648,24.132655,0 120.671096,24.133130,0 120.670445,24.132512,0 120.670424,24.132275,0 120.670393,24.131936,0 120.670401,24.131535,0 120.670396,24.131481,0 120.670377,24.131445,0 120.670347,24.131413,0 120.670274,24.131373,0 120.669326,24.130950,0 120.668747,24.130716,0 120.668106,24.130458,0 120.667813,24.131010,0 120.667557,24.131586,0 120.667518,24.131676,0 120.667258,24.132157,0 120.667163,24.132162,0 120.666851,24.132164,0 120.666482,24.132167,0 120.666386,24.132167,0 120.665632,24.132165,0 120.665632,24.132702,0 120.665623,24.132824,0 120.665927,24.133130,0 120.665954,24.133147,0
</coordinates></LineString></Placemark>
</Document></kml>