<?xml version="1.0" encoding="UTF-8"?>
<kml xmlns="http://www.opengis.net/kml/2.2"><Document>
<name>南區 手繪蹲坐貓（原稿描圖） 圖形路跑路線</name>
<Style id="r"><LineStyle><color>ff2000d6</color><width>4</width></LineStyle></Style>
<Placemark><name>司法為民</name><description>地標</description><Point><coordinates>120.669060,24.127813,0</coordinates></Point></Placemark>
<Placemark><name>同心橋</name><description>地標</description><Point><coordinates>120.667028,24.128964,0</coordinates></Point></Placemark>
<Placemark><name>樂群公園</name><description>地標</description><Point><coordinates>120.667267,24.134977,0</coordinates></Point></Placemark>
<Placemark><name>南區 手繪蹲坐貓（原稿描圖） 圖形路跑路線</name><styleUrl>#r</styleUrl><LineString><tessellate>1</tessellate><coordinates>
120.667931,24.124272,0 120.667293,24.123739,0 120.666799,24.124246,0 120.666762,24.124287,0 120.666732,24.124320,0 120.666481,24.124601,0 120.666261,24.124847,0 120.666522,24.125054,0 120.666769,24.125251,0 120.666925,24.125374,0 120.666994,24.125429,0 120.667283,24.125659,0 120.667116,24.125823,0 120.667290,24.125955,0 120.667110,24.126262,0 120.667143,24.126274,0 120.666696,24.126835,0 120.667275,24.127079,0 120.667919,24.127362,0 120.667609,24.127972,0 120.667552,24.128023,0 120.668203,24.128299,0 120.667981,24.128708,0 120.667764,24.129127,0 120.668513,24.129427,0 120.668613,24.129483,0 120.668429,24.129833,0 120.668383,24.129918,0 120.668106,24.130458,0 120.667813,24.131010,0 120.667557,24.131586,0 120.667518,24.131676,0 120.667397,24.131630,0 120.666694,24.131329,0 120.666506,24.131706,0 120.666420,24.131680,0 120.666325,24.131650,0 120.666158,24.131638,0 120.665932,24.131627,0 120.665764,24.131571,0 120.665625,24.131853,0 120.665202,24.131677,0 120.665095,24.131875,0 120.665089,24.132163,0 120.665083,24.132283,0 120.665085,24.132844,0 120.665516,24.132843,0 120.665623,24.132824,0 120.665927,24.133130,0 120.665515,24.133478,0 120.665077,24.133868,0 120.665443,24.134213,0 120.665799,24.134556,0 120.665858,24.134439,0 120.665980,24.134528,0 120.666066,24.134583,0 120.666140,24.134418,0 120.666284,24.134480,0 120.666501,24.134558,0 120.666832,24.134540,0 120.666895,24.134622,0 120.666939,24.134924,0 120.666549,24.135278,0 120.666904,24.135607,0 120.667203,24.135901,0 120.667468,24.136194,0 120.667520,24.136250,0 120.667579,24.136304,0 120.667926,24.136627,0 120.668473,24.136151,0 120.668990,24.135699,0 120.669302,24.135431,0 120.669301,24.135268,0 120.669320,24.135158,0 120.669346,24.135060,0 120.669389,24.135071,0 120.669637,24.135158,0 120.669933,24.134879,0 120.669532,24.134489,0 120.669989,24.134087,0 120.670479,24.133661,0 120.671096,24.133130,0 120.671648,24.132655,0 120.671802,24.132525,0 120.672352,24.132037,0 120.672484,24.131921,0 120.672541,24.131847,0 120.672598,24.131794,0 120.672646,24.131749,0 120.672702,24.131672,0 120.672748,24.131605,0 120.672783,24.131546,0 120.672922,24.131268,0 120.673513,24.131499,0 120.674035,24.131721,0 120.674111,24.131573,0 120.674246,24.131309,0 120.674444,24.130913,0 120.674475,24.130850,0 120.674787,24.130227,0 120.675072,24.129656,0 120.675679,24.129904,0 120.676155,24.130098,0 120.676360,24.129691,0 120.676549,24.129300,0 120.676746,24.128903,0 120.676769,24.128856,0 120.676698,24.128827,0 120.676395,24.128705,0 120.676273,24.128620,0 120.676199,24.128537,0 120.676167,24.128459,0 120.676145,24.128369,0 120.676133,24.127889,0 120.676132,24.127757,0 120.676126,24.127149,0 120.676120,24.126577,0 120.676121,24.126472,0 120.676121,24.126388,0 120.676122,24.126281,0 120.676131,24.125654,0 120.676158,24.125654,0 120.676297,24.125654,0 120.676323,24.125654,0 120.676387,24.125655,0 120.676791,24.125653,0 120.676799,24.125159,0 120.676802,24.124928,0 120.677714,24.124918,0 120.677708,24.125311,0 120.678426,24.125325,0 120.678677,24.125327,0 120.678669,24.125655,0 120.679191,24.125655,0 120.679286,24.125655,0 120.679286,24.125787,0 120.679284,24.126280,0 120.679388,24.126282,0 120.679493,24.126283,0 120.679484,24.126390,0 120.679598,24.126392,0 120.679926,24.126389,0 120.680245,24.126376,0 120.681102,24.126375,0 120.681102,24.125627,0 120.681101,24.124902,0 120.681833,24.124901,0 120.681835,24.125244,0 120.681821,24.125636,0 120.682565,24.125642,0 120.682565,24.125334,0 120.682564,24.124916,0 120.683074,24.124916,0 120.683091,24.124227,0 120.683546,24.124227,0 120.683641,24.124032,0 120.683695,24.123924,0 120.683463,24.123924,0 120.683175,24.123925,0 120.682561,24.123913,0 120.682561,24.123821,0 120.682561,24.123754,0 120.681864,24.123762,0 120.681101,24.123771,0 120.681101,24.123817,0 120.681101,24.123904,0 120.680175,24.123926,0 120.679499,24.123921,0 120.679499,24.123747,0 120.679499,24.123710,0 120.679455,24.123724,0 120.679410,24.123741,0 120.679344,24.123767,0 120.679300,24.123786,0 120.679162,24.123808,0 120.679074,24.123819,0 120.678978,24.123831,0 120.678248,24.123852,0 120.677948,24.123831,0 120.677583,24.123852,0 120.675927,24.123852,0 120.675616,24.123852,0 120.675523,24.123852,0 120.675459,24.123852,0 120.675330,24.123917,0 120.675298,24.123914,0 120.675213,24.123913,0 120.675069,24.123911,0 120.674952,24.123919,0 120.674876,24.123925,0 120.674825,24.124095,0 120.674829,24.124161,0 120.674920,24.124235,0 120.674601,24.124208,0 120.674357,24.124205,0 120.673856,24.124197,0 120.673023,24.124194,0 120.673023,24.124254,0 120.673023,24.124424,0 120.673023,24.124441,0 120.672966,24.124441,0 120.672915,24.124441,0 120.672913,24.124500,0 120.672025,24.124504,0 120.671562,24.124501,0 120.671400,24.124495,0 120.671393,24.123634,0 120.670375,24.123639,0 120.670083,24.123641,0 120.670090,24.124482,0 120.670082,24.124741,0 120.669995,24.124703,0 120.669745,24.124572,0 120.669421,24.124428,0 120.669155,24.124260,0 120.668580,24.124249,0 120.668500,24.124349,0 120.668277,24.124561,0 120.667931,24.124272,0
</coordinates></LineString></Placemark>
</Document></kml>