<?xml version="1.0" encoding="UTF-8"?>
<kml xmlns="http://www.opengis.net/kml/2.2"><Document>
<name>南區 蹲坐貓咪（側面） 圖形路跑路線</name>
<Style id="r"><LineStyle><color>ff2000d6</color><width>4</width></LineStyle></Style>
<Placemark><name>藍興公園</name><description>地標</description><Point><coordinates>120.668238,24.134112,0</coordinates></Point></Placemark>
<Placemark><name>樂群公園</name><description>地標</description><Point><coordinates>120.667267,24.134977,0</coordinates></Point></Placemark>
<Placemark><name>上公館公園</name><description>地標</description><Point><coordinates>120.666164,24.136052,0</coordinates></Point></Placemark>
<Placemark><name>南區 蹲坐貓咪（側面） 圖形路跑路線</name><styleUrl>#r</styleUrl><LineString><tessellate>1</tessellate><coordinates>
120.667258,24.132157,0 120.667033,24.132593,0 120.666766,24.133147,0 120.666680,24.133317,0 120.666760,24.133402,0 120.666820,24.133483,0 120.666928,24.133713,0 120.666928,24.133742,0 120.666884,24.133822,0 120.667131,24.133935,0 120.667187,24.133967,0 120.667590,24.134354,0 120.667943,24.134694,0 120.668248,24.134985,0 120.667729,24.135433,0 120.667203,24.135901,0 120.667468,24.136194,0 120.667520,24.136250,0 120.667579,24.136304,0 120.667926,24.136627,0 120.668305,24.136978,0 120.668670,24.137337,0 120.668986,24.137654,0 120.668918,24.137709,0 120.668896,24.137739,0 120.668676,24.137936,0 120.668668,24.137945,0 120.668708,24.137981,0 120.668756,24.138026,0 120.668757,24.138034,0 120.668816,24.138090,0 120.669369,24.138634,0 120.669447,24.138748,0 120.669541,24.138876,0 120.669618,24.138942,0 120.669690,24.139002,0 120.669743,24.139036,0 120.669779,24.139130,0 120.669836,24.139184,0 120.669879,24.139206,0 120.669920,24.139229,0 120.670015,24.139327,0 120.670098,24.139405,0 120.670096,24.139422,0 120.670113,24.139452,0 120.670124,24.139458,0 120.670169,24.139501,0 120.670226,24.139553,0 120.670264,24.139560,0 120.670374,24.139657,0 120.670537,24.139807,0 120.670752,24.139951,0 120.670954,24.140092,0 120.670974,24.140089,0 120.671008,24.140071,0 120.671211,24.139895,0 120.671224,24.139876,0 120.671218,24.139846,0 120.671295,24.139906,0 120.671357,24.139959,0 120.671373,24.139961,0 120.671416,24.139990,0 120.671470,24.140030,0 120.671550,24.140054,0 120.671633,24.140086,0 120.671737,24.140146,0 120.671763,24.140163,0 120.671792,24.140165,0 120.671841,24.140197,0 120.671890,24.140212,0 120.671928,24.140211,0 120.672036,24.140236,0 120.672236,24.140301,0 120.672274,24.140307,0 120.672325,24.140303,0 120.672395,24.140318,0 120.672329,24.140379,0 120.672137,24.140546,0 120.671984,24.140680,0 120.672094,24.140744,0 120.672193,24.140826,0 120.672756,24.141329,0 120.672370,24.141673,0 120.673118,24.142392,0 120.673504,24.142048,0 120.673923,24.141713,0 120.674339,24.141350,0 120.673227,24.141028,0 120.673302,24.140971,0 120.673311,24.140948,0 120.673561,24.140716,0 120.673583,24.140697,0 120.673500,24.140659,0 120.673597,24.140579,0 120.673759,24.140437,0 120.673842,24.140393,0 120.673973,24.140526,0 120.674085,24.140707,0 120.675771,24.141245,0 120.675977,24.141324,0 120.676117,24.141215,0 120.676204,24.141280,0 120.676141,24.141369,0 120.676346,24.141479,0 120.676394,24.141506,0 120.676548,24.141602,0 120.676864,24.141873,0 120.676933,24.141932,0 120.677007,24.142008,0 120.677058,24.142060,0 120.677272,24.142312,0 120.677440,24.142592,0 120.677490,24.142678,0 120.677533,24.142750,0 120.677570,24.142849,0 120.677606,24.142805,0 120.677611,24.142747,0 120.677587,24.142704,0 120.677832,24.142496,0 120.678055,24.142303,0 120.678787,24.141672,0 120.678960,24.141514,0 120.679322,24.141202,0 120.679533,24.141022,0 120.679866,24.140743,0 120.679132,24.140022,0 120.679486,24.139694,0 120.679888,24.139349,0 120.679464,24.138935,0 120.679223,24.138700,0 120.679293,24.138640,0 120.679293,24.138625,0 120.679207,24.138540,0 120.679252,24.138499,0 120.679311,24.138448,0 120.679397,24.138374,0 120.679522,24.138273,0 120.679844,24.137999,0 120.679921,24.138072,0 120.679944,24.138074,0 120.680040,24.137997,0 120.680110,24.137939,0 120.680110,24.137903,0 120.680035,24.137829,0 120.680360,24.137525,0 120.679956,24.137137,0 120.680350,24.136793,0 120.680736,24.136458,0 120.681119,24.136122,0 120.681223,24.136219,0 120.681243,24.136238,0 120.681402,24.136080,0 120.681639,24.135574,0 120.681993,24.135722,0 120.682068,24.135759,0 120.682103,24.135784,0 120.682151,24.135697,0 120.682203,24.135595,0 120.682341,24.135670,0 120.682503,24.135357,0 120.682725,24.134888,0 120.683259,24.135115,0 120.683242,24.135147,0 120.683731,24.135352,0 120.683972,24.134905,0 120.684004,24.134826,0 120.684290,24.134227,0 120.684357,24.134092,0 120.684577,24.133636,0 120.685106,24.133851,0 120.685569,24.134038,0 120.685867,24.133450,0 120.686160,24.132856,0 120.686448,24.132239,0 120.686759,24.131615,0 120.687262,24.131821,0 120.687468,24.131393,0 120.687801,24.130704,0 120.688305,24.130912,0 120.688366,24.130841,0 120.688512,24.130768,0 120.688533,24.130748,0 120.688567,24.130722,0 120.688828,24.130306,0 120.688847,24.129637,0 120.688850,24.129301,0 120.688832,24.128926,0 120.688828,24.128301,0 120.688830,24.127654,0 120.688830,24.127026,0 120.689341,24.127018,0 120.689809,24.127010,0 120.690123,24.127009,0 120.690215,24.127008,0 120.690320,24.127009,0 120.691063,24.127021,0 120.691672,24.127021,0 120.691669,24.126349,0 120.692666,24.126348,0 120.692770,24.126351,0 120.693216,24.126705,0 120.693353,24.126665,0 120.693427,24.126642,0 120.693456,24.126636,0 120.693571,24.126605,0 120.693802,24.126560,0 120.693912,24.126538,0 120.693882,24.125889,0 120.693907,24.125726,0 120.694001,24.125553,0 120.694194,24.125600,0 120.694470,24.125667,0 120.694865,24.125752,0 120.694862,24.125841,0 120.694925,24.126357,0 120.694738,24.126379,0 120.694692,24.126383,0 120.694196,24.126481,0 120.693912,24.126538,0 120.693802,24.126560,0 120.693781,24.126446,0 120.693734,24.126407,0 120.693151,24.125951,0 120.693045,24.126188,0 120.693203,24.126321,0 120.693072,24.126321,0 120.691216,24.124840,0 120.691112,24.124759,0 120.690985,24.124736,0 120.690536,24.124734,0 120.690497,24.124740,0 120.690450,24.124808,0 120.690443,24.124663,0 120.690441,24.124609,0 120.690315,24.124612,0 120.690218,24.124614,0 120.690217,24.124431,0 120.690216,24.124083,0 120.690213,24.123356,0 120.690229,24.122734,0 120.690231,24.122526,0 120.690229,24.122399,0 120.690214,24.122099,0 120.690188,24.121542,0 120.690151,24.121249,0 120.690134,24.121115,0 120.690095,24.121031,0 120.690061,24.120959,0 120.689994,24.120827,0 120.689866,24.120646,0 120.689739,24.120495,0 120.689598,24.120369,0 120.688962,24.119908,0 120.688924,24.119957,0 120.688832,24.119950,0 120.688756,24.119893,0 120.688698,24.119850,0 120.688684,24.119780,0 120.688718,24.119729,0 120.688762,24.119665,0 120.688806,24.119600,0 120.688882,24.119601,0 120.688946,24.119647,0 120.688963,24.119622,0 120.689014,24.119548,0 120.689080,24.119448,0 120.689093,24.119430,0 120.689143,24.119357,0 120.689024,24.119218,0 120.688885,24.119059,0 120.688645,24.118830,0 120.687947,24.118206,0 120.687797,24.118077,0 120.687615,24.117934,0 120.687418,24.117784,0 120.687073,24.117576,0 120.686695,24.117376,0 120.686933,24.117013,0 120.687273,24.116493,0 120.687489,24.116117,0 120.687572,24.115924,0 120.687620,24.115822,0 120.687625,24.115285,0 120.687424,24.115284,0 120.687121,24.115285,0 120.686820,24.115277,0 120.686182,24.115261,0 120.685834,24.115266,0 120.685255,24.115843,0 120.685098,24.115982,0 120.684912,24.116149,0 120.684322,24.116713,0 120.684205,24.116766,0 120.684095,24.116436,0 120.683997,24.116198,0 120.682841,24.116332,0 120.682501,24.116407,0 120.682195,24.116456,0 120.681994,24.116479,0 120.681789,24.116308,0 120.681614,24.116098,0 120.681425,24.116345,0 120.681240,24.116378,0 120.681086,24.116413,0 120.680895,24.116423,0 120.680580,24.116391,0 120.680141,24.116346,0 120.680117,24.116450,0 120.680104,24.116522,0 120.680098,24.116589,0 120.680057,24.116622,0 120.680022,24.116622,0 120.679650,24.116620,0 120.679601,24.116612,0 120.679471,24.116588,0 120.679463,24.116489,0 120.679364,24.116498,0 120.679276,24.116505,0 120.679186,24.116528,0 120.679185,24.116563,0 120.679058,24.116556,0 120.679057,24.116649,0 120.678048,24.116591,0 120.678019,24.116590,0 120.678019,24.116552,0 120.677786,24.116543,0 120.677297,24.116528,0 120.677296,24.116476,0 120.676646,24.116445,0 120.676091,24.116510,0 120.676071,24.116838,0 120.676054,24.116855,0 120.676031,24.116872,0 120.676003,24.116880,0 120.675966,24.116882,0 120.674373,24.116438,0 120.674349,24.116533,0 120.674164,24.117019,0 120.673860,24.116884,0 120.673291,24.116632,0 120.673186,24.116810,0 120.673113,24.116875,0 120.673062,24.116968,0 120.673012,24.117029,0 120.672965,24.117127,0 120.672946,24.117158,0 120.672881,24.117192,0 120.672372,24.117048,0 120.672254,24.116983,0 120.672444,24.116725,0 120.672083,24.116526,0 120.671786,24.116357,0 120.671788,24.115849,0 120.671685,24.115855,0 120.671625,24.115810,0 120.671201,24.115500,0 120.671035,24.115377,0 120.670980,24.115383,0 120.670944,24.115283,0 120.670815,24.115056,0 120.670736,24.114800,0 120.670410,24.114799,0 120.670072,24.115058,0 120.670079,24.116166,0 120.670084,24.117152,0 120.669996,24.117153,0 120.669634,24.117157,0 120.669473,24.117165,0 120.668989,24.117166,0 120.668642,24.117174,0 120.668631,24.117950,0 120.668627,24.118222,0 120.668634,24.118711,0 120.668639,24.119057,0 120.668644,24.119141,0 120.668559,24.119141,0 120.668569,24.119249,0 120.669852,24.119252,0 120.669848,24.120613,0 120.670002,24.120676,0 120.670000,24.122358,0 120.669265,24.122347,0 120.669266,24.123007,0 120.668992,24.123014,0 120.668995,24.123240,0 120.668999,24.123356,0 120.668986,24.123432,0 120.668948,24.123632,0 120.668960,24.123865,0 120.669003,24.124034,0 120.669155,24.124260,0 120.669421,24.124428,0 120.669745,24.124572,0 120.669610,24.124712,0 120.669574,24.124809,0 120.669572,24.124944,0 120.669547,24.125165,0 120.669558,24.125329,0 120.669289,24.125326,0 120.669211,24.125370,0 120.669168,24.125401,0 120.669032,24.125550,0 120.668772,24.125845,0 120.668794,24.125965,0 120.668407,24.126348,0 120.668203,24.126764,0 120.668081,24.127056,0 120.667919,24.127362,0 120.667609,24.127972,0 120.667552,24.128023,0 120.668203,24.128299,0 120.667981,24.128708,0 120.667764,24.129127,0 120.667220,24.128879,0 120.667104,24.129094,0 120.667090,24.129137,0 120.667056,24.129248,0 120.667026,24.129314,0 120.666966,24.129592,0 120.666965,24.129808,0 120.667038,24.129997,0 120.667121,24.130157,0 120.667456,24.130567,0 120.667533,24.130660,0 120.667563,24.130697,0 120.667587,24.130726,0 120.667748,24.130919,0 120.667813,24.131010,0 120.667557,24.131586,0 120.667518,24.131676,0 120.667258,24.132157,0
</coordinates></LineString></Placemark>
</Document></kml>