<?xml version="1.0" encoding="UTF-8"?>
<kml xmlns="http://www.opengis.net/kml/2.2"><Document>
<name>太平區 手繪蹲坐貓（原稿描圖） 圖形路跑路線</name>
<Style id="r"><LineStyle><color>ff2000d6</color><width>4</width></LineStyle></Style>
<Placemark><name>新坪公園</name><description>地標</description><Point><coordinates>120.719679,24.149685,0</coordinates></Point></Placemark>
<Placemark><name>八德公園</name><description>地標</description><Point><coordinates>120.722530,24.148551,0</coordinates></Point></Placemark>
<Placemark><name>吉祥公園</name><description>地標</description><Point><coordinates>120.723091,24.149858,0</coordinates></Point></Placemark>
<Placemark><name>太平區 手繪蹲坐貓（原稿描圖） 圖形路跑路線</name><styleUrl>#r</styleUrl><LineString><tessellate>1</tessellate><coordinates>
120.717856,24.144902,0 120.717909,24.144992,0 120.718014,24.145210,0 120.716525,24.145204,0 120.716514,24.145578,0 120.716525,24.145943,0 120.716513,24.146390,0 120.717583,24.146401,0 120.717597,24.146762,0 120.717973,24.146754,0 120.718294,24.147230,0 120.718291,24.147304,0 120.718211,24.147370,0 120.718229,24.148110,0 120.718698,24.148114,0 120.718684,24.148881,0 120.718897,24.148911,0 120.718923,24.149016,0 120.719017,24.149125,0 120.719110,24.149221,0 120.719161,24.149284,0 120.719211,24.149347,0 120.719386,24.149541,0 120.719696,24.149896,0 120.719355,24.150141,0 120.719196,24.150282,0 120.718679,24.149763,0 120.718609,24.149660,0 120.718486,24.149669,0 120.718231,24.149664,0 120.718212,24.150067,0 120.718208,24.150428,0 120.718206,24.150623,0 120.718199,24.150712,0 120.718064,24.151216,0 120.717866,24.151313,0 120.717849,24.151309,0 120.717289,24.151148,0 120.717234,24.151157,0 120.716827,24.151362,0 120.717597,24.152590,0 120.718360,24.153780,0 120.718786,24.153558,0 120.718552,24.153154,0 120.718306,24.152750,0 120.718100,24.152409,0 120.718115,24.152354,0 120.719062,24.151939,0 120.719568,24.152041,0 120.719619,24.152231,0 120.719737,24.152478,0 120.719807,24.152628,0 120.719858,24.152736,0 120.719990,24.153062,0 120.720398,24.152891,0 120.720633,24.152731,0 120.720899,24.152583,0 120.721070,24.152413,0 120.721064,24.152394,0 120.721062,24.152016,0 120.721120,24.151465,0 120.721167,24.151078,0 120.721206,24.150471,0 120.721385,24.150441,0 120.721465,24.150447,0 120.721529,24.150452,0 120.721866,24.150478,0 120.721910,24.150028,0 120.721933,24.149892,0 120.722342,24.149943,0 120.722392,24.149599,0 120.722431,24.149338,0 120.722805,24.149395,0 120.723076,24.149425,0 120.723035,24.149297,0 120.723049,24.149293,0 120.723180,24.149312,0 120.723284,24.149328,0 120.723357,24.149338,0 120.723371,24.149359,0 120.723396,24.149373,0 120.723428,24.149393,0 120.723490,24.149407,0 120.724434,24.149535,0 120.724459,24.149507,0 120.724479,24.149477,0 120.724544,24.149487,0 120.724587,24.149632,0 120.724750,24.149650,0 120.724812,24.149658,0 120.724802,24.149309,0 120.724706,24.149003,0 120.724585,24.148682,0 120.724512,24.148511,0 120.724450,24.148361,0 120.724377,24.148157,0 120.724314,24.148012,0 120.724242,24.147753,0 120.724201,24.147554,0 120.724181,24.147317,0 120.724168,24.146781,0 120.724019,24.146105,0 120.723701,24.144937,0 120.723786,24.144928,0 120.723955,24.144902,0 120.724029,24.144890,0 120.723775,24.144127,0 120.723947,24.144101,0 120.724346,24.144031,0 120.725135,24.143892,0 120.725802,24.143775,0 120.725780,24.143617,0 120.726715,24.143460,0 120.727548,24.143321,0 120.727541,24.143677,0 120.726789,24.143810,0 120.725859,24.143972,0 120.725872,24.144079,0 120.725193,24.144196,0 120.725135,24.143892,0 120.725061,24.143570,0 120.725007,24.143256,0 120.724954,24.142940,0 120.724881,24.142601,0 120.724811,24.142280,0 120.725490,24.142178,0 120.725552,24.142486,0 120.725617,24.142829,0 120.724954,24.142940,0 120.724170,24.143066,0 120.724235,24.143401,0 120.723547,24.143503,0 120.723439,24.143199,0 120.723326,24.142875,0 120.723221,24.142583,0 120.723105,24.142226,0 120.722633,24.142342,0 120.722555,24.142361,0 120.722605,24.142539,0 120.722547,24.142554,0 120.722540,24.142523,0 120.722523,24.142483,0 120.722486,24.142472,0 120.722448,24.142466,0 120.721649,24.142657,0 120.721571,24.142679,0 120.721550,24.142703,0 120.721544,24.142710,0 120.721521,24.142744,0 120.721517,24.142774,0 120.721532,24.142823,0 120.721553,24.142896,0 120.721677,24.143353,0 120.721786,24.143701,0 120.721887,24.144045,0 120.721820,24.144060,0 120.721709,24.144085,0 120.721614,24.144107,0 120.721623,24.144123,0 120.721637,24.144179,0 120.720958,24.144343,0 120.719763,24.144630,0 120.720097,24.145640,0 120.719703,24.145718,0 120.719238,24.145817,0 120.719216,24.145637,0 120.719146,24.145463,0 120.718839,24.145113,0 120.718159,24.144276,0 120.717768,24.143793,0 120.717612,24.143601,0 120.717573,24.143554,0 120.717403,24.143544,0 120.716922,24.143526,0 120.716531,24.143477,0 120.716532,24.143592,0 120.716534,24.143778,0 120.716525,24.144123,0 120.716514,24.144478,0 120.716520,24.144847,0 120.716525,24.145204,0 120.718014,24.145210,0 120.717909,24.144992,0 120.717856,24.144902,0
</coordinates></LineString></Placemark>
</Document></kml>