<?xml version="1.0" encoding="UTF-8"?>
<kml xmlns="http://www.opengis.net/kml/2.2"><Document>
<name>潭子區 手繪蹲坐貓（原稿描圖） 圖形路跑路線</name>
<Style id="r"><LineStyle><color>ff2000d6</color><width>4</width></LineStyle></Style>
<Placemark><name>仁德公園</name><description>地標</description><Point><coordinates>120.678565,24.191508,0</coordinates></Point></Placemark>
<Placemark><name>四張犁公園</name><description>地標</description><Point><coordinates>120.681427,24.195459,0</coordinates></Point></Placemark>
<Placemark><name>陸光公園</name><description>地標</description><Point><coordinates>120.683971,24.193915,0</coordinates></Point></Placemark>
<Placemark><name>潭子區 手繪蹲坐貓（原稿描圖） 圖形路跑路線</name><styleUrl>#r</styleUrl><LineString><tessellate>1</tessellate><coordinates>
120.677984,24.188607,0 120.677932,24.188571,0 120.677850,24.188511,0 120.677388,24.188199,0 120.677352,24.188188,0 120.677327,24.188212,0 120.677016,24.188595,0 120.677013,24.188618,0 120.676954,24.188696,0 120.676886,24.188769,0 120.676846,24.188795,0 120.676479,24.189241,0 120.676464,24.189267,0 120.676427,24.189313,0 120.676394,24.189355,0 120.676435,24.189361,0 120.676973,24.189686,0 120.676982,24.189705,0 120.677021,24.189729,0 120.677055,24.189751,0 120.677091,24.189764,0 120.677607,24.190092,0 120.677616,24.190120,0 120.677602,24.190155,0 120.676752,24.191036,0 120.676716,24.191079,0 120.676672,24.191124,0 120.676725,24.191184,0 120.676758,24.191222,0 120.676322,24.191672,0 120.676310,24.191717,0 120.676334,24.191737,0 120.676761,24.191946,0 120.676864,24.191961,0 120.676754,24.192083,0 120.676683,24.192173,0 120.676637,24.192234,0 120.676544,24.192370,0 120.676362,24.192772,0 120.676279,24.193050,0 120.676248,24.193244,0 120.676365,24.193256,0 120.676469,24.193267,0 120.676443,24.193361,0 120.677197,24.193395,0 120.677571,24.193379,0 120.677949,24.193316,0 120.678162,24.193284,0 120.678179,24.193371,0 120.678276,24.193350,0 120.678262,24.194225,0 120.678258,24.194839,0 120.678173,24.194856,0 120.678162,24.194878,0 120.678113,24.194902,0 120.678130,24.194975,0 120.678146,24.195063,0 120.678157,24.195098,0 120.678165,24.195120,0 120.678153,24.195894,0 120.678155,24.195964,0 120.678157,24.196034,0 120.678146,24.196512,0 120.678140,24.196531,0 120.678112,24.196550,0 120.676992,24.196558,0 120.676904,24.196559,0 120.676813,24.196561,0 120.676300,24.196562,0 120.676254,24.196541,0 120.676141,24.196539,0 120.676018,24.196538,0 120.675972,24.196558,0 120.675434,24.196565,0 120.675434,24.196648,0 120.675434,24.196734,0 120.675446,24.196733,0 120.675968,24.196731,0 120.675990,24.196732,0 120.676016,24.196758,0 120.676030,24.197715,0 120.676016,24.197766,0 120.675948,24.197802,0 120.674903,24.197816,0 120.674903,24.197911,0 120.674905,24.198010,0 120.675947,24.198006,0 120.676020,24.198037,0 120.676032,24.198080,0 120.676036,24.199081,0 120.676022,24.199139,0 120.676145,24.199139,0 120.676274,24.199139,0 120.676341,24.199166,0 120.676854,24.199171,0 120.676876,24.199163,0 120.676940,24.199162,0 120.676999,24.199162,0 120.677023,24.199166,0 120.677468,24.199171,0 120.677434,24.199251,0 120.677330,24.199437,0 120.677290,24.199511,0 120.677333,24.199518,0 120.677386,24.199526,0 120.677136,24.200024,0 120.677190,24.200056,0 120.677192,24.200104,0 120.679345,24.200117,0 120.679399,24.200095,0 120.679426,24.200057,0 120.679427,24.199517,0 120.679475,24.199516,0 120.679503,24.199530,0 120.680334,24.199534,0 120.680363,24.199541,0 120.680363,24.199447,0 120.680363,24.199268,0 120.680363,24.199182,0 120.680391,24.199147,0 120.680387,24.198029,0 120.680364,24.197987,0 120.680484,24.197988,0 120.680589,24.197989,0 120.680648,24.197977,0 120.681805,24.197965,0 120.681846,24.197968,0 120.681847,24.197863,0 120.681847,24.197763,0 120.681866,24.197728,0 120.681869,24.196880,0 120.681923,24.196880,0 120.681982,24.196881,0 120.681983,24.196828,0 120.681983,24.196790,0 120.682880,24.196793,0 120.682926,24.196767,0 120.683017,24.196742,0 120.683101,24.196719,0 120.683144,24.196836,0 120.683221,24.197066,0 120.683223,24.197065,0 120.683254,24.197151,0 120.683319,24.197118,0 120.683944,24.196742,0 120.684919,24.196147,0 120.684767,24.195995,0 120.684625,24.195853,0 120.684783,24.195730,0 120.684854,24.195623,0 120.684904,24.195432,0 120.685068,24.194942,0 120.685275,24.194249,0 120.685158,24.193537,0 120.685669,24.193488,0 120.685720,24.193942,0 120.685729,24.193994,0 120.685747,24.194038,0 120.686335,24.194014,0 120.686334,24.193961,0 120.686332,24.193915,0 120.686346,24.193603,0 120.686412,24.193596,0 120.686410,24.193511,0 120.686317,24.193513,0 120.686316,24.193471,0 120.686318,24.193422,0 120.686304,24.192909,0 120.686301,24.192860,0 120.686298,24.192808,0 120.686295,24.192756,0 120.686299,24.192712,0 120.686286,24.191859,0 120.686283,24.191827,0 120.686283,24.191755,0 120.686283,24.191702,0 120.686243,24.190579,0 120.686217,24.190542,0 120.686216,24.190487,0 120.686221,24.190390,0 120.686320,24.190394,0 120.686437,24.190390,0 120.686525,24.190389,0 120.686558,24.190408,0 120.686909,24.190415,0 120.686993,24.190414,0 120.687044,24.190413,0 120.687061,24.190410,0 120.687091,24.190425,0 120.687127,24.190433,0 120.687438,24.190431,0 120.687470,24.190413,0 120.687488,24.190382,0 120.687489,24.189922,0 120.687553,24.189924,0 120.687613,24.189923,0 120.687624,24.189904,0 120.687626,24.189871,0 120.688182,24.189875,0 120.688885,24.189872,0 120.688885,24.189903,0 120.688903,24.189924,0 120.688978,24.189925,0 120.688988,24.190520,0 120.689610,24.190527,0 120.689610,24.190466,0 120.689648,24.190429,0 120.689687,24.190427,0 120.689777,24.190422,0 120.689791,24.190440,0 120.690357,24.190454,0 120.690376,24.190407,0 120.690368,24.190014,0 120.690366,24.189912,0 120.690451,24.189910,0 120.690554,24.189909,0 120.690581,24.189917,0 120.692378,24.189920,0 120.692407,24.189901,0 120.692487,24.189901,0 120.692566,24.189901,0 120.692567,24.189486,0 120.692577,24.189470,0 120.692617,24.189451,0 120.693300,24.189448,0 120.693350,24.189468,0 120.693351,24.189383,0 120.693351,24.189303,0 120.693356,24.189280,0 120.693374,24.188343,0 120.693321,24.188313,0 120.692603,24.188328,0 120.692576,24.188361,0 120.692571,24.188768,0 120.692506,24.188769,0 120.692423,24.188771,0 120.692392,24.188793,0 120.692330,24.188793,0 120.690572,24.188799,0 120.690537,24.188778,0 120.690434,24.188776,0 120.690344,24.188775,0 120.690336,24.188379,0 120.690325,24.188350,0 120.690279,24.188339,0 120.689789,24.188343,0 120.689765,24.188347,0 120.689692,24.188348,0 120.689621,24.188349,0 120.689585,24.188342,0 120.689016,24.188343,0 120.689014,24.188252,0 120.689013,24.188136,0 120.688845,24.188137,0 120.688380,24.188150,0 120.687626,24.188159,0 120.687625,24.188263,0 120.687624,24.188357,0 120.687497,24.188352,0 120.687410,24.188354,0 120.686996,24.188360,0 120.686935,24.188360,0 120.686860,24.188362,0 120.686570,24.188363,0 120.686530,24.188364,0 120.686464,24.188429,0 120.686468,24.188681,0 120.686395,24.188743,0 120.686279,24.188841,0 120.686219,24.188885,0 120.686207,24.188872,0 120.686150,24.188835,0 120.686190,24.188751,0 120.685908,24.188723,0 120.685712,24.188726,0 120.685581,24.188731,0 120.684840,24.188763,0 120.684827,24.188614,0 120.684476,24.188619,0 120.683368,24.188634,0 120.682158,24.188665,0 120.681776,24.188780,0 120.681512,24.188812,0 120.681346,24.188851,0 120.681228,24.188650,0 120.681172,24.188527,0 120.681115,24.188548,0 120.681051,24.188439,0 120.681022,24.188366,0 120.680803,24.188466,0 120.680165,24.188798,0 120.680077,24.188871,0 120.679949,24.188956,0 120.679418,24.189392,0 120.678840,24.189909,0 120.678793,24.189895,0 120.678371,24.189607,0 120.678352,24.189575,0 120.678376,24.189535,0 120.678768,24.189200,0 120.678736,24.189173,0 120.678695,24.189138,0 120.678697,24.189112,0 120.678684,24.189090,0 120.677984,24.188607,0
</coordinates></LineString></Placemark>
</Document></kml>