<?xml version="1.0" encoding="UTF-8"?>
<kml xmlns="http://www.opengis.net/kml/2.2"><Document>
<name>外埔區 手繪蹲坐貓（原稿描圖） 圖形路跑路線</name>
<Style id="r"><LineStyle><color>ff2000d6</color><width>4</width></LineStyle></Style>
<Placemark><name>林氏貞節牌坊</name><description>地標</description><Point><coordinates>120.621840,24.344348,0</coordinates></Point></Placemark>
<Placemark><name>林氏貞節牌坊</name><description>地標</description><Point><coordinates>120.621787,24.344414,0</coordinates></Point></Placemark>
<Placemark><name>石獅</name><description>地標</description><Point><coordinates>120.623179,24.345367,0</coordinates></Point></Placemark>
<Placemark><name>外埔區 手繪蹲坐貓（原稿描圖） 圖形路跑路線</name><styleUrl>#r</styleUrl><LineString><tessellate>1</tessellate><coordinates>
120.621283,24.342099,0 120.620277,24.341880,0 120.620666,24.342398,0 120.620390,24.342607,0 120.620234,24.342732,0 120.620132,24.342834,0 120.620211,24.342878,0 120.620301,24.342918,0 120.620452,24.342949,0 120.620610,24.342965,0 120.620756,24.343155,0 120.620879,24.343310,0 120.620698,24.343439,0 120.620446,24.343612,0 120.620753,24.343944,0 120.620953,24.344223,0 120.621096,24.344352,0 120.621060,24.344367,0 120.620917,24.344452,0 120.620851,24.344494,0 120.620307,24.344840,0 120.620644,24.345651,0 120.620842,24.346125,0 120.621506,24.345893,0 120.621584,24.346148,0 120.621642,24.346402,0 120.621044,24.346611,0 120.621284,24.347188,0 120.621524,24.347765,0 120.620445,24.348127,0 120.620034,24.348277,0 120.619770,24.348372,0 120.619376,24.348506,0 120.619200,24.348565,0 120.619342,24.348909,0 120.619688,24.349748,0 120.619719,24.349821,0 120.620106,24.350760,0 120.620675,24.350554,0 120.621067,24.351523,0 120.621441,24.351394,0 120.621611,24.351787,0 120.621635,24.352191,0 120.621703,24.352165,0 120.621822,24.352086,0 120.621874,24.351994,0 120.621979,24.351822,0 120.622060,24.351709,0 120.622145,24.351650,0 120.622371,24.351433,0 120.622482,24.351317,0 120.622603,24.351176,0 120.622685,24.350963,0 120.622843,24.350908,0 120.622783,24.350764,0 120.622869,24.350649,0 120.622930,24.350475,0 120.623020,24.350397,0 120.623185,24.350283,0 120.623109,24.350054,0 120.623156,24.349951,0 120.623335,24.349712,0 120.623319,24.349623,0 120.623813,24.349456,0 120.625231,24.348952,0 120.625297,24.348922,0 120.625465,24.348768,0 120.625758,24.348484,0 120.626256,24.348015,0 120.626958,24.347776,0 120.627534,24.347594,0 120.627679,24.347589,0 120.627728,24.347174,0 120.627768,24.346813,0 120.627785,24.346661,0 120.627788,24.346603,0 120.627944,24.346573,0 120.628265,24.346574,0 120.628397,24.346554,0 120.628524,24.346509,0 120.628587,24.346605,0 120.628641,24.346579,0 120.628686,24.346551,0 120.628720,24.346528,0 120.628761,24.346490,0 120.628815,24.346427,0 120.628857,24.346378,0 120.628814,24.346342,0 120.628799,24.346159,0 120.628653,24.345773,0 120.628455,24.345359,0 120.628321,24.345215,0 120.628296,24.345193,0 120.628255,24.345132,0 120.628247,24.345071,0 120.628313,24.345017,0 120.628397,24.344947,0 120.627930,24.344229,0 120.627602,24.343750,0 120.627300,24.343309,0 120.627463,24.343165,0 120.627662,24.343169,0 120.627926,24.343217,0 120.627966,24.343224,0 120.628210,24.343314,0 120.628292,24.343370,0 120.628504,24.343416,0 120.628690,24.343371,0 120.629249,24.344503,0 120.629397,24.344403,0 120.629512,24.344308,0 120.629571,24.344258,0 120.629661,24.344171,0 120.629223,24.343278,0 120.629393,24.343124,0 120.629785,24.343965,0 120.629810,24.343878,0 120.629922,24.343473,0 120.630007,24.343144,0 120.630067,24.342912,0 120.630124,24.342909,0 120.630324,24.342899,0 120.630380,24.342897,0 120.630636,24.342816,0 120.630786,24.343049,0 120.630981,24.343383,0 120.631260,24.343848,0 120.631340,24.343973,0 120.631670,24.343822,0 120.631397,24.343330,0 120.631764,24.343147,0 120.631642,24.342949,0 120.631366,24.342463,0 120.631764,24.342271,0 120.632071,24.342119,0 120.632287,24.342486,0 120.632526,24.342913,0 120.632753,24.343279,0 120.633372,24.342990,0 120.633094,24.342540,0 120.633045,24.342450,0 120.632856,24.342119,0 120.632669,24.341800,0 120.632112,24.342105,0 120.632071,24.342119,0 120.631764,24.342271,0 120.631366,24.342463,0 120.631152,24.342566,0 120.630636,24.342816,0 120.630440,24.342460,0 120.630319,24.342249,0 120.630152,24.341965,0 120.630132,24.341927,0 120.629893,24.341478,0 120.629847,24.341341,0 120.629817,24.341201,0 120.629663,24.340324,0 120.629346,24.340399,0 120.628863,24.340542,0 120.628515,24.340626,0 120.628200,24.340639,0 120.628098,24.340638,0 120.628035,24.340630,0 120.628084,24.340718,0 120.628184,24.340845,0 120.628264,24.340955,0 120.628428,24.341186,0 120.628555,24.341324,0 120.628623,24.341443,0 120.628649,24.341570,0 120.628704,24.341751,0 120.628819,24.341999,0 120.628910,24.342108,0 120.629053,24.342221,0 120.629256,24.342416,0 120.628569,24.342801,0 120.628457,24.342859,0 120.628690,24.343371,0 120.628504,24.343416,0 120.628292,24.343370,0 120.628210,24.343314,0 120.627966,24.343224,0 120.627926,24.343217,0 120.627662,24.343169,0 120.627463,24.343165,0 120.627300,24.343309,0 120.627602,24.343750,0 120.627484,24.343821,0 120.626941,24.344163,0 120.626778,24.344259,0 120.626349,24.343609,0 120.626039,24.343780,0 120.626005,24.343728,0 120.625878,24.343538,0 120.625895,24.343319,0 120.625814,24.342759,0 120.625780,24.342365,0 120.625727,24.342299,0 120.625572,24.342102,0 120.625410,24.342116,0 120.625143,24.342188,0 120.625033,24.342116,0 120.625006,24.341928,0 120.624962,24.341907,0 120.624675,24.341863,0 120.624670,24.342124,0 120.624682,24.342177,0 120.624737,24.342374,0 120.624602,24.342569,0 120.624677,24.342909,0 120.624101,24.342781,0 120.623816,24.342700,0 120.623165,24.342554,0 120.622592,24.342423,0 120.621896,24.342243,0 120.621283,24.342099,0
</coordinates></LineString></Placemark>
</Document></kml>