<?xml version="1.0" encoding="UTF-8"?>
<kml xmlns="http://www.opengis.net/kml/2.2"><Document>
<name>西區 蹲坐貓咪（側面） 圖形路跑路線</name>
<Style id="r"><LineStyle><color>ff2000d6</color><width>4</width></LineStyle></Style>
<Placemark><name>東興公園</name><description>地標</description><Point><coordinates>120.653714,24.154543,0</coordinates></Point></Placemark>
<Placemark><name>大安公園</name><description>地標</description><Point><coordinates>120.654503,24.157864,0</coordinates></Point></Placemark>
<Placemark><name>大有公園</name><description>地標</description><Point><coordinates>120.658810,24.160059,0</coordinates></Point></Placemark>
<Placemark><name>西區 蹲坐貓咪（側面） 圖形路跑路線</name><styleUrl>#r</styleUrl><LineString><tessellate>1</tessellate><coordinates>
120.653869,24.152925,0 120.653871,24.153588,0 120.654213,24.153588,0 120.654226,24.154104,0 120.654245,24.154227,0 120.654362,24.154427,0 120.654475,24.154605,0 120.654483,24.154658,0 120.654487,24.154685,0 120.654590,24.154854,0 120.655353,24.154419,0 120.655623,24.154834,0 120.655038,24.155142,0 120.655734,24.156189,0 120.655766,24.156237,0 120.655212,24.156536,0 120.655484,24.156956,0 120.655722,24.157324,0 120.655844,24.157512,0 120.655987,24.157734,0 120.656533,24.157442,0 120.657138,24.157111,0 120.657302,24.157363,0 120.657470,24.157625,0 120.657657,24.157908,0 120.657586,24.157941,0 120.657563,24.158005,0 120.657589,24.158044,0 120.657668,24.158162,0 120.657725,24.158248,0 120.657800,24.158361,0 120.657818,24.158388,0 120.657872,24.158424,0 120.657962,24.158373,0 120.658263,24.158834,0 120.658853,24.159736,0 120.659142,24.160177,0 120.659500,24.159976,0 120.659567,24.159940,0 120.659923,24.159749,0 120.660248,24.159564,0 120.660948,24.160603,0 120.661472,24.161396,0 120.661558,24.161526,0 120.661215,24.161717,0 120.661269,24.161791,0 120.662009,24.162265,0 120.661823,24.162510,0 120.662451,24.162903,0 120.662509,24.162903,0 120.662789,24.162709,0 120.662520,24.162364,0 120.662437,24.162255,0 120.662401,24.162149,0 120.662384,24.162053,0 120.662380,24.161945,0 120.662409,24.161801,0 120.662446,24.161687,0 120.662732,24.161302,0 120.662811,24.161204,0 120.662828,24.161217,0 120.663057,24.161367,0 120.663106,24.161397,0 120.663407,24.161006,0 120.663472,24.160864,0 120.663500,24.160724,0 120.663478,24.160501,0 120.663380,24.160208,0 120.664222,24.159744,0 120.664552,24.159944,0 120.664803,24.160096,0 120.665025,24.160228,0 120.665352,24.160435,0 120.665799,24.160434,0 120.665797,24.160687,0 120.665954,24.160685,0 120.665886,24.160832,0 120.666256,24.160824,0 120.666255,24.161170,0 120.666254,24.161593,0 120.666437,24.161594,0 120.667370,24.161596,0 120.667976,24.161596,0 120.667969,24.161029,0 120.667979,24.160426,0 120.667978,24.159839,0 120.667978,24.159211,0 120.668068,24.159210,0 120.668183,24.159212,0 120.668182,24.159171,0 120.668182,24.159140,0 120.668184,24.159043,0 120.667708,24.159008,0 120.667657,24.158932,0 120.667545,24.158756,0 120.667509,24.158659,0 120.667480,24.158594,0 120.667425,24.158554,0 120.667387,24.158488,0 120.667385,24.158402,0 120.667416,24.158357,0 120.667411,24.158312,0 120.667423,24.158280,0 120.667457,24.158269,0 120.667477,24.158234,0 120.667474,24.158212,0 120.667487,24.158172,0 120.667487,24.158141,0 120.667525,24.158074,0 120.667503,24.158061,0 120.667468,24.158039,0 120.667559,24.157924,0 120.667625,24.157840,0 120.667620,24.157825,0 120.667537,24.157760,0 120.667513,24.157710,0 120.667448,24.157670,0 120.667332,24.157826,0 120.667245,24.157774,0 120.667223,24.157761,0 120.667823,24.156926,0 120.668113,24.156532,0 120.668214,24.156404,0 120.668184,24.156377,0 120.667933,24.156150,0 120.668136,24.156207,0 120.668291,24.156230,0 120.668380,24.156222,0 120.668513,24.156180,0 120.668680,24.155926,0 120.668775,24.155793,0 120.668799,24.155740,0 120.669043,24.155408,0 120.668960,24.155316,0 120.668957,24.155280,0 120.669025,24.155212,0 120.668610,24.154809,0 120.668483,24.154686,0 120.668132,24.154346,0 120.668210,24.154281,0 120.668158,24.154226,0 120.668290,24.154110,0 120.668508,24.153931,0 120.668865,24.153630,0 120.668937,24.153568,0 120.669655,24.152916,0 120.669853,24.152756,0 120.670027,24.152614,0 120.670168,24.152479,0 120.670300,24.152375,0 120.670351,24.152328,0 120.670390,24.152294,0 120.670502,24.152213,0 120.670617,24.152193,0 120.670649,24.152192,0 120.670947,24.152189,0 120.671331,24.152191,0 120.671401,24.152195,0 120.671861,24.151568,0 120.672147,24.151187,0 120.672311,24.150967,0 120.672452,24.150762,0 120.672996,24.149999,0 120.673607,24.149167,0 120.674200,24.148366,0 120.674275,24.148303,0 120.674836,24.147836,0 120.675340,24.147422,0 120.675039,24.147133,0 120.674683,24.146791,0 120.674734,24.146749,0 120.674734,24.146736,0 120.674668,24.146670,0 120.674891,24.146477,0 120.674935,24.146439,0 120.675122,24.146277,0 120.675019,24.146141,0 120.675032,24.145849,0 120.675098,24.145578,0 120.675166,24.145291,0 120.675203,24.145136,0 120.675216,24.144914,0 120.675162,24.144827,0 120.675254,24.144734,0 120.675224,24.144704,0 120.675295,24.144461,0 120.675316,24.144323,0 120.675158,24.144174,0 120.675364,24.144001,0 120.675454,24.143925,0 120.676203,24.143217,0 120.676332,24.143332,0 120.676451,24.143266,0 120.676659,24.143189,0 120.676989,24.143087,0 120.677041,24.143062,0 120.677025,24.143023,0 120.677092,24.142990,0 120.677118,24.142990,0 120.677162,24.142990,0 120.677380,24.142796,0 120.677421,24.142734,0 120.677490,24.142678,0 120.677552,24.142631,0 120.677587,24.142704,0 120.677832,24.142496,0 120.678055,24.142303,0 120.678397,24.142635,0 120.678422,24.142631,0 120.678541,24.142538,0 120.678560,24.142557,0 120.678755,24.142388,0 120.678781,24.142366,0 120.678806,24.142345,0 120.678993,24.142198,0 120.679083,24.142109,0 120.679175,24.142050,0 120.679721,24.141581,0 120.679972,24.141352,0 120.680169,24.141516,0 120.680372,24.141711,0 120.680572,24.141539,0 120.680644,24.141609,0 120.680700,24.141562,0 120.680972,24.141814,0 120.681363,24.142181,0 120.681033,24.142452,0 120.680652,24.142075,0 120.680306,24.141770,0 120.680372,24.141711,0 120.680169,24.141516,0 120.679972,24.141352,0 120.679813,24.141244,0 120.679533,24.141022,0 120.679322,24.141202,0 120.678960,24.141514,0 120.678787,24.141672,0 120.678602,24.141494,0 120.678324,24.141215,0 120.678042,24.140949,0 120.677735,24.141220,0 120.676987,24.141883,0 120.676919,24.141823,0 120.676864,24.141873,0 120.676548,24.141602,0 120.676394,24.141506,0 120.676346,24.141479,0 120.676141,24.141369,0 120.676065,24.141338,0 120.676053,24.141335,0 120.675977,24.141324,0 120.675771,24.141245,0 120.674085,24.140707,0 120.673973,24.140526,0 120.673842,24.140393,0 120.673947,24.140313,0 120.674797,24.139587,0 120.674432,24.139228,0 120.674061,24.138866,0 120.674997,24.138046,0 120.674635,24.137682,0 120.674316,24.137370,0 120.674287,24.137342,0 120.674272,24.137327,0 120.674197,24.137256,0 120.674133,24.137195,0 120.673527,24.136606,0 120.673321,24.136402,0 120.672877,24.135974,0 120.672743,24.135846,0 120.672652,24.135760,0 120.671994,24.135122,0 120.671708,24.134851,0 120.671250,24.134405,0 120.670879,24.134048,0 120.670479,24.133661,0 120.669989,24.134087,0 120.669532,24.134489,0 120.669194,24.134165,0 120.668885,24.133865,0 120.668537,24.133529,0 120.667590,24.134354,0 120.667187,24.133967,0 120.667131,24.133935,0 120.666884,24.133822,0 120.666507,24.133664,0 120.666427,24.133611,0 120.666122,24.133311,0 120.665913,24.133517,0 120.665618,24.134076,0 120.665443,24.134213,0 120.665799,24.134556,0 120.665750,24.134649,0 120.665785,24.134683,0 120.665772,24.134709,0 120.665639,24.134974,0 120.665607,24.134971,0 120.665557,24.134991,0 120.665499,24.135009,0 120.665494,24.135138,0 120.665481,24.135140,0 120.665184,24.135143,0 120.664804,24.135147,0 120.664229,24.135143,0 120.664154,24.135142,0 120.664094,24.135142,0 120.663939,24.135143,0 120.663858,24.135143,0 120.663802,24.135143,0 120.663543,24.135145,0 120.663397,24.135146,0 120.663151,24.135147,0 120.663153,24.135075,0 120.663153,24.135065,0 120.663140,24.135064,0 120.663076,24.135066,0 120.663038,24.135066,0 120.663025,24.135066,0 120.663016,24.135081,0 120.662875,24.135082,0 120.662856,24.135082,0 120.662716,24.135084,0 120.662716,24.135075,0 120.662704,24.135075,0 120.662648,24.135076,0 120.662595,24.135076,0 120.662576,24.135079,0 120.662577,24.135093,0 120.662578,24.135147,0 120.662498,24.135147,0 120.662177,24.135147,0 120.662121,24.135147,0 120.661801,24.135148,0 120.661802,24.135086,0 120.661690,24.135086,0 120.661595,24.135085,0 120.661595,24.135060,0 120.661595,24.135035,0 120.661539,24.135091,0 120.661248,24.135092,0 120.661226,24.135092,0 120.661198,24.135092,0 120.661170,24.135091,0 120.661147,24.135085,0 120.661091,24.135085,0 120.661024,24.135085,0 120.660949,24.135086,0 120.660932,24.135085,0 120.660877,24.135095,0 120.660827,24.135095,0 120.660782,24.135095,0 120.660774,24.135101,0 120.660293,24.135101,0 120.660278,24.135089,0 120.660264,24.135095,0 120.660187,24.135096,0 120.660126,24.135096,0 120.660106,24.135083,0 120.660089,24.135098,0 120.658922,24.135098,0 120.658734,24.135099,0 120.658734,24.135120,0 120.658734,24.135145,0 120.658494,24.135147,0 120.658439,24.135147,0 120.657976,24.135151,0 120.657506,24.135152,0 120.657362,24.135153,0 120.657253,24.135147,0 120.656744,24.135150,0 120.656232,24.135150,0 120.656232,24.135944,0 120.655698,24.135945,0 120.655697,24.136076,0 120.655623,24.136227,0 120.655551,24.136392,0 120.655517,24.136556,0 120.655141,24.136552,0 120.655070,24.136566,0 120.654660,24.136658,0 120.654587,24.136674,0 120.653812,24.136675,0 120.653813,24.136893,0 120.653813,24.136949,0 120.653813,24.137096,0 120.653815,24.137438,0 120.653815,24.137612,0 120.653816,24.137845,0 120.653826,24.138912,0 120.653822,24.139439,0 120.653768,24.139491,0 120.653013,24.139486,0 120.653009,24.140044,0 120.653011,24.140162,0 120.653013,24.140410,0 120.653013,24.140969,0 120.653983,24.140971,0 120.653982,24.141449,0 120.653982,24.141468,0 120.653981,24.141843,0 120.653980,24.142220,0 120.653979,24.142314,0 120.653979,24.142645,0 120.653978,24.143228,0 120.653974,24.143827,0 120.653975,24.144323,0 120.653976,24.144355,0 120.653974,24.144956,0 120.653972,24.145820,0 120.653971,24.146305,0 120.653970,24.146714,0 120.653969,24.147240,0 120.653968,24.147751,0 120.653967,24.148290,0 120.653967,24.148383,0 120.653966,24.148838,0 120.653915,24.149437,0 120.653899,24.149631,0 120.653875,24.149938,0 120.653876,24.150776,0 120.653872,24.150881,0 120.653863,24.151582,0 120.653867,24.151944,0 120.653868,24.152322,0 120.653869,24.152925,0
</coordinates></LineString></Placemark>
</Document></kml>