<?xml version="1.0" encoding="UTF-8"?>
<kml xmlns="http://www.opengis.net/kml/2.2"><Document>
<name>西區 貓咪肉球 圖形路跑路線</name>
<Style id="r"><LineStyle><color>ff2000d6</color><width>4</width></LineStyle></Style>
<Placemark><name>臺中市立圖書館中區分館</name><description>地標</description><Point><coordinates>120.679524,24.143894,0</coordinates></Point></Placemark>
<Placemark><name>台灣地籍測量三角原點中心碑</name><description>地標</description><Point><coordinates>120.683335,24.145048,0</coordinates></Point></Placemark>
<Placemark><name>吉羊康泰</name><description>地標</description><Point><coordinates>120.683571,24.145461,0</coordinates></Point></Placemark>
<Placemark><name>西區 貓咪肉球 圖形路跑路線</name><styleUrl>#r</styleUrl><LineString><tessellate>1</tessellate><coordinates>
120.679348,24.148589,0 120.679827,24.148153,0 120.679538,24.147874,0 120.679204,24.147551,0 120.678803,24.147164,0 120.678877,24.147102,0 120.679361,24.146692,0 120.679800,24.146321,0 120.679734,24.146264,0 120.679738,24.146210,0 120.679814,24.146146,0 120.679173,24.145540,0 120.679252,24.145399,0 120.679311,24.145302,0 120.679339,24.145257,0 120.679701,24.144959,0 120.680036,24.144665,0 120.680415,24.145014,0 120.680859,24.144626,0 120.681312,24.144268,0 120.681397,24.144199,0 120.681769,24.144573,0 120.681842,24.144507,0 120.682870,24.143636,0 120.683012,24.143738,0 120.683266,24.143922,0 120.683374,24.143695,0 120.683824,24.143857,0 120.684074,24.144045,0 120.684387,24.144281,0 120.684437,24.144289,0 120.684471,24.144321,0 120.684477,24.144358,0 120.684465,24.144401,0 120.684520,24.144393,0 120.684613,24.144361,0 120.684608,24.144286,0 120.684742,24.144089,0 120.684604,24.143944,0 120.684558,24.143912,0 120.684604,24.143861,0 120.684584,24.143805,0 120.684528,24.143711,0 120.684597,24.143695,0 120.684921,24.143652,0 120.684980,24.143581,0 120.685121,24.143474,0 120.685295,24.143305,0 120.685323,24.143337,0 120.685421,24.143416,0 120.685980,24.143346,0 120.685987,24.143461,0 120.685921,24.143466,0 120.685991,24.143664,0 120.686082,24.143648,0 120.686247,24.143610,0 120.686284,24.143798,0 120.686748,24.143695,0 120.686789,24.143825,0 120.686330,24.143946,0 120.686362,24.144048,0 120.686421,24.144184,0 120.686459,24.144247,0 120.686498,24.144369,0 120.686684,24.144300,0 120.686722,24.144244,0 120.686773,24.144178,0 120.686857,24.144146,0 120.687068,24.144040,0 120.687268,24.144001,0 120.687357,24.143972,0 120.687640,24.143834,0 120.687683,24.144353,0 120.687688,24.144468,0 120.687798,24.145714,0 120.688657,24.145644,0 120.689427,24.145590,0 120.689466,24.146116,0 120.689497,24.146334,0 120.689503,24.146520,0 120.689510,24.146754,0 120.689528,24.146909,0 120.690388,24.147194,0 120.690806,24.147330,0 120.690967,24.147384,0 120.691252,24.147479,0 120.691207,24.147572,0 120.691076,24.147532,0 120.690654,24.147389,0 120.690494,24.147702,0 120.690458,24.147800,0 120.690325,24.148098,0 120.690353,24.148243,0 120.690905,24.148597,0 120.691199,24.148945,0 120.691380,24.149408,0 120.691413,24.149641,0 120.691533,24.149805,0 120.691616,24.149803,0 120.691889,24.149725,0 120.691978,24.149944,0 120.692025,24.150072,0 120.692031,24.150390,0 120.692024,24.150556,0 120.692133,24.150808,0 120.692143,24.151077,0 120.692160,24.151176,0 120.692226,24.151325,0 120.692345,24.151545,0 120.692483,24.151687,0 120.692352,24.151735,0 120.691245,24.152124,0 120.690933,24.152231,0 120.690261,24.152460,0 120.689315,24.152799,0 120.689449,24.153122,0 120.689504,24.153255,0 120.689730,24.153802,0 120.689754,24.153858,0 120.689813,24.153995,0 120.689860,24.154117,0 120.689727,24.154161,0 120.689623,24.154194,0 120.689467,24.154242,0 120.689729,24.154867,0 120.689655,24.154891,0 120.689723,24.155052,0 120.689093,24.155309,0 120.688694,24.155484,0 120.688840,24.155827,0 120.688065,24.156101,0 120.688038,24.156076,0 120.687606,24.155732,0 120.687497,24.155624,0 120.687476,24.155603,0 120.687280,24.155488,0 120.687239,24.155526,0 120.687167,24.155596,0 120.687056,24.155502,0 120.686829,24.155301,0 120.686554,24.155084,0 120.686424,24.155090,0 120.686385,24.155055,0 120.686310,24.154981,0 120.686266,24.154967,0 120.686187,24.154920,0 120.686086,24.154870,0 120.686161,24.154708,0 120.686078,24.154581,0 120.686040,24.154503,0 120.685941,24.154482,0 120.685903,24.154402,0 120.685880,24.154359,0 120.685933,24.154284,0 120.685746,24.153851,0 120.685655,24.153637,0 120.685771,24.153595,0 120.685916,24.153938,0 120.686158,24.154511,0 120.686230,24.154510,0 120.686375,24.154472,0 120.686413,24.154550,0 120.686451,24.154625,0 120.686519,24.154738,0 120.686478,24.154811,0 120.686449,24.154840,0 120.686376,24.154913,0 120.686310,24.154981,0 120.686266,24.154967,0 120.686229,24.155046,0 120.686205,24.155098,0 120.686184,24.155133,0 120.686050,24.155431,0 120.686034,24.155467,0 120.686020,24.155510,0 120.685859,24.155831,0 120.685792,24.155804,0 120.685682,24.155763,0 120.685604,24.155730,0 120.685544,24.155843,0 120.685511,24.155906,0 120.685488,24.155957,0 120.685453,24.156085,0 120.685121,24.156848,0 120.685090,24.156922,0 120.684946,24.157242,0 120.684697,24.157139,0 120.684834,24.156842,0 120.683262,24.156255,0 120.683210,24.156236,0 120.683174,24.156270,0 120.683037,24.156204,0 120.682929,24.156153,0 120.682874,24.156220,0 120.682764,24.156270,0 120.682734,24.156259,0 120.682670,24.156225,0 120.682666,24.156139,0 120.682645,24.156063,0 120.682493,24.156008,0 120.682483,24.155943,0 120.682344,24.155878,0 120.682197,24.155868,0 120.682260,24.155782,0 120.682296,24.155691,0 120.682278,24.155649,0 120.682274,24.155621,0 120.682061,24.155541,0 120.681787,24.155439,0 120.681851,24.155305,0 120.681703,24.155242,0 120.682020,24.154559,0 120.682295,24.153969,0 120.682400,24.153742,0 120.682521,24.153482,0 120.682524,24.153477,0 120.682543,24.153339,0 120.682552,24.153228,0 120.682537,24.153130,0 120.682391,24.153088,0 120.682398,24.153169,0 120.682408,24.153288,0 120.682416,24.153371,0 120.682468,24.153462,0 120.682521,24.153482,0 120.682400,24.153742,0 120.682295,24.153969,0 120.682020,24.154559,0 120.681372,24.154311,0 120.681209,24.154676,0 120.681063,24.155001,0 120.680465,24.154646,0 120.680445,24.154738,0 120.680436,24.154931,0 120.680434,24.154962,0 120.680337,24.154915,0 120.680345,24.154980,0 120.679678,24.154615,0 120.679506,24.154512,0 120.679384,24.154420,0 120.679227,24.154260,0 120.679152,24.154085,0 120.679087,24.153899,0 120.678753,24.153902,0 120.678737,24.153465,0 120.678799,24.153316,0 120.678551,24.153220,0 120.678283,24.153118,0 120.678237,24.153100,0 120.678048,24.153027,0 120.678336,24.152451,0 120.678455,24.152498,0 120.678741,24.151886,0 120.678500,24.151793,0 120.678117,24.151636,0 120.678175,24.151525,0 120.678477,24.150941,0 120.678661,24.151010,0 120.678887,24.150841,0 120.679153,24.150672,0 120.679203,24.150680,0 120.679260,24.150530,0 120.679267,24.150315,0 120.678989,24.149988,0 120.679061,24.149943,0 120.679217,24.149836,0 120.679287,24.149782,0 120.679090,24.149532,0 120.678738,24.149085,0 120.679348,24.148589,0
</coordinates></LineString></Placemark>
</Document></kml>