<?xml version="1.0" encoding="UTF-8"?>
<kml xmlns="http://www.opengis.net/kml/2.2"><Document>
<name>西區 貓咪肉球 圖形路跑路線</name>
<Style id="r"><LineStyle><color>ff2000d6</color><width>4</width></LineStyle></Style>
<Placemark><name>自立公園</name><description>地標</description><Point><coordinates>120.671040,24.140511,0</coordinates></Point></Placemark>
<Placemark><name>林之助畫室</name><description>地標</description><Point><coordinates>120.673583,24.141317,0</coordinates></Point></Placemark>
<Placemark><name>國立臺中教育大學中華校區</name><description>地標</description><Point><coordinates>120.673539,24.141539,0</coordinates></Point></Placemark>
<Placemark><name>西區 貓咪肉球 圖形路跑路線</name><styleUrl>#r</styleUrl><LineString><tessellate>1</tessellate><coordinates>
120.671201,24.142005,0 120.671439,24.141802,0 120.671087,24.141461,0 120.671480,24.141127,0 120.671984,24.140680,0 120.672137,24.140546,0 120.672329,24.140379,0 120.672395,24.140318,0 120.672478,24.140347,0 120.672514,24.140332,0 120.672565,24.140279,0 120.672658,24.140201,0 120.672596,24.140146,0 120.673110,24.139695,0 120.673708,24.139175,0 120.674061,24.138866,0 120.674432,24.139228,0 120.674797,24.139587,0 120.675749,24.138756,0 120.676014,24.139010,0 120.676344,24.139327,0 120.676786,24.138936,0 120.676197,24.138376,0 120.676270,24.138311,0 120.676846,24.137805,0 120.677342,24.138307,0 120.677359,24.138315,0 120.677379,24.138318,0 120.678134,24.137650,0 120.679038,24.138514,0 120.678961,24.138579,0 120.679056,24.138671,0 120.679138,24.138750,0 120.679167,24.138747,0 120.679223,24.138700,0 120.679464,24.138935,0 120.679888,24.139349,0 120.680166,24.139112,0 120.680661,24.139553,0 120.681191,24.139106,0 120.681460,24.139351,0 120.681842,24.139729,0 120.682124,24.140025,0 120.682187,24.139968,0 120.682251,24.139963,0 120.682310,24.140021,0 120.682412,24.139933,0 120.682498,24.139858,0 120.682640,24.139735,0 120.683358,24.140420,0 120.683761,24.140079,0 120.684115,24.140421,0 120.684341,24.140652,0 120.684488,24.140794,0 120.684673,24.140984,0 120.684842,24.141144,0 120.685255,24.141502,0 120.685684,24.141517,0 120.685679,24.141671,0 120.685678,24.141684,0 120.685763,24.141687,0 120.685918,24.141694,0 120.686068,24.141700,0 120.686103,24.141685,0 120.686100,24.141565,0 120.686877,24.141541,0 120.687337,24.141529,0 120.687570,24.141518,0 120.687599,24.142279,0 120.687633,24.143004,0 120.687581,24.143134,0 120.687607,24.143415,0 120.687921,24.143353,0 120.687944,24.143683,0 120.687807,24.143726,0 120.687640,24.143834,0 120.687683,24.144353,0 120.687688,24.144468,0 120.687798,24.145714,0 120.688657,24.145644,0 120.689427,24.145590,0 120.689466,24.146116,0 120.689497,24.146334,0 120.689503,24.146520,0 120.689510,24.146754,0 120.689528,24.146909,0 120.689486,24.147009,0 120.689058,24.146876,0 120.688684,24.146780,0 120.688618,24.146954,0 120.688643,24.147009,0 120.688830,24.147191,0 120.689027,24.147345,0 120.689061,24.147373,0 120.689135,24.147438,0 120.689421,24.147732,0 120.689543,24.147923,0 120.689598,24.148061,0 120.689631,24.148296,0 120.689677,24.148547,0 120.690178,24.148505,0 120.690305,24.148528,0 120.690469,24.148570,0 120.690667,24.148658,0 120.690870,24.148827,0 120.690958,24.148978,0 120.691027,24.149057,0 120.691044,24.149140,0 120.691086,24.149275,0 120.691096,24.149307,0 120.691215,24.149811,0 120.691220,24.149866,0 120.691221,24.149923,0 120.691169,24.149982,0 120.691098,24.150040,0 120.690922,24.150118,0 120.690285,24.150326,0 120.689865,24.150464,0 120.688181,24.151017,0 120.688085,24.151044,0 120.688227,24.151403,0 120.688377,24.151755,0 120.688673,24.152473,0 120.688785,24.152734,0 120.688828,24.152833,0 120.688873,24.152939,0 120.688911,24.153039,0 120.688050,24.153320,0 120.687838,24.153387,0 120.687764,24.153418,0 120.687753,24.153397,0 120.686850,24.153712,0 120.686955,24.153978,0 120.687097,24.154320,0 120.687141,24.154383,0 120.687630,24.155583,0 120.688608,24.155241,0 120.688694,24.155484,0 120.688840,24.155827,0 120.688065,24.156101,0 120.688139,24.156171,0 120.688348,24.156408,0 120.688304,24.156451,0 120.688245,24.156508,0 120.688342,24.156592,0 120.688174,24.156692,0 120.687089,24.156928,0 120.687293,24.157399,0 120.687467,24.157788,0 120.687826,24.158676,0 120.687925,24.158922,0 120.687854,24.158923,0 120.687415,24.158918,0 120.687317,24.158917,0 120.686740,24.158926,0 120.686588,24.158928,0 120.686591,24.159013,0 120.685709,24.159036,0 120.685686,24.159036,0 120.685573,24.159039,0 120.685540,24.159039,0 120.685452,24.159041,0 120.685226,24.159044,0 120.685227,24.159156,0 120.685189,24.159203,0 120.685188,24.159281,0 120.685186,24.159656,0 120.685186,24.159674,0 120.685185,24.159700,0 120.685179,24.160170,0 120.685102,24.160169,0 120.685007,24.160168,0 120.684939,24.160175,0 120.684889,24.160221,0 120.684890,24.160276,0 120.683931,24.160288,0 120.683683,24.160292,0 120.683675,24.159720,0 120.683362,24.159716,0 120.683306,24.159745,0 120.682349,24.159742,0 120.682345,24.159579,0 120.682350,24.159084,0 120.681884,24.159089,0 120.681881,24.158155,0 120.681492,24.158160,0 120.681442,24.158160,0 120.681113,24.158160,0 120.681116,24.158103,0 120.681207,24.157689,0 120.681270,24.157482,0 120.681277,24.157406,0 120.681288,24.157341,0 120.681343,24.157323,0 120.681398,24.157305,0 120.681497,24.156840,0 120.681440,24.156726,0 120.681427,24.156667,0 120.681460,24.156525,0 120.681670,24.155999,0 120.681598,24.155982,0 120.681495,24.155962,0 120.681379,24.155939,0 120.681313,24.155824,0 120.681314,24.155719,0 120.681532,24.155696,0 120.681555,24.155643,0 120.681649,24.155709,0 120.681746,24.155808,0 120.681670,24.155999,0 120.681460,24.156525,0 120.681890,24.156685,0 120.681958,24.156709,0 120.681865,24.156993,0 120.681798,24.157354,0 120.681398,24.157305,0 120.681343,24.157323,0 120.681288,24.157341,0 120.681277,24.157406,0 120.681270,24.157482,0 120.681207,24.157689,0 120.681116,24.158103,0 120.681113,24.158160,0 120.681442,24.158160,0 120.681492,24.158160,0 120.681492,24.159093,0 120.680969,24.159103,0 120.680968,24.159580,0 120.680968,24.159957,0 120.680970,24.160337,0 120.679973,24.160358,0 120.679973,24.160801,0 120.679976,24.161182,0 120.679227,24.161185,0 120.679224,24.160934,0 120.678537,24.160939,0 120.678510,24.161225,0 120.678461,24.161664,0 120.677351,24.161680,0 120.676674,24.161691,0 120.676446,24.161694,0 120.676162,24.161698,0 120.676017,24.161511,0 120.675878,24.161385,0 120.675698,24.161215,0 120.675515,24.161130,0 120.675372,24.161089,0 120.675268,24.161060,0 120.675372,24.160747,0 120.675480,24.160431,0 120.675305,24.160429,0 120.674601,24.160436,0 120.674614,24.159195,0 120.673641,24.159204,0 120.673644,24.158817,0 120.673646,24.158610,0 120.673647,24.158451,0 120.673639,24.157940,0 120.673632,24.157501,0 120.673633,24.157446,0 120.673636,24.157298,0 120.673633,24.157229,0 120.674401,24.157231,0 120.674406,24.156792,0 120.674410,24.156358,0 120.674845,24.156355,0 120.675199,24.156353,0 120.675319,24.156358,0 120.675431,24.156743,0 120.675440,24.156969,0 120.675439,24.157233,0 120.675780,24.157233,0 120.675787,24.157418,0 120.675790,24.157505,0 120.675446,24.157504,0 120.674565,24.157500,0 120.673632,24.157501,0 120.673639,24.157940,0 120.673647,24.158451,0 120.673206,24.158456,0 120.672846,24.158460,0 120.672083,24.158468,0 120.672083,24.159149,0 120.672018,24.159150,0 120.672020,24.159205,0 120.671383,24.159206,0 120.671053,24.159207,0 120.670947,24.159202,0 120.670634,24.159201,0 120.670634,24.159122,0 120.670509,24.159123,0 120.670365,24.159123,0 120.670366,24.159201,0 120.670098,24.159201,0 120.669817,24.159209,0 120.669738,24.159209,0 120.669154,24.159214,0 120.668183,24.159212,0 120.668182,24.159171,0 120.668182,24.159140,0 120.668184,24.159043,0 120.668185,24.158988,0 120.668367,24.158991,0 120.668468,24.158910,0 120.668561,24.158856,0 120.668650,24.158829,0 120.668697,24.158792,0 120.668875,24.158738,0 120.668908,24.158655,0 120.668903,24.158598,0 120.668880,24.158558,0 120.668845,24.158534,0 120.668804,24.158517,0 120.668766,24.158462,0 120.668762,24.158435,0 120.668735,24.158378,0 120.668737,24.158321,0 120.668766,24.158282,0 120.668830,24.158243,0 120.668925,24.158201,0 120.668940,24.158159,0 120.668902,24.158115,0 120.668896,24.158084,0 120.668911,24.158059,0 120.668915,24.158000,0 120.668880,24.158006,0 120.668875,24.158024,0 120.668797,24.158109,0 120.668674,24.158164,0 120.668562,24.158187,0 120.668436,24.158182,0 120.668371,24.158161,0 120.668330,24.158147,0 120.668256,24.158091,0 120.668213,24.158026,0 120.668204,24.157965,0 120.668214,24.157895,0 120.668254,24.157833,0 120.668310,24.157765,0 120.668385,24.157686,0 120.668482,24.157619,0 120.668501,24.157591,0 120.668439,24.157544,0 120.668397,24.157480,0 120.668378,24.157408,0 120.668386,24.157335,0 120.668419,24.157267,0 120.668285,24.157165,0 120.668124,24.157119,0 120.668038,24.157069,0 120.668018,24.157058,0 120.667939,24.157002,0 120.667845,24.156940,0 120.667823,24.156926,0 120.668113,24.156532,0 120.668214,24.156404,0 120.668184,24.156377,0 120.667933,24.156150,0 120.667677,24.155910,0 120.667587,24.155807,0 120.667122,24.155348,0 120.667191,24.155292,0 120.667070,24.155186,0 120.667289,24.154994,0 120.667492,24.154818,0 120.667567,24.154749,0 120.667648,24.154671,0 120.667986,24.154375,0 120.668079,24.154294,0 120.668158,24.154226,0 120.668290,24.154110,0 120.668508,24.153931,0 120.668238,24.153664,0 120.668567,24.153638,0 120.668865,24.153630,0 120.668937,24.153568,0 120.669655,24.152916,0 120.669853,24.152756,0 120.670027,24.152614,0 120.670168,24.152479,0 120.670300,24.152375,0 120.670351,24.152328,0 120.670390,24.152294,0 120.670393,24.152225,0 120.670405,24.152199,0 120.670503,24.152149,0 120.670502,24.151829,0 120.670502,24.151799,0 120.670502,24.151686,0 120.670501,24.151602,0 120.670615,24.151600,0 120.670615,24.151559,0 120.670856,24.151559,0 120.671497,24.151565,0 120.671495,24.151152,0 120.671223,24.150894,0 120.671062,24.150742,0 120.670717,24.151052,0 120.670583,24.151170,0 120.670486,24.151256,0 120.670494,24.151339,0 120.670500,24.151400,0 120.670501,24.151504,0 120.670501,24.151559,0 120.670501,24.151602,0 120.670502,24.151686,0 120.670502,24.151799,0 120.670502,24.151829,0 120.670503,24.152149,0 120.670502,24.152213,0 120.670390,24.152294,0 120.670351,24.152328,0 120.670300,24.152375,0 120.670168,24.152479,0 120.670027,24.152614,0 120.669853,24.152756,0 120.669655,24.152916,0 120.668937,24.153568,0 120.668865,24.153630,0 120.668567,24.153638,0 120.668169,24.153260,0 120.667990,24.153426,0 120.667775,24.153613,0 120.667684,24.153692,0 120.667641,24.153728,0 120.667593,24.153682,0 120.667518,24.153748,0 120.667475,24.153707,0 120.667460,24.153690,0 120.667362,24.153595,0 120.667171,24.153406,0 120.667050,24.153287,0 120.667085,24.153266,0 120.667017,24.153202,0 120.666978,24.153226,0 120.666940,24.153190,0 120.666760,24.153024,0 120.666719,24.152985,0 120.666756,24.152962,0 120.666685,24.152893,0 120.666650,24.152915,0 120.666417,24.152695,0 120.666343,24.152765,0 120.666279,24.152746,0 120.666211,24.152690,0 120.666184,24.152666,0 120.666185,24.152638,0 120.666283,24.152603,0 120.666220,24.152553,0 120.666112,24.152437,0 120.665948,24.152275,0 120.665815,24.152160,0 120.665557,24.151906,0 120.665460,24.151806,0 120.665386,24.151706,0 120.665342,24.151632,0 120.665304,24.151547,0 120.665280,24.151470,0 120.665257,24.151314,0 120.665258,24.151215,0 120.665259,24.151156,0 120.665254,24.150993,0 120.665288,24.150848,0 120.665287,24.150383,0 120.665287,24.150231,0 120.665287,24.150145,0 120.665287,24.149797,0 120.665287,24.149591,0 120.665287,24.149560,0 120.665286,24.149431,0 120.665284,24.149123,0 120.665171,24.149121,0 120.665123,24.149092,0 120.665122,24.149017,0 120.665123,24.148954,0 120.665141,24.148945,0 120.665286,24.148946,0 120.665285,24.148782,0 120.665288,24.148619,0 120.665289,24.148526,0 120.665289,24.148514,0 120.665293,24.148265,0 120.665295,24.147975,0 120.665428,24.147977,0 120.665426,24.147882,0 120.666625,24.147880,0 120.666625,24.147479,0 120.666625,24.147137,0 120.666624,24.146703,0 120.666624,24.145861,0 120.666624,24.145625,0 120.666624,24.145581,0 120.666623,24.145045,0 120.667079,24.145036,0 120.667666,24.145038,0 120.667674,24.144383,0 120.667849,24.144388,0 120.667882,24.144389,0 120.668563,24.144403,0 120.668635,24.144405,0 120.668810,24.144412,0 120.668956,24.144431,0 120.669142,24.144516,0 120.669178,24.144485,0 120.669321,24.144362,0 120.669619,24.144101,0 120.669567,24.144057,0 120.669665,24.143967,0 120.669733,24.143904,0 120.669812,24.143831,0 120.669866,24.143886,0 120.670324,24.143480,0 120.670640,24.143210,0 120.670826,24.143048,0 120.671326,24.142614,0 120.671002,24.142298,0 120.670942,24.142234,0 120.671201,24.142005,0
</coordinates></LineString></Placemark>
</Document></kml>