<?xml version="1.0" encoding="UTF-8"?>
<kml xmlns="http://www.opengis.net/kml/2.2"><Document>
<name>西區 蜷睡貓咪 圖形路跑路線</name>
<Style id="r"><LineStyle><color>ff2000d6</color><width>4</width></LineStyle></Style>
<Placemark><name>大墩文化中心</name><description>地標</description><Point><coordinates>120.665610,24.141478,0</coordinates></Point></Placemark>
<Placemark><name>圓融</name><description>地標</description><Point><coordinates>120.664847,24.140791,0</coordinates></Point></Placemark>
<Placemark><name>開天闢地</name><description>地標</description><Point><coordinates>120.664963,24.141054,0</coordinates></Point></Placemark>
<Placemark><name>西區 蜷睡貓咪 圖形路跑路線</name><styleUrl>#r</styleUrl><LineString><tessellate>1</tessellate><coordinates>
120.666543,24.140831,0 120.666690,24.140973,0 120.666785,24.140889,0 120.666884,24.140984,0 120.667004,24.141101,0 120.666907,24.141182,0 120.666836,24.141244,0 120.666765,24.141304,0 120.666734,24.141331,0 120.666630,24.141423,0 120.666557,24.141483,0 120.666475,24.141402,0 120.665925,24.141881,0 120.665811,24.141981,0 120.665784,24.142005,0 120.665646,24.142147,0 120.665531,24.142300,0 120.665451,24.142469,0 120.665367,24.142688,0 120.665340,24.142861,0 120.665331,24.143106,0 120.665333,24.143141,0 120.665309,24.143197,0 120.665261,24.143197,0 120.665157,24.143197,0 120.665161,24.144223,0 120.665162,24.144260,0 120.665162,24.144330,0 120.665163,24.144406,0 120.665300,24.144406,0 120.665437,24.144406,0 120.665437,24.144332,0 120.665477,24.144332,0 120.665533,24.144335,0 120.665644,24.144334,0 120.665703,24.144336,0 120.665941,24.144338,0 120.666623,24.144346,0 120.666623,24.145045,0 120.666624,24.145581,0 120.666624,24.145625,0 120.666624,24.145861,0 120.666624,24.146703,0 120.666625,24.147137,0 120.667595,24.147142,0 120.667594,24.147322,0 120.667592,24.147480,0 120.667592,24.147872,0 120.668189,24.147869,0 120.668971,24.147872,0 120.668968,24.148417,0 120.668972,24.149017,0 120.669371,24.149019,0 120.669675,24.149019,0 120.669783,24.149019,0 120.669823,24.149018,0 120.669823,24.148955,0 120.669827,24.148486,0 120.669827,24.148414,0 120.669827,24.148324,0 120.669828,24.147953,0 120.669829,24.147871,0 120.669869,24.147871,0 120.669915,24.147870,0 120.669973,24.147869,0 120.669996,24.147869,0 120.670275,24.147869,0 120.670884,24.147877,0 120.670960,24.147878,0 120.671029,24.147878,0 120.671140,24.147876,0 120.671234,24.147876,0 120.671430,24.148028,0 120.671693,24.148242,0 120.671746,24.148332,0 120.672279,24.147878,0 120.672637,24.148222,0 120.672720,24.148152,0 120.672742,24.148174,0 120.672804,24.148230,0 120.672863,24.148284,0 120.672921,24.148336,0 120.673370,24.147984,0 120.673423,24.147974,0 120.673549,24.147970,0 120.673548,24.147933,0 120.673548,24.147910,0 120.673575,24.147876,0 120.673630,24.147827,0 120.673701,24.147765,0 120.673771,24.147702,0 120.673784,24.147680,0 120.673802,24.147682,0 120.673845,24.147681,0 120.673844,24.147637,0 120.673850,24.147487,0 120.673874,24.147364,0 120.674057,24.147202,0 120.673990,24.147140,0 120.674043,24.147093,0 120.674079,24.147062,0 120.674103,24.147056,0 120.674160,24.147113,0 120.674561,24.146763,0 120.674632,24.146833,0 120.674683,24.146791,0 120.674734,24.146749,0 120.674734,24.146736,0 120.674668,24.146670,0 120.674891,24.146477,0 120.674935,24.146439,0 120.675122,24.146277,0 120.675430,24.146585,0 120.675868,24.146200,0 120.675543,24.145911,0 120.675754,24.145726,0 120.675984,24.145524,0 120.676057,24.145596,0 120.676109,24.145550,0 120.676153,24.145511,0 120.676081,24.145439,0 120.676475,24.145092,0 120.676541,24.145158,0 120.676603,24.145160,0 120.676668,24.145104,0 120.676733,24.145049,0 120.676733,24.144988,0 120.676666,24.144925,0 120.676845,24.144770,0 120.676919,24.144707,0 120.677069,24.144576,0 120.677124,24.144528,0 120.677177,24.144483,0 120.677419,24.144280,0 120.677415,24.144196,0 120.677373,24.144157,0 120.677398,24.144116,0 120.677496,24.144004,0 120.677517,24.143977,0 120.677577,24.143976,0 120.677526,24.143939,0 120.677440,24.143853,0 120.677413,24.143783,0 120.677531,24.143749,0 120.677506,24.143648,0 120.677489,24.143579,0 120.677435,24.143506,0 120.677400,24.143436,0 120.677388,24.143322,0 120.677343,24.143250,0 120.677313,24.143210,0 120.677248,24.143227,0 120.677187,24.143213,0 120.677179,24.143156,0 120.677217,24.143124,0 120.677441,24.142931,0 120.677505,24.142918,0 120.677570,24.142849,0 120.677606,24.142805,0 120.677611,24.142747,0 120.677587,24.142704,0 120.677832,24.142496,0 120.677741,24.142428,0 120.677637,24.142323,0 120.677611,24.142243,0 120.677657,24.142123,0 120.677707,24.142074,0 120.677778,24.142047,0 120.677811,24.141927,0 120.677783,24.141658,0 120.677763,24.141632,0 120.677753,24.141400,0 120.677735,24.141220,0 120.678042,24.140949,0 120.677670,24.140608,0 120.677491,24.140434,0 120.677372,24.140319,0 120.677362,24.140309,0 120.677294,24.140369,0 120.677216,24.140372,0 120.677158,24.140312,0 120.677074,24.140225,0 120.677074,24.140202,0 120.677168,24.140123,0 120.677129,24.140085,0 120.676930,24.139894,0 120.676682,24.139657,0 120.676344,24.139327,0 120.676786,24.138936,0 120.676197,24.138376,0 120.675749,24.138756,0 120.675374,24.138399,0 120.674997,24.138046,0 120.674635,24.137682,0 120.674316,24.137370,0 120.674287,24.137342,0 120.674272,24.137327,0 120.674197,24.137256,0 120.674133,24.137195,0 120.673527,24.136606,0 120.673038,24.137039,0 120.672670,24.136687,0 120.672212,24.137079,0 120.671922,24.136797,0 120.671803,24.136681,0 120.671710,24.136591,0 120.671416,24.136308,0 120.671043,24.135951,0 120.670753,24.135667,0 120.670675,24.135593,0 120.670462,24.135778,0 120.670168,24.136035,0 120.669727,24.136415,0 120.669358,24.136056,0 120.668846,24.136508,0 120.668305,24.136978,0 120.667926,24.136627,0 120.667579,24.136304,0 120.667520,24.136250,0 120.667455,24.136304,0 120.667532,24.136373,0 120.667515,24.136369,0 120.667498,24.136377,0 120.667280,24.136563,0 120.667273,24.136573,0 120.667268,24.136581,0 120.667287,24.136605,0 120.667215,24.136666,0 120.667583,24.137037,0 120.667295,24.137292,0 120.667235,24.137342,0 120.667017,24.137523,0 120.666508,24.137966,0 120.666877,24.138310,0 120.667424,24.138833,0 120.667917,24.138403,0 120.668191,24.138166,0 120.668411,24.137979,0 120.668490,24.137912,0 120.668626,24.138051,0 120.668676,24.138100,0 120.668756,24.138026,0 120.668758,24.138019,0 120.668762,24.138017,0 120.668983,24.137820,0 120.669012,24.137804,0 120.669082,24.137746,0 120.669408,24.138049,0 120.669695,24.138330,0 120.669754,24.138392,0 120.669800,24.138443,0 120.669911,24.138555,0 120.670188,24.138821,0 120.670338,24.138720,0 120.670421,24.138654,0 120.670525,24.138549,0 120.670647,24.138627,0 120.670776,24.138677,0 120.670916,24.138693,0 120.671030,24.138696,0 120.671094,24.138685,0 120.671118,24.138707,0 120.671212,24.138625,0 120.671457,24.138859,0 120.671626,24.139021,0 120.671716,24.139107,0 120.671954,24.139335,0 120.672369,24.138979,0 120.672731,24.139332,0 120.672667,24.139386,0 120.672493,24.139536,0 120.672261,24.139735,0 120.672155,24.139828,0 120.671897,24.140062,0 120.672323,24.140205,0 120.672274,24.140307,0 120.672325,24.140303,0 120.672395,24.140318,0 120.672478,24.140347,0 120.672641,24.140412,0 120.672848,24.140469,0 120.673092,24.140550,0 120.673281,24.140599,0 120.673360,24.140618,0 120.673362,24.140659,0 120.673100,24.140896,0 120.673091,24.140905,0 120.673068,24.140905,0 120.673024,24.140910,0 120.672966,24.140967,0 120.672879,24.141057,0 120.673003,24.141100,0 120.672756,24.141329,0 120.673504,24.142048,0 120.673118,24.142392,0 120.672370,24.141673,0 120.672188,24.141836,0 120.671951,24.142050,0 120.671821,24.142167,0 120.671326,24.142614,0 120.670826,24.143048,0 120.670640,24.143210,0 120.670324,24.143480,0 120.669948,24.143113,0 120.669581,24.142761,0 120.669326,24.142985,0 120.668946,24.142612,0 120.669206,24.142408,0 120.668844,24.142051,0 120.668095,24.141324,0 120.667704,24.140944,0 120.667427,24.140681,0 120.667370,24.140728,0 120.667279,24.140640,0 120.667082,24.140807,0 120.666884,24.140984,0 120.666785,24.140889,0 120.666690,24.140973,0 120.666543,24.140831,0
</coordinates></LineString></Placemark>
</Document></kml>