<?xml version="1.0" encoding="UTF-8"?>
<kml xmlns="http://www.opengis.net/kml/2.2"><Document>
<name>西區 手繪蹲坐貓（原稿描圖） 圖形路跑路線</name>
<Style id="r"><LineStyle><color>ff2000d6</color><width>4</width></LineStyle></Style>
<Placemark><name>公益公園</name><description>地標</description><Point><coordinates>120.657923,24.150373,0</coordinates></Point></Placemark>
<Placemark><name>草悟道</name><description>地標</description><Point><coordinates>120.663223,24.152259,0</coordinates></Point></Placemark>
<Placemark><name>市民廣場</name><description>地標</description><Point><coordinates>120.663655,24.149897,0</coordinates></Point></Placemark>
<Placemark><name>西區 手繪蹲坐貓（原稿描圖） 圖形路跑路線</name><styleUrl>#r</styleUrl><LineString><tessellate>1</tessellate><coordinates>
120.659506,24.139305,0 120.659506,24.139276,0 120.658839,24.139280,0 120.658840,24.139621,0 120.658834,24.140028,0 120.658834,24.140126,0 120.658833,24.140675,0 120.658833,24.140866,0 120.658833,24.141253,0 120.658833,24.141403,0 120.658833,24.141560,0 120.658833,24.142054,0 120.659583,24.142050,0 120.660001,24.142052,0 120.660105,24.142227,0 120.660203,24.142290,0 120.660203,24.142357,0 120.660203,24.142463,0 120.660203,24.142600,0 120.660199,24.142946,0 120.660203,24.143345,0 120.660201,24.143600,0 120.660202,24.143839,0 120.660202,24.144321,0 120.660202,24.144685,0 120.660202,24.144891,0 120.660202,24.145103,0 120.660201,24.145541,0 120.660201,24.146028,0 120.660201,24.146296,0 120.660203,24.146705,0 120.660199,24.147308,0 120.659518,24.147308,0 120.658830,24.147308,0 120.658830,24.147868,0 120.658322,24.147867,0 120.657832,24.147868,0 120.657518,24.147871,0 120.657381,24.147852,0 120.657366,24.149024,0 120.657833,24.149024,0 120.658164,24.149023,0 120.658168,24.149628,0 120.658167,24.149895,0 120.658590,24.150120,0 120.658653,24.150155,0 120.658829,24.150185,0 120.658875,24.150189,0 120.659084,24.150192,0 120.659520,24.150193,0 120.659941,24.150195,0 120.660193,24.150193,0 120.660193,24.150847,0 120.660196,24.151446,0 120.660194,24.151974,0 120.660603,24.151975,0 120.660911,24.151977,0 120.660916,24.151445,0 120.661687,24.151442,0 120.661686,24.151126,0 120.661685,24.150849,0 120.662362,24.150851,0 120.662357,24.150459,0 120.662393,24.150372,0 120.663000,24.150384,0 120.663018,24.149777,0 120.663026,24.149358,0 120.663032,24.149019,0 120.664227,24.149018,0 120.664231,24.148958,0 120.664299,24.148958,0 120.664297,24.148571,0 120.664300,24.148258,0 120.664299,24.147882,0 120.664768,24.147884,0 120.665122,24.147886,0 120.665124,24.147797,0 120.665173,24.147795,0 120.665296,24.147795,0 120.665299,24.147492,0 120.665300,24.147138,0 120.665301,24.146833,0 120.665452,24.146835,0 120.665453,24.146703,0 120.666624,24.146703,0 120.666624,24.145861,0 120.666624,24.145625,0 120.666624,24.145581,0 120.666623,24.145045,0 120.667079,24.145036,0 120.667666,24.145038,0 120.667674,24.144383,0 120.667849,24.144388,0 120.667882,24.144389,0 120.668563,24.144403,0 120.668565,24.144334,0 120.668635,24.144334,0 120.668635,24.144288,0 120.668639,24.144084,0 120.668648,24.143617,0 120.668644,24.143550,0 120.668636,24.143516,0 120.668624,24.143487,0 120.668604,24.143458,0 120.667947,24.142827,0 120.668016,24.142760,0 120.668118,24.142669,0 120.668126,24.142662,0 120.668208,24.142739,0 120.668227,24.142757,0 120.668315,24.142675,0 120.668384,24.142612,0 120.668454,24.142547,0 120.668366,24.142458,0 120.668585,24.142277,0 120.668844,24.142051,0 120.668095,24.141324,0 120.668586,24.140887,0 120.668238,24.140546,0 120.668742,24.140111,0 120.669091,24.140450,0 120.669592,24.140015,0 120.670055,24.139596,0 120.670117,24.139541,0 120.670169,24.139501,0 120.670223,24.139459,0 120.670452,24.139284,0 120.670486,24.139254,0 120.670535,24.139305,0 120.670675,24.139440,0 120.671097,24.139775,0 120.671218,24.139846,0 120.671295,24.139906,0 120.671374,24.139837,0 120.671648,24.139961,0 120.671897,24.140062,0 120.672155,24.139828,0 120.672261,24.139735,0 120.672493,24.139536,0 120.672667,24.139386,0 120.672788,24.139508,0 120.672853,24.139450,0 120.672934,24.139525,0 120.673071,24.139658,0 120.673110,24.139695,0 120.673708,24.139175,0 120.674061,24.138866,0 120.674432,24.139228,0 120.674797,24.139587,0 120.675749,24.138756,0 120.675374,24.138399,0 120.674997,24.138046,0 120.674061,24.138866,0 120.673708,24.139175,0 120.672973,24.138461,0 120.672224,24.137747,0 120.672045,24.137901,0 120.671631,24.138261,0 120.671261,24.138581,0 120.671212,24.138625,0 120.671118,24.138707,0 120.671094,24.138685,0 120.670751,24.138348,0 120.670525,24.138549,0 120.670421,24.138654,0 120.670338,24.138720,0 120.670188,24.138821,0 120.669911,24.138555,0 120.669937,24.138517,0 120.669951,24.138483,0 120.669864,24.138382,0 120.669749,24.138281,0 120.669695,24.138330,0 120.669656,24.138365,0 120.669631,24.138420,0 120.669436,24.138243,0 120.669272,24.138055,0 120.669118,24.137955,0 120.669012,24.137804,0 120.668983,24.137820,0 120.668762,24.138017,0 120.668758,24.138019,0 120.668756,24.138026,0 120.668676,24.138100,0 120.668626,24.138051,0 120.668490,24.137912,0 120.668411,24.137979,0 120.668191,24.138166,0 120.667917,24.138403,0 120.667424,24.138833,0 120.666913,24.139271,0 120.666883,24.139266,0 120.666841,24.139272,0 120.666516,24.139270,0 120.666145,24.139268,0 120.665762,24.139269,0 120.665653,24.139270,0 120.664888,24.139271,0 120.664888,24.138864,0 120.664159,24.138876,0 120.664162,24.139272,0 120.663867,24.139272,0 120.663107,24.139270,0 120.662700,24.139272,0 120.662700,24.139233,0 120.662700,24.139219,0 120.662613,24.139220,0 120.662568,24.139220,0 120.662568,24.139272,0 120.661693,24.139274,0 120.661693,24.139452,0 120.661693,24.139480,0 120.661693,24.139609,0 120.661693,24.140051,0 120.660990,24.140056,0 120.660973,24.140055,0 120.660190,24.140037,0 120.660190,24.139269,0 120.659506,24.139276,0 120.659506,24.139305,0
</coordinates></LineString></Placemark>
</Document></kml>