<?xml version="1.0" encoding="UTF-8"?>
<kml xmlns="http://www.opengis.net/kml/2.2"><Document>
<name>西區 蜷睡貓咪 圖形路跑路線</name>
<Style id="r"><LineStyle><color>ff2000d6</color><width>4</width></LineStyle></Style>
<Placemark><name>風采</name><description>地標</description><Point><coordinates>120.668136,24.160945,0</coordinates></Point></Placemark>
<Placemark><name>中德公園</name><description>地標</description><Point><coordinates>120.668492,24.163706,0</coordinates></Point></Placemark>
<Placemark><name>太原公園</name><description>地標</description><Point><coordinates>120.670244,24.165561,0</coordinates></Point></Placemark>
<Placemark><name>西區 蜷睡貓咪 圖形路跑路線</name><styleUrl>#r</styleUrl><LineString><tessellate>1</tessellate><coordinates>
120.669195,24.159745,0 120.669203,24.160433,0 120.669205,24.161008,0 120.669206,24.161601,0 120.669207,24.162213,0 120.669208,24.162369,0 120.669209,24.162836,0 120.669209,24.162930,0 120.669210,24.163457,0 120.669211,24.163797,0 120.669219,24.164009,0 120.669218,24.164382,0 120.669224,24.164921,0 120.669230,24.165166,0 120.669229,24.165515,0 120.669862,24.165521,0 120.669860,24.165775,0 120.670550,24.165766,0 120.670548,24.166278,0 120.671339,24.166276,0 120.672128,24.166280,0 120.672111,24.166527,0 120.672116,24.166806,0 120.672118,24.166895,0 120.672113,24.167004,0 120.672092,24.167490,0 120.672035,24.167961,0 120.671884,24.168243,0 120.672170,24.168312,0 120.672588,24.168421,0 120.672724,24.168460,0 120.672633,24.168755,0 120.672742,24.168767,0 120.672726,24.168828,0 120.672709,24.168895,0 120.672620,24.169190,0 120.673116,24.169315,0 120.673324,24.169357,0 120.673590,24.169375,0 120.673632,24.169372,0 120.674311,24.169330,0 120.674305,24.169171,0 120.674293,24.168854,0 120.674853,24.168664,0 120.675690,24.168683,0 120.676423,24.168629,0 120.676767,24.168621,0 120.676819,24.169167,0 120.676851,24.169502,0 120.676882,24.169829,0 120.676938,24.169825,0 120.676945,24.169913,0 120.677879,24.169872,0 120.677887,24.169921,0 120.677918,24.169949,0 120.677972,24.169947,0 120.678120,24.170548,0 120.678279,24.171234,0 120.678348,24.171231,0 120.678351,24.171293,0 120.679018,24.171254,0 120.679013,24.171190,0 120.679100,24.171184,0 120.679077,24.171035,0 120.679069,24.170877,0 120.679074,24.170816,0 120.679102,24.170504,0 120.679139,24.170275,0 120.679151,24.169977,0 120.679130,24.169845,0 120.679208,24.169843,0 120.679224,24.169841,0 120.679343,24.169835,0 120.679367,24.169833,0 120.679444,24.169827,0 120.680347,24.169745,0 120.680342,24.169693,0 120.680420,24.169687,0 120.680498,24.169681,0 120.680503,24.169736,0 120.680679,24.169728,0 120.681188,24.169708,0 120.681279,24.169704,0 120.681405,24.169696,0 120.681910,24.169669,0 120.682195,24.169660,0 120.682266,24.169651,0 120.682344,24.169644,0 120.683052,24.169598,0 120.683059,24.169662,0 120.683091,24.169682,0 120.683138,24.169680,0 120.683123,24.169594,0 120.683112,24.169523,0 120.683058,24.169176,0 120.682959,24.168543,0 120.683007,24.168543,0 120.683006,24.168467,0 120.683539,24.168446,0 120.683605,24.168443,0 120.683697,24.168442,0 120.685058,24.168414,0 120.685054,24.168340,0 120.685072,24.168324,0 120.685051,24.168024,0 120.685031,24.167726,0 120.684987,24.167092,0 120.684963,24.167082,0 120.684950,24.166996,0 120.684961,24.166894,0 120.684987,24.166858,0 120.685070,24.166854,0 120.685169,24.166855,0 120.685248,24.166854,0 120.685250,24.166062,0 120.685249,24.165994,0 120.685534,24.165982,0 120.686372,24.165970,0 120.686690,24.165966,0 120.686703,24.165904,0 120.686761,24.165904,0 120.686733,24.165358,0 120.686817,24.165357,0 120.686816,24.165289,0 120.686815,24.165244,0 120.686732,24.165245,0 120.686742,24.165097,0 120.686741,24.165022,0 120.686742,24.164955,0 120.686729,24.164629,0 120.686713,24.164405,0 120.686710,24.164234,0 120.686703,24.163937,0 120.686745,24.163938,0 120.686768,24.163911,0 120.686763,24.163877,0 120.687625,24.163861,0 120.688472,24.163853,0 120.688442,24.163796,0 120.688539,24.163792,0 120.688510,24.163727,0 120.688458,24.163625,0 120.688428,24.163456,0 120.688422,24.163412,0 120.688414,24.163287,0 120.688401,24.163139,0 120.688427,24.163033,0 120.688457,24.162958,0 120.688358,24.162912,0 120.688359,24.162847,0 120.688337,24.162781,0 120.688335,24.162601,0 120.688357,24.162548,0 120.688383,24.162481,0 120.688418,24.162416,0 120.688493,24.162350,0 120.688559,24.162300,0 120.688687,24.162258,0 120.688785,24.162236,0 120.689095,24.162242,0 120.689140,24.162159,0 120.689200,24.162051,0 120.689240,24.161984,0 120.689239,24.161829,0 120.689221,24.161623,0 120.689252,24.161488,0 120.689812,24.161476,0 120.689706,24.161181,0 120.689644,24.160970,0 120.689561,24.160722,0 120.689512,24.160578,0 120.689366,24.160195,0 120.689231,24.159744,0 120.689225,24.159724,0 120.689157,24.159528,0 120.689107,24.159343,0 120.688987,24.158974,0 120.688970,24.158598,0 120.688967,24.158515,0 120.689000,24.158473,0 120.689598,24.157892,0 120.689619,24.157872,0 120.689714,24.157779,0 120.689729,24.157648,0 120.689776,24.157584,0 120.689822,24.157521,0 120.690593,24.157249,0 120.690337,24.156607,0 120.690185,24.156252,0 120.690065,24.155923,0 120.690131,24.155900,0 120.690043,24.155682,0 120.689950,24.155460,0 120.689882,24.155483,0 120.689723,24.155052,0 120.689655,24.154891,0 120.689213,24.153793,0 120.689168,24.153681,0 120.689137,24.153602,0 120.689100,24.153511,0 120.689187,24.153483,0 120.689220,24.153472,0 120.689073,24.153053,0 120.689008,24.152893,0 120.688966,24.152787,0 120.688913,24.152805,0 120.688828,24.152833,0 120.688785,24.152734,0 120.688673,24.152473,0 120.688377,24.151755,0 120.688227,24.151403,0 120.688085,24.151044,0 120.688020,24.150891,0 120.687905,24.150934,0 120.687795,24.150944,0 120.687823,24.150819,0 120.687632,24.150372,0 120.686289,24.150775,0 120.686186,24.150732,0 120.685989,24.150264,0 120.685858,24.149974,0 120.685739,24.149699,0 120.686197,24.149526,0 120.686250,24.149404,0 120.686188,24.149272,0 120.686158,24.149268,0 120.686125,24.149254,0 120.686093,24.149223,0 120.685209,24.149518,0 120.685141,24.149540,0 120.685082,24.149560,0 120.684903,24.149622,0 120.684516,24.149729,0 120.684364,24.149349,0 120.684184,24.148922,0 120.684020,24.148535,0 120.683858,24.148158,0 120.683541,24.148273,0 120.683439,24.148310,0 120.682367,24.148685,0 120.681885,24.147593,0 120.681195,24.147807,0 120.681056,24.147480,0 120.680980,24.147308,0 120.680898,24.147217,0 120.680693,24.147029,0 120.680618,24.147090,0 120.680545,24.147017,0 120.680316,24.147218,0 120.680265,24.147263,0 120.680094,24.147413,0 120.679922,24.147563,0 120.679750,24.147713,0 120.679538,24.147874,0 120.679204,24.147551,0 120.678803,24.147164,0 120.678749,24.147112,0 120.678338,24.146715,0 120.678060,24.146452,0 120.677866,24.146548,0 120.677468,24.146895,0 120.677160,24.147177,0 120.676640,24.147627,0 120.676579,24.147685,0 120.676180,24.147339,0 120.675822,24.146981,0 120.675563,24.147190,0 120.675340,24.147422,0 120.674836,24.147836,0 120.674552,24.147571,0 120.674182,24.147225,0 120.674143,24.147257,0 120.674115,24.147256,0 120.674057,24.147202,0 120.673874,24.147364,0 120.673714,24.147383,0 120.673563,24.147383,0 120.673563,24.147420,0 120.673554,24.147436,0 120.673511,24.147444,0 120.673436,24.147509,0 120.673364,24.147570,0 120.673311,24.147616,0 120.673275,24.147640,0 120.673243,24.147636,0 120.673203,24.147636,0 120.673202,24.147658,0 120.673193,24.147708,0 120.673156,24.147822,0 120.672742,24.148174,0 120.672720,24.148152,0 120.672637,24.148222,0 120.672279,24.147878,0 120.671746,24.148332,0 120.671693,24.148242,0 120.671430,24.148028,0 120.671234,24.147876,0 120.671140,24.147876,0 120.671029,24.147878,0 120.670960,24.147878,0 120.670960,24.148007,0 120.670964,24.148434,0 120.670961,24.149004,0 120.670417,24.149020,0 120.669963,24.149019,0 120.669963,24.149109,0 120.669822,24.149109,0 120.669822,24.149189,0 120.669821,24.149240,0 120.669819,24.149496,0 120.669819,24.149564,0 120.669800,24.149630,0 120.669782,24.149697,0 120.669786,24.149988,0 120.669786,24.150236,0 120.669693,24.150236,0 120.669695,24.150324,0 120.669745,24.150378,0 120.669722,24.150460,0 120.669611,24.150620,0 120.669381,24.150760,0 120.669382,24.150813,0 120.669354,24.150813,0 120.669120,24.150814,0 120.669048,24.150836,0 120.668983,24.150858,0 120.668792,24.150858,0 120.668792,24.150797,0 120.668793,24.150707,0 120.668581,24.150707,0 120.668580,24.150794,0 120.668580,24.150858,0 120.668518,24.150857,0 120.668517,24.151194,0 120.668402,24.151283,0 120.668155,24.151437,0 120.667302,24.152002,0 120.666452,24.152541,0 120.666497,24.152585,0 120.666494,24.152622,0 120.666417,24.152695,0 120.666343,24.152765,0 120.666279,24.152746,0 120.666211,24.152690,0 120.665087,24.153356,0 120.665328,24.153586,0 120.665370,24.153630,0 120.665485,24.153745,0 120.665559,24.153817,0 120.665634,24.153876,0 120.665715,24.153939,0 120.666115,24.154341,0 120.666514,24.154694,0 120.666090,24.154945,0 120.666671,24.155544,0 120.666968,24.155331,0 120.667039,24.155262,0 120.667070,24.155186,0 120.667289,24.154994,0 120.667492,24.154818,0 120.667567,24.154749,0 120.667648,24.154671,0 120.667986,24.154375,0 120.668079,24.154294,0 120.668158,24.154226,0 120.668290,24.154110,0 120.668508,24.153931,0 120.668796,24.154215,0 120.669034,24.154014,0 120.669153,24.154129,0 120.669351,24.153953,0 120.669807,24.154374,0 120.669840,24.154328,0 120.670185,24.153850,0 120.670228,24.153788,0 120.670336,24.153642,0 120.670268,24.153591,0 120.670260,24.153568,0 120.670258,24.153555,0 120.670305,24.153497,0 120.670400,24.153400,0 120.670505,24.153265,0 120.670607,24.153135,0 120.670607,24.153236,0 120.670756,24.153039,0 120.670849,24.152911,0 120.671018,24.152687,0 120.671047,24.152646,0 120.671102,24.152570,0 120.671198,24.152434,0 120.671401,24.152195,0 120.672073,24.152200,0 120.673030,24.152202,0 120.673300,24.152203,0 120.673636,24.152199,0 120.674531,24.152198,0 120.675427,24.152191,0 120.675425,24.152490,0 120.676551,24.152493,0 120.676553,24.152667,0 120.676624,24.152668,0 120.677230,24.152683,0 120.677346,24.152814,0 120.677556,24.152838,0 120.678007,24.153011,0 120.678048,24.153027,0 120.678237,24.153100,0 120.678283,24.153118,0 120.678551,24.153220,0 120.678799,24.153316,0 120.679121,24.153440,0 120.679100,24.153731,0 120.679087,24.153899,0 120.679152,24.154085,0 120.679227,24.154260,0 120.679384,24.154420,0 120.679506,24.154512,0 120.679678,24.154615,0 120.680345,24.154980,0 120.680429,24.155026,0 120.680521,24.155078,0 120.681223,24.155494,0 120.681341,24.155562,0 120.681320,24.155602,0 120.681314,24.155650,0 120.681314,24.155719,0 120.681313,24.155824,0 120.681379,24.155939,0 120.681495,24.155962,0 120.681598,24.155982,0 120.681670,24.155999,0 120.681460,24.156525,0 120.681427,24.156667,0 120.681440,24.156726,0 120.681497,24.156840,0 120.681398,24.157305,0 120.681343,24.157323,0 120.681288,24.157341,0 120.681277,24.157406,0 120.681270,24.157482,0 120.681207,24.157689,0 120.681084,24.157668,0 120.681023,24.157927,0 120.680359,24.157922,0 120.680098,24.157796,0 120.679957,24.157775,0 120.679957,24.157866,0 120.679959,24.158183,0 120.679961,24.158568,0 120.679960,24.158752,0 120.679959,24.159125,0 120.679964,24.159579,0 120.679571,24.159584,0 120.679203,24.159588,0 120.679211,24.159783,0 120.678649,24.159794,0 120.678591,24.160377,0 120.677846,24.160388,0 120.677472,24.160390,0 120.676600,24.160407,0 120.676341,24.160411,0 120.675985,24.160414,0 120.675480,24.160431,0 120.675305,24.160429,0 120.674601,24.160436,0 120.674462,24.160438,0 120.674064,24.160436,0 120.673799,24.160435,0 120.672588,24.160433,0 120.672569,24.160433,0 120.672190,24.160432,0 120.672191,24.160394,0 120.672084,24.160396,0 120.672085,24.160025,0 120.672086,24.159678,0 120.672083,24.159205,0 120.672083,24.159149,0 120.672083,24.158468,0 120.671693,24.158464,0 120.670944,24.158446,0 120.670614,24.158446,0 120.670612,24.158525,0 120.670510,24.158526,0 120.670509,24.159123,0 120.670365,24.159123,0 120.670366,24.159201,0 120.670098,24.159201,0 120.669817,24.159209,0 120.669738,24.159209,0 120.669154,24.159214,0 120.669191,24.159339,0 120.669195,24.159745,0
</coordinates></LineString></Placemark>
</Document></kml>