<?xml version="1.0" encoding="UTF-8"?>
<kml xmlns="http://www.opengis.net/kml/2.2"><Document>
<name>西區 貓臉（正面） 圖形路跑路線</name>
<Style id="r"><LineStyle><color>ff2000d6</color><width>4</width></LineStyle></Style>
<Placemark><name>風采</name><description>地標</description><Point><coordinates>120.668136,24.160945,0</coordinates></Point></Placemark>
<Placemark><name>中德公園</name><description>地標</description><Point><coordinates>120.668492,24.163706,0</coordinates></Point></Placemark>
<Placemark><name>太原公園</name><description>地標</description><Point><coordinates>120.670244,24.165561,0</coordinates></Point></Placemark>
<Placemark><name>西區 貓臉（正面） 圖形路跑路線</name><styleUrl>#r</styleUrl><LineString><tessellate>1</tessellate><coordinates>
120.666256,24.159215,0 120.666623,24.159215,0 120.666630,24.159548,0 120.666591,24.159696,0 120.666941,24.159786,0 120.667191,24.159832,0 120.667468,24.159849,0 120.667472,24.160429,0 120.667979,24.160426,0 120.668063,24.160429,0 120.668658,24.160425,0 120.669203,24.160433,0 120.669205,24.161008,0 120.669206,24.161601,0 120.669904,24.161602,0 120.669948,24.161892,0 120.669914,24.161996,0 120.669854,24.162170,0 120.669859,24.162342,0 120.669880,24.162429,0 120.669899,24.162651,0 120.669904,24.162841,0 120.670315,24.162840,0 120.670321,24.162941,0 120.670318,24.163007,0 120.670397,24.163009,0 120.670451,24.163017,0 120.670484,24.163030,0 120.670532,24.163030,0 120.670530,24.163062,0 120.670527,24.163459,0 120.670529,24.163662,0 120.670528,24.164236,0 120.670529,24.164442,0 120.670535,24.164807,0 120.670539,24.164905,0 120.670545,24.165160,0 120.670910,24.165158,0 120.671351,24.165152,0 120.671347,24.165593,0 120.671340,24.165885,0 120.671337,24.166040,0 120.671339,24.166276,0 120.672128,24.166280,0 120.672132,24.165874,0 120.672146,24.165656,0 120.672165,24.165345,0 120.672182,24.165152,0 120.672176,24.164909,0 120.672695,24.164894,0 120.673687,24.164907,0 120.673894,24.164868,0 120.674008,24.164849,0 120.674184,24.164855,0 120.674629,24.164980,0 120.674757,24.164552,0 120.674932,24.164039,0 120.675040,24.163692,0 120.675230,24.163139,0 120.675069,24.163106,0 120.675006,24.163104,0 120.674943,24.163108,0 120.674881,24.163120,0 120.674821,24.163137,0 120.674763,24.163162,0 120.674751,24.163140,0 120.674727,24.163135,0 120.674736,24.163057,0 120.674747,24.163024,0 120.674786,24.162908,0 120.674806,24.162852,0 120.674828,24.162812,0 120.674867,24.162782,0 120.674897,24.162767,0 120.674856,24.162694,0 120.674822,24.162618,0 120.674795,24.162540,0 120.674868,24.162319,0 120.675072,24.161692,0 120.675570,24.161713,0 120.675793,24.161489,0 120.675878,24.161385,0 120.675919,24.161257,0 120.675947,24.161085,0 120.675985,24.160414,0 120.676341,24.160411,0 120.676600,24.160407,0 120.677472,24.160390,0 120.677846,24.160388,0 120.678591,24.160377,0 120.679220,24.160361,0 120.679973,24.160358,0 120.679964,24.159579,0 120.679959,24.159125,0 120.680648,24.159112,0 120.680969,24.159103,0 120.681492,24.159093,0 120.681704,24.159091,0 120.681884,24.159089,0 120.682350,24.159084,0 120.683051,24.159076,0 120.683097,24.159076,0 120.683042,24.158642,0 120.683672,24.158625,0 120.683671,24.158421,0 120.683665,24.157649,0 120.683738,24.157649,0 120.684409,24.157643,0 120.684891,24.157638,0 120.684891,24.157580,0 120.684915,24.157480,0 120.684917,24.157313,0 120.684946,24.157242,0 120.685090,24.156922,0 120.685121,24.156848,0 120.685453,24.156085,0 120.685488,24.155957,0 120.685511,24.155906,0 120.685544,24.155843,0 120.685604,24.155730,0 120.685787,24.155346,0 120.685807,24.155305,0 120.685817,24.155280,0 120.686008,24.154834,0 120.686086,24.154870,0 120.686187,24.154920,0 120.686266,24.154967,0 120.686310,24.154981,0 120.686376,24.154913,0 120.686449,24.154840,0 120.686478,24.154811,0 120.686519,24.154738,0 120.686451,24.154625,0 120.686413,24.154550,0 120.686773,24.154431,0 120.687097,24.154320,0 120.686955,24.153978,0 120.686850,24.153712,0 120.686747,24.153447,0 120.686656,24.153162,0 120.686514,24.152822,0 120.686353,24.152455,0 120.686033,24.151674,0 120.685841,24.151215,0 120.685743,24.150980,0 120.685778,24.150961,0 120.685915,24.150896,0 120.685986,24.150813,0 120.686186,24.150732,0 120.685989,24.150264,0 120.685858,24.149974,0 120.685739,24.149699,0 120.686197,24.149526,0 120.686250,24.149404,0 120.686188,24.149272,0 120.686158,24.149268,0 120.686125,24.149254,0 120.686093,24.149223,0 120.687143,24.148872,0 120.687229,24.148842,0 120.687075,24.148476,0 120.686811,24.147870,0 120.686496,24.147199,0 120.686175,24.146505,0 120.686157,24.146392,0 120.686182,24.146245,0 120.686218,24.146127,0 120.686419,24.146159,0 120.686961,24.146282,0 120.686900,24.146088,0 120.686836,24.146044,0 120.686775,24.146017,0 120.686565,24.145976,0 120.686581,24.145923,0 120.686648,24.145913,0 120.686700,24.145946,0 120.686812,24.145989,0 120.686858,24.145981,0 120.686835,24.145784,0 120.686602,24.145362,0 120.686381,24.144937,0 120.686293,24.144631,0 120.686214,24.144649,0 120.686086,24.144670,0 120.686066,24.144605,0 120.686057,24.144578,0 120.686006,24.144423,0 120.685901,24.144081,0 120.685725,24.143487,0 120.685571,24.143513,0 120.685527,24.143490,0 120.685421,24.143416,0 120.685323,24.143337,0 120.685295,24.143305,0 120.685121,24.143474,0 120.684980,24.143581,0 120.684935,24.143400,0 120.684685,24.142943,0 120.684723,24.142862,0 120.684723,24.142792,0 120.684663,24.142748,0 120.684663,24.142722,0 120.684609,24.142701,0 120.684486,24.142566,0 120.684474,24.142529,0 120.684426,24.142268,0 120.684034,24.141884,0 120.683985,24.141835,0 120.683661,24.141518,0 120.684488,24.140794,0 120.684341,24.140652,0 120.684115,24.140421,0 120.683761,24.140079,0 120.683121,24.139473,0 120.683159,24.139439,0 120.683157,24.139413,0 120.683092,24.139346,0 120.683008,24.139261,0 120.682949,24.139314,0 120.682272,24.138637,0 120.681931,24.138335,0 120.681900,24.138294,0 120.681863,24.138258,0 120.681586,24.138489,0 120.681262,24.138155,0 120.681133,24.138268,0 120.680764,24.137912,0 120.680693,24.137849,0 120.680625,24.137784,0 120.680360,24.137525,0 120.679956,24.137137,0 120.679578,24.136782,0 120.679244,24.137077,0 120.679162,24.137149,0 120.679044,24.137033,0 120.678421,24.136431,0 120.678352,24.136371,0 120.677938,24.135973,0 120.677711,24.135754,0 120.677499,24.135549,0 120.676937,24.135004,0 120.676115,24.135719,0 120.675903,24.135905,0 120.675828,24.135817,0 120.675602,24.135585,0 120.675234,24.135232,0 120.675117,24.135110,0 120.674816,24.134811,0 120.674682,24.134680,0 120.674412,24.134425,0 120.673879,24.134867,0 120.673822,24.134915,0 120.673764,24.134966,0 120.673686,24.134891,0 120.673742,24.134837,0 120.673718,24.134814,0 120.673533,24.134641,0 120.673268,24.134395,0 120.673066,24.134201,0 120.671994,24.135122,0 120.671708,24.134851,0 120.671250,24.134405,0 120.670776,24.134820,0 120.670303,24.135234,0 120.669933,24.134879,0 120.669637,24.135158,0 120.669389,24.135071,0 120.669346,24.135060,0 120.669156,24.135020,0 120.668945,24.135003,0 120.668588,24.135312,0 120.668072,24.135766,0 120.667520,24.136250,0 120.667455,24.136304,0 120.667391,24.136246,0 120.667378,24.136259,0 120.667162,24.136448,0 120.667158,24.136449,0 120.667147,24.136449,0 120.667134,24.136443,0 120.667048,24.136460,0 120.666935,24.136469,0 120.666979,24.136548,0 120.666514,24.136551,0 120.665919,24.136550,0 120.665918,24.136460,0 120.665761,24.136462,0 120.665661,24.136464,0 120.665652,24.135866,0 120.665189,24.135869,0 120.664799,24.135863,0 120.664231,24.135870,0 120.664229,24.135931,0 120.664153,24.135935,0 120.664113,24.135935,0 120.664105,24.135935,0 120.664106,24.136055,0 120.664108,24.136337,0 120.664108,24.136386,0 120.664073,24.136438,0 120.663967,24.136440,0 120.663947,24.136440,0 120.663932,24.136441,0 120.663867,24.136442,0 120.663804,24.136441,0 120.663784,24.136443,0 120.663780,24.136458,0 120.663781,24.136550,0 120.663577,24.136550,0 120.663304,24.136551,0 120.663304,24.136655,0 120.663285,24.136655,0 120.663238,24.136656,0 120.663211,24.136683,0 120.663203,24.136677,0 120.663195,24.136669,0 120.663113,24.136670,0 120.663060,24.136670,0 120.663020,24.136678,0 120.662863,24.136679,0 120.662792,24.136679,0 120.662716,24.136679,0 120.662702,24.136679,0 120.662615,24.136680,0 120.662554,24.136680,0 120.662534,24.136681,0 120.662507,24.136662,0 120.662239,24.136662,0 120.662219,24.136652,0 120.662187,24.136652,0 120.662135,24.136651,0 120.662107,24.136651,0 120.662061,24.136651,0 120.662016,24.136651,0 120.661972,24.136651,0 120.661926,24.136651,0 120.661878,24.136651,0 120.661871,24.136651,0 120.661845,24.136673,0 120.661818,24.136696,0 120.661800,24.136711,0 120.661801,24.136767,0 120.661801,24.136773,0 120.661801,24.136826,0 120.661801,24.136868,0 120.661801,24.136907,0 120.661801,24.136949,0 120.661801,24.137008,0 120.661801,24.137055,0 120.661802,24.137105,0 120.661804,24.137315,0 120.661804,24.137345,0 120.661804,24.137401,0 120.661804,24.137444,0 120.661804,24.137483,0 120.661805,24.137523,0 120.661805,24.137566,0 120.661805,24.137604,0 120.661805,24.137646,0 120.661805,24.137687,0 120.661806,24.137726,0 120.661806,24.137765,0 120.661806,24.137804,0 120.661806,24.137840,0 120.661806,24.137859,0 120.661816,24.137868,0 120.661806,24.137877,0 120.661798,24.137883,0 120.661798,24.137962,0 120.661800,24.138050,0 120.661693,24.138051,0 120.661693,24.138337,0 120.661693,24.138425,0 120.660189,24.138424,0 120.660190,24.138669,0 120.660190,24.138843,0 120.660190,24.138946,0 120.660190,24.139269,0 120.660190,24.140037,0 120.659615,24.140034,0 120.658834,24.140028,0 120.658834,24.140126,0 120.658833,24.140675,0 120.658833,24.140866,0 120.658833,24.141253,0 120.658833,24.141403,0 120.658833,24.141560,0 120.657357,24.141558,0 120.657254,24.141559,0 120.655958,24.141563,0 120.655959,24.141908,0 120.655991,24.142196,0 120.656040,24.142366,0 120.656093,24.142499,0 120.656221,24.142676,0 120.656355,24.142814,0 120.656535,24.142949,0 120.656441,24.142979,0 120.656211,24.143174,0 120.656140,24.143217,0 120.656213,24.143237,0 120.656445,24.143392,0 120.656561,24.143499,0 120.656630,24.143589,0 120.656685,24.143698,0 120.656737,24.143818,0 120.656757,24.143919,0 120.656773,24.144022,0 120.656775,24.144117,0 120.656772,24.144229,0 120.656769,24.144954,0 120.656769,24.145530,0 120.656187,24.145530,0 120.655712,24.145529,0 120.655684,24.145556,0 120.655683,24.146131,0 120.655129,24.146131,0 120.655132,24.146303,0 120.655131,24.146706,0 120.655142,24.147240,0 120.655142,24.147765,0 120.655225,24.147782,0 120.656762,24.147781,0 120.656763,24.147943,0 120.656764,24.148280,0 120.656763,24.148797,0 120.656767,24.149287,0 120.656768,24.149598,0 120.656767,24.149789,0 120.656765,24.150300,0 120.656762,24.150845,0 120.657157,24.150846,0 120.657264,24.150849,0 120.657265,24.150974,0 120.657275,24.152361,0 120.657275,24.152531,0 120.657389,24.152529,0 120.657934,24.152545,0 120.657927,24.153108,0 120.657932,24.153311,0 120.657937,24.153402,0 120.658005,24.153575,0 120.658067,24.153682,0 120.658144,24.153804,0 120.658204,24.153899,0 120.658618,24.154535,0 120.659016,24.155147,0 120.658618,24.155374,0 120.658521,24.155421,0 120.658733,24.155741,0 120.658320,24.155950,0 120.658251,24.155973,0 120.658100,24.155927,0 120.657640,24.155789,0 120.657451,24.155895,0 120.656619,24.156337,0 120.656886,24.156732,0 120.657119,24.157082,0 120.657138,24.157111,0 120.657302,24.157363,0 120.657470,24.157625,0 120.657657,24.157908,0 120.657586,24.157941,0 120.657563,24.158005,0 120.657589,24.158044,0 120.657198,24.158249,0 120.656958,24.158379,0 120.656058,24.158888,0 120.656128,24.159003,0 120.656179,24.159086,0 120.656229,24.159169,0 120.656243,24.159192,0 120.656290,24.159270,0 120.656233,24.159346,0 120.656106,24.159414,0 120.656186,24.159640,0 120.656250,24.159831,0 120.656276,24.159920,0 120.656852,24.159621,0 120.657184,24.159432,0 120.657739,24.159128,0 120.658350,24.160016,0 120.658475,24.159947,0 120.658782,24.160379,0 120.659142,24.160177,0 120.659500,24.159976,0 120.659567,24.159940,0 120.659923,24.159749,0 120.660248,24.159564,0 120.660604,24.159371,0 120.660977,24.159164,0 120.661062,24.159126,0 120.661402,24.158936,0 120.661549,24.158853,0 120.661901,24.158646,0 120.661967,24.158746,0 120.662312,24.158573,0 120.662578,24.158981,0 120.662630,24.158950,0 120.662826,24.158848,0 120.662987,24.159046,0 120.663637,24.158712,0 120.663722,24.158665,0 120.664132,24.158447,0 120.664209,24.158399,0 120.664367,24.158295,0 120.664384,24.158318,0 120.664441,24.158394,0 120.664506,24.158465,0 120.664566,24.158529,0 120.664634,24.158601,0 120.664674,24.158638,0 120.664727,24.158678,0 120.664811,24.158744,0 120.664892,24.158810,0 120.664994,24.158871,0 120.665104,24.158936,0 120.665201,24.158987,0 120.665267,24.159015,0 120.665376,24.159068,0 120.665478,24.159098,0 120.665560,24.159124,0 120.665627,24.159139,0 120.665741,24.159167,0 120.665886,24.159190,0 120.666256,24.159215,0
</coordinates></LineString></Placemark>
</Document></kml>