<?xml version="1.0" encoding="UTF-8"?>
<kml xmlns="http://www.opengis.net/kml/2.2"><Document>
<name>西區 貓臉（正面） 圖形路跑路線</name>
<Style id="r"><LineStyle><color>ff2000d6</color><width>4</width></LineStyle></Style>
<Placemark><name>育德園道</name><description>地標</description><Point><coordinates>120.678394,24.157368,0</coordinates></Point></Placemark>
<Placemark><name>育德園道</name><description>地標</description><Point><coordinates>120.679419,24.157377,0</coordinates></Point></Placemark>
<Placemark><name>尚德公園</name><description>地標</description><Point><coordinates>120.677372,24.158618,0</coordinates></Point></Placemark>
<Placemark><name>西區 貓臉（正面） 圖形路跑路線</name><styleUrl>#r</styleUrl><LineString><tessellate>1</tessellate><coordinates>
120.676035,24.155129,0 120.676038,24.154876,0 120.676038,24.154732,0 120.676041,24.154611,0 120.676246,24.154626,0 120.676447,24.154688,0 120.677131,24.154874,0 120.676948,24.155534,0 120.676924,24.155605,0 120.677036,24.155606,0 120.677168,24.155607,0 120.677179,24.155616,0 120.677153,24.155726,0 120.678030,24.155723,0 120.678798,24.155720,0 120.678974,24.155719,0 120.678974,24.155841,0 120.679050,24.155838,0 120.679034,24.156108,0 120.678976,24.156510,0 120.678953,24.156743,0 120.678923,24.157048,0 120.678920,24.157088,0 120.678915,24.157134,0 120.678905,24.157239,0 120.678902,24.157300,0 120.678893,24.157506,0 120.678890,24.157592,0 120.678885,24.157636,0 120.678851,24.157871,0 120.678810,24.158207,0 120.679959,24.158183,0 120.679957,24.157866,0 120.679957,24.157775,0 120.679959,24.157511,0 120.680063,24.157515,0 120.680078,24.157407,0 120.680534,24.157439,0 120.680525,24.157535,0 120.680965,24.157548,0 120.680947,24.157640,0 120.681084,24.157668,0 120.681207,24.157689,0 120.681270,24.157482,0 120.681277,24.157406,0 120.681288,24.157341,0 120.681343,24.157323,0 120.681398,24.157305,0 120.681497,24.156840,0 120.681440,24.156726,0 120.681427,24.156667,0 120.681460,24.156525,0 120.681670,24.155999,0 120.681746,24.155808,0 120.681649,24.155709,0 120.681555,24.155643,0 120.681473,24.155591,0 120.681567,24.155395,0 120.681604,24.155321,0 120.681654,24.155220,0 120.681703,24.155242,0 120.682020,24.154559,0 120.682899,24.154898,0 120.683172,24.154302,0 120.683983,24.154611,0 120.684005,24.154561,0 120.684085,24.154590,0 120.684304,24.154113,0 120.684213,24.154079,0 120.684254,24.153987,0 120.684293,24.153899,0 120.684314,24.153853,0 120.684467,24.153898,0 120.684578,24.153941,0 120.684680,24.153880,0 120.684921,24.153795,0 120.684792,24.153418,0 120.684644,24.153061,0 120.684927,24.152960,0 120.684909,24.152916,0 120.685218,24.152810,0 120.685237,24.152759,0 120.685288,24.152739,0 120.685398,24.152699,0 120.685296,24.152457,0 120.685099,24.151986,0 120.685534,24.151848,0 120.686033,24.151674,0 120.685841,24.151215,0 120.685743,24.150980,0 120.685778,24.150961,0 120.685915,24.150896,0 120.685986,24.150813,0 120.686186,24.150732,0 120.685989,24.150264,0 120.685858,24.149974,0 120.685739,24.149699,0 120.686197,24.149526,0 120.686250,24.149404,0 120.686188,24.149272,0 120.686158,24.149268,0 120.686125,24.149254,0 120.686093,24.149223,0 120.685875,24.148658,0 120.685712,24.148264,0 120.685440,24.147586,0 120.685472,24.147575,0 120.685245,24.147034,0 120.684998,24.147125,0 120.684245,24.147399,0 120.684140,24.147148,0 120.683996,24.146805,0 120.683939,24.146668,0 120.683835,24.146420,0 120.683835,24.146325,0 120.683866,24.146222,0 120.683598,24.146129,0 120.683706,24.145993,0 120.684105,24.145177,0 120.684100,24.145063,0 120.683909,24.144980,0 120.683891,24.144867,0 120.683877,24.144782,0 120.683765,24.144728,0 120.683629,24.144662,0 120.683608,24.144627,0 120.683474,24.144386,0 120.683266,24.143922,0 120.683012,24.143738,0 120.682870,24.143636,0 120.682082,24.142895,0 120.681756,24.143179,0 120.681347,24.143536,0 120.680992,24.143180,0 120.680629,24.142804,0 120.680253,24.142443,0 120.679907,24.142118,0 120.679658,24.142333,0 120.679592,24.142270,0 120.679574,24.142286,0 120.679528,24.142283,0 120.679518,24.142271,0 120.679452,24.142329,0 120.679387,24.142386,0 120.679379,24.142427,0 120.679331,24.142379,0 120.679241,24.142431,0 120.679185,24.142477,0 120.678813,24.142380,0 120.678812,24.142382,0 120.678806,24.142389,0 120.678798,24.142395,0 120.678789,24.142398,0 120.678780,24.142399,0 120.678771,24.142398,0 120.678763,24.142394,0 120.678755,24.142388,0 120.678560,24.142557,0 120.678541,24.142538,0 120.678422,24.142631,0 120.678397,24.142635,0 120.678055,24.142303,0 120.677832,24.142496,0 120.677587,24.142704,0 120.677552,24.142631,0 120.677490,24.142678,0 120.677421,24.142734,0 120.677380,24.142796,0 120.677162,24.142990,0 120.677118,24.142990,0 120.677121,24.142956,0 120.677141,24.142924,0 120.677196,24.142899,0 120.677197,24.142805,0 120.677172,24.142748,0 120.677146,24.142713,0 120.677091,24.142663,0 120.677038,24.142618,0 120.677018,24.142565,0 120.676997,24.142502,0 120.676974,24.142434,0 120.676927,24.142394,0 120.676782,24.142276,0 120.676736,24.142309,0 120.676652,24.142306,0 120.676642,24.142294,0 120.676566,24.142347,0 120.676503,24.142401,0 120.676451,24.142346,0 120.675839,24.142878,0 120.675473,24.143201,0 120.675060,24.143549,0 120.674766,24.143813,0 120.674517,24.144023,0 120.674169,24.143671,0 120.673857,24.143364,0 120.673760,24.143270,0 120.673673,24.143346,0 120.673654,24.143362,0 120.673259,24.143699,0 120.672905,24.144016,0 120.672652,24.144244,0 120.672533,24.144351,0 120.672374,24.144492,0 120.672336,24.144524,0 120.672275,24.144574,0 120.672206,24.144631,0 120.672054,24.144772,0 120.671892,24.144923,0 120.671976,24.145005,0 120.671928,24.145048,0 120.672233,24.145340,0 120.671692,24.145827,0 120.671392,24.145534,0 120.671318,24.145595,0 120.671570,24.145844,0 120.671970,24.146227,0 120.671586,24.146573,0 120.671245,24.146882,0 120.670948,24.147006,0 120.670951,24.147326,0 120.670961,24.147758,0 120.670960,24.147878,0 120.670960,24.148007,0 120.670964,24.148434,0 120.670961,24.149004,0 120.670968,24.149555,0 120.670385,24.149565,0 120.669961,24.149565,0 120.669961,24.149633,0 120.669838,24.149631,0 120.669857,24.149695,0 120.669859,24.149854,0 120.669859,24.150368,0 120.669859,24.150380,0 120.669924,24.150381,0 120.670071,24.150444,0 120.670107,24.150473,0 120.670157,24.150521,0 120.670242,24.150602,0 120.670303,24.150660,0 120.670348,24.150704,0 120.670319,24.150732,0 120.670266,24.150824,0 120.670310,24.150891,0 120.670542,24.151116,0 120.670583,24.151170,0 120.670486,24.151256,0 120.670494,24.151339,0 120.670500,24.151400,0 120.670501,24.151504,0 120.670615,24.151501,0 120.670615,24.151559,0 120.670856,24.151559,0 120.670943,24.151932,0 120.670947,24.152189,0 120.671331,24.152191,0 120.671401,24.152195,0 120.672073,24.152200,0 120.672069,24.153053,0 120.672065,24.153375,0 120.672067,24.153787,0 120.671782,24.153787,0 120.670668,24.153790,0 120.670615,24.153802,0 120.670607,24.153866,0 120.670503,24.153880,0 120.670505,24.154201,0 120.670505,24.154564,0 120.670502,24.155231,0 120.670502,24.155623,0 120.670615,24.155621,0 120.670620,24.155723,0 120.670683,24.155725,0 120.670696,24.155773,0 120.670734,24.155805,0 120.671079,24.156194,0 120.671146,24.156154,0 120.671234,24.156131,0 120.671415,24.156111,0 120.671737,24.156071,0 120.672091,24.156082,0 120.672095,24.155824,0 120.672178,24.155811,0 120.672188,24.155726,0 120.672820,24.155727,0 120.672864,24.155727,0 120.673052,24.155726,0 120.673574,24.155725,0 120.673577,24.155626,0 120.673644,24.155626,0 120.673644,24.155403,0 120.673639,24.155090,0 120.674347,24.155080,0 120.674949,24.155062,0 120.675037,24.155356,0 120.675130,24.155628,0 120.675340,24.155625,0 120.675385,24.155625,0 120.675413,24.155434,0 120.675430,24.154865,0 120.676038,24.154876,0 120.676035,24.155129,0
</coordinates></LineString></Placemark>
</Document></kml>