<?xml version="1.0" encoding="UTF-8"?>
<kml xmlns="http://www.opengis.net/kml/2.2"><Document>
<name>西區 手繪蹲坐貓（原稿描圖） 圖形路跑路線</name>
<Style id="r"><LineStyle><color>ff2000d6</color><width>4</width></LineStyle></Style>
<Placemark><name>公益公園</name><description>地標</description><Point><coordinates>120.657923,24.150373,0</coordinates></Point></Placemark>
<Placemark><name>東興公園</name><description>地標</description><Point><coordinates>120.653714,24.154543,0</coordinates></Point></Placemark>
<Placemark><name>大安公園</name><description>地標</description><Point><coordinates>120.654503,24.157864,0</coordinates></Point></Placemark>
<Placemark><name>西區 手繪蹲坐貓（原稿描圖） 圖形路跑路線</name><styleUrl>#r</styleUrl><LineString><tessellate>1</tessellate><coordinates>
120.660061,24.138450,0 120.659503,24.138445,0 120.658837,24.138445,0 120.658838,24.138671,0 120.658839,24.138956,0 120.658839,24.139280,0 120.658840,24.139621,0 120.658139,24.139622,0 120.658140,24.140043,0 120.658834,24.140028,0 120.658834,24.140126,0 120.658833,24.140675,0 120.658833,24.140866,0 120.658833,24.141253,0 120.658833,24.141403,0 120.658833,24.141560,0 120.658833,24.142054,0 120.658833,24.142465,0 120.658832,24.142947,0 120.658832,24.143380,0 120.658832,24.143845,0 120.658832,24.144317,0 120.658832,24.144923,0 120.658831,24.145545,0 120.658831,24.145562,0 120.659481,24.145791,0 120.659482,24.146142,0 120.659482,24.146303,0 120.659481,24.146708,0 120.659517,24.146708,0 120.659518,24.147308,0 120.659518,24.147865,0 120.659514,24.148453,0 120.659513,24.148659,0 120.659515,24.149022,0 120.659513,24.149276,0 120.659516,24.149633,0 120.659522,24.149913,0 120.659520,24.150193,0 120.659084,24.150192,0 120.658875,24.150189,0 120.658829,24.150185,0 120.658829,24.150422,0 120.658861,24.150534,0 120.658863,24.150733,0 120.658829,24.150757,0 120.658822,24.150844,0 120.658832,24.150982,0 120.658871,24.150982,0 120.658896,24.151452,0 120.658899,24.151720,0 120.658899,24.151988,0 120.658900,24.152259,0 120.658901,24.152534,0 120.658839,24.152540,0 120.658504,24.152544,0 120.658454,24.152540,0 120.657934,24.152545,0 120.657389,24.152529,0 120.657275,24.152531,0 120.657275,24.152361,0 120.656633,24.152361,0 120.656634,24.152783,0 120.656060,24.152780,0 120.655117,24.152788,0 120.655116,24.152927,0 120.654664,24.152926,0 120.654340,24.152926,0 120.653869,24.152925,0 120.653871,24.153588,0 120.653023,24.153588,0 120.653024,24.154291,0 120.653051,24.154475,0 120.653084,24.154545,0 120.653118,24.154598,0 120.653224,24.154764,0 120.653502,24.155199,0 120.653863,24.155763,0 120.654494,24.155426,0 120.655212,24.156536,0 120.655484,24.156956,0 120.655722,24.157324,0 120.655844,24.157512,0 120.655987,24.157734,0 120.656533,24.157442,0 120.657138,24.157111,0 120.657302,24.157363,0 120.657470,24.157625,0 120.657657,24.157908,0 120.657586,24.157941,0 120.657563,24.158005,0 120.657589,24.158044,0 120.657668,24.158162,0 120.657725,24.158248,0 120.657800,24.158361,0 120.657818,24.158388,0 120.657872,24.158424,0 120.657962,24.158373,0 120.658263,24.158834,0 120.657739,24.159128,0 120.657184,24.159432,0 120.657418,24.159782,0 120.656976,24.160009,0 120.657189,24.160674,0 120.656643,24.160991,0 120.656799,24.161489,0 120.656814,24.161538,0 120.656832,24.161593,0 120.657199,24.162668,0 120.657874,24.162298,0 120.658342,24.162047,0 120.658761,24.161821,0 120.659312,24.161493,0 120.659824,24.161220,0 120.660263,24.160979,0 120.660616,24.160785,0 120.660948,24.160603,0 120.661284,24.160418,0 120.661666,24.160209,0 120.661740,24.160174,0 120.661357,24.159581,0 120.661676,24.159383,0 120.661402,24.158936,0 120.661549,24.158853,0 120.661901,24.158646,0 120.661967,24.158746,0 120.662312,24.158573,0 120.662578,24.158981,0 120.662630,24.158950,0 120.662826,24.158848,0 120.662987,24.159046,0 120.663637,24.158712,0 120.663722,24.158665,0 120.664132,24.158447,0 120.664209,24.158399,0 120.664367,24.158295,0 120.664342,24.158259,0 120.664308,24.158212,0 120.664253,24.158129,0 120.664088,24.157920,0 120.664219,24.157830,0 120.664268,24.157797,0 120.664330,24.157763,0 120.664219,24.157633,0 120.664857,24.157170,0 120.664950,24.157276,0 120.665107,24.157159,0 120.665134,24.157137,0 120.664985,24.156970,0 120.666004,24.156248,0 120.665907,24.156226,0 120.666075,24.156109,0 120.666239,24.155999,0 120.666271,24.155963,0 120.666205,24.155894,0 120.666278,24.155844,0 120.666671,24.155544,0 120.666968,24.155331,0 120.667039,24.155262,0 120.667070,24.155186,0 120.667289,24.154994,0 120.667492,24.154818,0 120.667567,24.154749,0 120.667648,24.154671,0 120.667986,24.154375,0 120.668079,24.154294,0 120.668158,24.154226,0 120.668290,24.154110,0 120.668508,24.153931,0 120.668796,24.154215,0 120.669034,24.154014,0 120.669153,24.154129,0 120.669351,24.153953,0 120.669807,24.154374,0 120.669840,24.154328,0 120.670185,24.153850,0 120.670228,24.153788,0 120.670419,24.153848,0 120.670501,24.153824,0 120.670503,24.153880,0 120.670607,24.153866,0 120.670615,24.153802,0 120.670668,24.153790,0 120.671782,24.153787,0 120.672067,24.153787,0 120.672065,24.153375,0 120.672069,24.153053,0 120.672073,24.152200,0 120.673030,24.152202,0 120.673300,24.152203,0 120.673636,24.152199,0 120.673640,24.151575,0 120.673638,24.150940,0 120.674359,24.150936,0 120.674361,24.150516,0 120.674393,24.150467,0 120.674425,24.150433,0 120.674698,24.150206,0 120.674221,24.149748,0 120.674572,24.149424,0 120.674719,24.149296,0 120.674946,24.149090,0 120.675053,24.149021,0 120.675581,24.148558,0 120.676085,24.148112,0 120.675703,24.147776,0 120.675340,24.147422,0 120.675563,24.147190,0 120.675190,24.146814,0 120.675430,24.146585,0 120.675122,24.146277,0 120.675019,24.146141,0 120.675032,24.145849,0 120.675098,24.145578,0 120.675166,24.145291,0 120.675203,24.145136,0 120.675216,24.144914,0 120.675162,24.144827,0 120.675254,24.144734,0 120.675224,24.144704,0 120.675295,24.144461,0 120.675316,24.144323,0 120.675364,24.144001,0 120.675454,24.143925,0 120.675060,24.143549,0 120.675473,24.143201,0 120.675839,24.142878,0 120.675461,24.142507,0 120.675175,24.142228,0 120.675078,24.142134,0 120.675130,24.142085,0 120.675365,24.141866,0 120.675285,24.141794,0 120.675283,24.141752,0 120.675390,24.141654,0 120.675445,24.141599,0 120.675614,24.141642,0 120.675757,24.141688,0 120.675773,24.141701,0 120.676170,24.141905,0 120.676496,24.142170,0 120.676532,24.142175,0 120.676564,24.142154,0 120.676776,24.141971,0 120.676799,24.141952,0 120.676587,24.141784,0 120.676564,24.141801,0 120.676685,24.141940,0 120.676648,24.142001,0 120.676667,24.142017,0 120.676876,24.142168,0 120.676889,24.142178,0 120.676983,24.142252,0 120.677042,24.142320,0 120.677058,24.142375,0 120.677064,24.142387,0 120.677136,24.142370,0 120.677185,24.142363,0 120.677222,24.142407,0 120.677421,24.142734,0 120.677490,24.142678,0 120.677552,24.142631,0 120.677587,24.142704,0 120.677832,24.142496,0 120.678055,24.142303,0 120.678397,24.142635,0 120.678422,24.142631,0 120.678541,24.142538,0 120.678560,24.142557,0 120.678755,24.142388,0 120.678751,24.142383,0 120.678747,24.142376,0 120.678746,24.142368,0 120.678746,24.142366,0 120.678747,24.142359,0 120.678751,24.142351,0 120.678757,24.142344,0 120.678765,24.142339,0 120.678766,24.142339,0 120.678765,24.142336,0 120.678672,24.141979,0 120.678720,24.141934,0 120.678993,24.142198,0 120.679241,24.142431,0 120.679331,24.142379,0 120.679379,24.142427,0 120.679387,24.142386,0 120.679452,24.142329,0 120.679518,24.142271,0 120.679528,24.142283,0 120.679574,24.142286,0 120.679592,24.142270,0 120.679658,24.142333,0 120.679907,24.142118,0 120.680253,24.142443,0 120.680652,24.142075,0 120.681033,24.142452,0 120.681363,24.142181,0 120.681742,24.141834,0 120.682117,24.141507,0 120.682491,24.141867,0 120.682856,24.142220,0 120.683176,24.142534,0 120.683625,24.142962,0 120.684426,24.142268,0 120.685255,24.141502,0 120.685684,24.141517,0 120.685679,24.141671,0 120.685678,24.141684,0 120.685763,24.141687,0 120.685918,24.141694,0 120.686068,24.141700,0 120.686103,24.141685,0 120.686100,24.141565,0 120.686877,24.141541,0 120.687337,24.141529,0 120.687570,24.141518,0 120.687599,24.142279,0 120.689233,24.142235,0 120.689204,24.141481,0 120.689186,24.140971,0 120.689166,24.140095,0 120.688383,24.140118,0 120.688154,24.140121,0 120.687799,24.140124,0 120.687288,24.140133,0 120.686804,24.140141,0 120.686000,24.140155,0 120.685860,24.140144,0 120.685733,24.140139,0 120.685744,24.139837,0 120.685752,24.139823,0 120.685492,24.139703,0 120.685138,24.139999,0 120.684887,24.139759,0 120.684492,24.140090,0 120.684115,24.140421,0 120.683761,24.140079,0 120.683121,24.139473,0 120.683070,24.139519,0 120.682987,24.139436,0 120.682904,24.139353,0 120.682949,24.139314,0 120.682272,24.138637,0 120.681853,24.139003,0 120.681460,24.139351,0 120.681019,24.139738,0 120.680641,24.140066,0 120.680365,24.139807,0 120.679888,24.139349,0 120.679486,24.139694,0 120.679132,24.140022,0 120.678746,24.139664,0 120.678229,24.140126,0 120.677824,24.139724,0 120.677858,24.139698,0 120.677783,24.139632,0 120.677710,24.139567,0 120.677354,24.139583,0 120.676930,24.139894,0 120.676682,24.139657,0 120.676344,24.139327,0 120.676014,24.139010,0 120.675749,24.138756,0 120.674797,24.139587,0 120.674432,24.139228,0 120.674061,24.138866,0 120.673708,24.139175,0 120.672973,24.138461,0 120.672369,24.138979,0 120.671954,24.139335,0 120.671625,24.139620,0 120.671374,24.139837,0 120.671323,24.139801,0 120.671003,24.139581,0 120.670815,24.139417,0 120.670623,24.139236,0 120.670573,24.139181,0 120.670486,24.139254,0 120.670452,24.139284,0 120.670223,24.139459,0 120.670169,24.139501,0 120.670124,24.139458,0 120.670077,24.139500,0 120.669764,24.139177,0 120.669210,24.139644,0 120.668931,24.139373,0 120.668837,24.139281,0 120.668663,24.139434,0 120.668650,24.139445,0 120.668393,24.139668,0 120.668336,24.139717,0 120.668234,24.139618,0 120.667775,24.139172,0 120.667673,24.139073,0 120.667424,24.138833,0 120.666913,24.139271,0 120.666883,24.139266,0 120.666841,24.139272,0 120.666516,24.139270,0 120.666145,24.139268,0 120.665762,24.139269,0 120.665653,24.139270,0 120.664888,24.139271,0 120.664162,24.139272,0 120.663867,24.139272,0 120.663107,24.139270,0 120.663106,24.139658,0 120.663110,24.140051,0 120.662947,24.140051,0 120.662708,24.140051,0 120.662707,24.140140,0 120.662621,24.140141,0 120.662563,24.140141,0 120.662161,24.140142,0 120.661693,24.140143,0 120.661693,24.140051,0 120.660990,24.140056,0 120.660973,24.140055,0 120.660190,24.140037,0 120.660190,24.139269,0 120.660190,24.138946,0 120.660190,24.138843,0 120.660190,24.138669,0 120.660189,24.138424,0 120.660189,24.138393,0 120.660134,24.138414,0 120.660061,24.138450,0
</coordinates></LineString></Placemark>
</Document></kml>