<?xml version="1.0" encoding="UTF-8"?>
<kml xmlns="http://www.opengis.net/kml/2.2"><Document>
<name>西區 蹲坐貓咪（側面） 圖形路跑路線</name>
<Style id="r"><LineStyle><color>ff2000d6</color><width>4</width></LineStyle></Style>
<Placemark><name>忠勤公園</name><description>地標</description><Point><coordinates>120.669615,24.142469,0</coordinates></Point></Placemark>
<Placemark><name>茄苳公園</name><description>地標</description><Point><coordinates>120.671507,24.148445,0</coordinates></Point></Placemark>
<Placemark><name>臺中市立圖書館中區分館</name><description>地標</description><Point><coordinates>120.679524,24.143894,0</coordinates></Point></Placemark>
<Placemark><name>西區 蹲坐貓咪（側面） 圖形路跑路線</name><styleUrl>#r</styleUrl><LineString><tessellate>1</tessellate><coordinates>
120.669213,24.141038,0 120.668969,24.141255,0 120.669341,24.141617,0 120.669598,24.141866,0 120.669665,24.141931,0 120.669809,24.142071,0 120.669950,24.142208,0 120.670073,24.142328,0 120.669841,24.142532,0 120.669581,24.142761,0 120.669326,24.142985,0 120.669103,24.143185,0 120.669063,24.143148,0 120.668998,24.143201,0 120.668929,24.143262,0 120.668835,24.143352,0 120.668975,24.143489,0 120.669017,24.143525,0 120.668990,24.143579,0 120.668978,24.143639,0 120.668976,24.143710,0 120.668969,24.144217,0 120.668963,24.144282,0 120.668961,24.144329,0 120.668956,24.144431,0 120.669142,24.144516,0 120.668995,24.144645,0 120.668750,24.144868,0 120.669003,24.145112,0 120.669003,24.145457,0 120.669003,24.145620,0 120.669003,24.145709,0 120.669003,24.145749,0 120.669003,24.146108,0 120.669712,24.146101,0 120.669791,24.146019,0 120.669862,24.145939,0 120.670165,24.146233,0 120.670083,24.146305,0 120.670166,24.146387,0 120.669995,24.146549,0 120.669920,24.146618,0 120.669874,24.146666,0 120.669854,24.146697,0 120.669836,24.146740,0 120.669833,24.146818,0 120.669832,24.146852,0 120.669832,24.147276,0 120.669960,24.147277,0 120.669959,24.147343,0 120.669956,24.147409,0 120.669829,24.147404,0 120.669829,24.147796,0 120.669829,24.147871,0 120.669828,24.147953,0 120.669827,24.148324,0 120.669827,24.148414,0 120.669865,24.148414,0 120.669952,24.148415,0 120.669975,24.148415,0 120.670832,24.148419,0 120.670964,24.148434,0 120.670960,24.148007,0 120.670960,24.147878,0 120.671029,24.147878,0 120.671140,24.147876,0 120.671139,24.147759,0 120.671226,24.147759,0 120.671245,24.147085,0 120.671358,24.147079,0 120.671418,24.147049,0 120.671642,24.147253,0 120.671937,24.147550,0 120.671988,24.147600,0 120.672041,24.147649,0 120.672279,24.147878,0 120.672637,24.148222,0 120.672588,24.148263,0 120.672611,24.148285,0 120.672673,24.148343,0 120.672731,24.148398,0 120.672791,24.148453,0 120.672438,24.148762,0 120.672126,24.149035,0 120.672154,24.149062,0 120.672050,24.149156,0 120.672456,24.149522,0 120.673257,24.148826,0 120.674011,24.148182,0 120.674200,24.148366,0 120.674275,24.148303,0 120.674836,24.147836,0 120.675340,24.147422,0 120.675563,24.147190,0 120.675190,24.146814,0 120.675430,24.146585,0 120.675868,24.146200,0 120.675543,24.145911,0 120.675754,24.145726,0 120.675984,24.145524,0 120.676057,24.145596,0 120.676109,24.145550,0 120.676708,24.146172,0 120.677296,24.145696,0 120.677845,24.145221,0 120.678207,24.145576,0 120.678303,24.145495,0 120.678734,24.145110,0 120.678881,24.145264,0 120.679066,24.145452,0 120.679173,24.145540,0 120.679252,24.145399,0 120.679311,24.145302,0 120.679339,24.145257,0 120.679701,24.144959,0 120.680036,24.144665,0 120.680499,24.144274,0 120.680934,24.143892,0 120.681009,24.143967,0 120.681158,24.143841,0 120.681076,24.143768,0 120.681347,24.143536,0 120.681756,24.143179,0 120.682082,24.142895,0 120.682499,24.142531,0 120.682856,24.142220,0 120.683176,24.142534,0 120.683625,24.142962,0 120.684426,24.142268,0 120.684474,24.142529,0 120.684486,24.142566,0 120.684609,24.142701,0 120.684663,24.142722,0 120.684618,24.142557,0 120.684514,24.142522,0 120.684474,24.142529,0 120.684426,24.142268,0 120.684034,24.141884,0 120.683985,24.141835,0 120.683661,24.141518,0 120.684488,24.140794,0 120.684341,24.140652,0 120.684115,24.140421,0 120.684492,24.140090,0 120.684887,24.139759,0 120.684530,24.139407,0 120.684136,24.139028,0 120.683903,24.138799,0 120.683939,24.138765,0 120.683939,24.138739,0 120.683870,24.138673,0 120.683991,24.138567,0 120.684058,24.138632,0 120.684087,24.138651,0 120.684127,24.138617,0 120.684181,24.138570,0 120.684180,24.138527,0 120.684729,24.137855,0 120.684736,24.137832,0 120.684656,24.137779,0 120.684583,24.137730,0 120.684555,24.137731,0 120.684359,24.137565,0 120.684235,24.137376,0 120.684198,24.137314,0 120.684180,24.137280,0 120.684219,24.137096,0 120.684085,24.136774,0 120.683851,24.136682,0 120.683512,24.136534,0 120.683313,24.136449,0 120.683346,24.136396,0 120.683395,24.136323,0 120.683435,24.136268,0 120.683290,24.136212,0 120.682864,24.136039,0 120.682480,24.135878,0 120.682466,24.135841,0 120.682473,24.135779,0 120.682461,24.135724,0 120.682341,24.135670,0 120.682203,24.135595,0 120.682151,24.135697,0 120.682103,24.135784,0 120.682068,24.135759,0 120.681993,24.135722,0 120.681639,24.135574,0 120.681627,24.135569,0 120.681176,24.135397,0 120.680740,24.135771,0 120.680076,24.135122,0 120.680087,24.134943,0 120.678004,24.134047,0 120.677916,24.134152,0 120.677729,24.134315,0 120.677376,24.133950,0 120.676989,24.134276,0 120.676617,24.133913,0 120.676191,24.134282,0 120.676081,24.134175,0 120.676040,24.134135,0 120.675898,24.133998,0 120.675786,24.133890,0 120.675539,24.133650,0 120.675419,24.133534,0 120.675310,24.133433,0 120.675397,24.133346,0 120.675069,24.133055,0 120.675020,24.133008,0 120.674915,24.132910,0 120.674869,24.132860,0 120.674828,24.132825,0 120.674756,24.132887,0 120.674690,24.132821,0 120.674580,24.132899,0 120.673409,24.133899,0 120.673308,24.133987,0 120.673066,24.134201,0 120.673268,24.134395,0 120.673533,24.134641,0 120.673718,24.134814,0 120.673742,24.134837,0 120.673686,24.134891,0 120.673764,24.134966,0 120.673527,24.135167,0 120.673070,24.135569,0 120.672838,24.135766,0 120.672748,24.135676,0 120.672652,24.135760,0 120.672553,24.135848,0 120.672644,24.135936,0 120.672406,24.136147,0 120.672392,24.136159,0 120.672258,24.136278,0 120.672670,24.136687,0 120.672212,24.137079,0 120.672241,24.137114,0 120.672573,24.137441,0 120.672281,24.137698,0 120.672224,24.137747,0 120.672045,24.137901,0 120.671631,24.138261,0 120.671268,24.137905,0 120.670751,24.138348,0 120.670525,24.138549,0 120.670647,24.138627,0 120.670776,24.138677,0 120.670916,24.138693,0 120.671030,24.138696,0 120.671094,24.138685,0 120.671118,24.138707,0 120.670573,24.139181,0 120.670486,24.139254,0 120.670452,24.139284,0 120.670223,24.139459,0 120.670169,24.139501,0 120.670226,24.139553,0 120.670178,24.139597,0 120.670520,24.139908,0 120.669965,24.140375,0 120.669469,24.140816,0 120.669213,24.141038,0
</coordinates></LineString></Placemark>
</Document></kml>