<?xml version="1.0" encoding="UTF-8"?>
<kml xmlns="http://www.opengis.net/kml/2.2"><Document>
<name>霧峰區 手繪蹲坐貓（原稿描圖） 圖形路跑路線</name>
<Style id="r"><LineStyle><color>ff2000d6</color><width>4</width></LineStyle></Style>
<Placemark><name>青年公園</name><description>地標</description><Point><coordinates>120.693353,24.084816,0</coordinates></Point></Placemark>
<Placemark><name>東湖公園</name><description>地標</description><Point><coordinates>120.694428,24.085041,0</coordinates></Point></Placemark>
<Placemark><name>藝術廈門博覽會釆釆畫廊</name><description>地標</description><Point><coordinates>120.697411,24.081813,0</coordinates></Point></Placemark>
<Placemark><name>霧峰區 手繪蹲坐貓（原稿描圖） 圖形路跑路線</name><styleUrl>#r</styleUrl><LineString><tessellate>1</tessellate><coordinates>
120.691435,24.073784,0 120.691571,24.073884,0 120.691728,24.073997,0 120.690668,24.074648,0 120.690382,24.074838,0 120.690207,24.074982,0 120.689971,24.075204,0 120.689778,24.075440,0 120.689853,24.075490,0 120.690069,24.075245,0 120.690139,24.075170,0 120.690328,24.074998,0 120.690501,24.074866,0 120.690702,24.074734,0 120.691280,24.074376,0 120.691805,24.074066,0 120.692598,24.074723,0 120.692530,24.074862,0 120.692287,24.075383,0 120.691880,24.076826,0 120.691840,24.076993,0 120.692384,24.077037,0 120.692647,24.077060,0 120.693217,24.077108,0 120.693219,24.077263,0 120.693335,24.077271,0 120.693347,24.077377,0 120.693406,24.077957,0 120.693418,24.078207,0 120.693239,24.078740,0 120.693364,24.078820,0 120.693759,24.079041,0 120.693981,24.079164,0 120.694203,24.079278,0 120.694506,24.079446,0 120.694398,24.079971,0 120.694038,24.079920,0 120.693609,24.079844,0 120.693488,24.080238,0 120.694323,24.080371,0 120.694322,24.080463,0 120.693447,24.080448,0 120.693390,24.080568,0 120.692774,24.080504,0 120.692693,24.080769,0 120.692595,24.081191,0 120.692400,24.081173,0 120.692218,24.081149,0 120.692203,24.081319,0 120.692248,24.081390,0 120.692278,24.081530,0 120.692233,24.081678,0 120.692026,24.081976,0 120.692199,24.081906,0 120.692397,24.081836,0 120.692668,24.081795,0 120.694542,24.082348,0 120.694320,24.082858,0 120.695136,24.083127,0 120.695149,24.083161,0 120.694999,24.083486,0 120.694503,24.083336,0 120.694173,24.083237,0 120.694103,24.083644,0 120.694601,24.083700,0 120.695667,24.083879,0 120.696585,24.084033,0 120.696676,24.084050,0 120.696742,24.084079,0 120.696774,24.083565,0 120.696907,24.083339,0 120.697048,24.083077,0 120.696988,24.082755,0 120.696892,24.082767,0 120.696796,24.082685,0 120.696538,24.082498,0 120.696499,24.082474,0 120.696675,24.081322,0 120.696151,24.081258,0 120.696139,24.081143,0 120.696162,24.080843,0 120.696926,24.080965,0 120.696986,24.080584,0 120.697345,24.080674,0 120.697414,24.080477,0 120.697539,24.080293,0 120.697846,24.080402,0 120.698240,24.080524,0 120.698508,24.079598,0 120.698598,24.079682,0 120.698554,24.079444,0 120.698579,24.079363,0 120.698926,24.078348,0 120.699066,24.077927,0 120.699187,24.077936,0 120.699307,24.077548,0 120.699444,24.077076,0 120.699469,24.077001,0 120.699341,24.076976,0 120.699505,24.076398,0 120.699648,24.075955,0 120.699684,24.075830,0 120.699728,24.075716,0 120.699766,24.075600,0 120.699797,24.075488,0 120.699827,24.075341,0 120.699846,24.075206,0 120.699857,24.075069,0 120.699860,24.074932,0 120.699855,24.074795,0 120.699841,24.074659,0 120.699819,24.074523,0 120.699789,24.074303,0 120.699730,24.074009,0 120.699627,24.073760,0 120.699543,24.073623,0 120.699553,24.073596,0 120.699422,24.073436,0 120.699322,24.073290,0 120.699322,24.073297,0 120.699022,24.072998,0 120.699156,24.072965,0 120.698657,24.072361,0 120.697812,24.071381,0 120.698276,24.071203,0 120.698348,24.071389,0 120.698405,24.071494,0 120.698464,24.071553,0 120.698598,24.071636,0 120.698705,24.071668,0 120.698936,24.071666,0 120.699540,24.071599,0 120.700179,24.071521,0 120.700331,24.071513,0 120.700385,24.071467,0 120.700457,24.071281,0 120.700540,24.071033,0 120.700564,24.070967,0 120.700564,24.070852,0 120.701532,24.070706,0 120.701637,24.070788,0 120.702398,24.070641,0 120.702731,24.070268,0 120.702632,24.070052,0 120.702523,24.069668,0 120.702380,24.069101,0 120.702329,24.068873,0 120.701756,24.069028,0 120.701444,24.069114,0 120.701294,24.069157,0 120.701058,24.069221,0 120.701211,24.069690,0 120.700954,24.069758,0 120.700548,24.069840,0 120.700397,24.069717,0 120.700381,24.069834,0 120.700158,24.069917,0 120.699856,24.070036,0 120.699370,24.070085,0 120.699384,24.070294,0 120.699406,24.070466,0 120.699454,24.070983,0 120.698755,24.071095,0 120.698276,24.071203,0 120.697812,24.071381,0 120.697018,24.070487,0 120.696842,24.070213,0 120.696753,24.070068,0 120.696681,24.070179,0 120.696638,24.070294,0 120.696499,24.070477,0 120.695951,24.071195,0 120.695763,24.071422,0 120.695168,24.072202,0 120.695067,24.072337,0 120.694988,24.072412,0 120.694885,24.072488,0 120.694670,24.072594,0 120.694333,24.072694,0 120.694023,24.072793,0 120.693750,24.072897,0 120.693626,24.072954,0 120.693215,24.073194,0 120.693090,24.073272,0 120.692997,24.073326,0 120.692824,24.073428,0 120.692365,24.073717,0 120.691805,24.074066,0 120.691728,24.073997,0 120.691571,24.073884,0 120.691435,24.073784,0
</coordinates></LineString></Placemark>
</Document></kml>