<?xml version="1.0" encoding="UTF-8"?>
<kml xmlns="http://www.opengis.net/kml/2.2"><Document>
<name>梧棲區 手繪蹲坐貓（原稿描圖） 圖形路跑路線</name>
<Style id="r"><LineStyle><color>ff2000d6</color><width>4</width></LineStyle></Style>
<Placemark><name>魚寮運動公園</name><description>地標</description><Point><coordinates>120.530513,24.262540,0</coordinates></Point></Placemark>
<Placemark><name>地景公園</name><description>地標</description><Point><coordinates>120.532946,24.266150,0</coordinates></Point></Placemark>
<Placemark><name>台中港榕樹公園</name><description>地標</description><Point><coordinates>120.531862,24.271824,0</coordinates></Point></Placemark>
<Placemark><name>梧棲區 手繪蹲坐貓（原稿描圖） 圖形路跑路線</name><styleUrl>#r</styleUrl><LineString><tessellate>1</tessellate><coordinates>
120.533681,24.263055,0 120.532840,24.263361,0 120.532617,24.262856,0 120.532475,24.262535,0 120.532316,24.262175,0 120.532187,24.262220,0 120.532125,24.262241,0 120.532138,24.262271,0 120.532217,24.262450,0 120.532247,24.262518,0 120.532280,24.262593,0 120.532326,24.262698,0 120.532382,24.262824,0 120.532426,24.262923,0 120.532460,24.263001,0 120.532495,24.263080,0 120.532581,24.263274,0 120.532663,24.263461,0 120.532793,24.263755,0 120.532796,24.263761,0 120.532798,24.263768,0 120.532801,24.263774,0 120.532803,24.263780,0 120.532805,24.263787,0 120.532806,24.263794,0 120.532808,24.263800,0 120.532809,24.263807,0 120.532810,24.263813,0 120.532811,24.263820,0 120.532811,24.263827,0 120.532812,24.263834,0 120.532812,24.263840,0 120.532812,24.263847,0 120.532812,24.263854,0 120.532811,24.263860,0 120.532811,24.263867,0 120.532810,24.263874,0 120.532809,24.263880,0 120.532809,24.263883,0 120.532808,24.263887,0 120.532806,24.263894,0 120.532804,24.263900,0 120.532803,24.263907,0 120.532800,24.263913,0 120.532798,24.263920,0 120.532796,24.263926,0 120.532793,24.263932,0 120.532790,24.263938,0 120.532787,24.263944,0 120.532784,24.263950,0 120.532781,24.263956,0 120.532777,24.263962,0 120.532773,24.263968,0 120.532769,24.263974,0 120.532765,24.263979,0 120.532761,24.263984,0 120.532756,24.263990,0 120.532751,24.263995,0 120.532747,24.264000,0 120.532742,24.264005,0 120.532741,24.264006,0 120.532774,24.264082,0 120.532794,24.264128,0 120.532805,24.264153,0 120.532825,24.264200,0 120.532858,24.264276,0 120.532865,24.264276,0 120.532872,24.264277,0 120.532880,24.264278,0 120.532887,24.264279,0 120.532894,24.264280,0 120.532901,24.264281,0 120.532909,24.264283,0 120.532916,24.264285,0 120.532923,24.264287,0 120.532930,24.264289,0 120.532937,24.264291,0 120.532944,24.264294,0 120.532950,24.264297,0 120.532957,24.264299,0 120.532963,24.264302,0 120.532970,24.264306,0 120.532976,24.264309,0 120.532983,24.264313,0 120.532989,24.264316,0 120.532995,24.264320,0 120.533001,24.264324,0 120.533003,24.264326,0 120.533006,24.264328,0 120.533012,24.264333,0 120.533018,24.264337,0 120.533023,24.264342,0 120.533028,24.264346,0 120.533033,24.264351,0 120.533038,24.264357,0 120.533043,24.264362,0 120.533047,24.264367,0 120.533052,24.264372,0 120.533056,24.264378,0 120.533060,24.264383,0 120.533064,24.264389,0 120.533068,24.264395,0 120.533071,24.264401,0 120.533075,24.264407,0 120.533078,24.264413,0 120.533081,24.264419,0 120.533084,24.264425,0 120.533225,24.264760,0 120.533453,24.265298,0 120.533455,24.265304,0 120.533455,24.265310,0 120.533520,24.265286,0 120.533545,24.265345,0 120.533575,24.265417,0 120.533513,24.265439,0 120.533679,24.265829,0 120.533737,24.265966,0 120.533887,24.266321,0 120.533889,24.266327,0 120.533889,24.266332,0 120.533888,24.266335,0 120.533954,24.266311,0 120.533979,24.266370,0 120.534014,24.266452,0 120.533952,24.266474,0 120.533946,24.266460,0 120.533943,24.266454,0 120.533938,24.266450,0 120.533933,24.266447,0 120.533927,24.266445,0 120.533920,24.266445,0 120.533914,24.266447,0 120.533460,24.266610,0 120.532449,24.266974,0 120.532443,24.266977,0 120.532439,24.266981,0 120.532435,24.266986,0 120.532433,24.266991,0 120.532433,24.266997,0 120.532435,24.267003,0 120.532674,24.267566,0 120.532911,24.268125,0 120.532914,24.268131,0 120.532918,24.268135,0 120.532924,24.268138,0 120.532930,24.268139,0 120.532936,24.268140,0 120.532938,24.268139,0 120.532962,24.268196,0 120.532891,24.268222,0 120.532819,24.268247,0 120.532799,24.268200,0 120.532795,24.268190,0 120.532791,24.268192,0 120.531607,24.268611,0 120.531600,24.268613,0 120.531593,24.268615,0 120.531586,24.268617,0 120.531579,24.268619,0 120.531572,24.268621,0 120.531565,24.268622,0 120.531557,24.268624,0 120.531550,24.268625,0 120.531543,24.268626,0 120.531536,24.268627,0 120.531528,24.268627,0 120.531521,24.268628,0 120.531514,24.268628,0 120.531507,24.268628,0 120.531499,24.268629,0 120.531492,24.268628,0 120.531485,24.268628,0 120.531477,24.268628,0 120.531470,24.268627,0 120.531463,24.268626,0 120.531455,24.268625,0 120.531448,24.268624,0 120.531441,24.268623,0 120.531434,24.268622,0 120.531427,24.268620,0 120.531420,24.268618,0 120.531413,24.268616,0 120.531406,24.268614,0 120.531399,24.268612,0 120.531392,24.268610,0 120.531385,24.268607,0 120.531385,24.268607,0 120.531378,24.268604,0 120.531372,24.268602,0 120.531365,24.268599,0 120.531359,24.268595,0 120.531352,24.268592,0 120.531346,24.268589,0 120.531340,24.268585,0 120.531334,24.268581,0 120.531328,24.268578,0 120.531322,24.268574,0 120.531316,24.268570,0 120.531310,24.268565,0 120.531305,24.268561,0 120.531299,24.268556,0 120.531294,24.268552,0 120.531289,24.268547,0 120.531284,24.268542,0 120.531279,24.268537,0 120.531274,24.268532,0 120.531269,24.268527,0 120.531265,24.268522,0 120.531261,24.268516,0 120.531256,24.268511,0 120.531252,24.268505,0 120.531249,24.268499,0 120.531245,24.268494,0 120.531241,24.268488,0 120.531238,24.268482,0 120.531234,24.268476,0 120.531231,24.268470,0 120.531228,24.268464,0 120.531226,24.268457,0 120.531011,24.267961,0 120.530974,24.267974,0 120.531186,24.268464,0 120.531197,24.268484,0 120.531209,24.268504,0 120.531222,24.268522,0 120.531237,24.268540,0 120.531253,24.268556,0 120.531270,24.268572,0 120.531288,24.268586,0 120.531307,24.268599,0 120.531327,24.268610,0 120.531347,24.268620,0 120.531368,24.268629,0 120.531390,24.268636,0 120.531398,24.268638,0 120.531408,24.268660,0 120.531197,24.268735,0 120.531101,24.268769,0 120.531004,24.268802,0 120.530908,24.268836,0 120.530940,24.268913,0 120.530771,24.268973,0 120.530639,24.269021,0 120.530688,24.269134,0 120.531325,24.270615,0 120.531403,24.270830,0 120.531458,24.271099,0 120.531649,24.271024,0 120.531816,24.270968,0 120.531912,24.270933,0 120.532008,24.270898,0 120.532104,24.270862,0 120.532206,24.271101,0 120.532329,24.271053,0 120.532352,24.271109,0 120.532456,24.271353,0 120.532465,24.271373,0 120.532478,24.271404,0 120.532550,24.271573,0 120.532582,24.271648,0 120.532599,24.271687,0 120.532602,24.271693,0 120.532604,24.271699,0 120.532605,24.271700,0 120.532607,24.271706,0 120.532611,24.271712,0 120.532614,24.271718,0 120.532617,24.271724,0 120.532620,24.271730,0 120.532624,24.271736,0 120.532627,24.271742,0 120.532631,24.271748,0 120.532635,24.271754,0 120.532639,24.271759,0 120.532643,24.271765,0 120.532647,24.271771,0 120.532651,24.271776,0 120.532655,24.271782,0 120.532659,24.271787,0 120.532664,24.271793,0 120.532668,24.271798,0 120.532673,24.271803,0 120.532678,24.271808,0 120.532683,24.271813,0 120.532687,24.271818,0 120.532692,24.271823,0 120.532698,24.271828,0 120.532703,24.271833,0 120.532708,24.271838,0 120.532713,24.271843,0 120.532719,24.271847,0 120.532724,24.271852,0 120.532730,24.271856,0 120.532735,24.271860,0 120.532741,24.271865,0 120.532747,24.271869,0 120.532753,24.271873,0 120.532758,24.271877,0 120.532764,24.271881,0 120.532770,24.271885,0 120.532777,24.271889,0 120.532783,24.271892,0 120.532789,24.271896,0 120.532795,24.271899,0 120.532799,24.271902,0 120.532802,24.271903,0 120.532808,24.271906,0 120.532815,24.271909,0 120.532821,24.271912,0 120.532828,24.271915,0 120.532834,24.271918,0 120.532841,24.271921,0 120.532848,24.271924,0 120.532854,24.271927,0 120.532861,24.271929,0 120.532868,24.271932,0 120.532875,24.271934,0 120.532882,24.271936,0 120.532889,24.271938,0 120.532896,24.271940,0 120.532903,24.271942,0 120.532910,24.271944,0 120.532917,24.271946,0 120.532924,24.271948,0 120.532932,24.271949,0 120.532939,24.271951,0 120.532946,24.271952,0 120.532953,24.271953,0 120.532961,24.271954,0 120.532968,24.271955,0 120.532975,24.271956,0 120.532982,24.271957,0 120.532990,24.271958,0 120.532997,24.271958,0 120.533004,24.271959,0 120.533012,24.271959,0 120.533019,24.271959,0 120.533027,24.271960,0 120.533034,24.271960,0 120.533041,24.271960,0 120.533049,24.271960,0 120.533056,24.271959,0 120.533063,24.271959,0 120.533071,24.271958,0 120.533078,24.271958,0 120.533085,24.271957,0 120.533093,24.271956,0 120.533100,24.271955,0 120.533107,24.271954,0 120.533114,24.271953,0 120.533122,24.271952,0 120.533129,24.271951,0 120.533136,24.271949,0 120.533143,24.271948,0 120.533151,24.271946,0 120.533158,24.271945,0 120.533165,24.271943,0 120.533172,24.271941,0 120.533179,24.271939,0 120.533186,24.271937,0 120.533193,24.271934,0 120.533200,24.271932,0 120.533207,24.271930,0 120.533279,24.271903,0 120.533559,24.271802,0 120.534204,24.271566,0 120.534213,24.271587,0 120.534236,24.271642,0 120.534326,24.271609,0 120.534393,24.271584,0 120.534347,24.271504,0 120.534345,24.271502,0 120.534341,24.271498,0 120.534338,24.271493,0 120.534200,24.271168,0 120.534181,24.271122,0 120.534158,24.271068,0 120.534134,24.271013,0 120.534111,24.270958,0 120.534088,24.270903,0 120.534033,24.270773,0 120.534017,24.270737,0 120.533991,24.270674,0 120.533964,24.270611,0 120.533887,24.270428,0 120.533806,24.270239,0 120.533805,24.270233,0 120.533805,24.270227,0 120.533807,24.270221,0 120.533810,24.270216,0 120.533815,24.270212,0 120.533820,24.270209,0 120.534144,24.270090,0 120.534462,24.269973,0 120.534468,24.269971,0 120.534474,24.269971,0 120.534481,24.269973,0 120.534486,24.269976,0 120.534491,24.269980,0 120.534494,24.269985,0 120.534494,24.269987,0 120.534536,24.269972,0 120.534618,24.269942,0 120.534659,24.269927,0 120.534658,24.269924,0 120.534656,24.269918,0 120.534656,24.269913,0 120.534658,24.269907,0 120.534662,24.269902,0 120.534666,24.269898,0 120.534672,24.269895,0 120.534971,24.269785,0 120.535271,24.269674,0 120.535278,24.269672,0 120.535284,24.269672,0 120.535287,24.269673,0 120.535358,24.269647,0 120.535486,24.269599,0 120.535556,24.269573,0 120.535557,24.269572,0 120.535558,24.269571,0 120.535559,24.269570,0 120.535560,24.269569,0 120.535562,24.269568,0 120.535563,24.269567,0 120.535564,24.269566,0 120.535566,24.269565,0 120.535567,24.269565,0 120.535568,24.269564,0 120.535998,24.269405,0 120.536342,24.269278,0 120.536348,24.269277,0 120.536354,24.269277,0 120.536361,24.269279,0 120.536409,24.269261,0 120.536491,24.269231,0 120.536539,24.269213,0 120.536542,24.269208,0 120.536546,24.269204,0 120.536552,24.269201,0 120.536618,24.269177,0 120.536661,24.269161,0 120.536724,24.269137,0 120.536763,24.269123,0 120.536799,24.269110,0 120.536836,24.269096,0 120.536872,24.269083,0 120.536909,24.269069,0 120.536945,24.269056,0 120.536982,24.269042,0 120.537019,24.269029,0 120.537055,24.269015,0 120.537092,24.269002,0 120.537128,24.268988,0 120.537165,24.268975,0 120.537201,24.268961,0 120.537238,24.268948,0 120.537279,24.268932,0 120.537316,24.268919,0 120.537353,24.268905,0 120.537389,24.268892,0 120.537492,24.268854,0 120.537498,24.268853,0 120.537504,24.268853,0 120.537511,24.268854,0 120.537515,24.268846,0 120.537567,24.268826,0 120.537620,24.268807,0 120.537599,24.268758,0 120.537579,24.268710,0 120.537583,24.268701,0 120.537589,24.268703,0 120.537596,24.268703,0 120.537602,24.268701,0 120.538075,24.268527,0 120.538542,24.268354,0 120.538548,24.268351,0 120.538552,24.268347,0 120.538556,24.268342,0 120.538557,24.268337,0 120.538558,24.268331,0 120.538556,24.268325,0 120.538597,24.268310,0 120.538679,24.268279,0 120.538720,24.268264,0 120.538723,24.268269,0 120.538728,24.268273,0 120.538733,24.268276,0 120.538740,24.268278,0 120.538746,24.268278,0 120.538752,24.268277,0 120.539212,24.268107,0 120.539681,24.267934,0 120.539687,24.267931,0 120.539692,24.267927,0 120.539695,24.267922,0 120.539695,24.267921,0 120.539697,24.267916,0 120.539697,24.267910,0 120.539695,24.267905,0 120.539638,24.267769,0 120.539575,24.267621,0 120.539545,24.267548,0 120.539516,24.267481,0 120.539498,24.267438,0 120.539465,24.267360,0 120.539427,24.267269,0 120.539333,24.267047,0 120.539267,24.266889,0 120.539198,24.266727,0 120.539074,24.266433,0 120.539071,24.266427,0 120.539068,24.266420,0 120.539065,24.266414,0 120.539062,24.266408,0 120.539058,24.266402,0 120.539055,24.266396,0 120.539051,24.266391,0 120.539047,24.266385,0 120.539043,24.266380,0 120.539038,24.266374,0 120.539034,24.266369,0 120.539029,24.266364,0 120.539024,24.266359,0 120.539021,24.266356,0 120.539099,24.266328,0 120.539140,24.266313,0 120.539177,24.266300,0 120.539218,24.266286,0 120.539294,24.266259,0 120.539294,24.266259,0 120.539294,24.266252,0 120.539294,24.266245,0 120.539295,24.266239,0 120.539295,24.266232,0 120.539296,24.266225,0 120.539298,24.266219,0 120.539299,24.266212,0 120.539300,24.266206,0 120.539302,24.266199,0 120.539304,24.266193,0 120.539306,24.266186,0 120.539309,24.266180,0 120.539311,24.266174,0 120.539314,24.266168,0 120.539317,24.266161,0 120.539320,24.266155,0 120.539323,24.266149,0 120.539327,24.266143,0 120.539330,24.266138,0 120.539334,24.266132,0 120.539338,24.266126,0 120.539343,24.266121,0 120.539347,24.266116,0 120.539351,24.266110,0 120.539356,24.266105,0 120.539361,24.266100,0 120.539366,24.266095,0 120.539371,24.266091,0 120.539375,24.266087,0 120.539344,24.266015,0 120.539325,24.265969,0 120.539314,24.265944,0 120.539294,24.265897,0 120.539263,24.265824,0 120.539268,24.265824,0 120.539275,24.265824,0 120.539282,24.265824,0 120.539290,24.265823,0 120.539297,24.265822,0 120.539304,24.265822,0 120.539312,24.265821,0 120.539319,24.265819,0 120.539326,24.265818,0 120.539333,24.265816,0 120.539340,24.265814,0 120.539347,24.265812,0 120.539354,24.265810,0 120.539361,24.265808,0 120.540791,24.265293,0 120.540793,24.265291,0 120.540797,24.265290,0 120.540802,24.265286,0 120.540805,24.265280,0 120.540806,24.265277,0 120.540863,24.265257,0 120.540921,24.265236,0 120.540924,24.265238,0 120.540930,24.265239,0 120.540936,24.265239,0 120.540940,24.265239,0 120.540942,24.265238,0 120.541683,24.264971,0 120.542064,24.264834,0 120.542071,24.264831,0 120.542077,24.264829,0 120.542084,24.264826,0 120.542091,24.264823,0 120.542097,24.264820,0 120.542104,24.264816,0 120.542110,24.264813,0 120.542116,24.264809,0 120.542123,24.264806,0 120.542129,24.264802,0 120.542135,24.264798,0 120.542140,24.264794,0 120.542146,24.264790,0 120.542152,24.264785,0 120.542157,24.264781,0 120.542163,24.264776,0 120.542168,24.264771,0 120.542173,24.264767,0 120.542178,24.264762,0 120.542183,24.264757,0 120.542188,24.264751,0 120.542192,24.264746,0 120.542197,24.264741,0 120.542201,24.264735,0 120.542205,24.264730,0 120.542209,24.264724,0 120.542213,24.264718,0 120.542217,24.264713,0 120.542221,24.264706,0 120.542224,24.264702,0 120.542275,24.264823,0 120.542444,24.264762,0 120.542719,24.264663,0 120.541826,24.262587,0 120.541548,24.262678,0 120.541685,24.262996,0 120.541586,24.263032,0 120.541550,24.262947,0 120.541547,24.262950,0 120.541541,24.262954,0 120.541535,24.262958,0 120.541529,24.262961,0 120.540915,24.263185,0 120.540729,24.263253,0 120.540645,24.263283,0 120.540582,24.263306,0 120.540538,24.263322,0 120.540495,24.263338,0 120.540452,24.263354,0 120.540407,24.263370,0 120.540211,24.263442,0 120.540205,24.263444,0 120.540198,24.263445,0 120.540190,24.263445,0 120.540183,24.263445,0 120.540177,24.263443,0 120.540192,24.263478,0 120.540119,24.263504,0 120.540045,24.263531,0 120.540031,24.263497,0 120.540032,24.263496,0 120.540035,24.263490,0 120.540037,24.263484,0 120.540039,24.263478,0 120.540039,24.263472,0 120.540039,24.263465,0 120.540038,24.263459,0 120.540036,24.263453,0 120.539892,24.263115,0 120.539754,24.262791,0 120.539751,24.262785,0 120.539747,24.262781,0 120.539741,24.262778,0 120.539735,24.262777,0 120.539735,24.262777,0 120.539729,24.262776,0 120.539722,24.262778,0 120.538676,24.263162,0 120.538619,24.263183,0 120.538604,24.263144,0 120.538127,24.263319,0 120.538093,24.263244,0 120.538048,24.263146,0 120.538046,24.263145,0 120.538039,24.263143,0 120.538032,24.263140,0 120.538026,24.263137,0 120.538021,24.263134,0 120.537905,24.263175,0 120.537786,24.263217,0 120.537803,24.263257,0 120.537743,24.263278,0 120.537724,24.263285,0 120.537706,24.263291,0 120.537599,24.263329,0 120.537442,24.262945,0 120.536986,24.263103,0 120.536698,24.263206,0 120.536313,24.263345,0 120.536209,24.263553,0 120.535755,24.263712,0 120.535692,24.263779,0 120.535685,24.263844,0 120.535570,24.263885,0 120.535535,24.263897,0 120.535483,24.263773,0 120.535440,24.263673,0 120.535314,24.263376,0 120.535313,24.263370,0 120.535313,24.263365,0 120.535307,24.263365,0 120.535304,24.263357,0 120.535278,24.263300,0 120.535227,24.263183,0 120.535124,24.263221,0 120.535059,24.263245,0 120.534640,24.263398,0 120.534301,24.263523,0 120.533936,24.263657,0 120.533681,24.263055,0
</coordinates></LineString></Placemark>
</Document></kml>