<?xml version="1.0" encoding="UTF-8"?>
<kml xmlns="http://www.opengis.net/kml/2.2"><Document>
<name>烏日區 貓咪肉球 圖形路跑路線</name>
<Style id="r"><LineStyle><color>ff2000d6</color><width>4</width></LineStyle></Style>
<Placemark><name>復興北公園</name><description>地標</description><Point><coordinates>120.646120,24.113309,0</coordinates></Point></Placemark>
<Placemark><name>永興公園</name><description>地標</description><Point><coordinates>120.664758,24.116641,0</coordinates></Point></Placemark>
<Placemark><name>臺灣火柴故事館</name><description>地標</description><Point><coordinates>120.663715,24.117131,0</coordinates></Point></Placemark>
<Placemark><name>烏日區 貓咪肉球 圖形路跑路線</name><styleUrl>#r</styleUrl><LineString><tessellate>1</tessellate><coordinates>
120.644775,24.112313,0 120.645267,24.111813,0 120.645302,24.111759,0 120.645368,24.111686,0 120.645802,24.111238,0 120.646019,24.111021,0 120.646126,24.110913,0 120.646569,24.110482,0 120.646663,24.110376,0 120.646965,24.110488,0 120.647414,24.110012,0 120.647609,24.109811,0 120.648607,24.108791,0 120.648879,24.108513,0 120.649018,24.108371,0 120.649318,24.108413,0 120.649398,24.108436,0 120.649452,24.108556,0 120.649483,24.108626,0 120.649582,24.108645,0 120.649693,24.108688,0 120.649783,24.108741,0 120.649831,24.108807,0 120.649861,24.108841,0 120.649928,24.108926,0 120.650035,24.109009,0 120.650175,24.109123,0 120.650247,24.109186,0 120.650346,24.109280,0 120.650411,24.109361,0 120.650498,24.109410,0 120.650673,24.109420,0 120.650704,24.109419,0 120.650757,24.109416,0 120.650761,24.109347,0 120.650654,24.108725,0 120.652873,24.108811,0 120.653536,24.108836,0 120.654508,24.108857,0 120.655074,24.108877,0 120.655491,24.108887,0 120.655704,24.108893,0 120.655737,24.109022,0 120.655751,24.109219,0 120.655771,24.109353,0 120.655828,24.109618,0 120.655850,24.109768,0 120.655863,24.109910,0 120.655874,24.109969,0 120.657197,24.110000,0 120.657781,24.110011,0 120.657785,24.110391,0 120.657782,24.110937,0 120.657776,24.111834,0 120.658389,24.111920,0 120.658525,24.111979,0 120.659628,24.110923,0 120.659883,24.110905,0 120.660798,24.110909,0 120.661160,24.110901,0 120.661738,24.110889,0 120.661837,24.110890,0 120.661882,24.110903,0 120.661912,24.110932,0 120.661928,24.110968,0 120.661931,24.111081,0 120.661913,24.111481,0 120.662011,24.111547,0 120.662031,24.111792,0 120.662057,24.112106,0 120.662857,24.112134,0 120.663012,24.112142,0 120.663133,24.112152,0 120.663218,24.112171,0 120.663271,24.112201,0 120.663317,24.112259,0 120.663338,24.112329,0 120.663356,24.112470,0 120.663365,24.112531,0 120.663402,24.112806,0 120.663410,24.112859,0 120.663464,24.113446,0 120.663456,24.113731,0 120.663479,24.113943,0 120.663572,24.114218,0 120.663619,24.114343,0 120.663708,24.114513,0 120.663785,24.114667,0 120.663854,24.114864,0 120.663882,24.115021,0 120.663889,24.115297,0 120.664847,24.115302,0 120.664841,24.115799,0 120.664838,24.116053,0 120.663878,24.116043,0 120.663871,24.116875,0 120.664003,24.117052,0 120.664091,24.117417,0 120.664373,24.118737,0 120.664437,24.119026,0 120.663987,24.119197,0 120.663648,24.119400,0 120.663337,24.119695,0 120.663398,24.119726,0 120.663492,24.119767,0 120.664001,24.120176,0 120.664460,24.120536,0 120.664798,24.120802,0 120.665042,24.120985,0 120.665101,24.121028,0 120.665622,24.121455,0 120.665338,24.121752,0 120.665102,24.121997,0 120.664953,24.122155,0 120.664873,24.122240,0 120.664607,24.122522,0 120.664546,24.122598,0 120.664299,24.122859,0 120.664078,24.123093,0 120.663796,24.123364,0 120.664600,24.124479,0 120.664075,24.124809,0 120.664003,24.124902,0 120.664859,24.126034,0 120.664775,24.126079,0 120.664151,24.126479,0 120.664286,24.126666,0 120.664832,24.127417,0 120.664606,24.127810,0 120.663365,24.127271,0 120.662761,24.127026,0 120.662691,24.126997,0 120.662565,24.127369,0 120.662550,24.127408,0 120.662533,24.127458,0 120.662553,24.127466,0 120.663702,24.127941,0 120.663702,24.127990,0 120.663704,24.128353,0 120.663706,24.128631,0 120.663707,24.128750,0 120.663709,24.129077,0 120.663714,24.129384,0 120.663713,24.129623,0 120.663725,24.130005,0 120.663716,24.130092,0 120.663719,24.130530,0 120.663719,24.130647,0 120.663722,24.131069,0 120.663724,24.131327,0 120.663726,24.131712,0 120.663309,24.131715,0 120.663196,24.131752,0 120.663059,24.131896,0 120.663170,24.132005,0 120.663101,24.132005,0 120.663060,24.132039,0 120.663020,24.132053,0 120.662651,24.132057,0 120.662614,24.132058,0 120.662737,24.132174,0 120.662836,24.132268,0 120.662834,24.132300,0 120.662784,24.132333,0 120.662740,24.132395,0 120.662645,24.132369,0 120.662603,24.132363,0 120.662589,24.132363,0 120.662589,24.132341,0 120.662505,24.132261,0 120.662463,24.132261,0 120.662108,24.132261,0 120.661879,24.132260,0 120.661872,24.132267,0 120.661809,24.132337,0 120.661787,24.132365,0 120.661688,24.132378,0 120.661589,24.132390,0 120.661571,24.132399,0 120.661486,24.132378,0 120.661390,24.132429,0 120.661366,24.132443,0 120.660948,24.132676,0 120.660938,24.132681,0 120.660924,24.132689,0 120.660873,24.132714,0 120.660811,24.132747,0 120.660786,24.132761,0 120.660471,24.132932,0 120.660195,24.133080,0 120.660196,24.133070,0 120.660182,24.133076,0 120.660165,24.133085,0 120.660165,24.133104,0 120.660134,24.133123,0 120.660135,24.133013,0 120.660380,24.132873,0 120.660346,24.132816,0 120.660298,24.132738,0 120.660249,24.132634,0 120.660275,24.132550,0 120.659814,24.132640,0 120.659672,24.132812,0 120.659611,24.132880,0 120.659566,24.132908,0 120.659481,24.132999,0 120.659357,24.133109,0 120.659188,24.133141,0 120.658915,24.133038,0 120.658692,24.133012,0 120.658490,24.133038,0 120.658356,24.133093,0 120.658243,24.133044,0 120.658140,24.132931,0 120.658136,24.132861,0 120.657356,24.132874,0 120.657356,24.131897,0 120.657255,24.131891,0 120.657255,24.131613,0 120.657255,24.131342,0 120.657256,24.130793,0 120.656165,24.130794,0 120.656168,24.130507,0 120.656171,24.130142,0 120.656174,24.129800,0 120.655618,24.129643,0 120.655346,24.129566,0 120.655308,24.129555,0 120.655338,24.129461,0 120.655375,24.129342,0 120.655277,24.129314,0 120.655292,24.129285,0 120.655488,24.128896,0 120.655619,24.128630,0 120.655633,24.128601,0 120.655755,24.128356,0 120.655794,24.128279,0 120.656221,24.128446,0 120.656270,24.128481,0 120.656559,24.128607,0 120.656600,24.128612,0 120.656836,24.128511,0 120.656954,24.128475,0 120.657321,24.128427,0 120.657321,24.128553,0 120.657792,24.129000,0 120.657443,24.129686,0 120.657265,24.129738,0 120.657177,24.129769,0 120.656996,24.129827,0 120.656820,24.129882,0 120.657208,24.129981,0 120.657286,24.130002,0 120.657257,24.130104,0 120.657256,24.130568,0 120.657256,24.130793,0 120.656165,24.130794,0 120.656163,24.131070,0 120.656161,24.131346,0 120.656159,24.131613,0 120.656156,24.131893,0 120.656154,24.132162,0 120.656152,24.132360,0 120.656152,24.132396,0 120.656159,24.132711,0 120.656159,24.132754,0 120.656160,24.133130,0 120.656161,24.133185,0 120.656168,24.133497,0 120.655328,24.133499,0 120.655141,24.133496,0 120.655141,24.134918,0 120.655068,24.134915,0 120.655067,24.134969,0 120.655053,24.134968,0 120.654689,24.134957,0 120.654661,24.134861,0 120.654644,24.134861,0 120.654590,24.134862,0 120.654507,24.134864,0 120.654507,24.134999,0 120.653164,24.134951,0 120.653160,24.135080,0 120.653048,24.135077,0 120.652931,24.135074,0 120.652934,24.134944,0 120.651462,24.134898,0 120.651459,24.135008,0 120.651382,24.135006,0 120.651290,24.135005,0 120.651288,24.134889,0 120.650123,24.134839,0 120.649973,24.134833,0 120.649829,24.134830,0 120.649268,24.134770,0 120.648367,24.134740,0 120.648350,24.134016,0 120.648344,24.133344,0 120.648306,24.132021,0 120.648289,24.131413,0 120.648274,24.130786,0 120.647290,24.130794,0 120.647198,24.130795,0 120.647206,24.131420,0 120.647204,24.132025,0 120.646562,24.132030,0 120.646346,24.132045,0 120.645077,24.132052,0 120.643959,24.132057,0 120.643323,24.132060,0 120.642257,24.132066,0 120.642253,24.131967,0 120.642150,24.131914,0 120.642085,24.131799,0 120.642045,24.131691,0 120.642049,24.131552,0 120.642026,24.131368,0 120.641937,24.131313,0 120.641871,24.131250,0 120.641808,24.131183,0 120.641813,24.131100,0 120.641725,24.131135,0 120.641551,24.131156,0 120.641362,24.131170,0 120.641353,24.130803,0 120.640648,24.130782,0 120.640636,24.130158,0 120.640625,24.129546,0 120.640616,24.128887,0 120.640613,24.128743,0 120.640594,24.128585,0 120.640580,24.128489,0 120.640524,24.128336,0 120.640452,24.128212,0 120.640375,24.128085,0 120.640330,24.128027,0 120.640176,24.127893,0 120.639884,24.127652,0 120.640258,24.127228,0 120.640334,24.127143,0 120.640385,24.127082,0 120.641599,24.125645,0 120.641671,24.125560,0 120.641724,24.125495,0 120.642322,24.124770,0 120.642380,24.124699,0 120.642424,24.124646,0 120.642741,24.124260,0 120.642795,24.124296,0 120.642813,24.124299,0 120.642829,24.124294,0 120.642848,24.124284,0 120.642871,24.124264,0 120.642887,24.124256,0 120.642905,24.124232,0 120.642983,24.124140,0 120.643008,24.124112,0 120.643013,24.124090,0 120.643000,24.124041,0 120.642957,24.124005,0 120.643293,24.123603,0 120.643344,24.123541,0 120.643395,24.123482,0 120.644060,24.122702,0 120.644077,24.122679,0 120.644084,24.122670,0 120.644135,24.122595,0 120.644172,24.122626,0 120.644227,24.122673,0 120.644870,24.123110,0 120.645585,24.123607,0 120.644989,24.124385,0 120.644949,24.124436,0 120.644863,24.124392,0 120.644664,24.124291,0 120.644144,24.124008,0 120.643661,24.123747,0 120.643424,24.123618,0 120.643344,24.123541,0 120.643293,24.123603,0 120.642957,24.124005,0 120.643000,24.124041,0 120.643013,24.124090,0 120.643008,24.124112,0 120.642983,24.124140,0 120.642905,24.124232,0 120.642887,24.124256,0 120.642871,24.124264,0 120.642848,24.124284,0 120.642829,24.124294,0 120.642813,24.124299,0 120.642795,24.124296,0 120.642741,24.124260,0 120.642424,24.124646,0 120.642380,24.124699,0 120.642322,24.124770,0 120.641724,24.125495,0 120.641671,24.125560,0 120.641585,24.125488,0 120.641447,24.125372,0 120.641204,24.125167,0 120.641175,24.125142,0 120.641126,24.125101,0 120.641077,24.125059,0 120.640727,24.124762,0 120.640610,24.124667,0 120.640543,24.124735,0 120.640502,24.124705,0 120.640451,24.124659,0 120.640428,24.124660,0 120.640427,24.124646,0 120.640021,24.124312,0 120.639972,24.124312,0 120.639947,24.124340,0 120.639184,24.125204,0 120.639126,24.125159,0 120.639048,24.125100,0 120.639038,24.125101,0 120.639016,24.125096,0 120.638995,24.125084,0 120.638976,24.125069,0 120.638961,24.125053,0 120.638954,24.125032,0 120.638955,24.125019,0 120.638884,24.124966,0 120.638835,24.124929,0 120.638818,24.124917,0 120.638895,24.124811,0 120.639026,24.124641,0 120.639004,24.124587,0 120.638970,24.124603,0 120.638954,24.124613,0 120.638870,24.124664,0 120.638813,24.124701,0 120.638780,24.124730,0 120.638710,24.124803,0 120.638671,24.124833,0 120.638616,24.124842,0 120.638554,24.124831,0 120.638415,24.124763,0 120.638259,24.124682,0 120.638159,24.124625,0 120.637996,24.124527,0 120.637908,24.124481,0 120.637870,24.124437,0 120.637844,24.124394,0 120.637841,24.124353,0 120.637843,24.124311,0 120.637861,24.124269,0 120.637925,24.124194,0 120.637939,24.124155,0 120.637922,24.124111,0 120.637817,24.123869,0 120.637814,24.123826,0 120.637826,24.123805,0 120.637786,24.123706,0 120.637741,24.123595,0 120.637733,24.123579,0 120.637685,24.123477,0 120.637653,24.123474,0 120.637616,24.123402,0 120.637614,24.123383,0 120.637659,24.123341,0 120.637704,24.123285,0 120.637741,24.123275,0 120.638175,24.122813,0 120.638200,24.122782,0 120.638110,24.122705,0 120.638025,24.122632,0 120.638010,24.122592,0 120.638075,24.122528,0 120.637995,24.122462,0 120.637633,24.122148,0 120.636954,24.121572,0 120.637675,24.120856,0 120.638150,24.120366,0 120.637700,24.119980,0 120.637659,24.119946,0 120.637737,24.119865,0 120.637664,24.119801,0 120.637800,24.119662,0 120.637722,24.119597,0 120.637613,24.119508,0 120.637438,24.119357,0 120.637489,24.119302,0 120.638227,24.118592,0 120.638560,24.118254,0 120.638793,24.118110,0 120.639095,24.117942,0 120.639195,24.117860,0 120.639871,24.117214,0 120.640017,24.117078,0 120.640131,24.116949,0 120.640455,24.116621,0 120.640590,24.116535,0 120.642371,24.114733,0 120.642478,24.114647,0 120.642650,24.114561,0 120.643079,24.114153,0 120.643208,24.113917,0 120.643344,24.113770,0 120.643466,24.113638,0 120.643644,24.113458,0 120.644323,24.112770,0 120.644514,24.112577,0 120.644775,24.112313,0
</coordinates></LineString></Placemark>
</Document></kml>