<?xml version="1.0" encoding="UTF-8"?>
<kml xmlns="http://www.opengis.net/kml/2.2"><Document>
<name>烏日區 蜷睡貓咪 圖形路跑路線</name>
<Style id="r"><LineStyle><color>ff2000d6</color><width>4</width></LineStyle></Style>
<Placemark><name>豐富公園</name><description>地標</description><Point><coordinates>120.653891,24.129945,0</coordinates></Point></Placemark>
<Placemark><name>兒91公園</name><description>地標</description><Point><coordinates>120.656179,24.120137,0</coordinates></Point></Placemark>
<Placemark><name>樹仔腳公園</name><description>地標</description><Point><coordinates>120.654092,24.119497,0</coordinates></Point></Placemark>
<Placemark><name>烏日區 蜷睡貓咪 圖形路跑路線</name><styleUrl>#r</styleUrl><LineString><tessellate>1</tessellate><coordinates>
120.649789,24.126805,0 120.650611,24.127125,0 120.650278,24.127650,0 120.650365,24.127682,0 120.650443,24.127702,0 120.650425,24.127742,0 120.650414,24.127789,0 120.650390,24.127886,0 120.650380,24.127926,0 120.650375,24.127945,0 120.651557,24.128291,0 120.652753,24.128662,0 120.653129,24.128769,0 120.653208,24.128824,0 120.653274,24.128861,0 120.653278,24.128770,0 120.653372,24.128809,0 120.653375,24.128708,0 120.653376,24.128632,0 120.653410,24.128623,0 120.654331,24.128999,0 120.654473,24.129050,0 120.654527,24.129071,0 120.654610,24.129113,0 120.654667,24.129149,0 120.655008,24.129275,0 120.655020,24.129352,0 120.655223,24.129422,0 120.655277,24.129314,0 120.655292,24.129285,0 120.655488,24.128896,0 120.655619,24.128630,0 120.655633,24.128601,0 120.655755,24.128356,0 120.655794,24.128279,0 120.656221,24.128446,0 120.656270,24.128481,0 120.656280,24.128307,0 120.656280,24.128200,0 120.656232,24.128032,0 120.656221,24.128001,0 120.656231,24.127862,0 120.656285,24.127781,0 120.656297,24.127547,0 120.656341,24.127404,0 120.656251,24.127368,0 120.656595,24.126678,0 120.656644,24.126743,0 120.657231,24.126376,0 120.657272,24.126390,0 120.657270,24.126345,0 120.657256,24.125970,0 120.657381,24.125767,0 120.657383,24.125756,0 120.657574,24.125497,0 120.657747,24.125263,0 120.657395,24.125067,0 120.657627,24.124630,0 120.658023,24.124859,0 120.657892,24.124707,0 120.657627,24.124261,0 120.657274,24.123579,0 120.657193,24.123492,0 120.656945,24.123223,0 120.656962,24.123158,0 120.656919,24.122943,0 120.656980,24.122924,0 120.657224,24.122796,0 120.657236,24.122788,0 120.657080,24.121769,0 120.657032,24.121686,0 120.656985,24.121324,0 120.656922,24.120843,0 120.656909,24.120839,0 120.656568,24.120747,0 120.656543,24.120746,0 120.655806,24.120455,0 120.655773,24.120459,0 120.655709,24.120468,0 120.655596,24.120400,0 120.654949,24.121091,0 120.654711,24.121344,0 120.654201,24.120994,0 120.653704,24.120649,0 120.654308,24.120009,0 120.653804,24.119616,0 120.653203,24.120237,0 120.653164,24.120256,0 120.652653,24.119900,0 120.652328,24.120236,0 120.651774,24.120782,0 120.651630,24.120936,0 120.651093,24.120601,0 120.650583,24.120297,0 120.650325,24.120487,0 120.650286,24.120517,0 120.650175,24.120592,0 120.650086,24.120652,0 120.649969,24.120580,0 120.649378,24.121435,0 120.649074,24.121843,0 120.648437,24.122721,0 120.648576,24.122830,0 120.648474,24.122979,0 120.648542,24.123038,0 120.648348,24.123314,0 120.648297,24.123380,0 120.648243,24.123462,0 120.648181,24.123544,0 120.648110,24.123575,0 120.647691,24.124144,0 120.647422,24.124523,0 120.647385,24.124578,0 120.647375,24.124602,0 120.647376,24.124632,0 120.647346,24.124680,0 120.647897,24.125006,0 120.648473,24.125350,0 120.649237,24.124243,0 120.648730,24.123838,0 120.648243,24.123462,0 120.648297,24.123380,0 120.648348,24.123314,0 120.648542,24.123038,0 120.648474,24.122979,0 120.648576,24.122830,0 120.648854,24.122400,0 120.649503,24.121505,0 120.650086,24.120652,0 120.650369,24.120825,0 120.650745,24.121051,0 120.650805,24.121087,0 120.651886,24.121739,0 120.652033,24.121828,0 120.652256,24.121963,0 120.652544,24.122136,0 120.653481,24.122721,0 120.653435,24.123767,0 120.653408,24.124709,0 120.653380,24.125686,0 120.653352,24.126455,0 120.653251,24.126377,0 120.653243,24.126462,0 120.652322,24.125733,0 120.651820,24.125345,0 120.651679,24.125407,0 120.651658,24.125415,0 120.651209,24.125603,0 120.651185,24.125626,0 120.651114,24.125705,0 120.651354,24.125900,0 120.650611,24.127125,0 120.649789,24.126805,0
</coordinates></LineString></Placemark>
</Document></kml>