<?xml version="1.0" encoding="UTF-8"?>
<kml xmlns="http://www.opengis.net/kml/2.2"><Document>
<name>烏日區 蹲坐貓咪（側面） 圖形路跑路線</name>
<Style id="r"><LineStyle><color>ff2000d6</color><width>4</width></LineStyle></Style>
<Placemark><name>筏子溪河濱公園</name><description>地標</description><Point><coordinates>120.619906,24.131690,0</coordinates></Point></Placemark>
<Placemark><name>高鐵新市鎮生態公園</name><description>地標</description><Point><coordinates>120.628066,24.133550,0</coordinates></Point></Placemark>
<Placemark><name>瑞成堂</name><description>地標</description><Point><coordinates>120.627898,24.132915,0</coordinates></Point></Placemark>
<Placemark><name>烏日區 蹲坐貓咪（側面） 圖形路跑路線</name><styleUrl>#r</styleUrl><LineString><tessellate>1</tessellate><coordinates>
120.621114,24.120494,0 120.621208,24.120574,0 120.621280,24.120673,0 120.621331,24.120772,0 120.621373,24.120886,0 120.621394,24.120998,0 120.621398,24.121138,0 120.621384,24.121224,0 120.621357,24.121325,0 120.621310,24.121435,0 120.621250,24.121541,0 120.621170,24.121639,0 120.621080,24.121726,0 120.620963,24.121812,0 120.620547,24.122054,0 120.620426,24.122129,0 120.620350,24.122197,0 120.620274,24.122275,0 120.620230,24.122340,0 120.620191,24.122419,0 120.620160,24.122512,0 120.620141,24.122607,0 120.620074,24.123532,0 120.620100,24.124620,0 120.620126,24.125700,0 120.620152,24.126362,0 120.620158,24.126693,0 120.620953,24.126673,0 120.620966,24.126720,0 120.621026,24.126841,0 120.621042,24.126879,0 120.621051,24.126919,0 120.621044,24.126949,0 120.620977,24.127055,0 120.620964,24.127085,0 120.620973,24.127118,0 120.621002,24.127133,0 120.621085,24.127161,0 120.621134,24.127166,0 120.621212,24.127164,0 120.621220,24.127239,0 120.621221,24.127533,0 120.621216,24.127647,0 120.621204,24.127676,0 120.621210,24.128237,0 120.621243,24.128408,0 120.621283,24.128565,0 120.621302,24.128636,0 120.621325,24.128720,0 120.621332,24.128773,0 120.621325,24.128811,0 120.621308,24.128861,0 120.621306,24.128888,0 120.621353,24.129072,0 120.621352,24.129103,0 120.621335,24.129152,0 120.621252,24.129277,0 120.621121,24.129509,0 120.621117,24.129528,0 120.621129,24.129548,0 120.621165,24.129570,0 120.621177,24.129606,0 120.621177,24.129663,0 120.621115,24.130523,0 120.621119,24.130539,0 120.621217,24.130589,0 120.621275,24.130644,0 120.621321,24.130699,0 120.621381,24.130824,0 120.621370,24.130908,0 120.621308,24.131148,0 120.621297,24.131191,0 120.621258,24.131230,0 120.621187,24.131266,0 120.620630,24.131409,0 120.620991,24.132359,0 120.621686,24.134173,0 120.621811,24.134453,0 120.621879,24.134464,0 120.622063,24.134487,0 120.622371,24.134612,0 120.622419,24.134691,0 120.622469,24.134726,0 120.622831,24.134924,0 120.622903,24.134925,0 120.623139,24.134865,0 120.623190,24.134805,0 120.623183,24.134650,0 120.623227,24.134493,0 120.623222,24.134378,0 120.623220,24.133945,0 120.623225,24.133475,0 120.623220,24.133155,0 120.623231,24.132847,0 120.623493,24.132376,0 120.623534,24.132283,0 120.623588,24.132115,0 120.623591,24.132058,0 120.623597,24.131971,0 120.623781,24.131473,0 120.623907,24.131168,0 120.623948,24.131059,0 120.623972,24.130985,0 120.623976,24.130949,0 120.624006,24.130760,0 120.624037,24.130627,0 120.624033,24.130504,0 120.624048,24.130483,0 120.624078,24.130425,0 120.624120,24.130361,0 120.624155,24.130325,0 120.624233,24.130293,0 120.624493,24.130216,0 120.624715,24.130221,0 120.624743,24.130213,0 120.624839,24.130138,0 120.624849,24.130178,0 120.624855,24.130214,0 120.624862,24.130327,0 120.624878,24.130408,0 120.624896,24.130453,0 120.625002,24.130540,0 120.625100,24.130607,0 120.625168,24.130673,0 120.625196,24.130730,0 120.625326,24.131344,0 120.625412,24.131432,0 120.625093,24.131842,0 120.624847,24.132194,0 120.624821,24.132230,0 120.624991,24.132331,0 120.625097,24.132394,0 120.625037,24.132480,0 120.624954,24.132597,0 120.625109,24.132695,0 120.625091,24.132725,0 120.625036,24.132811,0 120.624754,24.133244,0 120.624370,24.133875,0 120.624231,24.134143,0 120.624165,24.134275,0 120.625418,24.134633,0 120.626571,24.134978,0 120.626943,24.133804,0 120.626989,24.133669,0 120.627002,24.133628,0 120.627090,24.133654,0 120.627170,24.133668,0 120.627301,24.133677,0 120.627349,24.133615,0 120.627368,24.133517,0 120.627464,24.133409,0 120.627571,24.133367,0 120.627718,24.133392,0 120.627848,24.133429,0 120.627934,24.133423,0 120.628016,24.133376,0 120.628096,24.133372,0 120.628145,24.133353,0 120.628223,24.133270,0 120.628233,24.133168,0 120.628237,24.133119,0 120.628323,24.132740,0 120.628427,24.132643,0 120.628460,24.132627,0 120.628608,24.132583,0 120.628617,24.132468,0 120.628640,24.132387,0 120.628829,24.132226,0 120.628601,24.132037,0 120.628561,24.131999,0 120.628518,24.131975,0 120.628490,24.131971,0 120.628570,24.131903,0 120.628637,24.131853,0 120.628614,24.131808,0 120.628569,24.131773,0 120.628590,24.131756,0 120.629670,24.131006,0 120.629908,24.130841,0 120.630206,24.130625,0 120.630281,24.130552,0 120.630383,24.130453,0 120.630498,24.130346,0 120.631477,24.129434,0 120.632340,24.130290,0 120.633161,24.131180,0 120.633235,24.131113,0 120.633532,24.130821,0 120.634133,24.130222,0 120.634293,24.130066,0 120.634378,24.129982,0 120.634440,24.129920,0 120.634484,24.129996,0 120.634641,24.129834,0 120.634944,24.129539,0 120.635192,24.129295,0 120.635328,24.129157,0 120.635788,24.128699,0 120.635963,24.128528,0 120.636064,24.128434,0 120.636162,24.128315,0 120.636200,24.128397,0 120.636244,24.128496,0 120.636291,24.128599,0 120.636299,24.128622,0 120.636354,24.128619,0 120.636370,24.128618,0 120.636552,24.128672,0 120.636562,24.128670,0 120.636635,24.128652,0 120.636818,24.129118,0 120.637039,24.129613,0 120.637240,24.130051,0 120.637290,24.130184,0 120.637367,24.130134,0 120.637409,24.130108,0 120.638190,24.129636,0 120.638610,24.129150,0 120.639089,24.128589,0 120.639627,24.128961,0 120.640375,24.128085,0 120.640452,24.128212,0 120.640524,24.128336,0 120.640580,24.128489,0 120.640594,24.128585,0 120.640613,24.128743,0 120.640616,24.128887,0 120.640625,24.129546,0 120.641343,24.129545,0 120.641325,24.128762,0 120.641321,24.128685,0 120.641314,24.128591,0 120.641282,24.128401,0 120.641235,24.128217,0 120.641981,24.127968,0 120.642088,24.127956,0 120.642063,24.127893,0 120.642210,24.127759,0 120.642228,24.127742,0 120.642668,24.127322,0 120.643137,24.126798,0 120.643604,24.126176,0 120.644049,24.125621,0 120.644403,24.125162,0 120.644440,24.125185,0 120.644462,24.125186,0 120.644500,24.125163,0 120.645729,24.125812,0 120.645897,24.125912,0 120.645956,24.125952,0 120.645983,24.125982,0 120.646016,24.126019,0 120.646046,24.126059,0 120.646098,24.126150,0 120.646195,24.126149,0 120.646289,24.126146,0 120.646380,24.126164,0 120.646416,24.126188,0 120.646516,24.126244,0 120.646554,24.126420,0 120.646575,24.126435,0 120.646610,24.126466,0 120.646636,24.126453,0 120.646708,24.126428,0 120.646764,24.126417,0 120.646840,24.126414,0 120.646927,24.126443,0 120.648057,24.127039,0 120.648109,24.126968,0 120.648158,24.126883,0 120.648205,24.126805,0 120.648308,24.126854,0 120.648628,24.126361,0 120.649202,24.126575,0 120.649789,24.126805,0 120.650611,24.127125,0 120.650278,24.127650,0 120.650365,24.127682,0 120.650443,24.127702,0 120.650425,24.127742,0 120.650414,24.127789,0 120.650390,24.127886,0 120.650380,24.127926,0 120.650375,24.127945,0 120.650283,24.127951,0 120.650194,24.127922,0 120.650204,24.127823,0 120.650231,24.127725,0 120.650278,24.127650,0 120.650210,24.127624,0 120.650166,24.127603,0 120.650108,24.127592,0 120.648386,24.126887,0 120.648308,24.126854,0 120.648628,24.126361,0 120.649063,24.125696,0 120.648473,24.125350,0 120.647897,24.125006,0 120.647346,24.124680,0 120.647376,24.124632,0 120.647375,24.124602,0 120.647385,24.124578,0 120.647422,24.124523,0 120.647691,24.124144,0 120.648110,24.123575,0 120.648181,24.123544,0 120.648243,24.123462,0 120.648297,24.123380,0 120.648348,24.123314,0 120.648542,24.123038,0 120.648474,24.122979,0 120.648335,24.122877,0 120.648330,24.122849,0 120.648292,24.122792,0 120.647779,24.122351,0 120.647745,24.122325,0 120.647826,24.122226,0 120.647070,24.121639,0 120.647483,24.121109,0 120.647981,24.120492,0 120.648424,24.119930,0 120.648578,24.119733,0 120.648637,24.119646,0 120.648724,24.119521,0 120.648740,24.119498,0 120.648760,24.119469,0 120.648852,24.119334,0 120.648894,24.119272,0 120.648951,24.119150,0 120.648997,24.119041,0 120.649058,24.118853,0 120.649134,24.118583,0 120.649210,24.118334,0 120.649284,24.118113,0 120.649407,24.117657,0 120.649605,24.116983,0 120.649619,24.116920,0 120.649786,24.116359,0 120.649821,24.116249,0 120.649843,24.116210,0 120.650005,24.116066,0 120.650112,24.115983,0 120.650172,24.115942,0 120.650105,24.115881,0 120.650203,24.115826,0 120.649118,24.114946,0 120.648707,24.114606,0 120.648660,24.114573,0 120.648619,24.114624,0 120.648558,24.114586,0 120.648444,24.114487,0 120.648336,24.114393,0 120.648182,24.114256,0 120.646988,24.113273,0 120.645523,24.112032,0 120.645501,24.112008,0 120.645461,24.111977,0 120.645267,24.111813,0 120.645302,24.111759,0 120.645225,24.111793,0 120.644453,24.112565,0 120.644281,24.112737,0 120.644060,24.112626,0 120.644008,24.112598,0 120.643931,24.112583,0 120.643823,24.112539,0 120.643671,24.112436,0 120.643356,24.112150,0 120.643070,24.111888,0 120.642961,24.111787,0 120.642711,24.111612,0 120.642348,24.111383,0 120.642277,24.111331,0 120.641964,24.111255,0 120.641775,24.111206,0 120.641616,24.111177,0 120.641607,24.110335,0 120.641591,24.110144,0 120.641313,24.110138,0 120.641061,24.110124,0 120.640841,24.110092,0 120.640387,24.109931,0 120.640116,24.109841,0 120.639607,24.109672,0 120.638989,24.109454,0 120.638285,24.109211,0 120.637709,24.109010,0 120.637256,24.108849,0 120.636865,24.108724,0 120.636621,24.108636,0 120.636015,24.108420,0 120.635325,24.108168,0 120.635018,24.108099,0 120.634770,24.108067,0 120.634130,24.108036,0 120.632915,24.108310,0 120.632952,24.107925,0 120.632929,24.107833,0 120.632804,24.107644,0 120.632768,24.107678,0 120.632455,24.108006,0 120.632132,24.108345,0 120.631936,24.108551,0 120.631876,24.108577,0 120.631632,24.108830,0 120.631503,24.108964,0 120.631374,24.108973,0 120.631321,24.108974,0 120.631243,24.108972,0 120.630840,24.108849,0 120.630407,24.108725,0 120.630088,24.108635,0 120.630010,24.108609,0 120.629543,24.108476,0 120.628957,24.108309,0 120.628629,24.108227,0 120.628331,24.108170,0 120.628057,24.108128,0 120.627943,24.108111,0 120.627816,24.108109,0 120.627501,24.108105,0 120.626984,24.108113,0 120.626731,24.108125,0 120.626547,24.108148,0 120.626349,24.108165,0 120.625993,24.108207,0 120.625924,24.108216,0 120.625468,24.108279,0 120.625495,24.108460,0 120.625501,24.108497,0 120.625524,24.108651,0 120.625601,24.108644,0 120.625583,24.108671,0 120.625590,24.108698,0 120.625606,24.108831,0 120.626081,24.108778,0 120.626657,24.108745,0 120.626937,24.108751,0 120.627393,24.108759,0 120.627620,24.108776,0 120.628086,24.108818,0 120.628276,24.108836,0 120.628449,24.108867,0 120.628685,24.108909,0 120.629038,24.108989,0 120.629677,24.109166,0 120.629517,24.109715,0 120.629463,24.109933,0 120.629417,24.110166,0 120.629385,24.110339,0 120.629302,24.110985,0 120.629278,24.111425,0 120.629269,24.111599,0 120.629264,24.111716,0 120.629286,24.112169,0 120.629311,24.112419,0 120.629337,24.112536,0 120.628912,24.112578,0 120.628548,24.112610,0 120.628047,24.112674,0 120.627986,24.112944,0 120.627937,24.113154,0 120.627931,24.113231,0 120.627970,24.113593,0 120.628011,24.113892,0 120.627521,24.114044,0 120.627208,24.114134,0 120.626739,24.114257,0 120.626209,24.114407,0 120.626273,24.114602,0 120.626320,24.114804,0 120.625139,24.115156,0 120.625229,24.115401,0 120.625336,24.115658,0 120.625497,24.116048,0 120.624492,24.116328,0 120.624585,24.116472,0 120.624703,24.116604,0 120.624859,24.116878,0 120.625182,24.117379,0 120.625512,24.117890,0 120.625293,24.117918,0 120.625494,24.117884,0 120.624866,24.117877,0 120.624224,24.117862,0 120.624040,24.117861,0 120.623933,24.117860,0 120.623784,24.117868,0 120.623459,24.117897,0 120.623314,24.117905,0 120.623257,24.117902,0 120.623151,24.117887,0 120.623082,24.117869,0 120.623050,24.117854,0 120.622981,24.117782,0 120.622899,24.117721,0 120.622673,24.117573,0 120.622507,24.117474,0 120.622517,24.117612,0 120.622598,24.118346,0 120.622597,24.118417,0 120.622589,24.118472,0 120.622631,24.118656,0 120.622638,24.118717,0 120.622642,24.118823,0 120.622638,24.118914,0 120.622623,24.118992,0 120.622594,24.119055,0 120.622575,24.119104,0 120.622572,24.119146,0 120.622573,24.119219,0 120.622562,24.119355,0 120.622574,24.119565,0 120.622586,24.119604,0 120.622581,24.119689,0 120.622620,24.119868,0 120.622648,24.119965,0 120.622691,24.120040,0 120.622707,24.120079,0 120.622724,24.120123,0 120.622731,24.120161,0 120.622725,24.120206,0 120.622705,24.120263,0 120.622663,24.120332,0 120.622640,24.120390,0 120.622623,24.120450,0 120.622618,24.120506,0 120.622605,24.120566,0 120.622578,24.120617,0 120.622550,24.120658,0 120.622504,24.120706,0 120.622447,24.120750,0 120.622355,24.120867,0 120.622250,24.121011,0 120.622233,24.121084,0 120.622224,24.121198,0 120.622219,24.121223,0 120.622208,24.121246,0 120.622189,24.121265,0 120.622163,24.121281,0 120.621854,24.121388,0 120.621683,24.121400,0 120.621660,24.121397,0 120.621640,24.121390,0 120.621624,24.121376,0 120.621613,24.121360,0 120.621518,24.121192,0 120.621494,24.121170,0 120.621466,24.121157,0 120.621398,24.121138,0 120.621394,24.120998,0 120.621373,24.120886,0 120.621331,24.120772,0 120.621280,24.120673,0 120.621208,24.120574,0 120.621114,24.120494,0
</coordinates></LineString></Placemark>
</Document></kml>