<?xml version="1.0" encoding="UTF-8"?>
<kml xmlns="http://www.opengis.net/kml/2.2"><Document>
<name>烏日區 貓臉（正面） 圖形路跑路線</name>
<Style id="r"><LineStyle><color>ff2000d6</color><width>4</width></LineStyle></Style>
<Placemark><name>南屯區公所4樓禮堂</name><description>地標</description><Point><coordinates>120.644274,24.134495,0</coordinates></Point></Placemark>
<Placemark><name>南苑公園</name><description>地標</description><Point><coordinates>120.647387,24.132723,0</coordinates></Point></Placemark>
<Placemark><name>慶順公園</name><description>地標</description><Point><coordinates>120.651748,24.124009,0</coordinates></Point></Placemark>
<Placemark><name>烏日區 貓臉（正面） 圖形路跑路線</name><styleUrl>#r</styleUrl><LineString><tessellate>1</tessellate><coordinates>
120.640683,24.132777,0 120.640703,24.133403,0 120.641369,24.133399,0 120.642616,24.133388,0 120.642654,24.134115,0 120.642688,24.134767,0 120.642692,24.134828,0 120.643039,24.134815,0 120.643809,24.134793,0 120.643975,24.134785,0 120.644676,24.134757,0 120.644679,24.134692,0 120.644675,24.134082,0 120.645484,24.134071,0 120.645564,24.134060,0 120.645617,24.134027,0 120.645658,24.133961,0 120.645650,24.133361,0 120.646363,24.133354,0 120.646584,24.133352,0 120.646823,24.133350,0 120.647304,24.133344,0 120.648344,24.133344,0 120.648306,24.132021,0 120.648830,24.132018,0 120.649988,24.132012,0 120.650000,24.130766,0 120.650735,24.130758,0 120.650742,24.130129,0 120.650746,24.129493,0 120.650012,24.129501,0 120.650136,24.128499,0 120.650194,24.127922,0 120.650283,24.127951,0 120.650375,24.127945,0 120.650380,24.127926,0 120.650390,24.127886,0 120.650414,24.127789,0 120.650425,24.127742,0 120.650443,24.127702,0 120.650365,24.127682,0 120.650278,24.127650,0 120.650611,24.127125,0 120.651354,24.125900,0 120.651114,24.125705,0 120.651185,24.125626,0 120.651209,24.125603,0 120.651658,24.125415,0 120.651679,24.125407,0 120.650654,24.124610,0 120.650094,24.124172,0 120.649290,24.123537,0 120.648617,24.122996,0 120.648542,24.123038,0 120.648474,24.122979,0 120.648335,24.122877,0 120.648330,24.122849,0 120.648437,24.122721,0 120.647826,24.122226,0 120.647070,24.121639,0 120.647483,24.121109,0 120.646126,24.120191,0 120.646069,24.120168,0 120.645019,24.119438,0 120.644728,24.119786,0 120.644215,24.119383,0 120.644171,24.119430,0 120.644127,24.119458,0 120.644110,24.119432,0 120.644046,24.119379,0 120.644025,24.119401,0 120.643645,24.119841,0 120.643411,24.119873,0 120.643375,24.119911,0 120.643072,24.120251,0 120.643040,24.120287,0 120.642956,24.120221,0 120.642271,24.119691,0 120.641536,24.120497,0 120.640870,24.119960,0 120.640771,24.119880,0 120.640723,24.119842,0 120.640654,24.119787,0 120.640615,24.119834,0 120.640600,24.119852,0 120.640455,24.119873,0 120.640416,24.119870,0 120.640369,24.119848,0 120.640329,24.119817,0 120.640296,24.119779,0 120.640243,24.119729,0 120.640203,24.119707,0 120.640150,24.119692,0 120.640064,24.119680,0 120.640056,24.119678,0 120.640041,24.119676,0 120.640006,24.119744,0 120.639992,24.119775,0 120.639992,24.119789,0 120.640019,24.119809,0 120.639964,24.119928,0 120.639915,24.120015,0 120.639846,24.120111,0 120.639799,24.120161,0 120.639750,24.120242,0 120.639689,24.120396,0 120.639694,24.120407,0 120.639707,24.120475,0 120.639719,24.120527,0 120.639721,24.120579,0 120.639723,24.120632,0 120.639720,24.120673,0 120.639793,24.120767,0 120.639761,24.120801,0 120.639497,24.121085,0 120.639476,24.121096,0 120.639495,24.121110,0 120.639455,24.121144,0 120.639466,24.121156,0 120.639521,24.121199,0 120.639576,24.121236,0 120.639599,24.121252,0 120.639596,24.121284,0 120.639607,24.121333,0 120.639582,24.121353,0 120.639567,24.121370,0 120.639487,24.121458,0 120.639457,24.121491,0 120.639426,24.121542,0 120.639390,24.121540,0 120.639358,24.121553,0 120.639051,24.121890,0 120.639051,24.121857,0 120.638970,24.121793,0 120.638883,24.121725,0 120.638816,24.121797,0 120.638514,24.121547,0 120.638028,24.121148,0 120.637702,24.120883,0 120.637675,24.120856,0 120.636954,24.121572,0 120.637633,24.122148,0 120.637097,24.122721,0 120.636778,24.123068,0 120.636190,24.123678,0 120.636172,24.123712,0 120.636098,24.123808,0 120.635719,24.124200,0 120.634955,24.123559,0 120.634719,24.123793,0 120.634474,24.124034,0 120.634154,24.124350,0 120.634073,24.124434,0 120.634366,24.124765,0 120.634543,24.124990,0 120.634886,24.125425,0 120.635050,24.125630,0 120.635060,24.125643,0 120.634953,24.125713,0 120.634894,24.125751,0 120.634960,24.125835,0 120.634980,24.125861,0 120.634854,24.125965,0 120.634825,24.125981,0 120.634782,24.126010,0 120.634683,24.126077,0 120.634783,24.126234,0 120.634891,24.126380,0 120.635136,24.126760,0 120.635219,24.126883,0 120.635248,24.126925,0 120.635466,24.127281,0 120.635627,24.127551,0 120.635780,24.127823,0 120.635961,24.128182,0 120.636027,24.128348,0 120.636064,24.128434,0 120.635963,24.128528,0 120.635788,24.128699,0 120.635328,24.129157,0 120.635192,24.129295,0 120.634944,24.129539,0 120.634969,24.129583,0 120.635314,24.130208,0 120.635364,24.130300,0 120.635398,24.130357,0 120.635795,24.131087,0 120.636152,24.131642,0 120.636248,24.131810,0 120.636415,24.132110,0 120.635537,24.132557,0 120.635737,24.133079,0 120.636717,24.132623,0 120.637007,24.133163,0 120.637981,24.132772,0 120.637776,24.132236,0 120.637830,24.132221,0 120.638017,24.132172,0 120.638049,24.132164,0 120.638775,24.132083,0 120.638920,24.132474,0 120.639045,24.132815,0 120.640683,24.132777,0
</coordinates></LineString></Placemark>
</Document></kml>