<?xml version="1.0" encoding="UTF-8"?>
<kml xmlns="http://www.opengis.net/kml/2.2"><Document>
<name>烏日區 手繪蹲坐貓（原稿描圖） 圖形路跑路線</name>
<Style id="r"><LineStyle><color>ff2000d6</color><width>4</width></LineStyle></Style>
<Placemark><name>兒二公園</name><description>地標</description><Point><coordinates>120.616942,24.105890,0</coordinates></Point></Placemark>
<Placemark><name>賢達公園</name><description>地標</description><Point><coordinates>120.619037,24.103472,0</coordinates></Point></Placemark>
<Placemark><name>烏日區 手繪蹲坐貓（原稿描圖） 圖形路跑路線</name><styleUrl>#r</styleUrl><LineString><tessellate>1</tessellate><coordinates>
120.613972,24.106317,0 120.613941,24.106343,0 120.613891,24.106384,0 120.613801,24.106458,0 120.613759,24.106493,0 120.613708,24.106535,0 120.613757,24.106591,0 120.613760,24.106604,0 120.613758,24.106620,0 120.613753,24.106630,0 120.613805,24.106710,0 120.613894,24.106846,0 120.613612,24.106990,0 120.613400,24.107083,0 120.613202,24.107155,0 120.613156,24.107169,0 120.613194,24.107291,0 120.613181,24.107316,0 120.613186,24.107390,0 120.613192,24.107469,0 120.613812,24.107426,0 120.613802,24.107270,0 120.613790,24.107102,0 120.614088,24.107084,0 120.614224,24.107240,0 120.614353,24.107388,0 120.614472,24.107524,0 120.614599,24.107668,0 120.614714,24.107799,0 120.614828,24.107929,0 120.614952,24.108070,0 120.615073,24.108207,0 120.615194,24.108346,0 120.615196,24.108409,0 120.615199,24.108470,0 120.615202,24.108553,0 120.614716,24.108580,0 120.614648,24.108584,0 120.614314,24.108603,0 120.614281,24.108605,0 120.614184,24.108610,0 120.614176,24.108535,0 120.614275,24.108529,0 120.614308,24.108527,0 120.615199,24.108470,0 120.615251,24.108466,0 120.615286,24.108464,0 120.615314,24.108456,0 120.615334,24.108440,0 120.615341,24.108416,0 120.615334,24.108394,0 120.615308,24.108356,0 120.614081,24.106950,0 120.614057,24.106931,0 120.614136,24.106872,0 120.614157,24.106894,0 120.614289,24.107035,0 120.614431,24.107220,0 120.615330,24.108217,0 120.617288,24.110389,0 120.618044,24.111220,0 120.618070,24.111282,0 120.618010,24.111246,0 120.617773,24.110983,0 120.617747,24.110972,0 120.617714,24.110969,0 120.617651,24.110893,0 120.617633,24.110871,0 120.617597,24.110856,0 120.616978,24.110239,0 120.616830,24.110091,0 120.616972,24.110080,0 120.616995,24.110079,0 120.617012,24.110059,0 120.617049,24.110042,0 120.616841,24.110059,0 120.616530,24.110091,0 120.616443,24.110083,0 120.616232,24.110043,0 120.616168,24.110027,0 120.616062,24.110041,0 120.615303,24.110130,0 120.615208,24.110144,0 120.615138,24.110154,0 120.614806,24.110193,0 120.614662,24.110210,0 120.613878,24.110266,0 120.611701,24.110490,0 120.611706,24.110545,0 120.611718,24.110623,0 120.611742,24.110603,0 120.611774,24.110594,0 120.613888,24.110361,0 120.614733,24.110298,0 120.614744,24.110470,0 120.614752,24.110611,0 120.614764,24.110721,0 120.614839,24.110718,0 120.615036,24.110703,0 120.615020,24.110543,0 120.614967,24.110501,0 120.615041,24.110414,0 120.615184,24.110252,0 120.615257,24.110170,0 120.615499,24.110328,0 120.615607,24.111471,0 120.616145,24.111429,0 120.616160,24.111428,0 120.616133,24.111125,0 120.616091,24.110677,0 120.616174,24.110671,0 120.616129,24.110274,0 120.616112,24.110229,0 120.616092,24.110200,0 120.616071,24.110184,0 120.616041,24.110176,0 120.616004,24.110176,0 120.615896,24.110186,0 120.615610,24.110212,0 120.615428,24.110228,0 120.615387,24.110241,0 120.615360,24.110262,0 120.615343,24.110291,0 120.615334,24.110322,0 120.615325,24.110411,0 120.615371,24.110952,0 120.615451,24.110863,0 120.615408,24.110405,0 120.615410,24.110369,0 120.615425,24.110340,0 120.615454,24.110318,0 120.615485,24.110308,0 120.616022,24.110270,0 120.616053,24.110273,0 120.616077,24.110284,0 120.616093,24.110302,0 120.616099,24.110325,0 120.616105,24.110386,0 120.616195,24.110542,0 120.616166,24.110277,0 120.616143,24.110202,0 120.616127,24.110155,0 120.616095,24.110120,0 120.616052,24.110104,0 120.615998,24.110103,0 120.615404,24.110172,0 120.615364,24.110187,0 120.615338,24.110209,0 120.615324,24.110231,0 120.615315,24.110259,0 120.615325,24.110411,0 120.615334,24.110322,0 120.615343,24.110291,0 120.615360,24.110262,0 120.615387,24.110241,0 120.615428,24.110228,0 120.615610,24.110212,0 120.615896,24.110186,0 120.616004,24.110176,0 120.616041,24.110176,0 120.616071,24.110184,0 120.616092,24.110200,0 120.616112,24.110229,0 120.616129,24.110274,0 120.616174,24.110671,0 120.616237,24.110665,0 120.616326,24.110660,0 120.616297,24.110386,0 120.616283,24.110315,0 120.616268,24.110239,0 120.616269,24.110204,0 120.616280,24.110172,0 120.616304,24.110145,0 120.616355,24.110110,0 120.616440,24.110058,0 120.616763,24.110024,0 120.616969,24.110006,0 120.617062,24.110018,0 120.617129,24.110037,0 120.617186,24.110059,0 120.617237,24.110089,0 120.617281,24.110133,0 120.617317,24.110191,0 120.617333,24.110243,0 120.617339,24.110298,0 120.617353,24.110513,0 120.617363,24.110607,0 120.617388,24.110705,0 120.617387,24.110756,0 120.617388,24.110806,0 120.617383,24.110857,0 120.617392,24.110938,0 120.617501,24.111082,0 120.617540,24.111145,0 120.617546,24.111159,0 120.617547,24.111179,0 120.617543,24.111195,0 120.617532,24.111214,0 120.617509,24.111237,0 120.617488,24.111266,0 120.617477,24.111300,0 120.617478,24.111334,0 120.617495,24.111368,0 120.617521,24.111395,0 120.617554,24.111412,0 120.617593,24.111419,0 120.617631,24.111413,0 120.617665,24.111397,0 120.617692,24.111372,0 120.617708,24.111339,0 120.617712,24.111304,0 120.617704,24.111270,0 120.617683,24.111240,0 120.617605,24.111137,0 120.617539,24.111061,0 120.617580,24.111035,0 120.617658,24.110982,0 120.617684,24.110972,0 120.617714,24.110969,0 120.617747,24.110972,0 120.617773,24.110983,0 120.618010,24.111246,0 120.618070,24.111282,0 120.618044,24.111220,0 120.617288,24.110389,0 120.615330,24.108217,0 120.614431,24.107220,0 120.614289,24.107035,0 120.614157,24.106894,0 120.614136,24.106872,0 120.614259,24.106779,0 120.614334,24.106723,0 120.614311,24.106700,0 120.614255,24.106638,0 120.614157,24.106529,0 120.614099,24.106465,0 120.614120,24.106455,0 120.615177,24.105930,0 120.615251,24.105893,0 120.615318,24.105860,0 120.615371,24.105925,0 120.615814,24.105736,0 120.615932,24.105797,0 120.616271,24.105917,0 120.616753,24.106021,0 120.617221,24.106137,0 120.617322,24.106170,0 120.617498,24.106217,0 120.617984,24.106353,0 120.618116,24.105763,0 120.618560,24.105820,0 120.618818,24.105828,0 120.619114,24.105822,0 120.619454,24.105782,0 120.619596,24.105760,0 120.619656,24.105747,0 120.620374,24.105535,0 120.621246,24.105248,0 120.621847,24.105049,0 120.621835,24.104960,0 120.621226,24.105157,0 120.620731,24.105321,0 120.620335,24.105452,0 120.620220,24.105170,0 120.619954,24.105276,0 120.619771,24.105331,0 120.619431,24.105401,0 120.619309,24.105402,0 120.619071,24.105462,0 120.618934,24.105236,0 120.618768,24.104962,0 120.618394,24.105218,0 120.618308,24.105146,0 120.618227,24.105208,0 120.617528,24.105185,0 120.617499,24.105184,0 120.617131,24.105164,0 120.617189,24.105557,0 120.616877,24.105553,0 120.616588,24.105566,0 120.616257,24.105607,0 120.615985,24.105678,0 120.615814,24.105736,0 120.615371,24.105925,0 120.615318,24.105860,0 120.615251,24.105893,0 120.615177,24.105930,0 120.614120,24.106455,0 120.614099,24.106465,0 120.613972,24.106317,0
</coordinates></LineString></Placemark>
</Document></kml>