<?xml version="1.0" encoding="UTF-8"?>
<kml xmlns="http://www.opengis.net/kml/2.2"><Document>
<name>烏日區 貓咪肉球 圖形路跑路線</name>
<Style id="r"><LineStyle><color>ff2000d6</color><width>4</width></LineStyle></Style>
<Placemark><name>樹德公園</name><description>地標</description><Point><coordinates>120.653991,24.117788,0</coordinates></Point></Placemark>
<Placemark><name>樹仔腳公園</name><description>地標</description><Point><coordinates>120.654092,24.119497,0</coordinates></Point></Placemark>
<Placemark><name>兒91公園</name><description>地標</description><Point><coordinates>120.656179,24.120137,0</coordinates></Point></Placemark>
<Placemark><name>烏日區 貓咪肉球 圖形路跑路線</name><styleUrl>#r</styleUrl><LineString><tessellate>1</tessellate><coordinates>
120.647070,24.121639,0 120.647483,24.121109,0 120.647981,24.120492,0 120.648424,24.119930,0 120.648578,24.119733,0 120.648637,24.119646,0 120.648724,24.119521,0 120.648740,24.119498,0 120.648760,24.119469,0 120.648852,24.119334,0 120.648894,24.119272,0 120.650452,24.120219,0 120.650583,24.120297,0 120.651638,24.119183,0 120.652169,24.119556,0 120.652653,24.119900,0 120.653334,24.119190,0 120.653804,24.119616,0 120.654308,24.120009,0 120.654555,24.119730,0 120.654605,24.119668,0 120.654689,24.119737,0 120.654753,24.119746,0 120.655150,24.120077,0 120.655444,24.120279,0 120.655484,24.120326,0 120.655596,24.120400,0 120.655709,24.120468,0 120.655773,24.120459,0 120.655806,24.120455,0 120.656543,24.120746,0 120.656556,24.120862,0 120.656560,24.120953,0 120.656660,24.121558,0 120.656370,24.121590,0 120.656477,24.122231,0 120.656176,24.122382,0 120.656587,24.122828,0 120.656695,24.122977,0 120.656760,24.123044,0 120.656962,24.123158,0 120.656945,24.123223,0 120.656790,24.123959,0 120.656756,24.124037,0 120.656726,24.124071,0 120.657091,24.124298,0 120.657528,24.124575,0 120.657627,24.124630,0 120.657395,24.125067,0 120.657747,24.125263,0 120.657574,24.125497,0 120.657383,24.125756,0 120.657381,24.125767,0 120.657256,24.125970,0 120.657270,24.126345,0 120.657231,24.126376,0 120.657272,24.126390,0 120.657302,24.127249,0 120.657302,24.127324,0 120.657313,24.127688,0 120.657314,24.127946,0 120.657318,24.128099,0 120.657321,24.128171,0 120.657321,24.128427,0 120.657321,24.128553,0 120.657179,24.128852,0 120.657051,24.129118,0 120.656957,24.129317,0 120.656714,24.129243,0 120.656442,24.129166,0 120.655488,24.128896,0 120.655292,24.129285,0 120.655277,24.129314,0 120.655223,24.129422,0 120.655020,24.129352,0 120.655008,24.129275,0 120.654667,24.129149,0 120.654610,24.129113,0 120.654629,24.129075,0 120.654646,24.128862,0 120.654623,24.128689,0 120.654584,24.128552,0 120.654572,24.128464,0 120.654512,24.128330,0 120.654433,24.128179,0 120.654325,24.128049,0 120.654257,24.127956,0 120.654147,24.127860,0 120.654018,24.127758,0 120.653556,24.127452,0 120.653465,24.127378,0 120.653440,24.127321,0 120.653447,24.127274,0 120.653462,24.127278,0 120.653705,24.127017,0 120.653476,24.126849,0 120.653476,24.126791,0 120.653465,24.126783,0 120.653453,24.126739,0 120.653442,24.126730,0 120.653346,24.126651,0 120.653345,24.126677,0 120.653323,24.127257,0 120.653324,24.127408,0 120.654056,24.127985,0 120.654119,24.128045,0 120.654189,24.128125,0 120.654263,24.128229,0 120.654313,24.128306,0 120.654355,24.128384,0 120.654389,24.128456,0 120.654408,24.128511,0 120.654431,24.128586,0 120.654444,24.128666,0 120.654460,24.128795,0 120.654470,24.129014,0 120.654473,24.129050,0 120.654502,24.129143,0 120.654585,24.129287,0 120.654585,24.129622,0 120.654491,24.129724,0 120.654320,24.129872,0 120.654198,24.129937,0 120.654265,24.130094,0 120.654254,24.130324,0 120.654322,24.130469,0 120.654138,24.130553,0 120.653881,24.130521,0 120.653659,24.130424,0 120.653640,24.130454,0 120.653549,24.130597,0 120.653539,24.130651,0 120.653573,24.130727,0 120.653624,24.130769,0 120.653669,24.130819,0 120.653736,24.130849,0 120.653689,24.130869,0 120.653604,24.130871,0 120.653539,24.130864,0 120.653488,24.130838,0 120.653427,24.130825,0 120.653378,24.130823,0 120.653192,24.130836,0 120.653197,24.130732,0 120.652498,24.130741,0 120.650735,24.130758,0 120.650742,24.130129,0 120.650746,24.129493,0 120.650012,24.129501,0 120.650000,24.130766,0 120.649235,24.130774,0 120.649228,24.130222,0 120.649197,24.130163,0 120.649132,24.130133,0 120.649011,24.130122,0 120.648258,24.130135,0 120.648258,24.130094,0 120.647271,24.130107,0 120.647254,24.129521,0 120.647212,24.129521,0 120.647175,24.127762,0 120.648191,24.127771,0 120.648170,24.127108,0 120.648105,24.127089,0 120.648057,24.127039,0 120.646927,24.126443,0 120.646840,24.126414,0 120.646764,24.126417,0 120.646708,24.126428,0 120.646636,24.126453,0 120.646610,24.126466,0 120.646575,24.126435,0 120.646554,24.126420,0 120.646516,24.126244,0 120.646416,24.126188,0 120.646380,24.126164,0 120.646289,24.126146,0 120.646195,24.126149,0 120.646239,24.127900,0 120.645064,24.127914,0 120.643820,24.127914,0 120.643740,24.127685,0 120.643598,24.127381,0 120.643540,24.127290,0 120.644171,24.127057,0 120.644445,24.127059,0 120.645474,24.127064,0 120.645477,24.126999,0 120.645479,24.126881,0 120.645479,24.126779,0 120.645479,24.126659,0 120.645466,24.126606,0 120.645454,24.126557,0 120.645431,24.126502,0 120.645367,24.126403,0 120.645257,24.126283,0 120.644919,24.126096,0 120.644839,24.126052,0 120.644049,24.125621,0 120.644403,24.125162,0 120.644440,24.125185,0 120.644462,24.125186,0 120.644500,24.125163,0 120.644513,24.125138,0 120.644544,24.125096,0 120.644601,24.125018,0 120.644628,24.124983,0 120.644642,24.124961,0 120.644647,24.124931,0 120.644597,24.124899,0 120.644910,24.124488,0 120.644949,24.124436,0 120.644989,24.124385,0 120.645585,24.123607,0 120.645910,24.123187,0 120.646221,24.122778,0 120.646590,24.122292,0 120.646652,24.122209,0 120.646715,24.122258,0 120.646744,24.122223,0 120.646795,24.122164,0 120.647611,24.122798,0 120.647745,24.122325,0 120.647826,24.122226,0 120.647070,24.121639,0
</coordinates></LineString></Placemark>
</Document></kml>