<?xml version="1.0" encoding="UTF-8"?>
<kml xmlns="http://www.opengis.net/kml/2.2"><Document>
<name>烏日區 貓臉（正面） 圖形路跑路線</name>
<Style id="r"><LineStyle><color>ff2000d6</color><width>4</width></LineStyle></Style>
<Placemark><name>南屯區公所4樓禮堂</name><description>地標</description><Point><coordinates>120.644274,24.134495,0</coordinates></Point></Placemark>
<Placemark><name>微風廣場</name><description>地標</description><Point><coordinates>120.651052,24.122247,0</coordinates></Point></Placemark>
<Placemark><name>復興北公園</name><description>地標</description><Point><coordinates>120.646120,24.113309,0</coordinates></Point></Placemark>
<Placemark><name>烏日區 貓臉（正面） 圖形路跑路線</name><styleUrl>#r</styleUrl><LineString><tessellate>1</tessellate><coordinates>
120.636439,24.131710,0 120.636613,24.132009,0 120.637517,24.131556,0 120.637647,24.131891,0 120.637776,24.132236,0 120.637830,24.132221,0 120.638017,24.132172,0 120.638049,24.132164,0 120.638775,24.132083,0 120.638920,24.132474,0 120.639045,24.132815,0 120.639299,24.133509,0 120.639629,24.133459,0 120.639965,24.133428,0 120.640321,24.133409,0 120.640703,24.133403,0 120.641369,24.133399,0 120.642616,24.133388,0 120.642654,24.134115,0 120.642688,24.134767,0 120.642692,24.134828,0 120.643039,24.134815,0 120.643809,24.134793,0 120.643975,24.134785,0 120.644676,24.134757,0 120.644679,24.134692,0 120.644675,24.134082,0 120.644671,24.133370,0 120.645075,24.133366,0 120.645077,24.132052,0 120.645079,24.131242,0 120.645079,24.130846,0 120.645084,24.130685,0 120.645080,24.130339,0 120.645085,24.130159,0 120.645081,24.129528,0 120.645393,24.129527,0 120.646281,24.129524,0 120.646506,24.129524,0 120.647148,24.129524,0 120.647212,24.129521,0 120.647175,24.127762,0 120.648191,24.127771,0 120.648170,24.127108,0 120.648175,24.127070,0 120.648206,24.127017,0 120.648255,24.126935,0 120.648308,24.126854,0 120.648628,24.126361,0 120.649063,24.125696,0 120.649762,24.124656,0 120.649237,24.124243,0 120.648730,24.123838,0 120.648243,24.123462,0 120.648297,24.123380,0 120.648348,24.123314,0 120.648542,24.123038,0 120.648474,24.122979,0 120.648576,24.122830,0 120.648854,24.122400,0 120.649503,24.121505,0 120.650086,24.120652,0 120.650175,24.120592,0 120.650286,24.120517,0 120.650325,24.120487,0 120.650583,24.120297,0 120.650452,24.120219,0 120.648894,24.119272,0 120.648951,24.119150,0 120.648997,24.119041,0 120.649058,24.118853,0 120.649134,24.118583,0 120.649210,24.118334,0 120.649284,24.118113,0 120.649407,24.117657,0 120.649605,24.116983,0 120.649619,24.116920,0 120.649786,24.116359,0 120.649821,24.116249,0 120.649843,24.116210,0 120.650005,24.116066,0 120.650112,24.115983,0 120.650172,24.115942,0 120.650105,24.115881,0 120.649464,24.115347,0 120.648619,24.114624,0 120.648558,24.114586,0 120.648444,24.114487,0 120.648336,24.114393,0 120.648182,24.114256,0 120.648235,24.114205,0 120.648297,24.114154,0 120.648338,24.114088,0 120.648297,24.114031,0 120.647189,24.113117,0 120.646323,24.112385,0 120.645701,24.111884,0 120.645650,24.111927,0 120.645579,24.111990,0 120.645523,24.112032,0 120.645501,24.112008,0 120.645461,24.111977,0 120.645267,24.111813,0 120.645302,24.111759,0 120.645368,24.111686,0 120.645802,24.111238,0 120.646019,24.111021,0 120.646126,24.110913,0 120.646569,24.110482,0 120.645667,24.110164,0 120.645110,24.109984,0 120.644781,24.109873,0 120.644459,24.110047,0 120.644420,24.110068,0 120.644166,24.110217,0 120.644038,24.110289,0 120.643889,24.110344,0 120.643802,24.110350,0 120.643636,24.110281,0 120.643443,24.110128,0 120.643358,24.110036,0 120.643046,24.109606,0 120.642835,24.109316,0 120.642665,24.109267,0 120.642065,24.109084,0 120.641765,24.108977,0 120.641784,24.108924,0 120.641803,24.108869,0 120.641434,24.108759,0 120.641384,24.108743,0 120.641063,24.108644,0 120.641061,24.108534,0 120.640643,24.108402,0 120.640640,24.108415,0 120.640515,24.108375,0 120.640415,24.108635,0 120.640324,24.108873,0 120.640349,24.108881,0 120.640272,24.109080,0 120.639878,24.108965,0 120.639535,24.108862,0 120.639259,24.108780,0 120.638922,24.108692,0 120.638871,24.108676,0 120.638539,24.108566,0 120.637931,24.108338,0 120.637534,24.108208,0 120.637283,24.108117,0 120.637135,24.108066,0 120.637028,24.108026,0 120.636973,24.108018,0 120.636927,24.108017,0 120.636871,24.108100,0 120.636621,24.108636,0 120.636015,24.108420,0 120.635325,24.108168,0 120.635018,24.108099,0 120.634770,24.108067,0 120.634130,24.108036,0 120.632915,24.108310,0 120.632279,24.108466,0 120.631936,24.108551,0 120.631876,24.108577,0 120.631632,24.108830,0 120.631503,24.108964,0 120.631374,24.108973,0 120.631321,24.108974,0 120.631243,24.108972,0 120.630840,24.108849,0 120.630407,24.108725,0 120.630088,24.108635,0 120.630010,24.108609,0 120.629543,24.108476,0 120.628957,24.108309,0 120.628629,24.108227,0 120.628331,24.108170,0 120.628057,24.108128,0 120.627943,24.108111,0 120.627816,24.108109,0 120.627501,24.108105,0 120.626984,24.108113,0 120.626731,24.108125,0 120.626547,24.108148,0 120.626349,24.108165,0 120.625993,24.108207,0 120.625924,24.108216,0 120.625468,24.108279,0 120.625495,24.108460,0 120.625501,24.108497,0 120.625524,24.108651,0 120.625601,24.108644,0 120.625583,24.108671,0 120.625590,24.108698,0 120.626075,24.108651,0 120.626589,24.108625,0 120.626915,24.108627,0 120.627384,24.108633,0 120.628072,24.108698,0 120.628267,24.108724,0 120.628705,24.108794,0 120.629721,24.109050,0 120.629677,24.109166,0 120.629517,24.109715,0 120.629463,24.109933,0 120.629417,24.110166,0 120.629385,24.110339,0 120.628536,24.110475,0 120.628629,24.111082,0 120.627796,24.111200,0 120.627257,24.111276,0 120.627291,24.111486,0 120.627319,24.111704,0 120.627280,24.111770,0 120.627218,24.111784,0 120.626954,24.111822,0 120.626980,24.112068,0 120.626876,24.112158,0 120.626793,24.112221,0 120.626722,24.112251,0 120.626872,24.112469,0 120.626859,24.112499,0 120.626841,24.112596,0 120.626836,24.112652,0 120.626819,24.112699,0 120.626849,24.112826,0 120.626012,24.112965,0 120.625985,24.113162,0 120.624522,24.113598,0 120.624621,24.113892,0 120.624658,24.113982,0 120.624718,24.114147,0 120.624824,24.114401,0 120.624976,24.114797,0 120.623913,24.115095,0 120.623771,24.115189,0 120.623956,24.115476,0 120.624110,24.115731,0 120.624145,24.115790,0 120.624091,24.115814,0 120.623724,24.115784,0 120.623643,24.115799,0 120.623436,24.115850,0 120.623380,24.115876,0 120.623361,24.115890,0 120.623339,24.115918,0 120.623248,24.116068,0 120.623173,24.116108,0 120.623007,24.116165,0 120.622967,24.116170,0 120.622659,24.116312,0 120.622571,24.116370,0 120.622546,24.116477,0 120.622514,24.116595,0 120.622511,24.116655,0 120.622516,24.116735,0 120.622512,24.116768,0 120.622501,24.116807,0 120.622482,24.116855,0 120.622452,24.116916,0 120.622426,24.116960,0 120.622407,24.116981,0 120.622388,24.116996,0 120.622229,24.117041,0 120.621942,24.117143,0 120.622083,24.117222,0 120.622507,24.117474,0 120.622517,24.117612,0 120.622598,24.118346,0 120.622597,24.118417,0 120.622589,24.118472,0 120.622631,24.118656,0 120.622638,24.118717,0 120.622642,24.118823,0 120.622638,24.118914,0 120.622623,24.118992,0 120.622594,24.119055,0 120.622575,24.119104,0 120.622572,24.119146,0 120.622573,24.119219,0 120.622562,24.119355,0 120.622574,24.119565,0 120.622586,24.119604,0 120.622581,24.119689,0 120.622620,24.119868,0 120.622648,24.119965,0 120.622691,24.120040,0 120.622707,24.120079,0 120.622724,24.120123,0 120.622731,24.120161,0 120.622725,24.120206,0 120.622705,24.120263,0 120.622663,24.120332,0 120.622640,24.120390,0 120.622623,24.120450,0 120.622618,24.120506,0 120.622605,24.120566,0 120.622578,24.120617,0 120.622550,24.120658,0 120.622504,24.120706,0 120.622542,24.120769,0 120.622634,24.120982,0 120.622690,24.121061,0 120.622744,24.121115,0 120.622813,24.121168,0 120.622871,24.121218,0 120.622899,24.121254,0 120.622917,24.121289,0 120.622945,24.121384,0 120.622960,24.121413,0 120.623085,24.121520,0 120.623119,24.121554,0 120.623127,24.121602,0 120.623194,24.121938,0 120.623215,24.122004,0 120.623227,24.122034,0 120.623315,24.122149,0 120.623332,24.122186,0 120.623342,24.122227,0 120.623351,24.122310,0 120.623382,24.122422,0 120.623411,24.122498,0 120.623423,24.122540,0 120.623479,24.122877,0 120.623487,24.122910,0 120.623502,24.122949,0 120.623549,24.123047,0 120.623604,24.123126,0 120.623614,24.123154,0 120.623650,24.123246,0 120.623700,24.123362,0 120.623749,24.123513,0 120.623794,24.123629,0 120.623978,24.123890,0 120.624004,24.123937,0 120.623996,24.124126,0 120.624000,24.124179,0 120.624040,24.124301,0 120.624089,24.124412,0 120.624121,24.124467,0 120.624175,24.124538,0 120.624204,24.124598,0 120.624225,24.124672,0 120.624231,24.124754,0 120.624163,24.125091,0 120.624154,24.125318,0 120.624112,24.125597,0 120.624156,24.125803,0 120.624153,24.125846,0 120.624128,24.125910,0 120.624085,24.125989,0 120.624056,24.126083,0 120.624061,24.126257,0 120.624072,24.126374,0 120.624132,24.126530,0 120.624177,24.126596,0 120.624259,24.126690,0 120.624389,24.126866,0 120.624439,24.126914,0 120.624476,24.126945,0 120.624593,24.127005,0 120.624613,24.127035,0 120.624626,24.127083,0 120.624621,24.127102,0 120.624553,24.127221,0 120.624525,24.127287,0 120.624500,24.127512,0 120.624456,24.127739,0 120.624402,24.127941,0 120.624381,24.128100,0 120.624391,24.128159,0 120.624456,24.128247,0 120.624587,24.128404,0 120.624723,24.128562,0 120.624879,24.128742,0 120.625107,24.129096,0 120.625163,24.129164,0 120.625294,24.129299,0 120.625510,24.129481,0 120.625595,24.129586,0 120.625713,24.129701,0 120.625796,24.129682,0 120.626014,24.129714,0 120.626081,24.129704,0 120.626170,24.129666,0 120.626232,24.129593,0 120.626308,24.129566,0 120.626418,24.129565,0 120.626498,24.129565,0 120.626783,24.129547,0 120.627022,24.129500,0 120.627181,24.129549,0 120.627265,24.129466,0 120.627410,24.129562,0 120.627319,24.129649,0 120.627229,24.129742,0 120.627337,24.129836,0 120.627483,24.129963,0 120.626938,24.130517,0 120.627792,24.131274,0 120.628333,24.131715,0 120.628279,24.131763,0 120.628268,24.131803,0 120.628325,24.131846,0 120.628398,24.131902,0 120.628490,24.131971,0 120.628518,24.131975,0 120.628561,24.131999,0 120.628601,24.132037,0 120.628829,24.132226,0 120.628640,24.132387,0 120.628617,24.132468,0 120.628608,24.132583,0 120.628460,24.132627,0 120.628427,24.132643,0 120.628323,24.132740,0 120.628237,24.133119,0 120.628233,24.133168,0 120.628223,24.133270,0 120.628145,24.133353,0 120.628096,24.133372,0 120.628016,24.133376,0 120.627934,24.133423,0 120.627848,24.133429,0 120.627718,24.133392,0 120.627571,24.133367,0 120.627464,24.133409,0 120.627368,24.133517,0 120.627349,24.133615,0 120.627301,24.133677,0 120.627170,24.133668,0 120.627090,24.133654,0 120.626662,24.135003,0 120.627353,24.135211,0 120.628253,24.135469,0 120.629058,24.135705,0 120.629323,24.135255,0 120.629437,24.135082,0 120.629504,24.134990,0 120.629548,24.134930,0 120.629579,24.134889,0 120.629615,24.134843,0 120.629649,24.134796,0 120.629787,24.134605,0 120.629895,24.134470,0 120.630012,24.134336,0 120.630184,24.134141,0 120.630374,24.133951,0 120.630664,24.133657,0 120.630940,24.133381,0 120.631254,24.133058,0 120.631327,24.133115,0 120.631362,24.133145,0 120.631414,24.133181,0 120.631479,24.133166,0 120.631531,24.133154,0 120.631630,24.133134,0 120.631613,24.133058,0 120.631573,24.132868,0 120.631697,24.132747,0 120.631922,24.132525,0 120.632033,24.132425,0 120.632082,24.132467,0 120.632137,24.132411,0 120.632141,24.132396,0 120.632174,24.132361,0 120.632396,24.132147,0 120.633025,24.131521,0 120.633171,24.131382,0 120.633199,24.131357,0 120.633219,24.131349,0 120.633239,24.131354,0 120.633263,24.131381,0 120.633300,24.131422,0 120.633475,24.131653,0 120.633736,24.132013,0 120.633920,24.132311,0 120.633943,24.132354,0 120.633952,24.132376,0 120.634005,24.132305,0 120.634045,24.132252,0 120.634063,24.132254,0 120.634077,24.132256,0 120.634106,24.132242,0 120.634487,24.131926,0 120.634533,24.131886,0 120.634601,24.131949,0 120.634668,24.131894,0 120.634728,24.131844,0 120.635024,24.131601,0 120.635042,24.131595,0 120.635141,24.131514,0 120.635795,24.131087,0 120.636152,24.131642,0 120.636248,24.131810,0 120.636439,24.131710,0
</coordinates></LineString></Placemark>
</Document></kml>