<?xml version="1.0" encoding="UTF-8"?>
<kml xmlns="http://www.opengis.net/kml/2.2"><Document>
<name>烏日區 蜷睡貓咪 圖形路跑路線</name>
<Style id="r"><LineStyle><color>ff2000d6</color><width>4</width></LineStyle></Style>
<Placemark><name>麻糍埔公園</name><description>地標</description><Point><coordinates>120.638013,24.124225,0</coordinates></Point></Placemark>
<Placemark><name>麻糍埔考古遺址</name><description>地標</description><Point><coordinates>120.638560,24.124949,0</coordinates></Point></Placemark>
<Placemark><name>豐樂雕塑公園</name><description>地標</description><Point><coordinates>120.642658,24.130802,0</coordinates></Point></Placemark>
<Placemark><name>烏日區 蜷睡貓咪 圖形路跑路線</name><styleUrl>#r</styleUrl><LineString><tessellate>1</tessellate><coordinates>
120.642357,24.120975,0 120.642403,24.121007,0 120.642298,24.121125,0 120.642181,24.121251,0 120.642253,24.121310,0 120.642228,24.121317,0 120.642201,24.121331,0 120.642192,24.121341,0 120.642217,24.121360,0 120.642159,24.121422,0 120.642018,24.121580,0 120.641897,24.121716,0 120.641792,24.121831,0 120.641693,24.121944,0 120.641483,24.122185,0 120.641273,24.122419,0 120.641268,24.122424,0 120.641246,24.122407,0 120.641241,24.122411,0 120.641229,24.122436,0 120.641227,24.122457,0 120.641227,24.122470,0 120.641155,24.122417,0 120.641143,24.122432,0 120.641099,24.122483,0 120.641096,24.122487,0 120.641087,24.122498,0 120.641082,24.122505,0 120.641066,24.122525,0 120.641043,24.122555,0 120.641027,24.122577,0 120.640958,24.122658,0 120.640861,24.122579,0 120.640803,24.122635,0 120.640766,24.122675,0 120.640767,24.122717,0 120.640725,24.122764,0 120.640474,24.123054,0 120.640419,24.123116,0 120.640356,24.123186,0 120.639806,24.123805,0 120.639759,24.123818,0 120.639762,24.123835,0 120.639694,24.123895,0 120.639635,24.123945,0 120.639645,24.124016,0 120.639596,24.124071,0 120.639645,24.124108,0 120.639718,24.124164,0 120.639728,24.124162,0 120.639756,24.124164,0 120.639776,24.124170,0 120.639797,24.124184,0 120.639809,24.124200,0 120.639818,24.124225,0 120.639819,24.124234,0 120.639892,24.124292,0 120.639649,24.124563,0 120.639449,24.124785,0 120.639356,24.124893,0 120.639262,24.125002,0 120.639188,24.125089,0 120.639166,24.125114,0 120.639126,24.125159,0 120.639184,24.125204,0 120.639087,24.125323,0 120.639063,24.125374,0 120.639052,24.125416,0 120.639047,24.125456,0 120.639055,24.125512,0 120.639072,24.125588,0 120.639067,24.125692,0 120.639049,24.125780,0 120.639049,24.125822,0 120.639070,24.125905,0 120.639092,24.125956,0 120.639131,24.125999,0 120.639094,24.126031,0 120.639161,24.126124,0 120.639216,24.126170,0 120.639739,24.126612,0 120.639786,24.126568,0 120.639839,24.126613,0 120.639881,24.126649,0 120.639884,24.126684,0 120.639900,24.126707,0 120.640155,24.126916,0 120.640257,24.126994,0 120.640286,24.127004,0 120.640243,24.127070,0 120.640169,24.127164,0 120.640258,24.127228,0 120.639884,24.127652,0 120.640176,24.127893,0 120.640330,24.128027,0 120.640375,24.128085,0 120.640452,24.128212,0 120.640524,24.128336,0 120.640580,24.128489,0 120.640594,24.128585,0 120.640613,24.128743,0 120.640616,24.128887,0 120.640625,24.129546,0 120.641343,24.129545,0 120.642470,24.129534,0 120.642472,24.129595,0 120.642473,24.129760,0 120.642468,24.129834,0 120.642417,24.129842,0 120.642366,24.129890,0 120.642367,24.130209,0 120.642367,24.130291,0 120.642368,24.130323,0 120.642370,24.130360,0 120.642309,24.130366,0 120.642264,24.130382,0 120.642395,24.130484,0 120.642435,24.130521,0 120.642456,24.130557,0 120.642860,24.130917,0 120.643000,24.131014,0 120.643136,24.130999,0 120.643269,24.130985,0 120.643326,24.130920,0 120.643314,24.130976,0 120.643300,24.131033,0 120.643293,24.131076,0 120.643297,24.131133,0 120.643335,24.131176,0 120.643718,24.131470,0 120.643528,24.131649,0 120.643679,24.131820,0 120.643727,24.131794,0 120.643758,24.131816,0 120.643772,24.131864,0 120.643770,24.131909,0 120.643828,24.131957,0 120.643959,24.132057,0 120.643972,24.133376,0 120.643978,24.134061,0 120.644124,24.134060,0 120.644173,24.134060,0 120.644172,24.133942,0 120.644170,24.133772,0 120.644167,24.133588,0 120.644394,24.133585,0 120.644394,24.133543,0 120.644394,24.133372,0 120.644671,24.133370,0 120.645075,24.133366,0 120.645650,24.133361,0 120.646363,24.133354,0 120.646584,24.133352,0 120.646604,24.134681,0 120.647288,24.134704,0 120.648367,24.134740,0 120.648350,24.134016,0 120.649138,24.134011,0 120.649203,24.133957,0 120.649192,24.133342,0 120.649977,24.133337,0 120.650717,24.133330,0 120.650722,24.133933,0 120.650755,24.133977,0 120.650798,24.134000,0 120.651319,24.133999,0 120.652281,24.133987,0 120.652339,24.133963,0 120.652377,24.133924,0 120.652405,24.133317,0 120.653029,24.133308,0 120.653121,24.133306,0 120.653208,24.133306,0 120.654061,24.133301,0 120.654506,24.133299,0 120.654509,24.133226,0 120.654588,24.133225,0 120.654588,24.132652,0 120.654585,24.131992,0 120.654585,24.131619,0 120.655141,24.131612,0 120.655141,24.131890,0 120.655141,24.132171,0 120.655141,24.132441,0 120.655141,24.132726,0 120.655676,24.132721,0 120.656159,24.132711,0 120.656152,24.132396,0 120.656152,24.132360,0 120.656154,24.132162,0 120.656156,24.131893,0 120.657255,24.131891,0 120.657356,24.131897,0 120.657357,24.130566,0 120.657517,24.130356,0 120.657827,24.130120,0 120.658779,24.130123,0 120.659169,24.130125,0 120.659171,24.130200,0 120.659203,24.130200,0 120.659226,24.130195,0 120.659248,24.130188,0 120.659504,24.130186,0 120.659549,24.130186,0 120.659549,24.130122,0 120.659547,24.130034,0 120.659639,24.130037,0 120.659612,24.129947,0 120.659608,24.129821,0 120.659609,24.129065,0 120.659606,24.128755,0 120.659603,24.128333,0 120.660929,24.128348,0 120.660930,24.128023,0 120.661716,24.128015,0 120.662050,24.128011,0 120.662343,24.128017,0 120.662533,24.127458,0 120.662550,24.127408,0 120.662565,24.127369,0 120.662691,24.126997,0 120.662634,24.126972,0 120.662039,24.126719,0 120.662159,24.126394,0 120.662209,24.126261,0 120.662230,24.125714,0 120.662221,24.125099,0 120.662223,24.124361,0 120.662456,24.124195,0 120.661941,24.123497,0 120.661571,24.123010,0 120.661141,24.122475,0 120.661404,24.121934,0 120.661569,24.121778,0 120.661646,24.121723,0 120.661765,24.121602,0 120.662236,24.121633,0 120.661929,24.121426,0 120.662190,24.121149,0 120.662299,24.121033,0 120.662417,24.120903,0 120.662338,24.120847,0 120.662258,24.120791,0 120.662336,24.120712,0 120.662083,24.120512,0 120.661571,24.120123,0 120.661662,24.119940,0 120.661712,24.119785,0 120.661734,24.119635,0 120.662406,24.120159,0 120.662595,24.119965,0 120.660600,24.118346,0 120.660052,24.117901,0 120.660160,24.117774,0 120.660205,24.117721,0 120.660164,24.117573,0 120.659980,24.116958,0 120.659975,24.116884,0 120.659871,24.116432,0 120.659862,24.116305,0 120.659883,24.116264,0 120.659553,24.116263,0 120.659588,24.116915,0 120.659331,24.116978,0 120.659178,24.117031,0 120.659055,24.117089,0 120.658932,24.117014,0 120.658632,24.116784,0 120.658072,24.116342,0 120.657842,24.116153,0 120.658016,24.115967,0 120.658367,24.115577,0 120.658132,24.115409,0 120.658011,24.115325,0 120.657880,24.115221,0 120.657730,24.115091,0 120.657623,24.114944,0 120.657570,24.114871,0 120.657471,24.114742,0 120.657381,24.114573,0 120.657322,24.114310,0 120.657333,24.114078,0 120.657357,24.113960,0 120.656691,24.113851,0 120.656547,24.113816,0 120.655965,24.113706,0 120.655216,24.113580,0 120.654640,24.113478,0 120.654466,24.113461,0 120.654203,24.113513,0 120.654058,24.113560,0 120.653880,24.113652,0 120.653650,24.113770,0 120.652794,24.113099,0 120.652254,24.112759,0 120.652145,24.112790,0 120.651202,24.112248,0 120.650964,24.112124,0 120.650652,24.111941,0 120.650425,24.111812,0 120.650177,24.111689,0 120.650053,24.111973,0 120.649827,24.112453,0 120.649620,24.112820,0 120.649087,24.112587,0 120.648710,24.112424,0 120.648654,24.112417,0 120.648480,24.112342,0 120.648308,24.112305,0 120.648171,24.112292,0 120.647968,24.112302,0 120.647665,24.112288,0 120.647414,24.112290,0 120.647103,24.112300,0 120.646653,24.112345,0 120.646384,24.112372,0 120.646323,24.112385,0 120.645701,24.111884,0 120.645650,24.111927,0 120.645579,24.111990,0 120.645523,24.112032,0 120.645501,24.112008,0 120.644560,24.112952,0 120.644446,24.113062,0 120.643873,24.113617,0 120.643551,24.113960,0 120.643507,24.113920,0 120.643337,24.114089,0 120.643144,24.114218,0 120.642693,24.114668,0 120.642629,24.114797,0 120.642564,24.114904,0 120.640740,24.116707,0 120.640696,24.116800,0 120.641770,24.115763,0 120.641905,24.115631,0 120.641954,24.115661,0 120.642068,24.115726,0 120.642366,24.115907,0 120.642555,24.116023,0 120.642687,24.116104,0 120.642866,24.116216,0 120.643082,24.116351,0 120.643329,24.116506,0 120.643463,24.116589,0 120.643722,24.116742,0 120.643883,24.116839,0 120.644002,24.116915,0 120.644147,24.117007,0 120.644207,24.117045,0 120.644366,24.117142,0 120.644844,24.117436,0 120.645037,24.117555,0 120.645224,24.117673,0 120.645458,24.117823,0 120.645557,24.117885,0 120.645634,24.117933,0 120.645723,24.117989,0 120.645804,24.118039,0 120.645848,24.118065,0 120.646149,24.118243,0 120.646174,24.118258,0 120.646264,24.118312,0 120.646288,24.118326,0 120.646315,24.118342,0 120.646342,24.118359,0 120.646554,24.118491,0 120.646686,24.118573,0 120.647194,24.118888,0 120.647444,24.119043,0 120.647747,24.119228,0 120.647955,24.119355,0 120.648158,24.119480,0 120.648485,24.119677,0 120.648578,24.119733,0 120.648637,24.119646,0 120.648724,24.119521,0 120.648740,24.119498,0 120.648760,24.119469,0 120.648852,24.119334,0 120.648894,24.119272,0 120.648951,24.119150,0 120.648997,24.119041,0 120.649058,24.118853,0 120.649134,24.118583,0 120.649210,24.118334,0 120.649284,24.118113,0 120.649407,24.117657,0 120.649605,24.116983,0 120.650409,24.117175,0 120.650725,24.117259,0 120.650985,24.117068,0 120.651074,24.117219,0 120.651179,24.117294,0 120.651584,24.117402,0 120.651696,24.117206,0 120.651856,24.117334,0 120.652511,24.117849,0 120.652477,24.117868,0 120.652464,24.117993,0 120.652518,24.118036,0 120.652648,24.118139,0 120.652709,24.118187,0 120.652779,24.118137,0 120.652842,24.118144,0 120.653232,24.118502,0 120.653315,24.118558,0 120.653575,24.118768,0 120.653606,24.118815,0 120.653659,24.118862,0 120.653334,24.119190,0 120.653804,24.119616,0 120.654308,24.120009,0 120.653704,24.120649,0 120.654201,24.120994,0 120.654711,24.121344,0 120.654306,24.121776,0 120.653838,24.122306,0 120.653540,24.122652,0 120.653481,24.122721,0 120.653435,24.123767,0 120.653406,24.123742,0 120.652690,24.123310,0 120.652668,24.123813,0 120.652657,24.124063,0 120.652650,24.124251,0 120.652621,24.125146,0 120.652603,24.125227,0 120.652322,24.125733,0 120.651820,24.125345,0 120.651679,24.125407,0 120.651658,24.125415,0 120.651209,24.125603,0 120.651185,24.125626,0 120.651114,24.125705,0 120.649762,24.124656,0 120.649063,24.125696,0 120.648473,24.125350,0 120.647897,24.125006,0 120.647346,24.124680,0 120.647376,24.124632,0 120.647375,24.124602,0 120.647385,24.124578,0 120.647422,24.124523,0 120.647691,24.124144,0 120.648110,24.123575,0 120.648181,24.123544,0 120.648243,24.123462,0 120.648180,24.123388,0 120.648030,24.123267,0 120.647940,24.123206,0 120.647872,24.123297,0 120.647861,24.123359,0 120.647466,24.123926,0 120.647071,24.124448,0 120.647045,24.124482,0 120.646979,24.124442,0 120.646589,24.124213,0 120.646506,24.124161,0 120.645770,24.123719,0 120.645585,24.123607,0 120.645910,24.123187,0 120.646221,24.122778,0 120.646590,24.122292,0 120.646652,24.122209,0 120.646586,24.122158,0 120.646626,24.122111,0 120.646667,24.122063,0 120.645476,24.121138,0 120.645441,24.121195,0 120.645406,24.121229,0 120.645323,24.121163,0 120.645251,24.121249,0 120.644899,24.121668,0 120.644861,24.121714,0 120.644772,24.121643,0 120.644762,24.121636,0 120.644684,24.121575,0 120.644464,24.121402,0 120.644063,24.121087,0 120.643335,24.120517,0 120.643278,24.120472,0 120.643093,24.120675,0 120.642756,24.121066,0 120.642638,24.121192,0 120.642559,24.121137,0 120.642544,24.121138,0 120.642520,24.121124,0 120.642498,24.121109,0 120.642485,24.121094,0 120.642477,24.121073,0 120.642473,24.121058,0 120.642403,24.121007,0 120.642357,24.120975,0
</coordinates></LineString></Placemark>
</Document></kml>