<?xml version="1.0" encoding="UTF-8"?>
<kml xmlns="http://www.opengis.net/kml/2.2"><Document>
<name>烏日區 蹲坐貓咪（側面） 圖形路跑路線</name>
<Style id="r"><LineStyle><color>ff2000d6</color><width>4</width></LineStyle></Style>
<Placemark><name>鎮平公園</name><description>地標</description><Point><coordinates>120.629377,24.121072,0</coordinates></Point></Placemark>
<Placemark><name>麻糍埔公園</name><description>地標</description><Point><coordinates>120.638013,24.124225,0</coordinates></Point></Placemark>
<Placemark><name>麻糍埔公園入口意象</name><description>地標</description><Point><coordinates>120.637647,24.123550,0</coordinates></Point></Placemark>
<Placemark><name>烏日區 蹲坐貓咪（側面） 圖形路跑路線</name><styleUrl>#r</styleUrl><LineString><tessellate>1</tessellate><coordinates>
120.627505,24.119519,0 120.627675,24.119913,0 120.627747,24.120068,0 120.627817,24.120253,0 120.627853,24.120351,0 120.627844,24.120425,0 120.627759,24.120477,0 120.627357,24.120679,0 120.627710,24.121225,0 120.628050,24.121728,0 120.628499,24.122394,0 120.628766,24.122811,0 120.628925,24.123064,0 120.628850,24.123108,0 120.628794,24.123173,0 120.628413,24.123413,0 120.628377,24.123448,0 120.628336,24.123520,0 120.628282,24.123635,0 120.628246,24.123668,0 120.627626,24.124115,0 120.627565,24.124163,0 120.627524,24.124210,0 120.627482,24.124274,0 120.627477,24.124307,0 120.627501,24.124481,0 120.627656,24.125357,0 120.627668,24.125382,0 120.627692,24.125493,0 120.627789,24.126003,0 120.627830,24.126072,0 120.627878,24.126170,0 120.627902,24.126234,0 120.627972,24.126472,0 120.627964,24.126522,0 120.627929,24.126573,0 120.627992,24.126571,0 120.628129,24.126541,0 120.628294,24.126497,0 120.628350,24.126482,0 120.628370,24.126476,0 120.628769,24.126351,0 120.629243,24.126212,0 120.629396,24.126170,0 120.629818,24.126088,0 120.630044,24.126072,0 120.630148,24.126071,0 120.630331,24.126039,0 120.630583,24.125979,0 120.630734,24.126038,0 120.630913,24.125883,0 120.631530,24.125254,0 120.631846,24.124945,0 120.632017,24.124773,0 120.632399,24.124387,0 120.632901,24.123886,0 120.633024,24.124009,0 120.633048,24.123985,0 120.633099,24.123929,0 120.633195,24.124016,0 120.633332,24.124144,0 120.633400,24.124206,0 120.633485,24.124125,0 120.633508,24.124103,0 120.633561,24.124050,0 120.633610,24.124002,0 120.633711,24.124033,0 120.633933,24.124280,0 120.634073,24.124434,0 120.634154,24.124350,0 120.634474,24.124034,0 120.634719,24.123793,0 120.634955,24.123559,0 120.635719,24.124200,0 120.636098,24.123808,0 120.636172,24.123712,0 120.636190,24.123678,0 120.636652,24.124061,0 120.636759,24.124144,0 120.636917,24.124133,0 120.636987,24.124125,0 120.636983,24.124091,0 120.637380,24.123663,0 120.637533,24.123522,0 120.637597,24.123467,0 120.637653,24.123474,0 120.637616,24.123402,0 120.637614,24.123383,0 120.637659,24.123341,0 120.637704,24.123285,0 120.637741,24.123275,0 120.638175,24.122813,0 120.638200,24.122782,0 120.638284,24.122701,0 120.638364,24.122623,0 120.638375,24.122600,0 120.638927,24.122015,0 120.638908,24.122010,0 120.638982,24.121930,0 120.639051,24.121857,0 120.639051,24.121890,0 120.639358,24.121553,0 120.639390,24.121540,0 120.639426,24.121542,0 120.639470,24.121560,0 120.640451,24.122370,0 120.640764,24.122631,0 120.640766,24.122675,0 120.640803,24.122635,0 120.640861,24.122579,0 120.640930,24.122496,0 120.640986,24.122428,0 120.640913,24.122387,0 120.640809,24.122307,0 120.640358,24.121957,0 120.639706,24.121421,0 120.639607,24.121333,0 120.639596,24.121284,0 120.639599,24.121252,0 120.639576,24.121236,0 120.639521,24.121199,0 120.639466,24.121156,0 120.639455,24.121144,0 120.639495,24.121110,0 120.639597,24.121001,0 120.639803,24.120780,0 120.639887,24.120690,0 120.640208,24.120371,0 120.640624,24.119930,0 120.640641,24.119900,0 120.640641,24.119886,0 120.640641,24.119871,0 120.640630,24.119851,0 120.640615,24.119834,0 120.640654,24.119787,0 120.640723,24.119842,0 120.640771,24.119880,0 120.640838,24.119809,0 120.641439,24.119170,0 120.641506,24.119100,0 120.641463,24.119066,0 120.641387,24.119007,0 120.641141,24.118816,0 120.640799,24.118552,0 120.640376,24.118225,0 120.640889,24.117730,0 120.640729,24.117598,0 120.640562,24.117458,0 120.640410,24.117332,0 120.640270,24.117216,0 120.640131,24.116949,0 120.640014,24.116865,0 120.639212,24.116290,0 120.637936,24.115328,0 120.637886,24.115291,0 120.637852,24.115339,0 120.637833,24.115356,0 120.637557,24.115357,0 120.637525,24.115362,0 120.637518,24.115375,0 120.637510,24.115421,0 120.637488,24.115572,0 120.637475,24.115625,0 120.637453,24.115665,0 120.637423,24.115700,0 120.637333,24.115727,0 120.637272,24.115751,0 120.637248,24.115764,0 120.637206,24.115698,0 120.637138,24.115614,0 120.637122,24.115581,0 120.637044,24.115410,0 120.636988,24.115334,0 120.636875,24.115203,0 120.636861,24.115183,0 120.636821,24.115104,0 120.636785,24.115089,0 120.636731,24.115093,0 120.636684,24.115090,0 120.636595,24.115058,0 120.636516,24.115029,0 120.636435,24.114976,0 120.636481,24.114728,0 120.636494,24.114648,0 120.636496,24.114570,0 120.636518,24.114237,0 120.636029,24.113854,0 120.635261,24.113254,0 120.634646,24.112755,0 120.634284,24.112420,0 120.634209,24.112408,0 120.634131,24.112420,0 120.633962,24.112468,0 120.633926,24.112470,0 120.633823,24.112438,0 120.633746,24.112467,0 120.633693,24.112503,0 120.633651,24.112537,0 120.633514,24.112534,0 120.633417,24.112553,0 120.633330,24.112565,0 120.633275,24.112559,0 120.633206,24.112565,0 120.633018,24.112613,0 120.632986,24.112626,0 120.632951,24.112653,0 120.632921,24.112684,0 120.632880,24.112695,0 120.632855,24.112716,0 120.632809,24.112743,0 120.632760,24.112762,0 120.632620,24.112793,0 120.632556,24.112812,0 120.632519,24.112833,0 120.632439,24.112936,0 120.632360,24.113022,0 120.632261,24.113140,0 120.632218,24.113182,0 120.632123,24.113241,0 120.632116,24.113269,0 120.632096,24.113354,0 120.632040,24.113414,0 120.631971,24.113471,0 120.631714,24.113664,0 120.631649,24.113685,0 120.631636,24.113698,0 120.631592,24.113757,0 120.631544,24.113807,0 120.631511,24.113824,0 120.631475,24.113836,0 120.631395,24.113872,0 120.631414,24.114008,0 120.631459,24.114194,0 120.631587,24.114559,0 120.631597,24.114602,0 120.631598,24.114993,0 120.631086,24.115018,0 120.630980,24.115024,0 120.631018,24.115257,0 120.631031,24.115499,0 120.631011,24.115733,0 120.631003,24.115810,0 120.630697,24.115765,0 120.630459,24.116559,0 120.630451,24.116588,0 120.630286,24.117095,0 120.629734,24.117219,0 120.629163,24.117357,0 120.629360,24.117875,0 120.628859,24.117906,0 120.628459,24.117906,0 120.628234,24.117915,0 120.627571,24.117929,0 120.627697,24.118229,0 120.627866,24.118637,0 120.628145,24.119290,0 120.627505,24.119519,0
</coordinates></LineString></Placemark>
</Document></kml>