<?xml version="1.0" encoding="UTF-8"?>
<kml xmlns="http://www.opengis.net/kml/2.2"><Document>
<name>烏日區 手繪蹲坐貓（原稿描圖） 圖形路跑路線</name>
<Style id="r"><LineStyle><color>ff2000d6</color><width>4</width></LineStyle></Style>
<Placemark><name>麻糍埔公園入口意象</name><description>地標</description><Point><coordinates>120.637647,24.123550,0</coordinates></Point></Placemark>
<Placemark><name>麻糍埔公園</name><description>地標</description><Point><coordinates>120.638013,24.124225,0</coordinates></Point></Placemark>
<Placemark><name>麻糍埔考古遺址</name><description>地標</description><Point><coordinates>120.638560,24.124949,0</coordinates></Point></Placemark>
<Placemark><name>烏日區 手繪蹲坐貓（原稿描圖） 圖形路跑路線</name><styleUrl>#r</styleUrl><LineString><tessellate>1</tessellate><coordinates>
120.635721,24.115225,0 120.635744,24.115215,0 120.635877,24.115205,0 120.636048,24.115186,0 120.636117,24.115165,0 120.636149,24.115146,0 120.636375,24.114985,0 120.636435,24.114976,0 120.636481,24.114728,0 120.636494,24.114648,0 120.636496,24.114570,0 120.636518,24.114237,0 120.636029,24.113854,0 120.635261,24.113254,0 120.634646,24.112755,0 120.634284,24.112420,0 120.634209,24.112408,0 120.634131,24.112420,0 120.633962,24.112468,0 120.633926,24.112470,0 120.633945,24.112564,0 120.633986,24.112695,0 120.634100,24.113100,0 120.634195,24.113471,0 120.634334,24.113985,0 120.634377,24.114128,0 120.634440,24.114255,0 120.634417,24.114327,0 120.634356,24.114424,0 120.634323,24.114469,0 120.634212,24.114578,0 120.634182,24.114629,0 120.634167,24.114674,0 120.634169,24.114709,0 120.634179,24.114734,0 120.634222,24.114762,0 120.634256,24.114791,0 120.634266,24.114814,0 120.634257,24.114855,0 120.634233,24.114881,0 120.634021,24.115004,0 120.634002,24.115033,0 120.634002,24.115066,0 120.634026,24.115109,0 120.634400,24.115434,0 120.634460,24.115455,0 120.634489,24.115460,0 120.634520,24.115459,0 120.634548,24.115450,0 120.634681,24.115384,0 120.634713,24.115380,0 120.634772,24.115397,0 120.634845,24.115452,0 120.634901,24.115465,0 120.634951,24.115490,0 120.634980,24.115513,0 120.634993,24.115536,0 120.634999,24.115627,0 120.635010,24.115659,0 120.635028,24.115677,0 120.635059,24.115693,0 120.635258,24.115697,0 120.635285,24.115710,0 120.635342,24.115755,0 120.635372,24.115811,0 120.635349,24.115870,0 120.635321,24.115950,0 120.635280,24.116056,0 120.635243,24.116110,0 120.635178,24.116190,0 120.635082,24.116257,0 120.634999,24.116308,0 120.634884,24.116421,0 120.634755,24.116619,0 120.634734,24.116687,0 120.634732,24.116811,0 120.634747,24.116876,0 120.634770,24.116934,0 120.634806,24.117052,0 120.634842,24.117104,0 120.634954,24.117159,0 120.634960,24.117196,0 120.634968,24.117281,0 120.634978,24.117316,0 120.635017,24.117391,0 120.635028,24.117433,0 120.635030,24.117503,0 120.635103,24.117499,0 120.635673,24.117472,0 120.635682,24.117489,0 120.635780,24.117958,0 120.635835,24.118022,0 120.635909,24.118155,0 120.635970,24.118333,0 120.635975,24.118382,0 120.635931,24.118430,0 120.635881,24.118476,0 120.635897,24.118545,0 120.635966,24.118812,0 120.635996,24.118862,0 120.636020,24.118936,0 120.636035,24.119024,0 120.636030,24.119067,0 120.636067,24.119137,0 120.636142,24.119305,0 120.636201,24.119427,0 120.636260,24.119492,0 120.636229,24.119529,0 120.636229,24.119578,0 120.636211,24.119627,0 120.636157,24.119649,0 120.635947,24.119637,0 120.635764,24.119639,0 120.635374,24.119692,0 120.635090,24.119747,0 120.635153,24.120141,0 120.635255,24.120501,0 120.636012,24.120482,0 120.636123,24.120474,0 120.636272,24.120508,0 120.636010,24.120766,0 120.636179,24.120897,0 120.636291,24.120998,0 120.636375,24.121091,0 120.636954,24.121572,0 120.637633,24.122148,0 120.637995,24.122462,0 120.638075,24.122528,0 120.638010,24.122592,0 120.638025,24.122632,0 120.638110,24.122705,0 120.638200,24.122782,0 120.638175,24.122813,0 120.637741,24.123275,0 120.637704,24.123285,0 120.637659,24.123341,0 120.637614,24.123383,0 120.637616,24.123402,0 120.637653,24.123474,0 120.637685,24.123477,0 120.637706,24.123480,0 120.638034,24.123760,0 120.638728,24.124327,0 120.639001,24.124580,0 120.639004,24.124587,0 120.639026,24.124641,0 120.638895,24.124811,0 120.638818,24.124917,0 120.638835,24.124929,0 120.638884,24.124966,0 120.638955,24.125019,0 120.638954,24.125032,0 120.638961,24.125053,0 120.638976,24.125069,0 120.638995,24.125084,0 120.639016,24.125096,0 120.639038,24.125101,0 120.639048,24.125100,0 120.639126,24.125159,0 120.639184,24.125204,0 120.639087,24.125323,0 120.639063,24.125374,0 120.639052,24.125416,0 120.639047,24.125456,0 120.639055,24.125512,0 120.639072,24.125588,0 120.639067,24.125692,0 120.639049,24.125780,0 120.639049,24.125822,0 120.639070,24.125905,0 120.639092,24.125956,0 120.639131,24.125999,0 120.639094,24.126031,0 120.639021,24.126091,0 120.638967,24.126137,0 120.639067,24.126226,0 120.639143,24.126277,0 120.639214,24.126325,0 120.639316,24.126406,0 120.639659,24.126693,0 120.639754,24.126772,0 120.640141,24.127096,0 120.640159,24.127119,0 120.640165,24.127141,0 120.640169,24.127164,0 120.640258,24.127228,0 120.639884,24.127652,0 120.639089,24.128589,0 120.638610,24.129150,0 120.638190,24.129636,0 120.637409,24.130108,0 120.637367,24.130134,0 120.637290,24.130184,0 120.637036,24.130357,0 120.637036,24.130352,0 120.637002,24.130278,0 120.636958,24.130184,0 120.636910,24.130082,0 120.636832,24.129913,0 120.636632,24.129512,0 120.636571,24.129550,0 120.635417,24.130268,0 120.635364,24.130300,0 120.635398,24.130357,0 120.635795,24.131087,0 120.635141,24.131514,0 120.635119,24.131448,0 120.635019,24.131478,0 120.635016,24.131493,0 120.635003,24.131508,0 120.634975,24.131531,0 120.634673,24.131778,0 120.634728,24.131844,0 120.635024,24.131601,0 120.635042,24.131595,0 120.635141,24.131514,0 120.635183,24.131617,0 120.635537,24.132557,0 120.636415,24.132110,0 120.636717,24.132623,0 120.637007,24.133163,0 120.636554,24.133343,0 120.636525,24.133416,0 120.636715,24.133777,0 120.636904,24.134157,0 120.637477,24.133996,0 120.638350,24.133750,0 120.638404,24.133735,0 120.638573,24.133689,0 120.638639,24.133669,0 120.639299,24.133509,0 120.639629,24.133459,0 120.639965,24.133428,0 120.640321,24.133409,0 120.640703,24.133403,0 120.641369,24.133399,0 120.641366,24.134125,0 120.641369,24.134808,0 120.641375,24.134881,0 120.642209,24.134845,0 120.642692,24.134828,0 120.643039,24.134815,0 120.643809,24.134793,0 120.643975,24.134785,0 120.644676,24.134757,0 120.644679,24.134692,0 120.644675,24.134082,0 120.644671,24.133370,0 120.645075,24.133366,0 120.645077,24.132052,0 120.645079,24.131242,0 120.646325,24.131231,0 120.646314,24.130808,0 120.646535,24.130802,0 120.647198,24.130795,0 120.647174,24.130183,0 120.647171,24.130109,0 120.647148,24.129524,0 120.647212,24.129521,0 120.647254,24.129521,0 120.648254,24.129513,0 120.648249,24.129389,0 120.648239,24.129072,0 120.648234,24.128970,0 120.648207,24.128470,0 120.648200,24.128364,0 120.648197,24.128272,0 120.648188,24.127923,0 120.648191,24.127771,0 120.648170,24.127108,0 120.648267,24.127142,0 120.648306,24.127060,0 120.648344,24.126971,0 120.648386,24.126887,0 120.648308,24.126854,0 120.648628,24.126361,0 120.649202,24.126575,0 120.649789,24.126805,0 120.650611,24.127125,0 120.651354,24.125900,0 120.651114,24.125705,0 120.651185,24.125626,0 120.651209,24.125603,0 120.651658,24.125415,0 120.651679,24.125407,0 120.651820,24.125345,0 120.652322,24.125733,0 120.652603,24.125227,0 120.652621,24.125146,0 120.652650,24.124251,0 120.652657,24.124063,0 120.652668,24.123813,0 120.652690,24.123310,0 120.653406,24.123742,0 120.653435,24.123767,0 120.653481,24.122721,0 120.653540,24.122652,0 120.653838,24.122306,0 120.652781,24.121660,0 120.653704,24.120649,0 120.653164,24.120256,0 120.653203,24.120237,0 120.653804,24.119616,0 120.653334,24.119190,0 120.653659,24.118862,0 120.653606,24.118815,0 120.653575,24.118768,0 120.653315,24.118558,0 120.653232,24.118502,0 120.652842,24.118144,0 120.652738,24.118047,0 120.652617,24.117945,0 120.652511,24.117849,0 120.651856,24.117334,0 120.651863,24.117234,0 120.651887,24.117162,0 120.651944,24.117075,0 120.651924,24.117054,0 120.651890,24.117029,0 120.651755,24.116933,0 120.650443,24.115855,0 120.650382,24.115797,0 120.650434,24.115758,0 120.650732,24.115530,0 120.651084,24.115292,0 120.651323,24.115147,0 120.651697,24.114921,0 120.652040,24.114742,0 120.652091,24.114714,0 120.652365,24.114553,0 120.652395,24.114539,0 120.652236,24.114140,0 120.651976,24.113577,0 120.651832,24.113350,0 120.651753,24.113219,0 120.652145,24.112790,0 120.652625,24.113077,0 120.653017,24.113393,0 120.653575,24.113814,0 120.653650,24.113770,0 120.653880,24.113652,0 120.654058,24.113560,0 120.654203,24.113513,0 120.654466,24.113461,0 120.654412,24.113240,0 120.654410,24.112938,0 120.654331,24.112778,0 120.654316,24.112718,0 120.654266,24.112623,0 120.654213,24.112507,0 120.654115,24.112465,0 120.654030,24.112477,0 120.653992,24.112447,0 120.653962,24.112408,0 120.653937,24.112354,0 120.653919,24.112265,0 120.653910,24.112119,0 120.654350,24.112087,0 120.654378,24.112114,0 120.655158,24.112109,0 120.655179,24.112438,0 120.655843,24.112449,0 120.655890,24.112474,0 120.657773,24.112444,0 120.657776,24.111834,0 120.658389,24.111920,0 120.658525,24.111979,0 120.659628,24.110923,0 120.659883,24.110905,0 120.660798,24.110909,0 120.661160,24.110901,0 120.661738,24.110889,0 120.661713,24.110764,0 120.661642,24.110605,0 120.661591,24.110450,0 120.661575,24.110321,0 120.661542,24.110239,0 120.661491,24.110123,0 120.661415,24.109861,0 120.661369,24.109731,0 120.661330,24.109583,0 120.661550,24.109392,0 120.661739,24.109222,0 120.661790,24.109175,0 120.662155,24.108896,0 120.662719,24.108500,0 120.663145,24.108215,0 120.663553,24.107918,0 120.663972,24.107639,0 120.663867,24.107516,0 120.663491,24.107779,0 120.663427,24.107830,0 120.663037,24.108098,0 120.663010,24.108117,0 120.662280,24.108617,0 120.661977,24.108847,0 120.661815,24.108968,0 120.661679,24.109070,0 120.661663,24.109085,0 120.661613,24.109130,0 120.661407,24.109050,0 120.661367,24.109049,0 120.659581,24.109000,0 120.658769,24.108980,0 120.657806,24.108956,0 120.655704,24.108893,0 120.655737,24.109022,0 120.655751,24.109219,0 120.655771,24.109353,0 120.655828,24.109618,0 120.655850,24.109768,0 120.655863,24.109910,0 120.655874,24.109969,0 120.655933,24.110586,0 120.655970,24.110963,0 120.655130,24.110969,0 120.655116,24.110501,0 120.655073,24.110462,0 120.655022,24.110466,0 120.654948,24.110450,0 120.654866,24.110439,0 120.654804,24.110423,0 120.654771,24.110398,0 120.654737,24.110346,0 120.654705,24.110270,0 120.654689,24.110145,0 120.654684,24.109986,0 120.654613,24.109946,0 120.654449,24.109927,0 120.653475,24.109925,0 120.652814,24.109910,0 120.652767,24.110560,0 120.651615,24.110468,0 120.651490,24.110458,0 120.651466,24.110562,0 120.651428,24.110729,0 120.651406,24.110830,0 120.650461,24.110617,0 120.650421,24.110761,0 120.650207,24.111595,0 120.650177,24.111689,0 120.650053,24.111973,0 120.649827,24.112453,0 120.649620,24.112820,0 120.649087,24.112587,0 120.648710,24.112424,0 120.648654,24.112417,0 120.648480,24.112342,0 120.648308,24.112305,0 120.648171,24.112292,0 120.647968,24.112302,0 120.647665,24.112288,0 120.647414,24.112290,0 120.647103,24.112300,0 120.646653,24.112345,0 120.646384,24.112372,0 120.646323,24.112385,0 120.645701,24.111884,0 120.645650,24.111927,0 120.645579,24.111990,0 120.645523,24.112032,0 120.645501,24.112008,0 120.645461,24.111977,0 120.645267,24.111813,0 120.644775,24.112313,0 120.644514,24.112577,0 120.644323,24.112770,0 120.644281,24.112737,0 120.644060,24.112626,0 120.643938,24.112737,0 120.643723,24.112952,0 120.643702,24.113123,0 120.643616,24.113316,0 120.643594,24.113424,0 120.643322,24.113752,0 120.643344,24.113770,0 120.643208,24.113917,0 120.643079,24.114153,0 120.642650,24.114561,0 120.642478,24.114647,0 120.642371,24.114733,0 120.640590,24.116535,0 120.640455,24.116621,0 120.640131,24.116949,0 120.640014,24.116865,0 120.639212,24.116290,0 120.637936,24.115328,0 120.637886,24.115291,0 120.637317,24.114843,0 120.637122,24.115581,0 120.637044,24.115410,0 120.636988,24.115334,0 120.636875,24.115203,0 120.636861,24.115183,0 120.636821,24.115104,0 120.636785,24.115089,0 120.636731,24.115093,0 120.636684,24.115090,0 120.636595,24.115058,0 120.636516,24.115029,0 120.636435,24.114976,0 120.636375,24.114985,0 120.636149,24.115146,0 120.636117,24.115165,0 120.636048,24.115186,0 120.635877,24.115205,0 120.635744,24.115215,0 120.635721,24.115225,0
</coordinates></LineString></Placemark>
</Document></kml>