<?xml version="1.0" encoding="UTF-8"?>
<kml xmlns="http://www.opengis.net/kml/2.2"><Document>
<name>新社區 手繪蹲坐貓（原稿描圖） 圖形路跑路線</name>
<Style id="r"><LineStyle><color>ff2000d6</color><width>4</width></LineStyle></Style>
<Placemark><name>新社區 手繪蹲坐貓（原稿描圖） 圖形路跑路線</name><styleUrl>#r</styleUrl><LineString><tessellate>1</tessellate><coordinates>
120.801973,24.206768,0 120.802525,24.207337,0 120.803137,24.207902,0 120.803218,24.207988,0 120.803218,24.208156,0 120.803180,24.209008,0 120.803176,24.209650,0 120.803185,24.210009,0 120.805038,24.210029,0 120.805062,24.211105,0 120.805081,24.212128,0 120.805094,24.213155,0 120.805108,24.214194,0 120.805122,24.215208,0 120.803238,24.215234,0 120.803260,24.216266,0 120.803264,24.217296,0 120.805138,24.217275,0 120.805156,24.218289,0 120.806981,24.218292,0 120.807000,24.219322,0 120.807008,24.219957,0 120.807002,24.220371,0 120.807357,24.220376,0 120.807576,24.220382,0 120.808003,24.219639,0 120.808067,24.219532,0 120.808368,24.219210,0 120.808703,24.218852,0 120.808767,24.218766,0 120.808810,24.218681,0 120.808832,24.218595,0 120.808830,24.218367,0 120.808826,24.217996,0 120.809767,24.217995,0 120.809729,24.217889,0 120.809724,24.217790,0 120.809732,24.217621,0 120.809765,24.217531,0 120.809849,24.217409,0 120.809956,24.217304,0 120.810028,24.217218,0 120.810127,24.217196,0 120.810289,24.217139,0 120.810437,24.217091,0 120.810555,24.217047,0 120.810626,24.216995,0 120.810623,24.216194,0 120.810630,24.215167,0 120.810617,24.214269,0 120.810620,24.214130,0 120.810608,24.213689,0 120.810608,24.213096,0 120.810586,24.212083,0 120.811508,24.212066,0 120.812427,24.212064,0 120.812420,24.211029,0 120.812372,24.208979,0 120.812389,24.207917,0 120.812378,24.206850,0 120.812378,24.206838,0 120.812368,24.205852,0 120.812358,24.204822,0 120.812347,24.203723,0 120.812337,24.202774,0 120.816007,24.202731,0 120.817332,24.202755,0 120.817323,24.201789,0 120.817302,24.200754,0 120.817268,24.200655,0 120.817326,24.200603,0 120.817294,24.199615,0 120.815985,24.199619,0 120.812294,24.199662,0 120.812322,24.201683,0 120.812337,24.202774,0 120.810974,24.202791,0 120.809054,24.202817,0 120.808751,24.202864,0 120.808526,24.202938,0 120.808196,24.202945,0 120.807576,24.202960,0 120.807407,24.202960,0 120.807220,24.202884,0 120.807201,24.202916,0 120.807093,24.203167,0 120.807039,24.203292,0 120.806830,24.203884,0 120.806003,24.205502,0 120.805412,24.206670,0 120.805019,24.206883,0 120.804879,24.206958,0 120.803218,24.207988,0 120.803137,24.207902,0 120.802525,24.207337,0 120.801973,24.206768,0
</coordinates></LineString></Placemark>
</Document></kml>