<?xml version="1.0" encoding="UTF-8"?>
<kml xmlns="http://www.opengis.net/kml/2.2"><Document>
<name>西屯區 貓咪肉球 圖形路跑路線</name>
<Style id="r"><LineStyle><color>ff2000d6</color><width>4</width></LineStyle></Style>
<Placemark><name>中國醫藥大學水湳校區</name><description>地標</description><Point><coordinates>120.660101,24.180338,0</coordinates></Point></Placemark>
<Placemark><name>大福公園</name><description>地標</description><Point><coordinates>120.666286,24.175546,0</coordinates></Point></Placemark>
<Placemark><name>水湳公園</name><description>地標</description><Point><coordinates>120.675704,24.176766,0</coordinates></Point></Placemark>
<Placemark><name>西屯區 貓咪肉球 圖形路跑路線</name><styleUrl>#r</styleUrl><LineString><tessellate>1</tessellate><coordinates>
120.661266,24.179163,0 120.661299,24.179133,0 120.661401,24.179133,0 120.661431,24.179160,0 120.661493,24.179160,0 120.661494,24.178965,0 120.661443,24.178883,0 120.661440,24.178666,0 120.661467,24.178628,0 120.661465,24.178546,0 120.661511,24.178452,0 120.661505,24.178231,0 120.661855,24.178233,0 120.661921,24.178192,0 120.661895,24.178173,0 120.661894,24.178104,0 120.661894,24.178041,0 120.661932,24.178006,0 120.662002,24.178007,0 120.662057,24.178007,0 120.662071,24.177565,0 120.662108,24.177528,0 120.663010,24.177543,0 120.663013,24.177469,0 120.663014,24.177438,0 120.663058,24.177405,0 120.663067,24.176994,0 120.663070,24.176880,0 120.663072,24.176775,0 120.663080,24.176441,0 120.663087,24.176417,0 120.663179,24.176417,0 120.663275,24.176416,0 120.663274,24.176301,0 120.663317,24.176300,0 120.663456,24.176299,0 120.663488,24.176298,0 120.663585,24.176297,0 120.663753,24.176293,0 120.664017,24.176154,0 120.664051,24.176136,0 120.664753,24.175872,0 120.664717,24.175534,0 120.664700,24.175374,0 120.664692,24.175302,0 120.665892,24.174882,0 120.665919,24.174929,0 120.666071,24.175378,0 120.666767,24.175116,0 120.667457,24.174858,0 120.667639,24.174789,0 120.668125,24.174607,0 120.668042,24.174540,0 120.668341,24.173864,0 120.668895,24.173921,0 120.669218,24.174071,0 120.669586,24.174263,0 120.669616,24.174279,0 120.670097,24.174531,0 120.670156,24.174561,0 120.670274,24.174108,0 120.670697,24.174187,0 120.670819,24.174207,0 120.671222,24.174283,0 120.671272,24.174059,0 120.671278,24.174010,0 120.671392,24.174030,0 120.671478,24.174043,0 120.671556,24.173991,0 120.672577,24.174163,0 120.673020,24.174227,0 120.673169,24.174224,0 120.673413,24.174214,0 120.673780,24.174163,0 120.673849,24.174157,0 120.673956,24.174343,0 120.674017,24.174560,0 120.674107,24.175043,0 120.674122,24.175124,0 120.674164,24.175092,0 120.674177,24.175082,0 120.674307,24.174990,0 120.674328,24.174975,0 120.674379,24.174939,0 120.674428,24.174897,0 120.674756,24.174609,0 120.674856,24.174540,0 120.676065,24.174421,0 120.676232,24.174405,0 120.676241,24.174473,0 120.676273,24.174492,0 120.676352,24.174481,0 120.676472,24.174984,0 120.676541,24.175368,0 120.676571,24.175506,0 120.676583,24.175562,0 120.677470,24.175449,0 120.677477,24.175502,0 120.677544,24.175495,0 120.677641,24.176037,0 120.677708,24.176027,0 120.677717,24.176081,0 120.678083,24.176043,0 120.678592,24.176018,0 120.678607,24.176092,0 120.678674,24.176083,0 120.678798,24.176613,0 120.678848,24.176609,0 120.678869,24.176631,0 120.678872,24.176683,0 120.678881,24.176751,0 120.678870,24.176776,0 120.678914,24.177027,0 120.679012,24.177260,0 120.679047,24.177282,0 120.679062,24.177312,0 120.679072,24.177341,0 120.680061,24.177216,0 120.680093,24.177232,0 120.680113,24.177273,0 120.680193,24.177993,0 120.680187,24.178036,0 120.680252,24.178027,0 120.680298,24.178021,0 120.680360,24.178046,0 120.681539,24.177888,0 120.681551,24.177953,0 120.681561,24.178006,0 120.681591,24.178082,0 120.681683,24.178569,0 120.681758,24.179222,0 120.681759,24.179308,0 120.681763,24.179392,0 120.681855,24.179392,0 120.681943,24.179388,0 120.682025,24.179385,0 120.682077,24.180282,0 120.682090,24.180322,0 120.682110,24.180373,0 120.682112,24.180428,0 120.682650,24.180401,0 120.682718,24.180398,0 120.682787,24.180395,0 120.682790,24.180464,0 120.682720,24.180466,0 120.682754,24.181005,0 120.682758,24.181076,0 120.682765,24.181166,0 120.682806,24.181666,0 120.682709,24.181674,0 120.682210,24.181721,0 120.682215,24.181802,0 120.682221,24.181888,0 120.682225,24.181965,0 120.682205,24.181987,0 120.682188,24.182044,0 120.682192,24.182117,0 120.682221,24.182730,0 120.682234,24.182788,0 120.682867,24.182706,0 120.682884,24.183038,0 120.682911,24.183572,0 120.682915,24.183646,0 120.682919,24.183719,0 120.682934,24.183944,0 120.682947,24.184248,0 120.682993,24.184841,0 120.682330,24.184854,0 120.682328,24.184924,0 120.682325,24.184942,0 120.682350,24.185323,0 120.682373,24.185363,0 120.682402,24.185380,0 120.682405,24.185481,0 120.682408,24.185578,0 120.682410,24.185646,0 120.682369,24.185714,0 120.682424,24.186834,0 120.682446,24.186871,0 120.682451,24.186958,0 120.682455,24.187033,0 120.682436,24.187068,0 120.682488,24.188122,0 120.682512,24.188161,0 120.682551,24.188183,0 120.683307,24.188176,0 120.683308,24.188302,0 120.683309,24.188398,0 120.683368,24.188398,0 120.683368,24.188634,0 120.684476,24.188619,0 120.684827,24.188614,0 120.684840,24.188763,0 120.684862,24.189019,0 120.684940,24.189319,0 120.684969,24.189557,0 120.685026,24.189805,0 120.684144,24.190427,0 120.683439,24.190926,0 120.683378,24.190971,0 120.683451,24.191052,0 120.683435,24.191442,0 120.683474,24.191573,0 120.683517,24.191717,0 120.683532,24.191881,0 120.683581,24.192425,0 120.683710,24.193661,0 120.683766,24.194218,0 120.683836,24.195020,0 120.683828,24.195135,0 120.682949,24.194442,0 120.682875,24.194698,0 120.682824,24.194799,0 120.682813,24.194816,0 120.682755,24.194899,0 120.682828,24.194940,0 120.682853,24.194979,0 120.682858,24.195021,0 120.682883,24.195217,0 120.682965,24.195745,0 120.682775,24.195797,0 120.682792,24.195845,0 120.683101,24.196719,0 120.683017,24.196742,0 120.682926,24.196767,0 120.682880,24.196793,0 120.681983,24.196790,0 120.681943,24.196781,0 120.681905,24.196808,0 120.681860,24.196843,0 120.681367,24.196280,0 120.681340,24.196270,0 120.681312,24.196279,0 120.680854,24.196672,0 120.680634,24.196861,0 120.680600,24.196899,0 120.680585,24.196939,0 120.680579,24.197114,0 120.680486,24.197113,0 120.680382,24.197113,0 120.680334,24.197131,0 120.680076,24.197355,0 120.680002,24.197424,0 120.679909,24.197504,0 120.679867,24.197462,0 120.679813,24.197407,0 120.679773,24.197440,0 120.679734,24.197473,0 120.679516,24.197250,0 120.679461,24.197236,0 120.678362,24.197243,0 120.678338,24.197268,0 120.678337,24.197211,0 120.678336,24.197146,0 120.678230,24.197148,0 120.678131,24.197149,0 120.678141,24.197127,0 120.678142,24.196755,0 120.678140,24.196725,0 120.678140,24.196621,0 120.678140,24.196531,0 120.678112,24.196550,0 120.676992,24.196558,0 120.676904,24.196559,0 120.676906,24.195977,0 120.676907,24.195378,0 120.676913,24.195355,0 120.676841,24.195374,0 120.676828,24.195328,0 120.676817,24.195292,0 120.676259,24.195398,0 120.676260,24.195290,0 120.676140,24.195290,0 120.676015,24.195289,0 120.676022,24.194907,0 120.676043,24.194596,0 120.676050,24.194419,0 120.676111,24.193958,0 120.676161,24.193516,0 120.676179,24.193445,0 120.676206,24.193355,0 120.676229,24.193275,0 120.675636,24.193286,0 120.675550,24.193279,0 120.675549,24.193353,0 120.675544,24.193442,0 120.676140,24.193444,0 120.676179,24.193445,0 120.676161,24.193516,0 120.676111,24.193958,0 120.676050,24.194419,0 120.676043,24.194596,0 120.676022,24.194907,0 120.676015,24.195289,0 120.676014,24.195401,0 120.676014,24.195506,0 120.676021,24.195593,0 120.676018,24.196538,0 120.676141,24.196539,0 120.676254,24.196541,0 120.676253,24.196647,0 120.676252,24.196760,0 120.676280,24.196728,0 120.676849,24.196724,0 120.676885,24.196736,0 120.676892,24.196758,0 120.676895,24.197158,0 120.676894,24.197262,0 120.676893,24.197776,0 120.676840,24.197801,0 120.676842,24.197902,0 120.676844,24.198002,0 120.676331,24.198010,0 120.676274,24.198033,0 120.676146,24.198035,0 120.676020,24.198037,0 120.676032,24.198080,0 120.676036,24.199081,0 120.676022,24.199139,0 120.676021,24.199237,0 120.674831,24.199240,0 120.673710,24.199247,0 120.673713,24.199434,0 120.673712,24.199514,0 120.673682,24.199552,0 120.673695,24.200623,0 120.673713,24.200686,0 120.673592,24.200690,0 120.673490,24.200694,0 120.673491,24.200765,0 120.672675,24.200741,0 120.671091,24.200723,0 120.671091,24.200671,0 120.671071,24.200651,0 120.670971,24.200650,0 120.670895,24.200649,0 120.670770,24.200650,0 120.670787,24.200592,0 120.670802,24.199536,0 120.670751,24.199519,0 120.670751,24.199459,0 120.670749,24.199258,0 120.670749,24.199166,0 120.670709,24.199183,0 120.669834,24.199188,0 120.669775,24.199187,0 120.669727,24.199187,0 120.669643,24.199188,0 120.669608,24.199187,0 120.669572,24.199191,0 120.668656,24.199188,0 120.668594,24.199182,0 120.668577,24.199141,0 120.668557,24.199102,0 120.668550,24.198118,0 120.668567,24.198066,0 120.668493,24.198066,0 120.668252,24.198065,0 120.668186,24.198056,0 120.668186,24.197952,0 120.668186,24.197850,0 120.668193,24.197771,0 120.668194,24.196815,0 120.668188,24.196797,0 120.668132,24.196774,0 120.667570,24.196784,0 120.667541,24.196779,0 120.667539,24.196700,0 120.667537,24.196602,0 120.667528,24.196569,0 120.667530,24.196113,0 120.667530,24.196009,0 120.667533,24.195542,0 120.667541,24.195513,0 120.667541,24.195422,0 120.667542,24.195340,0 120.667603,24.195346,0 120.668171,24.195338,0 120.668190,24.195319,0 120.668282,24.195318,0 120.668503,24.195316,0 120.668586,24.195316,0 120.668587,24.195411,0 120.668588,24.195499,0 120.668575,24.195512,0 120.668570,24.195532,0 120.668502,24.195532,0 120.668284,24.195534,0 120.668193,24.195535,0 120.668196,24.195555,0 120.668191,24.196556,0 120.668188,24.196575,0 120.668188,24.196693,0 120.668188,24.196797,0 120.668194,24.196815,0 120.668193,24.197771,0 120.668186,24.197850,0 120.668114,24.197865,0 120.667159,24.197999,0 120.667079,24.198007,0 120.667005,24.198011,0 120.666981,24.198017,0 120.666554,24.198084,0 120.666573,24.198174,0 120.666594,24.198270,0 120.666440,24.198300,0 120.666349,24.198345,0 120.666147,24.198526,0 120.665849,24.198774,0 120.665459,24.199102,0 120.665391,24.199173,0 120.665388,24.199210,0 120.665297,24.199124,0 120.665218,24.199050,0 120.665021,24.199202,0 120.664876,24.199308,0 120.664471,24.199430,0 120.664363,24.199465,0 120.664298,24.199300,0 120.664145,24.198914,0 120.663588,24.199082,0 120.662832,24.199330,0 120.662711,24.198678,0 120.662463,24.198317,0 120.662227,24.197920,0 120.661890,24.198097,0 120.661567,24.198266,0 120.661322,24.197593,0 120.660722,24.197724,0 120.660535,24.197107,0 120.660403,24.196785,0 120.660291,24.196431,0 120.660178,24.196075,0 120.660223,24.195728,0 120.660266,24.195394,0 120.661210,24.195225,0 120.661515,24.195150,0 120.661598,24.195105,0 120.661438,24.194993,0 120.661417,24.194958,0 120.661364,24.194876,0 120.660482,24.194950,0 120.660444,24.194818,0 120.660394,24.194686,0 120.660290,24.194413,0 120.660167,24.194088,0 120.660044,24.193766,0 120.659918,24.193437,0 120.660461,24.193253,0 120.660601,24.193551,0 120.660823,24.193160,0 120.661108,24.192661,0 120.661150,24.192587,0 120.661192,24.192511,0 120.661420,24.192107,0 120.661681,24.191615,0 120.661689,24.191569,0 120.661640,24.191468,0 120.662068,24.191302,0 120.662131,24.191381,0 120.662623,24.191161,0 120.662650,24.191105,0 120.663514,24.191107,0 120.663521,24.190793,0 120.663529,24.190464,0 120.663555,24.190262,0 120.663568,24.190162,0 120.663627,24.190071,0 120.663520,24.190033,0 120.663474,24.190121,0 120.663568,24.190162,0 120.663555,24.190262,0 120.663529,24.190464,0 120.663521,24.190793,0 120.663514,24.191107,0 120.662650,24.191105,0 120.662623,24.191161,0 120.662131,24.191381,0 120.662278,24.191576,0 120.661689,24.191569,0 120.661681,24.191615,0 120.661420,24.192107,0 120.661192,24.192511,0 120.661150,24.192587,0 120.661108,24.192661,0 120.660823,24.193160,0 120.660553,24.193039,0 120.660445,24.192839,0 120.660408,24.192815,0 120.660034,24.192608,0 120.660016,24.192640,0 120.660005,24.192663,0 120.659907,24.192615,0 120.659855,24.192591,0 120.659697,24.192853,0 120.659623,24.192885,0 120.659595,24.192880,0 120.658443,24.192659,0 120.658417,24.192694,0 120.658350,24.192782,0 120.658298,24.192851,0 120.658264,24.192874,0 120.658169,24.192851,0 120.658064,24.192826,0 120.658041,24.192793,0 120.657662,24.192722,0 120.657643,24.192727,0 120.657578,24.192713,0 120.657464,24.192690,0 120.657434,24.192666,0 120.657045,24.192601,0 120.656975,24.192646,0 120.656914,24.192618,0 120.656804,24.192566,0 120.656701,24.192517,0 120.656672,24.192446,0 120.656762,24.192325,0 120.656819,24.192250,0 120.656429,24.192022,0 120.656417,24.191993,0 120.656408,24.191969,0 120.656413,24.191903,0 120.656301,24.191863,0 120.656174,24.191817,0 120.656204,24.191760,0 120.656226,24.191696,0 120.656331,24.190340,0 120.656300,24.190303,0 120.656284,24.190284,0 120.656283,24.190179,0 120.656282,24.190120,0 120.656353,24.190069,0 120.656392,24.189451,0 120.656353,24.189379,0 120.655611,24.189342,0 120.655611,24.189274,0 120.655615,24.189222,0 120.655569,24.189207,0 120.655611,24.188483,0 120.655657,24.188442,0 120.655660,24.188407,0 120.655661,24.188371,0 120.655665,24.188288,0 120.655666,24.188263,0 120.655666,24.188216,0 120.655646,24.188171,0 120.655708,24.187270,0 120.655708,24.187251,0 120.655709,24.187231,0 120.655731,24.187205,0 120.655732,24.187179,0 120.655735,24.187127,0 120.655738,24.187052,0 120.655741,24.187001,0 120.655743,24.186962,0 120.656460,24.186998,0 120.656544,24.186940,0 120.656608,24.185746,0 120.656751,24.185711,0 120.656845,24.185688,0 120.656919,24.185648,0 120.656921,24.185586,0 120.656923,24.185544,0 120.656892,24.185531,0 120.656862,24.185509,0 120.656835,24.185469,0 120.656881,24.184900,0 120.656894,24.184837,0 120.656919,24.184812,0 120.656982,24.184778,0 120.657045,24.184761,0 120.657700,24.184799,0 120.657703,24.184731,0 120.657711,24.184658,0 120.657717,24.184597,0 120.657789,24.184541,0 120.657875,24.184546,0 120.657979,24.184552,0 120.657982,24.184508,0 120.658063,24.183253,0 120.658095,24.182650,0 120.658197,24.182656,0 120.658249,24.182605,0 120.659218,24.182626,0 120.659221,24.182556,0 120.659224,24.182484,0 120.659380,24.182484,0 120.659938,24.182499,0 120.660132,24.182505,0 120.660529,24.182510,0 120.661774,24.182527,0 120.661823,24.182490,0 120.661846,24.181496,0 120.661850,24.181329,0 120.661858,24.180995,0 120.661867,24.180573,0 120.661872,24.180387,0 120.661923,24.179159,0 120.661845,24.179160,0 120.661493,24.179160,0 120.661431,24.179160,0 120.661401,24.179133,0 120.661299,24.179133,0 120.661266,24.179163,0
</coordinates></LineString></Placemark>
</Document></kml>