<?xml version="1.0" encoding="UTF-8"?>
<kml xmlns="http://www.opengis.net/kml/2.2"><Document>
<name>西屯區 蜷睡貓咪 圖形路跑路線</name>
<Style id="r"><LineStyle><color>ff2000d6</color><width>4</width></LineStyle></Style>
<Placemark><name>逢甲夜市</name><description>地標</description><Point><coordinates>120.645714,24.177856,0</coordinates></Point></Placemark>
<Placemark><name>圖書館建都分館</name><description>地標</description><Point><coordinates>120.646883,24.179270,0</coordinates></Point></Placemark>
<Placemark><name>丘逢甲紀念銅像</name><description>地標</description><Point><coordinates>120.648262,24.178362,0</coordinates></Point></Placemark>
<Placemark><name>西屯區 蜷睡貓咪 圖形路跑路線</name><styleUrl>#r</styleUrl><LineString><tessellate>1</tessellate><coordinates>
120.646215,24.174847,0 120.645875,24.174996,0 120.645657,24.175093,0 120.645613,24.175116,0 120.645358,24.175230,0 120.644988,24.175417,0 120.645100,24.175551,0 120.645224,24.175666,0 120.645392,24.175823,0 120.645479,24.175902,0 120.645636,24.176042,0 120.645812,24.176147,0 120.645999,24.176230,0 120.645574,24.176816,0 120.645388,24.177026,0 120.645281,24.177128,0 120.645155,24.177304,0 120.645140,24.177670,0 120.645137,24.177891,0 120.645112,24.178579,0 120.645098,24.178702,0 120.645097,24.178720,0 120.645205,24.178720,0 120.645228,24.178754,0 120.645250,24.178764,0 120.645665,24.178771,0 120.645665,24.178821,0 120.645665,24.178878,0 120.645693,24.178897,0 120.645726,24.178898,0 120.645772,24.178897,0 120.645809,24.178883,0 120.646407,24.178892,0 120.646408,24.178827,0 120.646484,24.178826,0 120.646561,24.178815,0 120.646604,24.178826,0 120.646659,24.178835,0 120.646646,24.178883,0 120.646638,24.178947,0 120.647226,24.178959,0 120.647365,24.178961,0 120.647377,24.178966,0 120.647362,24.179594,0 120.647350,24.179920,0 120.647344,24.180675,0 120.647679,24.180678,0 120.647678,24.180745,0 120.647899,24.180750,0 120.647891,24.181055,0 120.648238,24.181064,0 120.648226,24.181094,0 120.648180,24.181329,0 120.648229,24.181324,0 120.648195,24.181362,0 120.648185,24.181406,0 120.648165,24.181546,0 120.648239,24.181852,0 120.648237,24.181886,0 120.648235,24.181904,0 120.648229,24.181953,0 120.648227,24.182008,0 120.648218,24.182454,0 120.648210,24.182883,0 120.649113,24.182879,0 120.649753,24.182904,0 120.650081,24.182909,0 120.650080,24.182946,0 120.650058,24.183567,0 120.650112,24.183568,0 120.650192,24.183569,0 120.651704,24.183599,0 120.651737,24.183633,0 120.651779,24.183675,0 120.651850,24.183677,0 120.651975,24.183680,0 120.652012,24.183681,0 120.652011,24.184594,0 120.652191,24.184609,0 120.652199,24.184579,0 120.652408,24.184506,0 120.652671,24.184432,0 120.652816,24.184472,0 120.652952,24.184503,0 120.653044,24.184601,0 120.653194,24.184821,0 120.653246,24.184935,0 120.653427,24.184859,0 120.653489,24.184844,0 120.654059,24.184611,0 120.654171,24.184570,0 120.654415,24.184499,0 120.654750,24.184427,0 120.654873,24.184422,0 120.654958,24.184431,0 120.655535,24.184463,0 120.655534,24.184542,0 120.655533,24.184633,0 120.655531,24.184705,0 120.655518,24.184731,0 120.655510,24.184761,0 120.655505,24.184769,0 120.655154,24.185270,0 120.654999,24.185493,0 120.654948,24.185596,0 120.655029,24.185634,0 120.655100,24.185667,0 120.655148,24.185629,0 120.655170,24.185587,0 120.655249,24.185426,0 120.655294,24.185348,0 120.655686,24.184839,0 120.655690,24.184833,0 120.655780,24.184755,0 120.655839,24.184710,0 120.655826,24.184642,0 120.655831,24.184553,0 120.655837,24.184472,0 120.655884,24.184475,0 120.656625,24.184525,0 120.656699,24.184472,0 120.656819,24.184480,0 120.656926,24.184487,0 120.656957,24.184525,0 120.656999,24.184553,0 120.657717,24.184597,0 120.657789,24.184541,0 120.657875,24.184546,0 120.657979,24.184552,0 120.658060,24.184557,0 120.658112,24.184623,0 120.658109,24.184681,0 120.658102,24.184747,0 120.658100,24.184836,0 120.659038,24.184894,0 120.659073,24.184897,0 120.659098,24.184918,0 120.659175,24.184921,0 120.659240,24.184929,0 120.659254,24.184906,0 120.659249,24.184830,0 120.659260,24.184749,0 120.659262,24.184704,0 120.659244,24.184658,0 120.659186,24.184656,0 120.659107,24.184652,0 120.659115,24.184640,0 120.659178,24.183961,0 120.659185,24.183839,0 120.659196,24.183220,0 120.659204,24.183079,0 120.659276,24.183079,0 120.659347,24.183080,0 120.659358,24.182679,0 120.659374,24.182644,0 120.659401,24.182637,0 120.659938,24.182644,0 120.660050,24.182648,0 120.660118,24.182648,0 120.660129,24.182637,0 120.660130,24.182575,0 120.660132,24.182505,0 120.660529,24.182510,0 120.661774,24.182527,0 120.661823,24.182490,0 120.661846,24.181496,0 120.661914,24.181498,0 120.661970,24.181500,0 120.661994,24.181462,0 120.661995,24.181397,0 120.661995,24.181354,0 120.662928,24.181371,0 120.662955,24.181364,0 120.662966,24.181347,0 120.663042,24.181352,0 120.663133,24.181352,0 120.663154,24.180602,0 120.663202,24.180573,0 120.663202,24.180516,0 120.663202,24.180460,0 120.663745,24.180456,0 120.663785,24.180440,0 120.663856,24.180440,0 120.663919,24.180442,0 120.663934,24.180443,0 120.663975,24.180455,0 120.664469,24.180448,0 120.664511,24.180425,0 120.664525,24.180412,0 120.664536,24.179026,0 120.664508,24.179007,0 120.664509,24.178933,0 120.664509,24.178892,0 120.664528,24.178859,0 120.664539,24.178219,0 120.664648,24.178218,0 120.664743,24.178217,0 120.664783,24.178189,0 120.664783,24.178123,0 120.664783,24.178044,0 120.664765,24.178033,0 120.664768,24.178008,0 120.664761,24.176678,0 120.664653,24.176669,0 120.664637,24.176623,0 120.664618,24.176576,0 120.664928,24.176505,0 120.665165,24.176487,0 120.665283,24.176441,0 120.665490,24.176427,0 120.665933,24.176397,0 120.665897,24.176140,0 120.665888,24.176069,0 120.665804,24.175478,0 120.666071,24.175378,0 120.665919,24.174929,0 120.665892,24.174882,0 120.665707,24.174462,0 120.665854,24.174243,0 120.665830,24.174228,0 120.665919,24.174058,0 120.666021,24.174106,0 120.666294,24.173830,0 120.666439,24.173956,0 120.666564,24.174065,0 120.666693,24.174178,0 120.666830,24.174297,0 120.666852,24.174317,0 120.666996,24.174205,0 120.666757,24.173866,0 120.667301,24.173522,0 120.667195,24.173323,0 120.667075,24.173210,0 120.666984,24.173004,0 120.666956,24.172908,0 120.666828,24.172327,0 120.666739,24.171671,0 120.666727,24.171138,0 120.666680,24.170665,0 120.666586,24.170437,0 120.666428,24.170110,0 120.666348,24.169871,0 120.666308,24.169785,0 120.665674,24.169805,0 120.665471,24.169186,0 120.665299,24.168555,0 120.665037,24.167829,0 120.664631,24.167630,0 120.664085,24.167342,0 120.663570,24.167067,0 120.663655,24.166905,0 120.664006,24.166288,0 120.663700,24.166128,0 120.663799,24.165933,0 120.663876,24.165816,0 120.663997,24.165616,0 120.663484,24.165357,0 120.662983,24.165108,0 120.662436,24.164826,0 120.662216,24.165362,0 120.662104,24.165306,0 120.661490,24.165003,0 120.660393,24.164451,0 120.660522,24.164247,0 120.660645,24.164143,0 120.660567,24.164043,0 120.660482,24.163920,0 120.660380,24.163796,0 120.660166,24.163671,0 120.659671,24.163406,0 120.659118,24.163153,0 120.658440,24.162781,0 120.658107,24.162642,0 120.658009,24.162514,0 120.657874,24.162298,0 120.657199,24.162668,0 120.657329,24.163016,0 120.657350,24.163072,0 120.657282,24.163092,0 120.657258,24.163104,0 120.657262,24.163151,0 120.657241,24.163185,0 120.657200,24.163202,0 120.657244,24.163269,0 120.657173,24.163313,0 120.657142,24.163328,0 120.656895,24.163444,0 120.656686,24.162859,0 120.656481,24.162281,0 120.655928,24.162391,0 120.655834,24.162397,0 120.655723,24.162371,0 120.655475,24.162275,0 120.655391,24.162324,0 120.655325,24.162253,0 120.655193,24.162209,0 120.655071,24.162200,0 120.654909,24.161981,0 120.654776,24.161937,0 120.654634,24.161915,0 120.654548,24.162019,0 120.654394,24.162143,0 120.654094,24.162348,0 120.653925,24.162446,0 120.653606,24.162649,0 120.653532,24.162694,0 120.653402,24.162776,0 120.652907,24.163068,0 120.652236,24.162033,0 120.651738,24.162313,0 120.650945,24.162736,0 120.650631,24.162282,0 120.650202,24.162521,0 120.649954,24.162651,0 120.649917,24.162671,0 120.649935,24.162701,0 120.649915,24.162767,0 120.649813,24.162827,0 120.649667,24.162913,0 120.649578,24.162966,0 120.649531,24.162893,0 120.649508,24.162855,0 120.648560,24.163374,0 120.648589,24.163423,0 120.646774,24.164396,0 120.646662,24.164467,0 120.646427,24.164623,0 120.646602,24.164912,0 120.646712,24.165108,0 120.645705,24.165660,0 120.645684,24.165687,0 120.645711,24.165854,0 120.645741,24.166006,0 120.645772,24.166141,0 120.645797,24.166264,0 120.645355,24.166577,0 120.644920,24.166885,0 120.644325,24.166392,0 120.644128,24.166561,0 120.644067,24.166565,0 120.644038,24.166588,0 120.643935,24.166668,0 120.643838,24.166743,0 120.643780,24.166790,0 120.643450,24.167045,0 120.643404,24.167110,0 120.643398,24.167262,0 120.643399,24.167592,0 120.643411,24.167870,0 120.643433,24.167922,0 120.643518,24.168083,0 120.643981,24.168530,0 120.644326,24.168864,0 120.644720,24.169244,0 120.644013,24.169841,0 120.643848,24.169980,0 120.643811,24.170011,0 120.643705,24.170100,0 120.643368,24.170385,0 120.643292,24.170449,0 120.643807,24.170962,0 120.644008,24.171162,0 120.643728,24.171393,0 120.643721,24.171435,0 120.643762,24.171494,0 120.643760,24.171555,0 120.643749,24.171613,0 120.644181,24.171334,0 120.644256,24.171269,0 120.644927,24.170684,0 120.644347,24.170150,0 120.644013,24.169841,0 120.644720,24.169244,0 120.645233,24.169671,0 120.645650,24.169269,0 120.645476,24.169111,0 120.645686,24.168878,0 120.646399,24.169404,0 120.646916,24.168954,0 120.646944,24.168929,0 120.647086,24.168778,0 120.647140,24.168722,0 120.647274,24.168587,0 120.647350,24.168514,0 120.647757,24.168162,0 120.648248,24.167789,0 120.648296,24.167875,0 120.648802,24.168734,0 120.649183,24.168329,0 120.649384,24.168090,0 120.649811,24.167608,0 120.650511,24.168170,0 120.650742,24.167954,0 120.651046,24.167672,0 120.651256,24.167456,0 120.651553,24.167192,0 120.651963,24.167557,0 120.652299,24.167226,0 120.652764,24.167629,0 120.653152,24.167262,0 120.653294,24.167379,0 120.654011,24.167972,0 120.654138,24.167852,0 120.654321,24.167991,0 120.654679,24.168265,0 120.654785,24.168136,0 120.655099,24.167822,0 120.655479,24.167429,0 120.655913,24.167814,0 120.655519,24.168207,0 120.655601,24.168273,0 120.656544,24.169017,0 120.656202,24.169418,0 120.656078,24.169612,0 120.656995,24.170188,0 120.657820,24.170606,0 120.657623,24.170944,0 120.657565,24.171314,0 120.657511,24.171986,0 120.657471,24.172901,0 120.656516,24.172873,0 120.656481,24.173550,0 120.656456,24.174032,0 120.656357,24.174024,0 120.656340,24.174134,0 120.656192,24.175227,0 120.655930,24.175170,0 120.655409,24.175056,0 120.655430,24.174972,0 120.655332,24.174960,0 120.655204,24.174944,0 120.655182,24.175071,0 120.655058,24.176003,0 120.655036,24.176024,0 120.655007,24.176037,0 120.654978,24.175997,0 120.654940,24.175971,0 120.654884,24.175947,0 120.654838,24.175937,0 120.654613,24.175934,0 120.654530,24.175938,0 120.654465,24.175949,0 120.654413,24.175978,0 120.654376,24.176011,0 120.654353,24.176043,0 120.654336,24.176028,0 120.654324,24.176012,0 120.654321,24.175992,0 120.654309,24.175964,0 120.654290,24.175942,0 120.654253,24.175917,0 120.654190,24.175863,0 120.654127,24.175822,0 120.654063,24.175795,0 120.654007,24.175783,0 120.653950,24.175785,0 120.653915,24.175808,0 120.654031,24.175953,0 120.654032,24.176031,0 120.653923,24.176032,0 120.653813,24.176033,0 120.653814,24.176106,0 120.653761,24.176104,0 120.653301,24.176113,0 120.652606,24.176101,0 120.652598,24.175435,0 120.652075,24.175433,0 120.651657,24.175435,0 120.651210,24.175318,0 120.650503,24.175133,0 120.650503,24.175060,0 120.650502,24.174828,0 120.649969,24.174837,0 120.650049,24.174719,0 120.650080,24.174608,0 120.650063,24.174489,0 120.650358,24.174062,0 120.650094,24.173848,0 120.649668,24.173260,0 120.649619,24.173124,0 120.649591,24.172927,0 120.649550,24.172862,0 120.649479,24.172797,0 120.649046,24.173165,0 120.648909,24.173281,0 120.648531,24.173602,0 120.648494,24.173633,0 120.648364,24.173744,0 120.648039,24.174019,0 120.647929,24.174113,0 120.647855,24.174181,0 120.646892,24.174880,0 120.646729,24.174823,0 120.646516,24.174761,0 120.646445,24.174768,0 120.646215,24.174847,0
</coordinates></LineString></Placemark>
</Document></kml>