<?xml version="1.0" encoding="UTF-8"?>
<kml xmlns="http://www.opengis.net/kml/2.2"><Document>
<name>西屯區 貓咪肉球 圖形路跑路線</name>
<Style id="r"><LineStyle><color>ff2000d6</color><width>4</width></LineStyle></Style>
<Placemark><name>成都公園</name><description>地標</description><Point><coordinates>120.665140,24.169035,0</coordinates></Point></Placemark>
<Placemark><name>武昌公園</name><description>地標</description><Point><coordinates>120.668006,24.169037,0</coordinates></Point></Placemark>
<Placemark><name>曉明公園</name><description>地標</description><Point><coordinates>120.670919,24.168170,0</coordinates></Point></Placemark>
<Placemark><name>西屯區 貓咪肉球 圖形路跑路線</name><styleUrl>#r</styleUrl><LineString><tessellate>1</tessellate><coordinates>
120.666586,24.170437,0 120.666428,24.170110,0 120.666348,24.169871,0 120.666308,24.169785,0 120.666431,24.169781,0 120.666622,24.169774,0 120.666744,24.169763,0 120.666574,24.169272,0 120.666519,24.169135,0 120.666465,24.168954,0 120.666417,24.168746,0 120.667242,24.168748,0 120.667761,24.168745,0 120.668324,24.168770,0 120.668905,24.168766,0 120.669468,24.168742,0 120.670039,24.168751,0 120.670614,24.168754,0 120.671251,24.168761,0 120.671740,24.168762,0 120.672542,24.168811,0 120.672612,24.168816,0 120.672592,24.168879,0 120.672709,24.168895,0 120.672620,24.169190,0 120.673116,24.169315,0 120.673324,24.169357,0 120.673590,24.169375,0 120.673632,24.169372,0 120.674311,24.169330,0 120.674318,24.169491,0 120.674371,24.170043,0 120.674364,24.170472,0 120.674382,24.170772,0 120.674394,24.171085,0 120.674414,24.171553,0 120.674241,24.172321,0 120.674220,24.172418,0 120.674099,24.172908,0 120.674172,24.172921,0 120.674162,24.172964,0 120.674538,24.173019,0 120.675094,24.173058,0 120.675074,24.173545,0 120.675024,24.173555,0 120.674074,24.173778,0 120.674097,24.173827,0 120.674137,24.174004,0 120.674175,24.174080,0 120.674126,24.174102,0 120.674266,24.174497,0 120.674360,24.174863,0 120.674379,24.174939,0 120.674389,24.175021,0 120.674412,24.175202,0 120.674459,24.175353,0 120.674485,24.175417,0 120.674647,24.175659,0 120.674878,24.175920,0 120.674714,24.176086,0 120.674475,24.176335,0 120.674149,24.176656,0 120.674553,24.176878,0 120.674369,24.177157,0 120.674196,24.177479,0 120.673935,24.177590,0 120.673881,24.177607,0 120.673392,24.177765,0 120.673274,24.177463,0 120.673188,24.177392,0 120.672904,24.177472,0 120.672941,24.176988,0 120.672818,24.176890,0 120.672808,24.176882,0 120.672771,24.176911,0 120.672620,24.176940,0 120.672576,24.177484,0 120.672100,24.177425,0 120.672062,24.177382,0 120.672096,24.176954,0 120.671849,24.176947,0 120.671680,24.176877,0 120.671799,24.176688,0 120.671809,24.176671,0 120.671952,24.176449,0 120.672128,24.176541,0 120.672096,24.176954,0 120.672062,24.177382,0 120.672100,24.177425,0 120.672576,24.177484,0 120.672537,24.177749,0 120.672558,24.177916,0 120.672571,24.177952,0 120.672597,24.178020,0 120.672500,24.178044,0 120.672460,24.178053,0 120.671710,24.178327,0 120.671290,24.178499,0 120.671251,24.178515,0 120.670787,24.178707,0 120.670573,24.178807,0 120.670421,24.178873,0 120.670327,24.178886,0 120.670258,24.178890,0 120.670053,24.178961,0 120.669896,24.179016,0 120.669742,24.178806,0 120.669630,24.178739,0 120.669537,24.178683,0 120.669434,24.178616,0 120.669357,24.178566,0 120.669192,24.178458,0 120.669094,24.178393,0 120.668834,24.178223,0 120.668755,24.178172,0 120.668696,24.178265,0 120.668588,24.178196,0 120.668495,24.178194,0 120.668468,24.178193,0 120.668080,24.178187,0 120.667900,24.178184,0 120.667706,24.178181,0 120.667625,24.178179,0 120.667548,24.178178,0 120.667182,24.178172,0 120.666817,24.178164,0 120.666678,24.178162,0 120.666380,24.178155,0 120.666392,24.177748,0 120.666396,24.177513,0 120.666013,24.177511,0 120.666056,24.177297,0 120.666005,24.176921,0 120.665961,24.176573,0 120.665953,24.176507,0 120.665933,24.176397,0 120.665897,24.176140,0 120.665888,24.176069,0 120.665804,24.175478,0 120.665632,24.175542,0 120.664953,24.175797,0 120.664753,24.175872,0 120.664717,24.175534,0 120.664700,24.175374,0 120.664692,24.175302,0 120.664671,24.175105,0 120.664646,24.174864,0 120.664612,24.174671,0 120.664505,24.174293,0 120.664440,24.173994,0 120.664608,24.173607,0 120.663868,24.173311,0 120.663976,24.172989,0 120.664079,24.172682,0 120.664106,24.172604,0 120.664205,24.172627,0 120.664261,24.172434,0 120.664174,24.172409,0 120.664197,24.172331,0 120.664470,24.171520,0 120.664999,24.171583,0 120.664899,24.172093,0 120.665578,24.172257,0 120.665991,24.172337,0 120.666127,24.171902,0 120.666130,24.171760,0 120.666067,24.171101,0 120.666727,24.171138,0 120.666680,24.170665,0 120.666586,24.170437,0
</coordinates></LineString></Placemark>
</Document></kml>