<?xml version="1.0" encoding="UTF-8"?>
<kml xmlns="http://www.opengis.net/kml/2.2"><Document>
<name>西屯區 手繪蹲坐貓（原稿描圖） 圖形路跑路線</name>
<Style id="r"><LineStyle><color>ff2000d6</color><width>4</width></LineStyle></Style>
<Placemark><name>青海公園</name><description>地標</description><Point><coordinates>120.653314,24.164251,0</coordinates></Point></Placemark>
<Placemark><name>重慶公園</name><description>地標</description><Point><coordinates>120.655783,24.165842,0</coordinates></Point></Placemark>
<Placemark><name>甘肅公園</name><description>地標</description><Point><coordinates>120.656895,24.168970,0</coordinates></Point></Placemark>
<Placemark><name>西屯區 手繪蹲坐貓（原稿描圖） 圖形路跑路線</name><styleUrl>#r</styleUrl><LineString><tessellate>1</tessellate><coordinates>
120.655572,24.163480,0 120.655516,24.163435,0 120.654907,24.162964,0 120.654470,24.163302,0 120.654748,24.163712,0 120.655160,24.164310,0 120.654049,24.164859,0 120.654423,24.165317,0 120.654614,24.165905,0 120.654762,24.166421,0 120.654522,24.166671,0 120.655266,24.167256,0 120.655479,24.167429,0 120.655913,24.167814,0 120.656882,24.168590,0 120.656803,24.168702,0 120.656718,24.168813,0 120.656638,24.168911,0 120.656544,24.169017,0 120.656202,24.169418,0 120.657140,24.170021,0 120.657931,24.170456,0 120.657820,24.170606,0 120.657623,24.170944,0 120.657565,24.171314,0 120.658445,24.171610,0 120.658603,24.172618,0 120.658657,24.172964,0 120.658762,24.173633,0 120.658866,24.174218,0 120.659075,24.175535,0 120.659082,24.175576,0 120.659380,24.175593,0 120.659367,24.175633,0 120.659446,24.175666,0 120.659405,24.175713,0 120.659306,24.175844,0 120.659162,24.175958,0 120.658962,24.176071,0 120.658983,24.176163,0 120.658997,24.176265,0 120.659100,24.176299,0 120.659160,24.176313,0 120.659186,24.176317,0 120.659183,24.176455,0 120.659126,24.176463,0 120.659094,24.176473,0 120.659077,24.176491,0 120.658843,24.177967,0 120.658849,24.178023,0 120.658766,24.178014,0 120.658685,24.178004,0 120.658589,24.177993,0 120.658555,24.178031,0 120.658527,24.178057,0 120.656531,24.178044,0 120.656560,24.178099,0 120.656515,24.178174,0 120.656500,24.178199,0 120.656418,24.178269,0 120.656286,24.178362,0 120.656131,24.178405,0 120.655970,24.178465,0 120.655789,24.178591,0 120.655568,24.178742,0 120.655551,24.178759,0 120.655464,24.178236,0 120.655340,24.178243,0 120.655250,24.178248,0 120.655209,24.178214,0 120.655271,24.178468,0 120.655261,24.178546,0 120.655256,24.178589,0 120.655219,24.178671,0 120.655189,24.178748,0 120.655188,24.178808,0 120.655247,24.178876,0 120.655292,24.178939,0 120.655303,24.179007,0 120.655276,24.179077,0 120.655290,24.179111,0 120.655323,24.179202,0 120.655325,24.179355,0 120.655316,24.179463,0 120.655313,24.179501,0 120.655294,24.179594,0 120.655250,24.179757,0 120.655269,24.179844,0 120.655294,24.179929,0 120.655294,24.180062,0 120.655374,24.180150,0 120.655635,24.180253,0 120.655550,24.179960,0 120.655648,24.179921,0 120.655736,24.179898,0 120.655820,24.180260,0 120.655956,24.180590,0 120.656036,24.180766,0 120.656768,24.182281,0 120.656891,24.182559,0 120.656979,24.182816,0 120.657011,24.182983,0 120.657028,24.183115,0 120.656926,24.184487,0 120.656957,24.184525,0 120.656999,24.184553,0 120.657717,24.184597,0 120.657789,24.184541,0 120.657875,24.184546,0 120.657979,24.184552,0 120.658060,24.184557,0 120.658112,24.184623,0 120.659094,24.184678,0 120.659107,24.184652,0 120.659115,24.184640,0 120.659178,24.183961,0 120.659185,24.183839,0 120.659196,24.183220,0 120.659268,24.183223,0 120.659347,24.183226,0 120.659347,24.183142,0 120.660235,24.183181,0 120.660268,24.183268,0 120.660335,24.183250,0 120.660522,24.183750,0 120.660551,24.183936,0 120.660550,24.183987,0 120.660543,24.184046,0 120.660470,24.184742,0 120.660549,24.184752,0 120.660595,24.184762,0 120.660917,24.184779,0 120.661464,24.184807,0 120.661465,24.184903,0 120.661462,24.184985,0 120.661457,24.185069,0 120.661551,24.185069,0 120.661640,24.185081,0 120.661208,24.185677,0 120.661319,24.185750,0 120.661377,24.185804,0 120.661418,24.185776,0 120.661504,24.185725,0 120.661595,24.185725,0 120.661692,24.185750,0 120.661762,24.185799,0 120.661794,24.185872,0 120.661833,24.185918,0 120.661848,24.185899,0 120.661889,24.185878,0 120.661936,24.185870,0 120.661982,24.185878,0 120.662027,24.185905,0 120.662062,24.185874,0 120.662126,24.185818,0 120.662185,24.185742,0 120.662242,24.185686,0 120.662344,24.185659,0 120.662411,24.185664,0 120.662483,24.185689,0 120.662553,24.185698,0 120.662620,24.185693,0 120.662687,24.185669,0 120.662762,24.185642,0 120.662762,24.185649,0 120.662786,24.185701,0 120.662867,24.185765,0 120.662950,24.185664,0 120.662998,24.185576,0 120.663067,24.185517,0 120.663125,24.185489,0 120.663229,24.185450,0 120.663339,24.185404,0 120.663338,24.185347,0 120.663368,24.185301,0 120.663407,24.185237,0 120.663437,24.185186,0 120.663470,24.185178,0 120.663556,24.185216,0 120.663573,24.185189,0 120.663810,24.184781,0 120.664063,24.184377,0 120.664259,24.184065,0 120.664362,24.183906,0 120.664444,24.183748,0 120.664493,24.183650,0 120.664512,24.183612,0 120.664537,24.183561,0 120.664628,24.183607,0 120.664671,24.183629,0 120.665035,24.183015,0 120.665231,24.182693,0 120.665313,24.182695,0 120.665327,24.182562,0 120.665256,24.182326,0 120.665130,24.182115,0 120.665739,24.181471,0 120.665822,24.181479,0 120.665881,24.181070,0 120.665985,24.180739,0 120.666105,24.180154,0 120.666287,24.179927,0 120.666520,24.179646,0 120.666178,24.179249,0 120.666189,24.179213,0 120.666384,24.179120,0 120.666635,24.179000,0 120.667018,24.178522,0 120.667247,24.178673,0 120.667534,24.178312,0 120.667548,24.178178,0 120.667182,24.178172,0 120.667187,24.177501,0 120.667190,24.177118,0 120.668603,24.177174,0 120.668610,24.176906,0 120.668617,24.176631,0 120.668790,24.175863,0 120.668930,24.175876,0 120.669038,24.175514,0 120.669209,24.175505,0 120.669293,24.175247,0 120.669367,24.175022,0 120.669449,24.174787,0 120.669619,24.174841,0 120.669654,24.174841,0 120.669844,24.174874,0 120.669879,24.174856,0 120.669965,24.174872,0 120.670182,24.174943,0 120.670281,24.174992,0 120.670510,24.175112,0 120.670521,24.175096,0 120.670694,24.174843,0 120.670997,24.175007,0 120.671073,24.174797,0 120.671171,24.174459,0 120.671222,24.174283,0 120.671272,24.174059,0 120.671278,24.174010,0 120.671392,24.174030,0 120.671478,24.174043,0 120.671556,24.173991,0 120.671566,24.173936,0 120.671603,24.173751,0 120.671607,24.173707,0 120.671565,24.173666,0 120.671470,24.173646,0 120.671477,24.173613,0 120.671492,24.173547,0 120.671510,24.173458,0 120.671517,24.173419,0 120.672064,24.173500,0 120.672105,24.173506,0 120.672761,24.173601,0 120.672951,24.172797,0 120.672994,24.172612,0 120.673066,24.172309,0 120.673074,24.172274,0 120.673207,24.171709,0 120.673418,24.170814,0 120.673922,24.170792,0 120.674382,24.170772,0 120.674364,24.170472,0 120.674371,24.170043,0 120.674318,24.169491,0 120.674311,24.169330,0 120.673632,24.169372,0 120.673590,24.169375,0 120.673324,24.169357,0 120.673116,24.169315,0 120.672620,24.169190,0 120.672709,24.168895,0 120.672726,24.168828,0 120.672742,24.168767,0 120.672848,24.168455,0 120.673017,24.167967,0 120.673154,24.167529,0 120.673290,24.167069,0 120.673176,24.167056,0 120.673233,24.166921,0 120.673115,24.166917,0 120.672170,24.166896,0 120.672118,24.166895,0 120.672116,24.166806,0 120.672111,24.166527,0 120.672128,24.166280,0 120.672641,24.166279,0 120.672687,24.166250,0 120.672719,24.166182,0 120.672723,24.165716,0 120.672744,24.165150,0 120.672182,24.165152,0 120.672176,24.164909,0 120.672695,24.164894,0 120.672761,24.164486,0 120.672742,24.164256,0 120.672730,24.164174,0 120.672676,24.163908,0 120.672618,24.163698,0 120.672615,24.163036,0 120.672616,24.162964,0 120.672487,24.162964,0 120.672350,24.162965,0 120.672346,24.162845,0 120.672349,24.162750,0 120.672330,24.162655,0 120.672208,24.162667,0 120.672144,24.162672,0 120.672051,24.162655,0 120.671968,24.162630,0 120.671882,24.162573,0 120.671837,24.162510,0 120.671817,24.162441,0 120.671766,24.162172,0 120.671731,24.161998,0 120.671985,24.161960,0 120.672570,24.161870,0 120.672599,24.161869,0 120.672621,24.161874,0 120.672641,24.161898,0 120.672728,24.162378,0 120.672727,24.162455,0 120.672708,24.162516,0 120.672672,24.162567,0 120.672610,24.162593,0 120.672552,24.162606,0 120.672330,24.162655,0 120.672349,24.162750,0 120.672346,24.162845,0 120.672561,24.162842,0 120.672602,24.162753,0 120.672933,24.162658,0 120.674212,24.162471,0 120.674100,24.161849,0 120.674048,24.161639,0 120.674261,24.161630,0 120.674611,24.161616,0 120.674779,24.161618,0 120.674944,24.161652,0 120.675072,24.161692,0 120.675570,24.161713,0 120.676162,24.161698,0 120.676446,24.161694,0 120.676674,24.161691,0 120.676647,24.161316,0 120.676626,24.161019,0 120.677400,24.161000,0 120.677434,24.160685,0 120.677472,24.160390,0 120.677846,24.160388,0 120.678591,24.160377,0 120.679220,24.160361,0 120.679973,24.160358,0 120.679964,24.159579,0 120.679959,24.159125,0 120.680648,24.159112,0 120.680969,24.159103,0 120.681492,24.159093,0 120.681704,24.159091,0 120.681884,24.159089,0 120.682350,24.159084,0 120.683051,24.159076,0 120.683097,24.159076,0 120.683186,24.159074,0 120.683183,24.159219,0 120.683317,24.159188,0 120.683604,24.159179,0 120.683605,24.159066,0 120.683605,24.158987,0 120.683675,24.158987,0 120.683673,24.158642,0 120.683672,24.158625,0 120.683671,24.158421,0 120.683798,24.158374,0 120.683868,24.158309,0 120.684098,24.158068,0 120.684200,24.158012,0 120.684321,24.157969,0 120.684374,24.157906,0 120.684409,24.157643,0 120.683738,24.157649,0 120.683735,24.157442,0 120.683733,24.157300,0 120.683556,24.157233,0 120.682924,24.156993,0 120.683262,24.156255,0 120.683210,24.156236,0 120.683174,24.156270,0 120.683037,24.156204,0 120.682929,24.156153,0 120.682874,24.156220,0 120.682764,24.156270,0 120.682755,24.156356,0 120.682702,24.156523,0 120.682680,24.156630,0 120.682619,24.156750,0 120.682530,24.156828,0 120.682485,24.156900,0 120.681958,24.156709,0 120.681890,24.156685,0 120.681460,24.156525,0 120.681363,24.156488,0 120.681349,24.156548,0 120.681441,24.156846,0 120.681349,24.157269,0 120.681343,24.157323,0 120.681288,24.157341,0 120.681277,24.157406,0 120.681270,24.157482,0 120.681207,24.157689,0 120.681084,24.157668,0 120.681023,24.157927,0 120.680359,24.157922,0 120.680098,24.157796,0 120.679957,24.157775,0 120.679959,24.157511,0 120.679015,24.157509,0 120.678987,24.157509,0 120.678991,24.157575,0 120.678958,24.157595,0 120.678890,24.157592,0 120.678885,24.157636,0 120.678851,24.157871,0 120.678286,24.157872,0 120.677726,24.157872,0 120.677700,24.158209,0 120.676982,24.158227,0 120.676896,24.158230,0 120.676630,24.158233,0 120.676370,24.158240,0 120.676394,24.158410,0 120.676326,24.158467,0 120.676287,24.158417,0 120.676171,24.158245,0 120.676057,24.158255,0 120.675931,24.158267,0 120.675434,24.158317,0 120.674771,24.158369,0 120.674575,24.158382,0 120.673647,24.158451,0 120.673646,24.158610,0 120.673644,24.158817,0 120.673641,24.159204,0 120.673170,24.159208,0 120.672164,24.159204,0 120.672083,24.159205,0 120.672020,24.159205,0 120.671383,24.159206,0 120.671053,24.159207,0 120.670947,24.159202,0 120.670634,24.159201,0 120.670634,24.159122,0 120.670509,24.159123,0 120.670365,24.159123,0 120.670366,24.159201,0 120.670098,24.159201,0 120.669817,24.159209,0 120.669817,24.159704,0 120.669817,24.159935,0 120.669816,24.160432,0 120.669203,24.160433,0 120.668658,24.160425,0 120.668063,24.160429,0 120.667979,24.160426,0 120.667472,24.160429,0 120.666758,24.160431,0 120.666601,24.161008,0 120.666437,24.161594,0 120.666254,24.161593,0 120.665269,24.161591,0 120.665108,24.161493,0 120.664736,24.161266,0 120.664525,24.161551,0 120.664451,24.161651,0 120.663889,24.161309,0 120.663407,24.161006,0 120.663106,24.161397,0 120.663017,24.161490,0 120.662968,24.161460,0 120.662751,24.161315,0 120.662732,24.161302,0 120.662446,24.161687,0 120.662242,24.161956,0 120.662009,24.162265,0 120.661269,24.161791,0 120.661215,24.161717,0 120.660788,24.161957,0 120.660433,24.162152,0 120.659920,24.162421,0 120.660053,24.162614,0 120.660087,24.162706,0 120.660025,24.162828,0 120.659671,24.163406,0 120.659118,24.163153,0 120.658841,24.163638,0 120.658613,24.163551,0 120.658492,24.163953,0 120.658569,24.164123,0 120.658651,24.164304,0 120.658822,24.164683,0 120.658313,24.164834,0 120.658221,24.164774,0 120.657969,24.164278,0 120.657238,24.164561,0 120.656947,24.164082,0 120.656617,24.163580,0 120.656514,24.163630,0 120.656045,24.163350,0 120.655799,24.163182,0 120.655516,24.163435,0 120.655572,24.163480,0
</coordinates></LineString></Placemark>
</Document></kml>