<?xml version="1.0" encoding="UTF-8"?>
<kml xmlns="http://www.opengis.net/kml/2.2"><Document>
<name>西屯區 蹲坐貓咪（側面） 圖形路跑路線</name>
<Style id="r"><LineStyle><color>ff2000d6</color><width>4</width></LineStyle></Style>
<Placemark><name>洛陽公園</name><description>地標</description><Point><coordinates>120.651073,24.168049,0</coordinates></Point></Placemark>
<Placemark><name>櫻花棒球場(西苑高中棒球練習場)</name><description>地標</description><Point><coordinates>120.651972,24.168709,0</coordinates></Point></Placemark>
<Placemark><name>福星公園</name><description>地標</description><Point><coordinates>120.648968,24.172227,0</coordinates></Point></Placemark>
<Placemark><name>西屯區 蹲坐貓咪（側面） 圖形路跑路線</name><styleUrl>#r</styleUrl><LineString><tessellate>1</tessellate><coordinates>
120.653040,24.165365,0 120.652926,24.165420,0 120.653276,24.166025,0 120.653390,24.166260,0 120.652598,24.166506,0 120.652427,24.166552,0 120.651741,24.166742,0 120.652299,24.167226,0 120.651963,24.167557,0 120.651456,24.168065,0 120.650336,24.169186,0 120.651005,24.169543,0 120.650778,24.169684,0 120.651555,24.170380,0 120.651340,24.170590,0 120.651596,24.170890,0 120.651773,24.171103,0 120.651952,24.171435,0 120.651997,24.171518,0 120.651978,24.171591,0 120.651632,24.171827,0 120.651098,24.172183,0 120.650581,24.172553,0 120.650974,24.173182,0 120.650802,24.173421,0 120.651244,24.173770,0 120.651638,24.173994,0 120.652182,24.174298,0 120.652178,24.174797,0 120.651631,24.174807,0 120.651657,24.175435,0 120.651667,24.175925,0 120.651671,24.176078,0 120.651576,24.176059,0 120.651560,24.176150,0 120.651554,24.176183,0 120.651703,24.176210,0 120.651753,24.176264,0 120.651774,24.176305,0 120.651773,24.176366,0 120.651762,24.177043,0 120.651735,24.177080,0 120.651722,24.177088,0 120.651705,24.177099,0 120.651640,24.177110,0 120.650481,24.177078,0 120.650480,24.177120,0 120.650480,24.177159,0 120.650455,24.177180,0 120.650445,24.177998,0 120.650461,24.178054,0 120.651732,24.178060,0 120.651748,24.178040,0 120.651762,24.178022,0 120.651844,24.178017,0 120.651953,24.178012,0 120.652014,24.178013,0 120.652021,24.177261,0 120.652021,24.177152,0 120.652078,24.177152,0 120.653705,24.177172,0 120.653753,24.177172,0 120.653783,24.177163,0 120.653810,24.177146,0 120.653830,24.177129,0 120.653841,24.177108,0 120.653841,24.177079,0 120.653866,24.176314,0 120.653868,24.176285,0 120.653916,24.176287,0 120.653918,24.176258,0 120.653921,24.176201,0 120.653922,24.176111,0 120.653923,24.176032,0 120.654032,24.176031,0 120.654031,24.175953,0 120.653915,24.175808,0 120.653950,24.175785,0 120.654007,24.175783,0 120.654063,24.175795,0 120.654127,24.175822,0 120.654190,24.175863,0 120.654253,24.175917,0 120.654290,24.175942,0 120.654309,24.175964,0 120.654321,24.175992,0 120.654324,24.176012,0 120.654336,24.176028,0 120.654353,24.176043,0 120.654376,24.176011,0 120.654413,24.175978,0 120.654465,24.175949,0 120.654530,24.175938,0 120.654613,24.175934,0 120.654838,24.175937,0 120.654884,24.175947,0 120.654940,24.175971,0 120.654978,24.175997,0 120.655007,24.176037,0 120.655006,24.176104,0 120.655002,24.176198,0 120.654998,24.176325,0 120.655017,24.176356,0 120.655025,24.176390,0 120.655122,24.176379,0 120.655222,24.176370,0 120.655255,24.176592,0 120.655438,24.178024,0 120.655479,24.178056,0 120.655493,24.178126,0 120.655506,24.178187,0 120.655464,24.178236,0 120.655340,24.178243,0 120.655250,24.178248,0 120.655209,24.178214,0 120.655271,24.178468,0 120.655261,24.178546,0 120.655256,24.178589,0 120.655219,24.178671,0 120.655189,24.178748,0 120.655188,24.178808,0 120.655247,24.178876,0 120.655292,24.178939,0 120.655303,24.179007,0 120.655276,24.179077,0 120.655290,24.179111,0 120.655323,24.179202,0 120.655325,24.179355,0 120.655316,24.179463,0 120.655313,24.179501,0 120.655294,24.179594,0 120.655250,24.179757,0 120.655269,24.179844,0 120.655294,24.179929,0 120.655294,24.180062,0 120.655550,24.179960,0 120.655648,24.179921,0 120.655736,24.179898,0 120.655801,24.179881,0 120.655935,24.179903,0 120.656123,24.179783,0 120.656321,24.179634,0 120.656394,24.179507,0 120.656378,24.179350,0 120.656233,24.179133,0 120.656177,24.179020,0 120.656190,24.178903,0 120.656337,24.178717,0 120.656501,24.178555,0 120.656551,24.178171,0 120.658521,24.178174,0 120.658556,24.178200,0 120.658553,24.178216,0 120.658654,24.178213,0 120.658737,24.178210,0 120.658818,24.178207,0 120.658839,24.178190,0 120.658864,24.178169,0 120.658886,24.178099,0 120.658902,24.178048,0 120.660419,24.178043,0 120.660464,24.178003,0 120.660457,24.177533,0 120.660512,24.177536,0 120.660554,24.177538,0 120.660580,24.177505,0 120.660581,24.177425,0 120.660582,24.177363,0 120.660567,24.176471,0 120.660503,24.176472,0 120.660502,24.176324,0 120.661275,24.176320,0 120.661535,24.176319,0 120.661690,24.176318,0 120.661950,24.176315,0 120.662012,24.176314,0 120.662070,24.176314,0 120.662533,24.176309,0 120.662737,24.176306,0 120.662981,24.176304,0 120.663014,24.176303,0 120.663090,24.176303,0 120.663183,24.176302,0 120.663274,24.176301,0 120.663317,24.176300,0 120.663456,24.176299,0 120.663488,24.176298,0 120.663585,24.176297,0 120.663753,24.176293,0 120.664038,24.176292,0 120.664080,24.176292,0 120.664122,24.176292,0 120.664194,24.176299,0 120.664266,24.176315,0 120.664354,24.176348,0 120.664460,24.176244,0 120.664608,24.176140,0 120.664791,24.176014,0 120.665037,24.176230,0 120.665165,24.176487,0 120.665283,24.176441,0 120.665490,24.176427,0 120.665933,24.176397,0 120.665953,24.176507,0 120.666649,24.176395,0 120.667019,24.176357,0 120.666919,24.175695,0 120.667499,24.175556,0 120.667575,24.175822,0 120.668192,24.175672,0 120.668447,24.175612,0 120.668592,24.175702,0 120.668654,24.175746,0 120.668683,24.175776,0 120.668790,24.175863,0 120.668930,24.175876,0 120.669056,24.175917,0 120.669422,24.176150,0 120.669899,24.176516,0 120.669934,24.176471,0 120.670023,24.176578,0 120.670134,24.176410,0 120.670226,24.176285,0 120.670500,24.175893,0 120.670667,24.175675,0 120.670841,24.175434,0 120.670956,24.175493,0 120.671001,24.175544,0 120.671122,24.175681,0 120.671154,24.175723,0 120.671395,24.175781,0 120.671590,24.175315,0 120.671856,24.175445,0 120.672091,24.175579,0 120.672555,24.174818,0 120.672667,24.174723,0 120.672485,24.174691,0 120.672577,24.174163,0 120.673020,24.174227,0 120.673169,24.174224,0 120.673413,24.174214,0 120.673780,24.174163,0 120.673849,24.174157,0 120.673841,24.174071,0 120.673899,24.173848,0 120.673915,24.173752,0 120.673988,24.173771,0 120.674074,24.173778,0 120.675024,24.173555,0 120.675074,24.173545,0 120.675122,24.173534,0 120.675971,24.173378,0 120.676030,24.173339,0 120.676050,24.173433,0 120.676079,24.173599,0 120.676157,24.173583,0 120.676175,24.173682,0 120.676226,24.173977,0 120.676829,24.173886,0 120.676856,24.173882,0 120.677233,24.173826,0 120.677318,24.174299,0 120.677390,24.174291,0 120.678234,24.174191,0 120.678301,24.174185,0 120.678377,24.174174,0 120.678881,24.174113,0 120.678961,24.174103,0 120.679011,24.174098,0 120.679254,24.174074,0 120.679520,24.174048,0 120.679577,24.174042,0 120.679646,24.174034,0 120.679848,24.174010,0 120.679869,24.174094,0 120.679931,24.174342,0 120.679985,24.174541,0 120.680056,24.174807,0 120.680198,24.175104,0 120.680226,24.175153,0 120.680327,24.175316,0 120.680517,24.175535,0 120.680706,24.175718,0 120.680747,24.175750,0 120.680803,24.175702,0 120.680866,24.175760,0 120.680913,24.175803,0 120.680864,24.175846,0 120.680815,24.175802,0 120.680747,24.175750,0 120.680706,24.175718,0 120.680517,24.175535,0 120.680327,24.175316,0 120.680226,24.175153,0 120.680198,24.175104,0 120.680287,24.175091,0 120.680352,24.175212,0 120.680206,24.175209,0 120.680017,24.175221,0 120.679992,24.175172,0 120.679974,24.175135,0 120.679931,24.175075,0 120.679868,24.175089,0 120.679791,24.174867,0 120.679747,24.174735,0 120.679729,24.174642,0 120.679723,24.174583,0 120.679600,24.174125,0 120.679577,24.174042,0 120.679569,24.173996,0 120.679479,24.173510,0 120.679422,24.173137,0 120.679409,24.173052,0 120.679391,24.172873,0 120.679380,24.172769,0 120.679330,24.172248,0 120.679316,24.172166,0 120.679229,24.172176,0 120.679218,24.172100,0 120.678502,24.172182,0 120.677812,24.172249,0 120.677694,24.171332,0 120.678208,24.171302,0 120.678205,24.171237,0 120.678279,24.171234,0 120.678120,24.170548,0 120.677972,24.169947,0 120.678009,24.169939,0 120.678034,24.169911,0 120.678033,24.169865,0 120.678012,24.169805,0 120.677934,24.169794,0 120.677790,24.169197,0 120.677724,24.168924,0 120.677647,24.168602,0 120.678164,24.168591,0 120.678457,24.168610,0 120.678529,24.168615,0 120.678606,24.168606,0 120.678784,24.168592,0 120.678863,24.168582,0 120.678761,24.168346,0 120.678601,24.167963,0 120.678468,24.167544,0 120.679347,24.167417,0 120.679345,24.167207,0 120.679346,24.167103,0 120.679316,24.166283,0 120.679316,24.166210,0 120.679292,24.165473,0 120.679323,24.165471,0 120.679324,24.165428,0 120.680412,24.165392,0 120.680406,24.165341,0 120.680491,24.165340,0 120.680459,24.165113,0 120.681746,24.165091,0 120.681716,24.164819,0 120.681684,24.164512,0 120.681674,24.164457,0 120.681672,24.163935,0 120.681495,24.163941,0 120.681479,24.163627,0 120.681410,24.163539,0 120.681393,24.163507,0 120.681358,24.163351,0 120.681358,24.163159,0 120.681130,24.163163,0 120.681130,24.163059,0 120.681130,24.162995,0 120.681104,24.162982,0 120.681092,24.162957,0 120.680980,24.162961,0 120.680976,24.162522,0 120.680975,24.162463,0 120.680910,24.162481,0 120.680743,24.162505,0 120.679977,24.162546,0 120.679978,24.161640,0 120.679423,24.161652,0 120.679226,24.161657,0 120.678461,24.161664,0 120.678510,24.161225,0 120.678537,24.160939,0 120.678591,24.160377,0 120.677846,24.160388,0 120.677472,24.160390,0 120.676600,24.160407,0 120.676341,24.160411,0 120.676299,24.159896,0 120.676251,24.159194,0 120.676005,24.159196,0 120.675887,24.159197,0 120.675743,24.159198,0 120.675579,24.159195,0 120.675434,24.159197,0 120.675434,24.159114,0 120.675434,24.158317,0 120.674771,24.158369,0 120.674575,24.158382,0 120.673647,24.158451,0 120.673639,24.157940,0 120.673632,24.157501,0 120.673633,24.157446,0 120.672082,24.157449,0 120.672082,24.157299,0 120.672082,24.157227,0 120.671271,24.157225,0 120.671272,24.156548,0 120.671394,24.156546,0 120.671079,24.156194,0 120.670734,24.155805,0 120.670696,24.155773,0 120.670683,24.155725,0 120.670620,24.155723,0 120.670615,24.155621,0 120.670502,24.155623,0 120.670392,24.155622,0 120.670381,24.155630,0 120.670384,24.155726,0 120.669947,24.155724,0 120.669695,24.155723,0 120.669667,24.155719,0 120.669626,24.155709,0 120.669560,24.155686,0 120.669364,24.155863,0 120.668991,24.155846,0 120.668799,24.155740,0 120.668775,24.155793,0 120.668680,24.155926,0 120.668366,24.155726,0 120.667677,24.155910,0 120.667587,24.155807,0 120.667122,24.155348,0 120.667191,24.155292,0 120.667070,24.155186,0 120.667034,24.155154,0 120.666986,24.155203,0 120.666917,24.155273,0 120.666968,24.155331,0 120.666671,24.155544,0 120.666278,24.155844,0 120.666205,24.155894,0 120.666155,24.155837,0 120.666096,24.155883,0 120.666062,24.155867,0 120.664410,24.154876,0 120.664377,24.154860,0 120.664357,24.154767,0 120.664327,24.154713,0 120.664067,24.154849,0 120.664135,24.154914,0 120.664075,24.154943,0 120.663994,24.154993,0 120.664165,24.155251,0 120.664340,24.155521,0 120.664544,24.155817,0 120.663683,24.156270,0 120.663191,24.156559,0 120.662366,24.157000,0 120.661998,24.157203,0 120.661572,24.157441,0 120.661542,24.157457,0 120.661254,24.157612,0 120.661221,24.157628,0 120.661572,24.158154,0 120.661767,24.158446,0 120.661901,24.158646,0 120.661549,24.158853,0 120.661402,24.158936,0 120.661062,24.159126,0 120.660977,24.159164,0 120.660604,24.159371,0 120.660248,24.159564,0 120.659923,24.159749,0 120.659567,24.159940,0 120.659500,24.159976,0 120.659142,24.160177,0 120.658782,24.160379,0 120.658643,24.160461,0 120.658092,24.160795,0 120.657782,24.160340,0 120.657189,24.160674,0 120.656643,24.160991,0 120.656799,24.161489,0 120.656814,24.161538,0 120.656832,24.161593,0 120.656760,24.161617,0 120.656729,24.161609,0 120.656717,24.161570,0 120.656633,24.161618,0 120.656310,24.161801,0 120.655664,24.162162,0 120.655475,24.162275,0 120.655391,24.162324,0 120.655153,24.162466,0 120.655250,24.162667,0 120.655535,24.162939,0 120.655799,24.163182,0 120.656045,24.163350,0 120.656514,24.163630,0 120.655850,24.163979,0 120.655160,24.164310,0 120.654049,24.164859,0 120.653541,24.165120,0 120.653040,24.165365,0
</coordinates></LineString></Placemark>
</Document></kml>