<?xml version="1.0" encoding="UTF-8"?>
<kml xmlns="http://www.opengis.net/kml/2.2"><Document>
<name>西屯區 貓臉（正面） 圖形路跑路線</name>
<Style id="r"><LineStyle><color>ff2000d6</color><width>4</width></LineStyle></Style>
<Placemark><name>太原公園</name><description>地標</description><Point><coordinates>120.670244,24.165561,0</coordinates></Point></Placemark>
<Placemark><name>尚德公園</name><description>地標</description><Point><coordinates>120.677372,24.158618,0</coordinates></Point></Placemark>
<Placemark><name>育德園道</name><description>地標</description><Point><coordinates>120.676076,24.157367,0</coordinates></Point></Placemark>
<Placemark><name>西屯區 貓臉（正面） 圖形路跑路線</name><styleUrl>#r</styleUrl><LineString><tessellate>1</tessellate><coordinates>
120.670550,24.165766,0 120.670557,24.165602,0 120.671347,24.165593,0 120.671340,24.165885,0 120.671790,24.165883,0 120.672132,24.165874,0 120.672128,24.166280,0 120.672641,24.166279,0 120.672640,24.166385,0 120.672661,24.166432,0 120.672739,24.166429,0 120.673446,24.166248,0 120.673357,24.166486,0 120.673269,24.166795,0 120.673373,24.166808,0 120.673346,24.166926,0 120.673495,24.166934,0 120.673581,24.166939,0 120.674439,24.166948,0 120.674451,24.166948,0 120.675176,24.166968,0 120.675304,24.166177,0 120.675417,24.165463,0 120.675551,24.165198,0 120.675267,24.165144,0 120.674629,24.164980,0 120.674757,24.164552,0 120.674932,24.164039,0 120.675040,24.163692,0 120.675230,24.163139,0 120.675069,24.163106,0 120.674747,24.163024,0 120.674786,24.162908,0 120.674834,24.162923,0 120.675099,24.163001,0 120.675042,24.162948,0 120.674988,24.162891,0 120.674940,24.162830,0 120.674897,24.162767,0 120.674856,24.162694,0 120.674822,24.162618,0 120.674795,24.162540,0 120.674868,24.162319,0 120.675072,24.161692,0 120.675570,24.161713,0 120.675793,24.161489,0 120.675878,24.161385,0 120.675919,24.161257,0 120.675947,24.161085,0 120.675985,24.160414,0 120.676341,24.160411,0 120.676299,24.159896,0 120.676251,24.159194,0 120.676005,24.159196,0 120.675887,24.159197,0 120.675927,24.159072,0 120.676049,24.158673,0 120.676123,24.158414,0 120.676086,24.158377,0 120.676012,24.158392,0 120.675904,24.158415,0 120.675931,24.158267,0 120.675937,24.158239,0 120.675942,24.158183,0 120.675895,24.158066,0 120.675971,24.158013,0 120.675790,24.157505,0 120.675787,24.157418,0 120.675780,24.157233,0 120.675439,24.157233,0 120.675440,24.156969,0 120.675431,24.156743,0 120.675319,24.156358,0 120.675199,24.156353,0 120.674845,24.156355,0 120.674410,24.156358,0 120.673779,24.156360,0 120.673636,24.156263,0 120.673644,24.155997,0 120.673644,24.155841,0 120.673716,24.155841,0 120.673716,24.155725,0 120.673716,24.155626,0 120.673644,24.155626,0 120.673644,24.155403,0 120.673639,24.155090,0 120.673641,24.154656,0 120.673643,24.154182,0 120.673374,24.154168,0 120.673269,24.154138,0 120.673203,24.154094,0 120.673151,24.154046,0 120.673085,24.153974,0 120.673027,24.153785,0 120.672566,24.153785,0 120.672067,24.153787,0 120.671782,24.153787,0 120.670668,24.153790,0 120.670615,24.153802,0 120.670501,24.153824,0 120.670419,24.153848,0 120.670228,24.153788,0 120.670185,24.153850,0 120.669850,24.153801,0 120.669447,24.153705,0 120.669041,24.153662,0 120.668937,24.153568,0 120.668865,24.153630,0 120.668567,24.153638,0 120.668169,24.153260,0 120.667990,24.153426,0 120.667775,24.153613,0 120.667684,24.153692,0 120.667641,24.153728,0 120.667593,24.153682,0 120.667518,24.153748,0 120.667475,24.153707,0 120.667460,24.153690,0 120.667362,24.153595,0 120.667171,24.153406,0 120.667050,24.153287,0 120.667001,24.153317,0 120.666936,24.153252,0 120.666867,24.153295,0 120.666845,24.153275,0 120.666658,24.153393,0 120.666239,24.153656,0 120.665715,24.153939,0 120.665634,24.153876,0 120.665559,24.153817,0 120.665485,24.153745,0 120.664232,24.154441,0 120.664173,24.154474,0 120.664222,24.154551,0 120.664260,24.154610,0 120.663980,24.154768,0 120.663925,24.154715,0 120.663833,24.154764,0 120.663781,24.154794,0 120.662672,24.155435,0 120.662705,24.155486,0 120.662732,24.155527,0 120.662792,24.155572,0 120.662618,24.155668,0 120.662929,24.156144,0 120.663191,24.156559,0 120.662366,24.157000,0 120.661998,24.157203,0 120.661572,24.157441,0 120.661542,24.157457,0 120.661254,24.157612,0 120.661221,24.157628,0 120.661572,24.158154,0 120.661193,24.158346,0 120.661395,24.158651,0 120.660923,24.158911,0 120.661062,24.159126,0 120.660977,24.159164,0 120.660604,24.159371,0 120.660248,24.159564,0 120.660948,24.160603,0 120.660616,24.160785,0 120.660812,24.161090,0 120.660959,24.161320,0 120.661079,24.161506,0 120.661215,24.161717,0 120.661269,24.161791,0 120.662009,24.162265,0 120.661823,24.162510,0 120.661794,24.162548,0 120.661527,24.162902,0 120.661235,24.163372,0 120.661338,24.163454,0 120.661507,24.163890,0 120.661364,24.163933,0 120.661489,24.164352,0 120.661792,24.164494,0 120.661490,24.165003,0 120.662104,24.165306,0 120.662216,24.165362,0 120.662436,24.164826,0 120.662983,24.165108,0 120.663484,24.165357,0 120.663997,24.165616,0 120.664262,24.165746,0 120.664553,24.165891,0 120.664615,24.165919,0 120.664663,24.165906,0 120.664885,24.165825,0 120.665247,24.166538,0 120.665369,24.166811,0 120.665462,24.166807,0 120.665614,24.166801,0 120.665779,24.166798,0 120.665996,24.167439,0 120.666054,24.167624,0 120.666190,24.168015,0 120.666320,24.168396,0 120.666417,24.168746,0 120.667242,24.168748,0 120.667761,24.168745,0 120.667753,24.168011,0 120.668317,24.168018,0 120.668318,24.167413,0 120.668323,24.166808,0 120.669226,24.166828,0 120.669216,24.166271,0 120.669433,24.166270,0 120.670548,24.166278,0 120.670550,24.165766,0
</coordinates></LineString></Placemark>
</Document></kml>