<?xml version="1.0" encoding="UTF-8"?>
<kml xmlns="http://www.opengis.net/kml/2.2"><Document>
<name>西屯區 蹲坐貓咪（側面） 圖形路跑路線</name>
<Style id="r"><LineStyle><color>ff2000d6</color><width>4</width></LineStyle></Style>
<Placemark><name>清平公園</name><description>地標</description><Point><coordinates>120.670114,24.178280,0</coordinates></Point></Placemark>
<Placemark><name>瀋陽公園</name><description>地標</description><Point><coordinates>120.672353,24.176750,0</coordinates></Point></Placemark>
<Placemark><name>山西公園</name><description>地標</description><Point><coordinates>120.676066,24.170910,0</coordinates></Point></Placemark>
<Placemark><name>西屯區 蹲坐貓咪（側面） 圖形路跑路線</name><styleUrl>#r</styleUrl><LineString><tessellate>1</tessellate><coordinates>
120.661836,24.175718,0 120.661869,24.175888,0 120.661879,24.175938,0 120.661904,24.176074,0 120.661950,24.176315,0 120.662012,24.176314,0 120.662070,24.176314,0 120.662533,24.176309,0 120.662737,24.176306,0 120.662981,24.176304,0 120.663014,24.176303,0 120.663090,24.176303,0 120.663087,24.176417,0 120.663080,24.176441,0 120.663072,24.176775,0 120.663070,24.176880,0 120.663067,24.176994,0 120.663058,24.177405,0 120.663014,24.177438,0 120.663013,24.177469,0 120.663010,24.177543,0 120.663043,24.177570,0 120.663036,24.177992,0 120.663023,24.178011,0 120.662997,24.178026,0 120.662998,24.178096,0 120.662998,24.178176,0 120.663019,24.178176,0 120.663038,24.178198,0 120.663130,24.178199,0 120.663238,24.178201,0 120.663215,24.178239,0 120.663196,24.178845,0 120.663206,24.178874,0 120.663202,24.178920,0 120.663824,24.178926,0 120.663826,24.178981,0 120.663886,24.178982,0 120.663961,24.178983,0 120.663961,24.178927,0 120.664509,24.178933,0 120.664645,24.178934,0 120.665233,24.178832,0 120.665325,24.179028,0 120.665407,24.179202,0 120.664981,24.179373,0 120.664913,24.179755,0 120.664922,24.179946,0 120.665140,24.180069,0 120.665018,24.180254,0 120.665125,24.180308,0 120.665305,24.180398,0 120.665405,24.180449,0 120.665323,24.180590,0 120.665341,24.180923,0 120.665087,24.180940,0 120.665129,24.181376,0 120.665145,24.181380,0 120.665429,24.181446,0 120.665466,24.181442,0 120.665739,24.181471,0 120.665822,24.181479,0 120.665881,24.181070,0 120.665985,24.180739,0 120.666105,24.180154,0 120.666287,24.179927,0 120.666520,24.179646,0 120.666859,24.180020,0 120.667052,24.180196,0 120.667294,24.179888,0 120.667454,24.179666,0 120.667535,24.179750,0 120.667867,24.180093,0 120.668092,24.180325,0 120.668224,24.180504,0 120.668396,24.180744,0 120.668444,24.180681,0 120.668947,24.180031,0 120.668853,24.179968,0 120.668722,24.179880,0 120.668525,24.179755,0 120.668495,24.179728,0 120.668739,24.179420,0 120.668863,24.179377,0 120.669138,24.179010,0 120.669434,24.178616,0 120.669357,24.178566,0 120.669192,24.178458,0 120.669094,24.178393,0 120.669314,24.178115,0 120.669435,24.178067,0 120.669587,24.177883,0 120.669521,24.177830,0 120.669637,24.177655,0 120.669785,24.177494,0 120.669499,24.177274,0 120.669809,24.176879,0 120.669968,24.176658,0 120.669997,24.176618,0 120.670023,24.176578,0 120.670134,24.176410,0 120.670226,24.176285,0 120.670633,24.176582,0 120.670799,24.176392,0 120.671026,24.176573,0 120.671042,24.176586,0 120.671166,24.176472,0 120.671262,24.176376,0 120.671309,24.176304,0 120.671430,24.176187,0 120.671266,24.175997,0 120.671312,24.175954,0 120.671550,24.175730,0 120.671856,24.175445,0 120.672091,24.175579,0 120.672555,24.174818,0 120.672667,24.174723,0 120.672485,24.174691,0 120.672577,24.174163,0 120.673020,24.174227,0 120.673169,24.174224,0 120.673413,24.174214,0 120.673780,24.174163,0 120.673768,24.174079,0 120.673739,24.173874,0 120.673731,24.173821,0 120.673750,24.173801,0 120.673767,24.173772,0 120.673788,24.173752,0 120.673848,24.173744,0 120.673915,24.173752,0 120.674074,24.173017,0 120.674008,24.173005,0 120.674021,24.172945,0 120.673400,24.172860,0 120.672951,24.172797,0 120.672994,24.172612,0 120.673066,24.172309,0 120.673074,24.172274,0 120.673207,24.171709,0 120.673912,24.171612,0 120.673945,24.171606,0 120.674414,24.171553,0 120.675174,24.171493,0 120.675818,24.171457,0 120.675902,24.171453,0 120.675989,24.171446,0 120.675983,24.171380,0 120.675894,24.171387,0 120.675815,24.170708,0 120.675123,24.170739,0 120.674382,24.170772,0 120.674364,24.170472,0 120.674371,24.170043,0 120.674318,24.169491,0 120.674311,24.169330,0 120.673632,24.169372,0 120.673590,24.169375,0 120.673324,24.169357,0 120.673116,24.169315,0 120.672620,24.169190,0 120.672709,24.168895,0 120.672726,24.168828,0 120.672742,24.168767,0 120.672848,24.168455,0 120.673017,24.167967,0 120.673154,24.167529,0 120.673290,24.167069,0 120.673176,24.167056,0 120.673233,24.166921,0 120.673115,24.166917,0 120.672170,24.166896,0 120.672118,24.166895,0 120.672116,24.166806,0 120.672111,24.166527,0 120.672128,24.166280,0 120.671339,24.166276,0 120.670548,24.166278,0 120.669433,24.166270,0 120.669216,24.166271,0 120.669219,24.166080,0 120.668323,24.166104,0 120.667561,24.166121,0 120.666812,24.166148,0 120.666462,24.166159,0 120.666597,24.166810,0 120.665779,24.166798,0 120.665614,24.166801,0 120.665462,24.166807,0 120.665369,24.166811,0 120.665079,24.166828,0 120.664525,24.166540,0 120.664006,24.166288,0 120.663655,24.166905,0 120.663570,24.167067,0 120.663294,24.167600,0 120.662953,24.167428,0 120.662650,24.167271,0 120.662541,24.167451,0 120.662368,24.167736,0 120.662515,24.167812,0 120.662669,24.167890,0 120.663028,24.168084,0 120.662735,24.168602,0 120.662485,24.169081,0 120.662879,24.169267,0 120.663150,24.169394,0 120.663346,24.169487,0 120.663512,24.169563,0 120.663376,24.169857,0 120.663274,24.170077,0 120.663060,24.170540,0 120.662540,24.170363,0 120.661953,24.170118,0 120.661213,24.171455,0 120.661272,24.171471,0 120.661249,24.171522,0 120.661208,24.171642,0 120.661213,24.171755,0 120.662698,24.172212,0 120.662425,24.172879,0 120.662109,24.172784,0 120.662088,24.173022,0 120.662201,24.173672,0 120.662226,24.173841,0 120.662285,24.174172,0 120.662306,24.174292,0 120.662374,24.174666,0 120.663324,24.174864,0 120.663341,24.175066,0 120.662704,24.174921,0 120.662165,24.174908,0 120.662200,24.175130,0 120.662255,24.175494,0 120.662354,24.175659,0 120.662490,24.175884,0 120.662646,24.176109,0 120.662737,24.176306,0 120.662533,24.176309,0 120.662070,24.176314,0 120.662012,24.176314,0 120.661950,24.176315,0 120.661904,24.176074,0 120.661879,24.175938,0 120.661869,24.175888,0 120.661836,24.175718,0
</coordinates></LineString></Placemark>
</Document></kml>