<?xml version="1.0" encoding="UTF-8"?>
<kml xmlns="http://www.opengis.net/kml/2.2"><Document>
<name>西屯區 蜷睡貓咪 圖形路跑路線</name>
<Style id="r"><LineStyle><color>ff2000d6</color><width>4</width></LineStyle></Style>
<Placemark><name>大鵬公園</name><description>地標</description><Point><coordinates>120.662947,24.173827,0</coordinates></Point></Placemark>
<Placemark><name>清平公園</name><description>地標</description><Point><coordinates>120.670114,24.178280,0</coordinates></Point></Placemark>
<Placemark><name>瀋陽公園</name><description>地標</description><Point><coordinates>120.672353,24.176750,0</coordinates></Point></Placemark>
<Placemark><name>西屯區 蜷睡貓咪 圖形路跑路線</name><styleUrl>#r</styleUrl><LineString><tessellate>1</tessellate><coordinates>
120.662658,24.173610,0 120.663115,24.173552,0 120.663206,24.173871,0 120.663238,24.174071,0 120.663250,24.174285,0 120.663255,24.174367,0 120.663299,24.174473,0 120.663320,24.174798,0 120.663324,24.174864,0 120.663341,24.175066,0 120.662704,24.174921,0 120.662165,24.174908,0 120.662200,24.175130,0 120.662255,24.175494,0 120.662354,24.175659,0 120.662490,24.175884,0 120.662646,24.176109,0 120.662737,24.176306,0 120.662981,24.176304,0 120.663014,24.176303,0 120.663090,24.176303,0 120.663087,24.176417,0 120.663080,24.176441,0 120.663072,24.176775,0 120.663070,24.176880,0 120.663167,24.176879,0 120.663262,24.176877,0 120.663262,24.176921,0 120.663262,24.176993,0 120.663262,24.177406,0 120.663264,24.177427,0 120.663262,24.177476,0 120.663260,24.177553,0 120.663227,24.177567,0 120.663231,24.177990,0 120.663231,24.178000,0 120.663241,24.178014,0 120.664508,24.178042,0 120.664554,24.178008,0 120.664650,24.178008,0 120.664768,24.178008,0 120.664765,24.178033,0 120.664783,24.178044,0 120.665925,24.178067,0 120.665992,24.178069,0 120.666048,24.178070,0 120.666043,24.178149,0 120.666167,24.178151,0 120.666179,24.178385,0 120.666202,24.178487,0 120.666241,24.178573,0 120.666454,24.178804,0 120.666635,24.179000,0 120.666736,24.179066,0 120.666798,24.179109,0 120.666858,24.179163,0 120.666996,24.179288,0 120.667173,24.179432,0 120.667596,24.178897,0 120.667400,24.178770,0 120.667247,24.178673,0 120.667534,24.178312,0 120.667548,24.178178,0 120.667625,24.178179,0 120.667706,24.178181,0 120.667900,24.178184,0 120.668080,24.178187,0 120.668468,24.178193,0 120.668495,24.178194,0 120.668588,24.178196,0 120.668696,24.178265,0 120.668755,24.178172,0 120.668834,24.178223,0 120.669094,24.178393,0 120.669192,24.178458,0 120.669357,24.178566,0 120.669644,24.178196,0 120.669618,24.178134,0 120.669715,24.177984,0 120.669587,24.177883,0 120.669521,24.177830,0 120.669637,24.177655,0 120.669785,24.177494,0 120.670189,24.177947,0 120.670598,24.177638,0 120.670893,24.177416,0 120.671227,24.177074,0 120.671470,24.176807,0 120.671680,24.176877,0 120.671799,24.176688,0 120.671809,24.176671,0 120.671952,24.176449,0 120.672081,24.176237,0 120.672222,24.176001,0 120.672329,24.175815,0 120.672396,24.175758,0 120.672409,24.175747,0 120.672091,24.175579,0 120.672555,24.174818,0 120.672667,24.174723,0 120.672485,24.174691,0 120.672577,24.174163,0 120.671556,24.173991,0 120.671566,24.173936,0 120.671603,24.173751,0 120.671607,24.173707,0 120.672564,24.173843,0 120.672762,24.173860,0 120.672765,24.173813,0 120.672781,24.173604,0 120.672761,24.173601,0 120.672951,24.172797,0 120.672994,24.172612,0 120.673066,24.172309,0 120.673074,24.172274,0 120.673207,24.171709,0 120.672656,24.171774,0 120.672862,24.170853,0 120.672876,24.170099,0 120.672453,24.170119,0 120.672326,24.170112,0 120.672204,24.170110,0 120.672087,24.170106,0 120.672036,24.170103,0 120.671710,24.170074,0 120.671722,24.168960,0 120.671740,24.168762,0 120.671251,24.168761,0 120.670614,24.168754,0 120.670612,24.168573,0 120.670606,24.168011,0 120.670029,24.168005,0 120.670028,24.167950,0 120.669470,24.167959,0 120.669249,24.167960,0 120.668911,24.167962,0 120.668914,24.167414,0 120.668318,24.167413,0 120.668323,24.166808,0 120.667623,24.166809,0 120.667576,24.166809,0 120.666597,24.166810,0 120.665779,24.166798,0 120.665614,24.166801,0 120.665462,24.166807,0 120.665369,24.166811,0 120.665079,24.166828,0 120.664830,24.167261,0 120.664631,24.167630,0 120.664085,24.167342,0 120.663570,24.167067,0 120.663294,24.167600,0 120.663028,24.168084,0 120.662735,24.168602,0 120.662485,24.169081,0 120.662237,24.169543,0 120.661852,24.169363,0 120.661817,24.169347,0 120.661534,24.169919,0 120.661277,24.169774,0 120.660073,24.169100,0 120.660017,24.169202,0 120.660137,24.169256,0 120.660336,24.169342,0 120.660326,24.169356,0 120.660293,24.169411,0 120.660354,24.169411,0 120.660590,24.169539,0 120.660812,24.169655,0 120.660784,24.169711,0 120.660710,24.169855,0 120.660664,24.169945,0 120.660616,24.170040,0 120.660346,24.170568,0 120.660077,24.171074,0 120.660064,24.171099,0 120.660045,24.171138,0 120.660484,24.171274,0 120.661035,24.171408,0 120.661012,24.171463,0 120.660915,24.171663,0 120.660881,24.171736,0 120.661010,24.171776,0 120.661080,24.171714,0 120.661192,24.171497,0 120.661213,24.171455,0 120.661953,24.170118,0 120.662540,24.170363,0 120.663060,24.170540,0 120.663274,24.170077,0 120.663376,24.169857,0 120.663512,24.169563,0 120.664428,24.169749,0 120.664904,24.169839,0 120.665089,24.169860,0 120.665674,24.169805,0 120.666308,24.169785,0 120.666348,24.169871,0 120.666428,24.170110,0 120.666586,24.170437,0 120.666931,24.170354,0 120.666910,24.170272,0 120.667021,24.170267,0 120.667657,24.170273,0 120.667666,24.170960,0 120.667664,24.171633,0 120.668283,24.171638,0 120.668271,24.172190,0 120.668271,24.172832,0 120.668255,24.172927,0 120.668214,24.173131,0 120.668192,24.173225,0 120.668104,24.173387,0 120.667781,24.173346,0 120.667542,24.173874,0 120.667301,24.173522,0 120.666757,24.173866,0 120.666996,24.174205,0 120.666852,24.174317,0 120.666830,24.174297,0 120.666693,24.174178,0 120.666564,24.174065,0 120.666439,24.173956,0 120.666294,24.173830,0 120.666021,24.174106,0 120.665919,24.174058,0 120.666158,24.173600,0 120.665800,24.173486,0 120.664932,24.173211,0 120.664806,24.173209,0 120.664608,24.173607,0 120.663868,24.173311,0 120.663397,24.173170,0 120.663286,24.173137,0 120.663115,24.173552,0 120.662658,24.173610,0
</coordinates></LineString></Placemark>
</Document></kml>