<?xml version="1.0" encoding="UTF-8"?>
<kml xmlns="http://www.opengis.net/kml/2.2"><Document>
<name>西屯區 手繪蹲坐貓（原稿描圖） 圖形路跑路線</name>
<Style id="r"><LineStyle><color>ff2000d6</color><width>4</width></LineStyle></Style>
<Placemark><name>武昌公園</name><description>地標</description><Point><coordinates>120.668006,24.169037,0</coordinates></Point></Placemark>
<Placemark><name>中清公園</name><description>地標</description><Point><coordinates>120.669180,24.171871,0</coordinates></Point></Placemark>
<Placemark><name>大福公園</name><description>地標</description><Point><coordinates>120.666286,24.175546,0</coordinates></Point></Placemark>
<Placemark><name>西屯區 手繪蹲坐貓（原稿描圖） 圖形路跑路線</name><styleUrl>#r</styleUrl><LineString><tessellate>1</tessellate><coordinates>
120.669238,24.167417,0 120.668914,24.167414,0 120.668318,24.167413,0 120.668317,24.168018,0 120.667753,24.168011,0 120.667761,24.168745,0 120.668324,24.168770,0 120.668315,24.169272,0 120.668310,24.169763,0 120.668249,24.169763,0 120.668225,24.169783,0 120.668224,24.169808,0 120.668309,24.169810,0 120.668307,24.170041,0 120.668304,24.170112,0 120.668296,24.170281,0 120.668189,24.170280,0 120.667920,24.170282,0 120.667657,24.170273,0 120.667666,24.170960,0 120.667664,24.171633,0 120.667143,24.171634,0 120.667054,24.171636,0 120.666800,24.171640,0 120.666739,24.171671,0 120.666828,24.172327,0 120.666956,24.172908,0 120.666984,24.173004,0 120.667075,24.173210,0 120.667195,24.173323,0 120.667301,24.173522,0 120.666757,24.173866,0 120.666996,24.174205,0 120.666852,24.174317,0 120.666830,24.174297,0 120.666693,24.174178,0 120.666564,24.174065,0 120.666439,24.173956,0 120.666010,24.174343,0 120.665854,24.174243,0 120.665830,24.174228,0 120.665605,24.174088,0 120.665358,24.173957,0 120.665047,24.173791,0 120.664608,24.173607,0 120.664440,24.173994,0 120.663779,24.173838,0 120.663554,24.173851,0 120.663206,24.173871,0 120.663238,24.174071,0 120.663250,24.174285,0 120.663255,24.174367,0 120.663299,24.174473,0 120.663320,24.174798,0 120.663324,24.174864,0 120.663341,24.175066,0 120.663370,24.175218,0 120.663396,24.175377,0 120.663418,24.175553,0 120.663435,24.175676,0 120.663459,24.175877,0 120.663472,24.175919,0 120.663585,24.176297,0 120.663753,24.176293,0 120.664038,24.176292,0 120.664036,24.176393,0 120.664185,24.176405,0 120.664302,24.176439,0 120.664422,24.176503,0 120.664506,24.176593,0 120.664565,24.176706,0 120.664578,24.176825,0 120.664568,24.177409,0 120.664533,24.177437,0 120.664531,24.177486,0 120.664654,24.177486,0 120.664650,24.177959,0 120.664650,24.178008,0 120.664554,24.178008,0 120.664508,24.178042,0 120.664507,24.178118,0 120.664506,24.178214,0 120.664539,24.178219,0 120.664528,24.178859,0 120.664509,24.178892,0 120.664645,24.178889,0 120.664645,24.178934,0 120.665233,24.178832,0 120.665657,24.178712,0 120.665987,24.178606,0 120.666202,24.178487,0 120.666552,24.178489,0 120.666812,24.178491,0 120.666817,24.178164,0 120.667182,24.178172,0 120.667187,24.177501,0 120.667190,24.177118,0 120.668603,24.177174,0 120.668950,24.177185,0 120.669389,24.177209,0 120.669499,24.177274,0 120.669809,24.176879,0 120.669968,24.176658,0 120.669997,24.176618,0 120.670023,24.176578,0 120.670134,24.176410,0 120.670226,24.176285,0 120.670633,24.176582,0 120.670799,24.176392,0 120.671026,24.176573,0 120.671042,24.176586,0 120.671166,24.176472,0 120.671374,24.176574,0 120.671470,24.176807,0 120.671680,24.176877,0 120.671799,24.176688,0 120.671809,24.176671,0 120.671952,24.176449,0 120.672128,24.176541,0 120.672131,24.176504,0 120.672161,24.176469,0 120.672601,24.176518,0 120.672663,24.176525,0 120.672678,24.176316,0 120.672724,24.176254,0 120.672843,24.176061,0 120.672886,24.176007,0 120.672970,24.175947,0 120.674076,24.175157,0 120.674122,24.175124,0 120.674164,24.175092,0 120.674177,24.175082,0 120.674307,24.174990,0 120.674328,24.174975,0 120.674379,24.174939,0 120.674428,24.174897,0 120.674756,24.174609,0 120.674856,24.174540,0 120.676065,24.174421,0 120.676232,24.174405,0 120.676224,24.174350,0 120.676290,24.174339,0 120.676226,24.173977,0 120.676175,24.173682,0 120.676157,24.173583,0 120.676079,24.173599,0 120.676050,24.173433,0 120.676030,24.173339,0 120.676044,24.173315,0 120.676117,24.173305,0 120.676070,24.172898,0 120.676007,24.172448,0 120.676166,24.172428,0 120.676607,24.172370,0 120.676531,24.171407,0 120.676969,24.171376,0 120.676975,24.171448,0 120.677041,24.171443,0 120.677096,24.171438,0 120.677089,24.171368,0 120.677694,24.171332,0 120.678208,24.171302,0 120.678211,24.171346,0 120.678246,24.171364,0 120.678309,24.171359,0 120.678502,24.172182,0 120.679218,24.172100,0 120.679210,24.172051,0 120.679293,24.172040,0 120.679324,24.172036,0 120.679348,24.172054,0 120.679485,24.172033,0 120.679556,24.172027,0 120.679615,24.172288,0 120.679640,24.172535,0 120.679657,24.172829,0 120.679749,24.172816,0 120.679770,24.172987,0 120.679776,24.173035,0 120.680818,24.172861,0 120.680976,24.172830,0 120.681143,24.172809,0 120.681600,24.172749,0 120.681647,24.172809,0 120.681708,24.172802,0 120.681781,24.172795,0 120.681889,24.173665,0 120.681906,24.173685,0 120.681932,24.173692,0 120.682553,24.173625,0 120.682705,24.173609,0 120.683463,24.173529,0 120.683477,24.173516,0 120.683549,24.173509,0 120.683519,24.172989,0 120.683491,24.172552,0 120.683487,24.172444,0 120.683477,24.172280,0 120.683388,24.172293,0 120.683376,24.172212,0 120.683407,24.172171,0 120.683467,24.172165,0 120.683438,24.171715,0 120.683390,24.171718,0 120.683374,24.171697,0 120.683372,24.171674,0 120.682461,24.171749,0 120.681611,24.171839,0 120.681562,24.171493,0 120.681549,24.171181,0 120.681456,24.171187,0 120.681453,24.171128,0 120.680956,24.171150,0 120.680543,24.171167,0 120.680547,24.171232,0 120.680472,24.171237,0 120.680406,24.171240,0 120.680402,24.171174,0 120.679467,24.171229,0 120.679467,24.171174,0 120.679355,24.171177,0 120.679360,24.171235,0 120.679299,24.171237,0 120.679201,24.171243,0 120.679110,24.171248,0 120.679100,24.171184,0 120.679077,24.171035,0 120.679069,24.170877,0 120.679074,24.170816,0 120.679102,24.170504,0 120.678120,24.170548,0 120.677972,24.169947,0 120.677918,24.169949,0 120.677887,24.169921,0 120.677879,24.169872,0 120.676945,24.169913,0 120.676938,24.169825,0 120.676882,24.169829,0 120.676820,24.169833,0 120.676827,24.169919,0 120.675845,24.169977,0 120.675748,24.169982,0 120.675743,24.169899,0 120.675724,24.169499,0 120.675720,24.169469,0 120.675699,24.169094,0 120.675028,24.169121,0 120.674305,24.169171,0 120.674311,24.169330,0 120.673632,24.169372,0 120.673590,24.169375,0 120.673324,24.169357,0 120.673116,24.169315,0 120.672620,24.169190,0 120.672709,24.168895,0 120.672726,24.168828,0 120.672742,24.168767,0 120.672633,24.168755,0 120.672724,24.168460,0 120.672588,24.168421,0 120.672170,24.168312,0 120.671884,24.168243,0 120.672035,24.167961,0 120.671233,24.167968,0 120.670618,24.167970,0 120.670606,24.168011,0 120.670612,24.168573,0 120.670614,24.168754,0 120.670039,24.168751,0 120.669468,24.168742,0 120.669469,24.168340,0 120.669470,24.167959,0 120.670028,24.167950,0 120.670030,24.167693,0 120.670063,24.167445,0 120.669238,24.167417,0
</coordinates></LineString></Placemark>
</Document></kml>