<?xml version="1.0" encoding="UTF-8"?>
<kml xmlns="http://www.opengis.net/kml/2.2"><Document>
<name>西屯區 貓臉（正面） 圖形路跑路線</name>
<Style id="r"><LineStyle><color>ff2000d6</color><width>4</width></LineStyle></Style>
<Placemark><name>同順公園</name><description>地標</description><Point><coordinates>120.660906,24.194266,0</coordinates></Point></Placemark>
<Placemark><name>同榮公園</name><description>地標</description><Point><coordinates>120.663278,24.197516,0</coordinates></Point></Placemark>
<Placemark><name>敦化公園</name><description>地標</description><Point><coordinates>120.666470,24.187795,0</coordinates></Point></Placemark>
<Placemark><name>西屯區 貓臉（正面） 圖形路跑路線</name><styleUrl>#r</styleUrl><LineString><tessellate>1</tessellate><coordinates>
120.659511,24.196246,0 120.660178,24.196075,0 120.660889,24.195909,0 120.661446,24.195780,0 120.661933,24.195648,0 120.661912,24.195506,0 120.661888,24.195340,0 120.662282,24.194816,0 120.662571,24.195055,0 120.663108,24.195459,0 120.663116,24.195504,0 120.663269,24.195704,0 120.663465,24.195843,0 120.663794,24.196076,0 120.663843,24.196054,0 120.663929,24.195984,0 120.663966,24.195984,0 120.664006,24.196009,0 120.664040,24.196026,0 120.664074,24.196032,0 120.664160,24.196029,0 120.664209,24.196024,0 120.664431,24.196047,0 120.664498,24.196050,0 120.664615,24.196066,0 120.664582,24.196103,0 120.664580,24.196144,0 120.664620,24.196248,0 120.664708,24.196388,0 120.665031,24.196725,0 120.665179,24.196762,0 120.665281,24.196770,0 120.665488,24.196721,0 120.665654,24.196721,0 120.665653,24.196629,0 120.665641,24.196579,0 120.665380,24.196311,0 120.665377,24.196129,0 120.665419,24.196128,0 120.665470,24.196127,0 120.665457,24.196157,0 120.665460,24.196278,0 120.665780,24.196607,0 120.665821,24.196628,0 120.665991,24.196628,0 120.667381,24.196611,0 120.667421,24.196604,0 120.667473,24.196603,0 120.667537,24.196602,0 120.667539,24.196700,0 120.667541,24.196779,0 120.667570,24.196784,0 120.668132,24.196774,0 120.668188,24.196797,0 120.668279,24.196797,0 120.668488,24.196797,0 120.668572,24.196796,0 120.668611,24.196768,0 120.669660,24.196763,0 120.669659,24.196692,0 120.669661,24.196597,0 120.669180,24.196598,0 120.668604,24.196604,0 120.668572,24.196575,0 120.668570,24.195532,0 120.668575,24.195512,0 120.668588,24.195499,0 120.668587,24.195411,0 120.668586,24.195316,0 120.668567,24.195277,0 120.668574,24.194727,0 120.668574,24.193973,0 120.668623,24.193542,0 120.668641,24.193488,0 120.668664,24.193434,0 120.668689,24.193364,0 120.668695,24.193326,0 120.668866,24.192885,0 120.668876,24.192867,0 120.668803,24.192858,0 120.668599,24.192821,0 120.668500,24.192799,0 120.668544,24.192691,0 120.668586,24.192600,0 120.668624,24.192549,0 120.668696,24.192394,0 120.668709,24.192370,0 120.668678,24.192331,0 120.667799,24.191813,0 120.667683,24.191743,0 120.667710,24.191706,0 120.667464,24.191564,0 120.667288,24.191470,0 120.666495,24.190980,0 120.666614,24.190806,0 120.666801,24.190550,0 120.667404,24.190924,0 120.667592,24.190601,0 120.667699,24.190423,0 120.667752,24.190540,0 120.667775,24.190575,0 120.667873,24.190469,0 120.667907,24.190458,0 120.667960,24.190417,0 120.668004,24.190412,0 120.668081,24.190358,0 120.668125,24.190301,0 120.668153,24.190248,0 120.668189,24.190189,0 120.668220,24.190143,0 120.668279,24.190024,0 120.668380,24.189801,0 120.668392,24.189698,0 120.668296,24.189634,0 120.668219,24.189595,0 120.668259,24.189528,0 120.668647,24.188910,0 120.668592,24.188883,0 120.668792,24.188559,0 120.668948,24.188636,0 120.669145,24.188300,0 120.668416,24.187931,0 120.667722,24.187579,0 120.667777,24.187541,0 120.667949,24.187268,0 120.668205,24.186865,0 120.668541,24.187041,0 120.668681,24.187120,0 120.668820,24.186877,0 120.668944,24.186659,0 120.669177,24.186262,0 120.669516,24.185789,0 120.669900,24.185329,0 120.670190,24.184955,0 120.670090,24.184667,0 120.669968,24.184283,0 120.669950,24.184224,0 120.669809,24.183680,0 120.669760,24.183484,0 120.669673,24.183309,0 120.669573,24.183142,0 120.669543,24.183094,0 120.669468,24.182964,0 120.669382,24.182776,0 120.669279,24.182535,0 120.669180,24.182262,0 120.669121,24.182097,0 120.669008,24.181944,0 120.668911,24.181855,0 120.668883,24.181709,0 120.668836,24.181518,0 120.668661,24.181115,0 120.668459,24.180834,0 120.668396,24.180744,0 120.668224,24.180504,0 120.668092,24.180325,0 120.668525,24.179755,0 120.668495,24.179728,0 120.668277,24.179582,0 120.668157,24.179501,0 120.667874,24.179311,0 120.668276,24.178791,0 120.668574,24.178418,0 120.668473,24.178342,0 120.668418,24.178300,0 120.668495,24.178194,0 120.668468,24.178193,0 120.668080,24.178187,0 120.667900,24.178184,0 120.667706,24.178181,0 120.667625,24.178179,0 120.667548,24.178178,0 120.667182,24.178172,0 120.667187,24.177501,0 120.667190,24.177118,0 120.667156,24.177077,0 120.667087,24.176743,0 120.666734,24.176800,0 120.666263,24.176879,0 120.666005,24.176921,0 120.665961,24.176573,0 120.665953,24.176507,0 120.665933,24.176397,0 120.665490,24.176427,0 120.665283,24.176441,0 120.665165,24.176487,0 120.665037,24.176230,0 120.664791,24.176014,0 120.664856,24.175940,0 120.664953,24.175797,0 120.664753,24.175872,0 120.664717,24.175534,0 120.664700,24.175374,0 120.664692,24.175302,0 120.664671,24.175105,0 120.664646,24.174864,0 120.664612,24.174671,0 120.664505,24.174293,0 120.664440,24.173994,0 120.663779,24.173838,0 120.663554,24.173851,0 120.663206,24.173871,0 120.663115,24.173552,0 120.662658,24.173610,0 120.662201,24.173672,0 120.662088,24.173022,0 120.662109,24.172784,0 120.661822,24.172698,0 120.661726,24.172669,0 120.661383,24.172567,0 120.660912,24.172425,0 120.660882,24.172504,0 120.660813,24.172483,0 120.660708,24.172450,0 120.660468,24.173088,0 120.660401,24.173071,0 120.659727,24.172902,0 120.659398,24.172820,0 120.658603,24.172618,0 120.658445,24.171610,0 120.657565,24.171314,0 120.657511,24.171986,0 120.655750,24.171812,0 120.655757,24.171749,0 120.655097,24.171725,0 120.655127,24.171395,0 120.654628,24.171374,0 120.654140,24.171351,0 120.654106,24.171896,0 120.653502,24.171879,0 120.652904,24.171863,0 120.652936,24.172300,0 120.651962,24.172274,0 120.651913,24.172235,0 120.651632,24.171827,0 120.651098,24.172183,0 120.650581,24.172553,0 120.650233,24.172071,0 120.650187,24.172104,0 120.650003,24.172230,0 120.649963,24.172261,0 120.650017,24.172341,0 120.649880,24.172457,0 120.649479,24.172797,0 120.649046,24.173165,0 120.648961,24.173101,0 120.648060,24.172421,0 120.647976,24.172354,0 120.647453,24.172807,0 120.646905,24.173327,0 120.646809,24.173395,0 120.646414,24.173792,0 120.645922,24.174485,0 120.645731,24.174520,0 120.645875,24.174996,0 120.645657,24.175093,0 120.645613,24.175116,0 120.645358,24.175230,0 120.644988,24.175417,0 120.644020,24.175887,0 120.643970,24.175952,0 120.643906,24.176034,0 120.643470,24.176500,0 120.643293,24.176699,0 120.643279,24.176714,0 120.643226,24.176776,0 120.643185,24.176823,0 120.643221,24.176917,0 120.643229,24.176936,0 120.643212,24.176953,0 120.643107,24.177056,0 120.643089,24.177073,0 120.643107,24.177130,0 120.643152,24.177321,0 120.643179,24.177523,0 120.643194,24.177691,0 120.643208,24.178038,0 120.643205,24.178138,0 120.643195,24.178209,0 120.643185,24.178248,0 120.643160,24.178231,0 120.643132,24.178215,0 120.643086,24.178293,0 120.643054,24.178273,0 120.642944,24.178208,0 120.642869,24.178327,0 120.642725,24.178342,0 120.642473,24.178402,0 120.642423,24.178408,0 120.642384,24.178372,0 120.642321,24.178402,0 120.642041,24.178560,0 120.641981,24.178595,0 120.642067,24.178700,0 120.642216,24.178926,0 120.642342,24.179147,0 120.642410,24.179296,0 120.642476,24.179430,0 120.642531,24.179617,0 120.642563,24.179783,0 120.642593,24.179941,0 120.642213,24.179941,0 120.641769,24.179985,0 120.641690,24.180011,0 120.641466,24.180095,0 120.641506,24.180299,0 120.641456,24.180336,0 120.641217,24.180643,0 120.640754,24.180840,0 120.640711,24.180880,0 120.640715,24.180933,0 120.640775,24.181089,0 120.640774,24.181359,0 120.640440,24.181338,0 120.640374,24.182252,0 120.640346,24.182995,0 120.639587,24.183005,0 120.639258,24.183016,0 120.639526,24.183665,0 120.639562,24.183782,0 120.639778,24.184453,0 120.639895,24.184902,0 120.639908,24.184945,0 120.639814,24.184967,0 120.639810,24.184998,0 120.639827,24.185065,0 120.639850,24.185151,0 120.639872,24.185233,0 120.639362,24.185353,0 120.638800,24.185458,0 120.638728,24.185482,0 120.638757,24.185543,0 120.639164,24.186400,0 120.639201,24.186478,0 120.639229,24.186537,0 120.639272,24.186626,0 120.639298,24.186682,0 120.639590,24.187296,0 120.639623,24.187402,0 120.639556,24.187429,0 120.640132,24.188669,0 120.640115,24.188714,0 120.639534,24.188554,0 120.639476,24.188519,0 120.639457,24.188508,0 120.639412,24.188452,0 120.638792,24.187543,0 120.638796,24.187493,0 120.638778,24.187427,0 120.638622,24.187510,0 120.638434,24.187610,0 120.638391,24.187633,0 120.638200,24.187735,0 120.638692,24.188489,0 120.638981,24.188941,0 120.639480,24.189659,0 120.639688,24.190001,0 120.640204,24.190768,0 120.640473,24.191156,0 120.640824,24.191609,0 120.641170,24.191959,0 120.641294,24.192108,0 120.641566,24.192434,0 120.641710,24.192617,0 120.641706,24.192756,0 120.641793,24.192997,0 120.641853,24.193238,0 120.641897,24.193549,0 120.641936,24.193904,0 120.641961,24.194079,0 120.641980,24.194249,0 120.642009,24.194603,0 120.642035,24.194682,0 120.642107,24.194818,0 120.642183,24.194907,0 120.642317,24.195034,0 120.642356,24.195080,0 120.642413,24.195157,0 120.642637,24.195400,0 120.643127,24.195917,0 120.643170,24.195995,0 120.643927,24.196760,0 120.643981,24.196779,0 120.644040,24.196775,0 120.644179,24.196771,0 120.644479,24.196744,0 120.645460,24.196679,0 120.645604,24.196675,0 120.646017,24.196646,0 120.646142,24.196631,0 120.646419,24.196616,0 120.646436,24.196616,0 120.646829,24.196602,0 120.646887,24.196618,0 120.646901,24.196630,0 120.646943,24.196645,0 120.647308,24.196749,0 120.647988,24.196954,0 120.648155,24.197007,0 120.648198,24.196884,0 120.649377,24.197394,0 120.649426,24.197414,0 120.649768,24.197557,0 120.650691,24.197942,0 120.650719,24.197899,0 120.650932,24.197984,0 120.652370,24.198568,0 120.652177,24.198561,0 120.652107,24.198565,0 120.652004,24.198650,0 120.651921,24.198694,0 120.651828,24.198747,0 120.651743,24.198805,0 120.651692,24.198854,0 120.651636,24.198933,0 120.651546,24.199107,0 120.651319,24.199471,0 120.651084,24.199725,0 120.650970,24.199821,0 120.650867,24.199903,0 120.650450,24.200172,0 120.650457,24.200329,0 120.650386,24.200784,0 120.649813,24.200816,0 120.649354,24.200813,0 120.649321,24.200849,0 120.649073,24.201102,0 120.650684,24.202145,0 120.650710,24.202160,0 120.650768,24.202199,0 120.650894,24.202271,0 120.650980,24.202319,0 120.651055,24.202361,0 120.651137,24.202407,0 120.651298,24.202494,0 120.651529,24.202618,0 120.651934,24.202848,0 120.652383,24.203091,0 120.653184,24.203533,0 120.653262,24.203563,0 120.653239,24.203605,0 120.653376,24.203671,0 120.653437,24.203700,0 120.653557,24.203493,0 120.653761,24.203144,0 120.654303,24.202214,0 120.654408,24.202035,0 120.655238,24.200613,0 120.655294,24.200517,0 120.655553,24.200072,0 120.655609,24.200033,0 120.655673,24.200023,0 120.655531,24.199970,0 120.655570,24.199903,0 120.655683,24.199713,0 120.655745,24.199610,0 120.655805,24.199510,0 120.655915,24.199558,0 120.655910,24.199588,0 120.656270,24.199704,0 120.656317,24.199684,0 120.656299,24.199604,0 120.656337,24.199624,0 120.656493,24.199674,0 120.656494,24.199643,0 120.656497,24.198980,0 120.656508,24.198758,0 120.656559,24.198437,0 120.656630,24.198133,0 120.656642,24.198113,0 120.657231,24.197115,0 120.657278,24.197035,0 120.657333,24.197068,0 120.657355,24.197031,0 120.657472,24.196845,0 120.657424,24.196816,0 120.657457,24.196765,0 120.657525,24.196658,0 120.657547,24.196624,0 120.658068,24.195798,0 120.658549,24.196023,0 120.658878,24.196199,0 120.659119,24.196322,0 120.659188,24.196344,0 120.659354,24.196295,0 120.659511,24.196246,0
</coordinates></LineString></Placemark>
</Document></kml>